{"type":"FeatureCollection","features":[{"type":"Feature","geometry":{"type":"Polygon","coordinates":[[[141.3663,43.04182],[141.36516,43.04166],[141.36517,43.04154],[141.36371,43.0415],[141.36229,43.04179],[141.35901,43.04144],[141.35934,43.04193],[141.36615,43.04256],[141.3663,43.04182]]]},"properties":{"key":"01105050101","name":"平岸一条一丁目","pref":"北海道","prefCode":"01","municipality":"札幌市豊平区","areaM2":39327.977,"population":542,"toponymIds":["01-1745a243b7"]}},{"type":"Feature","geometry":{"type":"Polygon","coordinates":[[[141.36714,43.04153],[141.36634,43.04149],[141.36615,43.04256],[141.37009,43.04294],[141.37024,43.04167],[141.36714,43.04153]]]},"properties":{"key":"01105050201","name":"平岸二条一丁目","pref":"北海道","prefCode":"01","municipality":"札幌市豊平区","areaM2":42375.08,"population":854,"toponymIds":["01-5285e3436c"]}},{"type":"Feature","geometry":{"type":"Polygon","coordinates":[[[141.37213,43.04193],[141.3723,43.0415],[141.37108,43.04149],[141.37115,43.04192],[141.37027,43.04185],[141.37025,43.04234],[141.37194,43.04247],[141.37213,43.04193]]]},"properties":{"key":"01105050301","name":"平岸三条一丁目","pref":"北海道","prefCode":"01","municipality":"札幌市豊平区","areaM2":12320.993,"population":73,"toponymIds":["01-cb5dcf4125"]}},{"type":"Feature","geometry":{"type":"Polygon","coordinates":[[[141.37326,43.04143],[141.37236,43.04137],[141.37194,43.04247],[141.3752,43.04269],[141.37536,43.0416],[141.37326,43.04143]]]},"properties":{"key":"01105050401","name":"平岸四条一丁目","pref":"北海道","prefCode":"01","municipality":"札幌市豊平区","areaM2":31792.591,"population":616,"toponymIds":["01-58e79e1b59"]}},{"type":"Feature","geometry":{"type":"Polygon","coordinates":[[[141.37943,43.03021],[141.37908,43.02975],[141.37829,43.02957],[141.37713,43.03015],[141.37656,43.02953],[141.37626,43.02955],[141.37658,43.03119],[141.37714,43.03131],[141.37949,43.03176],[141.3798,43.03084],[141.37943,43.03021]]]},"properties":{"key":"01105050510","name":"平岸五条十丁目","pref":"北海道","prefCode":"01","municipality":"札幌市豊平区","areaM2":48448.777,"population":1049,"toponymIds":["01-9ff560764c"]}},{"type":"Feature","geometry":{"type":"Polygon","coordinates":[[[141.38018,43.02993],[141.37908,43.02975],[141.3798,43.03084],[141.37949,43.03176],[141.38106,43.03221],[141.38121,43.03017],[141.38018,43.02993]]]},"properties":{"key":"01105050610","name":"平岸六条十丁目","pref":"北海道","prefCode":"01","municipality":"札幌市豊平区","areaM2":27447.848,"population":200,"toponymIds":["01-e1773edea1"]}},{"type":"Feature","geometry":{"type":"Polygon","coordinates":[[[141.3823,43.02724],[141.38186,43.02676],[141.38145,43.02676],[141.38154,43.02851],[141.38195,43.0285],[141.383,43.02799],[141.3823,43.02724]]]},"properties":{"key":"01105050712","name":"平岸七条十二丁目","pref":"北海道","prefCode":"01","municipality":"札幌市豊平区","areaM2":15115.338,"population":160,"toponymIds":["01-41a58c1afd"]}},{"type":"Feature","geometry":{"type":"Polygon","coordinates":[[[141.3847,43.02626],[141.38493,43.02576],[141.38359,43.02604],[141.38345,43.02563],[141.382,43.02589],[141.38369,43.02725],[141.38445,43.02863],[141.38575,43.0293],[141.38583,43.02904],[141.38544,43.0282],[141.38462,43.0272],[141.3847,43.02626]]]},"properties":{"key":"01105050812","name":"平岸八条十二丁目","pref":"北海道","prefCode":"01","municipality":"札幌市豊平区","areaM2":43289.422,"population":594,"toponymIds":["01-10abda7223"]}},{"type":"Feature","geometry":{"type":"Polygon","coordinates":[[[140.85255,41.77822],[140.85359,41.77703],[140.85588,41.77752],[140.85597,41.77712],[140.85625,41.77713],[140.85614,41.77666],[140.85681,41.77597],[140.85712,41.77522],[140.8553,41.77496],[140.85473,41.77472],[140.85426,41.77407],[140.85449,41.77299],[140.8554,41.77221],[140.85649,41.7717],[140.85812,41.77141],[140.85905,41.77101],[140.85947,41.77041],[140.85965,41.76915],[140.8586,41.76696],[140.85858,41.76567],[140.85762,41.76238],[140.85694,41.76247],[140.85718,41.7627],[140.85675,41.76293],[140.85577,41.76236],[140.8544,41.76254],[140.85299,41.76331],[140.85281,41.7631],[140.8529,41.76237],[140.85175,41.76242],[140.8517,41.76194],[140.85038,41.76208],[140.84951,41.76184],[140.8491,41.76188],[140.84902,41.76204],[140.84878,41.76181],[140.84735,41.76299],[140.84549,41.76343],[140.84549,41.76394],[140.84403,41.76412],[140.84382,41.76398],[140.84359,41.76413],[140.84413,41.7652],[140.84429,41.76627],[140.84256,41.76642],[140.84609,41.76844],[140.84835,41.77005],[140.84541,41.77292],[140.84386,41.77551],[140.84458,41.77684],[140.84872,41.77825],[140.84975,41.77841],[140.85011,41.77819],[140.85185,41.77901],[140.85274,41.77871],[140.85255,41.77822]]]},"properties":{"key":"012021030","name":"石倉町","pref":"北海道","prefCode":"01","municipality":"函館市","areaM2":1728917.918,"population":20,"toponymIds":["01-d425c2408c"]}},{"type":"Feature","geometry":{"type":"Polygon","coordinates":[[[140.73291,41.78474],[140.73256,41.78254],[140.73223,41.78206],[140.73197,41.77935],[140.73045,41.77836],[140.73035,41.77767],[140.72606,41.77797],[140.72545,41.77615],[140.72526,41.77618],[140.7255,41.77725],[140.72432,41.77734],[140.72412,41.77616],[140.72427,41.77734],[140.72172,41.77752],[140.722,41.77992],[140.72245,41.77989],[140.72222,41.77802],[140.72403,41.77789],[140.72427,41.77978],[140.72474,41.77973],[140.72447,41.77787],[140.72557,41.7778],[140.72606,41.78045],[140.72622,41.78044],[140.72639,41.78147],[140.72611,41.78095],[140.72597,41.78099],[140.72621,41.78154],[140.72521,41.78162],[140.72518,41.78148],[140.72482,41.78164],[140.72479,41.78143],[140.72464,41.78166],[140.72455,41.78111],[140.72455,41.78166],[140.7245,41.78081],[140.72477,41.78074],[140.72446,41.7808],[140.72446,41.78192],[140.72459,41.78202],[140.72447,41.78202],[140.72448,41.78227],[140.72369,41.78201],[140.72209,41.78202],[140.7221,41.78337],[140.72416,41.78336],[140.72682,41.78468],[140.73031,41.78458],[140.73035,41.78494],[140.73291,41.78474]]]},"properties":{"key":"012020240","name":"海岸町","pref":"北海道","prefCode":"01","municipality":"函館市","areaM2":488363.605,"population":1057,"toponymIds":["01-745fa7b112"]}},{"type":"Feature","geometry":{"type":"Polygon","coordinates":[[[140.76847,41.79444],[140.76882,41.79451],[140.76969,41.79413],[140.77059,41.79405],[140.77221,41.79332],[140.77563,41.79223],[140.77511,41.79153],[140.77748,41.79034],[140.77563,41.78955],[140.77372,41.788],[140.77297,41.78834],[140.77299,41.78848],[140.7715,41.78898],[140.77165,41.78922],[140.77168,41.79163],[140.76638,41.79199],[140.76623,41.79435],[140.76733,41.79411],[140.76784,41.79419],[140.76797,41.79455],[140.76847,41.79444]]]},"properties":{"key":"012020590","name":"川原町","pref":"北海道","prefCode":"01","municipality":"函館市","areaM2":284370.513,"population":1563,"toponymIds":["01-2a3bae62f3"]}},{"type":"Feature","geometry":{"type":"Polygon","coordinates":[[[140.80778,41.7846],[140.80805,41.78428],[140.80883,41.78516],[140.80948,41.78537],[140.80968,41.78455],[140.8082,41.78249],[140.80642,41.78096],[140.80109,41.77783],[140.79953,41.77738],[140.79637,41.777],[140.79638,41.77757],[140.79795,41.77854],[140.79784,41.77891],[140.79827,41.7793],[140.799,41.7795],[140.79977,41.78004],[140.79964,41.78047],[140.80011,41.78093],[140.79969,41.78078],[140.79931,41.78118],[140.79882,41.78095],[140.79632,41.78141],[140.79456,41.78135],[140.79441,41.78168],[140.79484,41.78221],[140.79664,41.78308],[140.80006,41.78396],[140.80159,41.78463],[140.80317,41.78495],[140.80721,41.78802],[140.80806,41.78717],[140.80759,41.78641],[140.80765,41.78563],[140.80787,41.78526],[140.80778,41.7846]]]},"properties":{"key":"012020670","name":"戸倉町","pref":"北海道","prefCode":"01","municipality":"函館市","areaM2":637637.906,"population":1949,"toponymIds":["01-031e618d09"]}},{"type":"Feature","geometry":{"type":"Polygon","coordinates":[[[140.86241,41.76686],[140.86385,41.76681],[140.86421,41.76697],[140.86763,41.76612],[140.87175,41.76728],[140.87227,41.76677],[140.87206,41.76662],[140.87303,41.76599],[140.87428,41.76566],[140.87377,41.76474],[140.87477,41.76455],[140.87709,41.76359],[140.87627,41.76137],[140.87556,41.76158],[140.87448,41.75993],[140.87343,41.75897],[140.87267,41.75689],[140.8732,41.7567],[140.87263,41.75583],[140.87182,41.7551],[140.87191,41.755],[140.87141,41.75412],[140.87012,41.75467],[140.86968,41.75507],[140.86913,41.75515],[140.86882,41.75582],[140.86771,41.75619],[140.86595,41.75729],[140.86392,41.75802],[140.86171,41.75874],[140.8582,41.75954],[140.85577,41.75983],[140.85549,41.75964],[140.85506,41.7599],[140.85701,41.76156],[140.85762,41.76238],[140.85858,41.76567],[140.8586,41.76696],[140.85957,41.76891],[140.86049,41.769],[140.86062,41.76871],[140.86116,41.76832],[140.86157,41.76763],[140.86247,41.76731],[140.86241,41.76686]]]},"properties":{"key":"012021040","name":"古川町","pref":"北海道","prefCode":"01","municipality":"函館市","areaM2":1550938.624,"population":503,"toponymIds":["01-2cc6911b8f"]}},{"type":"Feature","geometry":{"type":"Polygon","coordinates":[[[140.99142,43.2192],[140.99181,43.2191],[140.99345,43.21924],[140.99402,43.21823],[140.99436,43.21686],[140.99513,43.21053],[140.99447,43.21075],[140.99362,43.21051],[140.99324,43.21148],[140.99135,43.21176],[140.99043,43.21244],[140.9911,43.21299],[140.99111,43.21333],[140.99094,43.21357],[140.9903,43.2143],[140.98936,43.21435],[140.98855,43.21796],[140.98827,43.21799],[140.98792,43.21859],[140.98791,43.21919],[140.98811,43.2197],[140.98843,43.22031],[140.98948,43.21928],[140.99142,43.2192]]]},"properties":{"key":"012030600","name":"梅ケ枝町","pref":"北海道","prefCode":"01","municipality":"小樽市","areaM2":364034.182,"population":1035,"toponymIds":["01-089619d1e1"]}},{"type":"Feature","geometry":{"type":"Polygon","coordinates":[[[142.48468,43.77435],[142.4863,43.77385],[142.48915,43.77434],[142.48893,43.77404],[142.48934,43.7736],[142.49163,43.77243],[142.49195,43.77199],[142.49181,43.77126],[142.4919,43.77107],[142.49345,43.77064],[142.49438,43.76949],[142.49445,43.76866],[142.49556,43.76779],[142.4967,43.76648],[142.4965,43.7644],[142.49624,43.76352],[142.4972,43.76222],[142.49774,43.76058],[142.49918,43.76011],[142.5003,43.75952],[142.50042,43.75872],[142.50106,43.75736],[142.50172,43.75704],[142.50348,43.75671],[142.5037,43.75596],[142.50489,43.75423],[142.50609,43.75379],[142.50669,43.7534],[142.50805,43.75372],[142.51064,43.75325],[142.51146,43.75281],[142.50893,43.74952],[142.5068,43.7506],[142.50538,43.74923],[142.50249,43.75072],[142.501,43.74936],[142.49931,43.74986],[142.49664,43.75004],[142.49476,43.75057],[142.49366,43.75054],[142.48841,43.74538],[142.4866,43.74602],[142.48584,43.74662],[142.48544,43.74741],[142.48458,43.74814],[142.48437,43.74911],[142.48352,43.75009],[142.4831,43.75095],[142.48046,43.75146],[142.48002,43.7517],[142.47933,43.75258],[142.47727,43.75378],[142.47679,43.75446],[142.47611,43.75627],[142.47528,43.75682],[142.47406,43.75723],[142.47388,43.75748],[142.47373,43.75907],[142.47303,43.76108],[142.47303,43.762],[142.4729,43.76221],[142.47063,43.76311],[142.47013,43.76348],[142.46879,43.76548],[142.46874,43.76623],[142.46898,43.76688],[142.47017,43.76834],[142.47053,43.7692],[142.47029,43.77095],[142.47039,43.77127],[142.47092,43.77176],[142.47183,43.77215],[142.47421,43.77263],[142.47632,43.77683],[142.48468,43.77435]]]},"properties":{"key":"012045920","name":"東旭川町倉沼","pref":"北海道","prefCode":"01","municipality":"旭川市","areaM2":5881502.07,"population":129,"toponymIds":["01-044c04b0d2"]}},{"type":"Feature","geometry":{"type":"Polygon","coordinates":[[[144.39922,43.07272],[144.3986,43.07184],[144.39868,43.07148],[144.40001,43.07126],[144.40138,43.06981],[144.40316,43.06886],[144.40301,43.06802],[144.40308,43.06726],[144.40325,43.06696],[144.40391,43.06674],[144.3848,43.03694],[144.36382,43.04266],[144.3382,43.05648],[144.33038,43.06675],[144.3309,43.0679],[144.33063,43.08501],[144.37095,43.07737],[144.39922,43.07272]]]},"properties":{"key":"012060820","name":"安原","pref":"北海道","prefCode":"01","municipality":"釧路市","areaM2":19542048.97,"population":0,"toponymIds":["01-da3928deeb"]}},{"type":"Feature","geometry":{"type":"Polygon","coordinates":[[[144.39871,43.00975],[144.39826,43.00946],[144.39557,43.01078],[144.39936,43.01494],[144.40355,43.01287],[144.39871,43.00975]]]},"properties":{"key":"01206111001","name":"芦野一丁目","pref":"北海道","prefCode":"01","municipality":"釧路市","areaM2":187594.955,"population":1177,"toponymIds":["01-0349d48ef9"]}},{"type":"Feature","geometry":{"type":"Polygon","coordinates":[[[144.39896,43.00229],[144.40202,43.00084],[144.40315,42.99896],[144.4032,42.99792],[144.40354,42.99721],[144.40416,42.99673],[144.40157,42.99486],[144.39925,42.99609],[144.39981,42.99707],[144.39998,42.99819],[144.39989,42.99869],[144.39959,42.99937],[144.39799,43.00144],[144.39884,43.00235],[144.39896,43.00229]]]},"properties":{"key":"012060240","name":"古川町","pref":"北海道","prefCode":"01","municipality":"釧路市","areaM2":203950.54,"population":1,"toponymIds":["01-4a54d98e61"]}},{"type":"Feature","geometry":{"type":"Polygon","coordinates":[[[142.11131,43.0739],[142.11117,43.07358],[142.11322,43.0686],[142.11283,43.06675],[142.11313,43.06671],[142.11336,43.0658],[142.11141,43.0654],[142.11126,43.06584],[142.1105,43.06616],[142.10623,43.06657],[142.10585,43.06714],[142.10623,43.0677],[142.10854,43.06869],[142.10871,43.06896],[142.10857,43.06922],[142.10669,43.06985],[142.10562,43.07088],[142.10555,43.07197],[142.10582,43.07261],[142.10702,43.0732],[142.10952,43.07378],[142.10928,43.07413],[142.10867,43.0745],[142.10789,43.07441],[142.10763,43.07495],[142.11067,43.07558],[142.11118,43.07553],[142.11154,43.07503],[142.11131,43.0739]]]},"properties":{"key":"01209020008","name":"鹿島常盤町","pref":"北海道","prefCode":"01","municipality":"夕張市","areaM2":449589.702,"population":0,"toponymIds":["01-aea5f37213"]}},{"type":"Feature","geometry":{"type":"Polygon","coordinates":[[[142.10222,43.06499],[142.10261,43.06509],[142.10299,43.06468],[142.10465,43.06467],[142.10551,43.06409],[142.10551,43.06349],[142.10627,43.06311],[142.10913,43.06296],[142.10945,43.06274],[142.10969,43.0623],[142.1097,43.06187],[142.10929,43.06107],[142.10813,43.0604],[142.10746,43.06031],[142.10467,43.06044],[142.10336,43.06011],[142.10281,43.05957],[142.10259,43.05857],[142.10324,43.0569],[142.1028,43.05654],[142.10118,43.05626],[142.10037,43.05571],[142.09907,43.05637],[142.09936,43.05692],[142.09982,43.05918],[142.1013,43.06114],[142.09943,43.06099],[142.09952,43.06154],[142.09938,43.06179],[142.09864,43.06216],[142.09847,43.06282],[142.09864,43.06298],[142.09929,43.06306],[142.09958,43.06392],[142.10087,43.0647],[142.10105,43.06515],[142.10188,43.0653],[142.10222,43.06499]]]},"properties":{"key":"01209020001","name":"鹿島明石町","pref":"北海道","prefCode":"01","municipality":"夕張市","areaM2":451470.456,"population":0,"toponymIds":["01-f5ce518b8d"]}},{"type":"Feature","geometry":{"type":"Polygon","coordinates":[[[142.09671,43.09735],[142.0973,43.09719],[142.0976,43.0967],[142.09787,43.09663],[142.09677,43.09564],[142.09615,43.0948],[142.09624,43.09451],[142.09699,43.09408],[142.0989,43.09354],[142.1018,43.09382],[142.1031,43.09367],[142.10447,43.0933],[142.10543,43.09287],[142.10609,43.09231],[142.1066,43.09146],[142.10691,43.09046],[142.10679,43.08995],[142.10638,43.0895],[142.10578,43.08933],[142.10411,43.0897],[142.10252,43.08971],[142.10177,43.08952],[142.10092,43.08896],[142.10072,43.08842],[142.10071,43.08813],[142.10143,43.08751],[142.10285,43.08691],[142.10549,43.08238],[142.10257,43.08154],[142.10175,43.08151],[142.10018,43.08291],[142.09974,43.08375],[142.09968,43.08501],[142.09967,43.08669],[142.09999,43.08668],[142.09996,43.08841],[142.09887,43.08831],[142.09828,43.08794],[142.09786,43.08808],[142.09796,43.08828],[142.09765,43.08903],[142.09643,43.08968],[142.09522,43.09157],[142.09524,43.09204],[142.09556,43.09292],[142.09546,43.09324],[142.09508,43.09356],[142.09492,43.09486],[142.09497,43.09584],[142.09546,43.0972],[142.09671,43.09735]]]},"properties":{"key":"01209020007","name":"鹿島栄町","pref":"北海道","prefCode":"01","municipality":"夕張市","areaM2":711450.285,"population":0,"toponymIds":["01-566c773d59"]}},{"type":"Feature","geometry":{"type":"Polygon","coordinates":[[[142.20068,43.12116],[142.20338,43.1193],[142.20437,43.11732],[142.20707,43.11701],[142.20948,43.11597],[142.21104,43.11629],[142.21402,43.11649],[142.21671,43.11598],[142.21969,43.11203],[142.22182,43.11058],[142.22411,43.11007],[142.22526,43.10123],[142.22764,43.10104],[142.23132,43.09962],[142.23401,43.10206],[142.23554,43.10312],[142.23692,43.10385],[142.2382,43.10419],[142.23887,43.10549],[142.2394,43.10585],[142.24361,43.10563],[142.24488,43.10532],[142.246,43.10268],[142.24648,43.10247],[142.24689,43.10188],[142.2481,43.10107],[142.24933,43.10054],[142.25013,43.10044],[142.25078,43.09944],[142.25042,43.09767],[142.25062,43.09634],[142.25057,43.09544],[142.25003,43.09383],[142.2496,43.09306],[142.24958,43.0927],[142.25183,43.0913],[142.25327,43.09011],[142.25593,43.08832],[142.2574,43.08772],[142.25874,43.08637],[142.26117,43.08552],[142.26218,43.08464],[142.2629,43.08438],[142.26328,43.08394],[142.26355,43.08322],[142.26351,43.0829],[142.2627,43.08221],[142.26234,43.08169],[142.26285,43.08119],[142.26363,43.0799],[142.26376,43.07922],[142.26418,43.07883],[142.26437,43.07773],[142.26478,43.07723],[142.2658,43.07673],[142.26528,43.07564],[142.26557,43.07468],[142.26771,43.07307],[142.26824,43.07141],[142.26795,43.07047],[142.26825,43.06955],[142.26787,43.06821],[142.26787,43.06759],[142.26846,43.0667],[142.27074,43.06522],[142.27476,43.0632],[142.27619,43.06145],[142.27812,43.06065],[142.27921,43.05943],[142.28005,43.05907],[142.28153,43.05877],[142.28214,43.05845],[142.28471,43.05623],[142.28764,43.05538],[142.29037,43.05357],[142.29221,43.05303],[142.29231,43.05217],[142.29416,43.05107],[142.29487,43.05091],[142.29668,43.05098],[142.29935,43.05166],[142.30218,43.05131],[142.3032,43.05107],[142.30354,43.0504],[142.30421,43.04992],[142.30519,43.04991],[142.30625,43.04965],[142.30822,43.04995],[142.30967,43.04919],[142.31037,43.04903],[142.31096,43.0486],[142.31253,43.0489],[142.31304,43.04885],[142.31421,43.04795],[142.31729,43.04725],[142.31813,43.0465],[142.31872,43.04637],[142.32034,43.04665],[142.32076,43.04652],[142.32118,43.04581],[142.3214,43.04505],[142.32214,43.04446],[142.3225,43.0439],[142.3233,43.04168],[142.32482,43.0395],[142.32465,43.03861],[142.32329,43.03609],[142.32329,43.03568],[142.32413,43.03515],[142.32614,43.03463],[142.32797,43.03342],[142.32896,43.03243],[142.32989,43.03203],[142.33009,43.03173],[142.33001,43.03145],[142.32938,43.03038],[142.32818,43.02962],[142.32788,43.02881],[142.32747,43.02852],[142.32385,43.0274],[142.32341,43.02663],[142.32316,43.02559],[142.32191,43.025],[142.32027,43.02355],[142.31835,43.02332],[142.31668,43.02269],[142.31614,43.0223],[142.31325,43.02141],[142.31202,43.02067],[142.3104,43.02021],[142.30634,43.01992],[142.30494,43.01995],[142.30437,43.01911],[142.30322,43.01838],[142.30298,43.01737],[142.3024,43.01669],[142.29868,43.01558],[142.29687,43.01574],[142.29566,43.01498],[142.29575,43.01375],[142.29517,43.01302],[142.29415,43.01262],[142.2938,43.01203],[142.29324,43.01155],[142.29302,43.01082],[142.29242,43.00997],[142.2909,43.00931],[142.28988,43.00907],[142.28943,43.00917],[142.28869,43.00966],[142.28243,43.0097],[142.27144,43.00756],[142.26946,43.00754],[142.26847,43.00811],[142.26829,43.00788],[142.26836,43.00733],[142.26808,43.00724],[142.26763,43.00742],[142.26715,43.00805],[142.26651,43.00793],[142.26589,43.00731],[142.26494,43.00727],[142.26438,43.0079],[142.2641,43.00792],[142.26304,43.00757],[142.26185,43.00761],[142.2606,43.00717],[142.26001,43.00812],[142.25976,43.00886],[142.25916,43.00891],[142.25873,43.00849],[142.25864,43.00724],[142.25824,43.00659],[142.25512,43.0062],[142.25411,43.00572],[142.2528,43.0058],[142.24966,43.00381],[142.24947,43.00357],[142.24949,43.00305],[142.24887,43.00279],[142.2476,43.00288],[142.24752,43.00263],[142.24815,43.00167],[142.24809,43.00149],[142.24686,43.0007],[142.24698,43.00038],[142.24738,43.0001],[142.24741,42.99968],[142.24702,42.99881],[142.24676,42.9986],[142.24322,42.99773],[142.24178,42.99692],[142.24107,42.9965],[142.24069,42.99552],[142.24028,42.99529],[142.23992,42.9948],[142.2385,42.99434],[142.23697,42.99456],[142.23518,42.99372],[142.23275,42.99285],[142.23146,42.99187],[142.23,42.99163],[142.22862,42.99224],[142.22795,42.99228],[142.22689,42.99182],[142.22671,42.9915],[142.22671,42.99106],[142.22711,42.98998],[142.22675,42.9895],[142.22572,42.98948],[142.22441,42.98972],[142.22335,42.98962],[142.22296,42.98874],[142.22286,42.98687],[142.2224,42.98601],[142.22217,42.98586],[142.22172,42.98581],[142.22104,42.98612],[142.21963,42.98795],[142.21873,42.98788],[142.21855,42.98744],[142.21915,42.98641],[142.2185,42.98587],[142.2185,42.98566],[142.21929,42.9847],[142.21902,42.98441],[142.21763,42.98384],[142.21743,42.98391],[142.2167,42.98518],[142.21595,42.98577],[142.21528,42.98584],[142.21437,42.98556],[142.21357,42.98608],[142.21292,42.98687],[142.21237,42.98702],[142.21114,42.98682],[142.20766,42.98675],[142.20711,42.98714],[142.20667,42.98809],[142.20593,42.98805],[142.20447,42.9876],[142.20329,42.98805],[142.20303,42.98844],[142.20247,42.9888],[142.20128,42.98822],[142.20055,42.98831],[142.20035,42.98864],[142.20032,42.98911],[142.19971,42.98993],[142.19762,42.98984],[142.1964,42.99025],[142.19618,42.99145],[142.19682,42.99243],[142.19589,42.99311],[142.1955,42.99322],[142.19347,42.99297],[142.19082,42.99384],[142.18864,42.9936],[142.18628,42.99408],[142.18608,42.99424],[142.18613,42.99443],[142.18735,42.9954],[142.18747,42.99567],[142.18738,42.99591],[142.18707,42.99595],[142.18569,42.99569],[142.18394,42.99483],[142.18349,42.99424],[142.18329,42.99351],[142.1833,42.99316],[142.18392,42.99254],[142.18286,42.99185],[142.18174,42.99168],[142.17968,42.99225],[142.17941,42.99215],[142.17893,42.99089],[142.17878,42.99061],[142.17857,42.99055],[142.17657,42.99159],[142.1757,42.99163],[142.17463,42.99112],[142.17444,42.99074],[142.17439,42.98948],[142.17305,42.98925],[142.17292,42.98943],[142.17296,42.99008],[142.17206,42.98998],[142.17155,42.98973],[142.17068,42.9884],[142.17016,42.98809],[142.16904,42.98774],[142.1673,42.98793],[142.16635,42.98694],[142.16458,42.98699],[142.16053,42.98563],[142.15903,42.98559],[142.15792,42.98537],[142.15736,42.98424],[142.15681,42.98433],[142.15645,42.98474],[142.15629,42.98541],[142.15543,42.98561],[142.15471,42.98551],[142.15274,42.98478],[142.15044,42.98509],[142.14926,42.9849],[142.14712,42.98524],[142.14629,42.98493],[142.14603,42.98498],[142.14581,42.98562],[142.14612,42.98722],[142.14616,42.98885],[142.14737,42.98982],[142.1474,42.99024],[142.14652,42.99107],[142.1459,42.99131],[142.14519,42.99135],[142.14338,42.99098],[142.14242,42.9911],[142.14206,42.99135],[142.14203,42.99162],[142.14216,42.99238],[142.14251,42.99277],[142.1443,42.99394],[142.1447,42.99441],[142.14542,42.99696],[142.1453,42.99733],[142.14426,42.99768],[142.14257,42.99793],[142.14097,42.99904],[142.13965,42.9992],[142.13816,42.99892],[142.13788,42.99914],[142.13822,42.99976],[142.13971,43.0008],[142.14146,43.00135],[142.14235,43.00205],[142.14248,43.00234],[142.14235,43.00256],[142.14189,43.0027],[142.14079,43.00276],[142.14005,43.00301],[142.13933,43.00334],[142.13873,43.00402],[142.13897,43.0042],[142.13988,43.0043],[142.141,43.00425],[142.14366,43.00364],[142.14436,43.00374],[142.14496,43.00415],[142.14545,43.00482],[142.14513,43.00556],[142.14293,43.00543],[142.14261,43.00587],[142.14247,43.00759],[142.14163,43.0081],[142.14082,43.00828],[142.14023,43.0081],[142.13855,43.00715],[142.13771,43.0071],[142.13669,43.00761],[142.13235,43.00902],[142.13009,43.00785],[142.12877,43.00736],[142.12695,43.00766],[142.12497,43.00936],[142.11685,43.01475],[142.11553,43.01633],[142.11561,43.01742],[142.11676,43.01809],[142.11891,43.01876],[142.11998,43.01949],[142.11651,43.02209],[142.1127,43.02445],[142.11063,43.02494],[142.10815,43.02439],[142.10658,43.02457],[142.10591,43.02608],[142.10558,43.02879],[142.10604,43.03203],[142.10601,43.03319],[142.10558,43.03593],[142.1052,43.03713],[142.10475,43.0384],[142.10381,43.04008],[142.10268,43.04149],[142.09958,43.04468],[142.09927,43.04535],[142.09969,43.04795],[142.10095,43.04981],[142.10239,43.05098],[142.10079,43.0528],[142.09996,43.05427],[142.09986,43.05491],[142.10073,43.05603],[142.10177,43.05642],[142.1028,43.05654],[142.10324,43.0569],[142.10259,43.05857],[142.10281,43.05957],[142.10336,43.06011],[142.10467,43.06044],[142.10746,43.06031],[142.10862,43.06058],[142.11079,43.06008],[142.11241,43.0562],[142.11148,43.05588],[142.11202,43.05387],[142.11435,43.0546],[142.1176,43.05821],[142.11884,43.06094],[142.12008,43.06094],[142.12165,43.06149],[142.12364,43.06289],[142.12446,43.06411],[142.12529,43.06447],[142.12819,43.06502],[142.13134,43.06661],[142.13199,43.07086],[142.13464,43.07293],[142.13638,43.07518],[142.13811,43.07865],[142.14035,43.07883],[142.14316,43.08327],[142.14341,43.08454],[142.14415,43.08558],[142.14733,43.08833],[142.14815,43.09027],[142.14799,43.09149],[142.14616,43.09319],[142.14591,43.09391],[142.14616,43.09446],[142.14897,43.09701],[142.14963,43.09811],[142.14996,43.09938],[142.15029,43.09981],[142.15675,43.10169],[142.15774,43.10783],[142.15923,43.1088],[142.16271,43.10844],[142.16437,43.10917],[142.16553,43.11075],[142.16693,43.11172],[142.1729,43.11324],[142.17373,43.11427],[142.17339,43.11494],[142.1729,43.11543],[142.17323,43.11616],[142.17265,43.1167],[142.1724,43.11719],[142.17372,43.11761],[142.17919,43.11756],[142.18151,43.11792],[142.18267,43.11871],[142.18847,43.12054],[142.19046,43.12023],[142.19147,43.12033],[142.1926,43.12168],[142.19416,43.12282],[142.19643,43.12314],[142.19856,43.12262],[142.20068,43.12116]]]},"properties":{"key":"01209020013","name":"鹿島白金","pref":"北海道","prefCode":"01","municipality":"夕張市","areaM2":167231399.76,"population":0,"toponymIds":["01-24135b37a6"]}},{"type":"Feature","geometry":{"type":"Polygon","coordinates":[[[142.10593,43.07817],[142.10543,43.07783],[142.10528,43.07756],[142.10533,43.07718],[142.10581,43.07666],[142.10651,43.07547],[142.10507,43.07515],[142.10473,43.07603],[142.10405,43.07589],[142.10382,43.07639],[142.10357,43.07854],[142.10402,43.07837],[142.10495,43.07841],[142.1053,43.07868],[142.10561,43.07857],[142.10593,43.07817]]]},"properties":{"key":"01209020004","name":"鹿島宝町","pref":"北海道","prefCode":"01","municipality":"夕張市","areaM2":54513.075,"population":0,"toponymIds":["01-c8ef5a3e79"]}},{"type":"Feature","geometry":{"type":"Polygon","coordinates":[[[142.11421,43.07651],[142.11464,43.07586],[142.11464,43.0754],[142.11437,43.07509],[142.11361,43.07461],[142.11131,43.0739],[142.11154,43.07503],[142.11118,43.07553],[142.11067,43.07558],[142.10763,43.07495],[142.10789,43.07441],[142.10867,43.0745],[142.10928,43.07413],[142.10952,43.07378],[142.10881,43.0737],[142.1064,43.07294],[142.10582,43.07261],[142.10555,43.07197],[142.10562,43.07088],[142.10628,43.07015],[142.10726,43.0696],[142.10857,43.06922],[142.10871,43.06896],[142.10854,43.06869],[142.10623,43.0677],[142.10585,43.06714],[142.10592,43.06688],[142.10623,43.06657],[142.10674,43.06647],[142.11084,43.06605],[142.11126,43.06584],[142.11141,43.0654],[142.11092,43.06474],[142.1107,43.06452],[142.11004,43.06433],[142.10706,43.06467],[142.1059,43.06443],[142.10551,43.06409],[142.10465,43.06467],[142.10334,43.06471],[142.10381,43.06617],[142.10553,43.06845],[142.10561,43.0688],[142.10482,43.07061],[142.10473,43.07157],[142.10342,43.07353],[142.10266,43.07359],[142.10162,43.07592],[142.10385,43.07632],[142.10405,43.07589],[142.10473,43.07603],[142.10507,43.07515],[142.10651,43.07547],[142.10581,43.07666],[142.10648,43.07646],[142.1072,43.07646],[142.11008,43.07703],[142.11181,43.0772],[142.11333,43.07694],[142.11421,43.07651]]]},"properties":{"key":"01209020002","name":"鹿島千年町","pref":"北海道","prefCode":"01","municipality":"夕張市","areaM2":501253.679,"population":0,"toponymIds":["01-97c5fd7ef0"]}},{"type":"Feature","geometry":{"type":"Polygon","coordinates":[[[142.10348,43.07858],[142.10385,43.07632],[142.10162,43.07592],[142.10022,43.0792],[142.10094,43.07896],[142.10154,43.07908],[142.10213,43.07898],[142.10348,43.07858]]]},"properties":{"key":"01209020003","name":"鹿島錦町","pref":"北海道","prefCode":"01","municipality":"夕張市","areaM2":68793.713,"population":0,"toponymIds":["01-0c9739a413"]}},{"type":"Feature","geometry":{"type":"Polygon","coordinates":[[[142.09999,43.08668],[142.09967,43.08669],[142.09974,43.08375],[142.10018,43.08291],[142.1034,43.08003],[142.10348,43.07858],[142.10154,43.07908],[142.10094,43.07896],[142.10022,43.0792],[142.09987,43.07907],[142.09847,43.0794],[142.09781,43.07979],[142.09779,43.08069],[142.09834,43.08182],[142.09774,43.08278],[142.09705,43.08327],[142.09687,43.08414],[142.09615,43.08464],[142.09786,43.08808],[142.09828,43.08794],[142.09887,43.08831],[142.09996,43.08841],[142.09999,43.08668]]]},"properties":{"key":"01209020005","name":"鹿島富士見町","pref":"北海道","prefCode":"01","municipality":"夕張市","areaM2":281844.668,"population":0,"toponymIds":["01-6d48f81402"]}},{"type":"Feature","geometry":{"type":"Polygon","coordinates":[[[142.27877,43.22544],[142.27935,43.22484],[142.28021,43.2244],[142.28037,43.22347],[142.28089,43.22242],[142.28132,43.22085],[142.2814,43.21996],[142.2808,43.21839],[142.28081,43.21779],[142.28144,43.2169],[142.28279,43.21563],[142.28222,43.2146],[142.28225,43.21437],[142.2829,43.21374],[142.28413,43.21348],[142.28337,43.21276],[142.283,43.21213],[142.28382,43.21081],[142.28397,43.20969],[142.28364,43.20689],[142.2831,43.20442],[142.28311,43.20356],[142.2835,43.20262],[142.28239,43.20077],[142.28264,43.20038],[142.28429,43.19914],[142.28458,43.19818],[142.28419,43.19781],[142.28073,43.19624],[142.28021,43.1953],[142.27891,43.19398],[142.27755,43.19275],[142.27604,43.19181],[142.27455,43.19037],[142.27063,43.18844],[142.27043,43.18791],[142.27054,43.18688],[142.26982,43.18533],[142.26718,43.18173],[142.26886,43.1808],[142.26915,43.18041],[142.26927,43.17988],[142.26912,43.17928],[142.26776,43.17699],[142.26736,43.17602],[142.26713,43.17512],[142.26708,43.17334],[142.26461,43.17018],[142.26335,43.1681],[142.26286,43.1666],[142.26075,43.16512],[142.26008,43.16506],[142.2591,43.16551],[142.2587,43.16536],[142.25861,43.16518],[142.25916,43.16437],[142.25911,43.16417],[142.25771,43.16327],[142.25693,43.16166],[142.25571,43.16078],[142.25566,43.16006],[142.25629,43.15934],[142.25688,43.15787],[142.25758,43.15689],[142.25733,43.15548],[142.25705,43.15497],[142.25622,43.15451],[142.25596,43.15364],[142.25561,43.15324],[142.25453,43.15267],[142.25401,43.15168],[142.25352,43.15134],[142.25336,43.15097],[142.25346,43.15029],[142.25434,43.14904],[142.25508,43.14873],[142.25498,43.14768],[142.25519,43.14741],[142.25665,43.14669],[142.25799,43.14563],[142.25788,43.14546],[142.25672,43.14522],[142.25664,43.14506],[142.25757,43.14438],[142.25877,43.14316],[142.26016,43.14088],[142.26108,43.14066],[142.2614,43.14034],[142.26146,43.13865],[142.26162,43.13836],[142.26279,43.13806],[142.2631,43.13756],[142.26384,43.13698],[142.26383,43.13656],[142.26281,43.1359],[142.2616,43.13556],[142.25945,43.13549],[142.25715,43.13506],[142.25507,43.13385],[142.25451,43.1331],[142.25305,43.13308],[142.25423,43.13264],[142.25469,43.1322],[142.2552,43.13029],[142.25567,43.12969],[142.25568,43.12865],[142.2559,43.12763],[142.25587,43.12733],[142.25553,43.12693],[142.25557,43.12605],[142.25493,43.12449],[142.2539,43.12378],[142.25334,43.12186],[142.25289,43.12127],[142.25143,43.12029],[142.24806,43.119],[142.24628,43.11789],[142.24537,43.11764],[142.24452,43.11668],[142.24439,43.11633],[142.24448,43.11531],[142.24364,43.11426],[142.24313,43.11278],[142.24328,43.1124],[142.24413,43.1117],[142.2437,43.11108],[142.24369,43.10804],[142.2434,43.10593],[142.24361,43.10563],[142.2394,43.10585],[142.23887,43.10549],[142.2382,43.10419],[142.23692,43.10385],[142.23554,43.10312],[142.23401,43.10206],[142.23132,43.09962],[142.22764,43.10104],[142.22526,43.10123],[142.22411,43.11007],[142.22182,43.11058],[142.21969,43.11203],[142.21671,43.11598],[142.21402,43.11649],[142.21104,43.11629],[142.20948,43.11597],[142.20707,43.11701],[142.20437,43.11732],[142.20338,43.1193],[142.19856,43.12262],[142.19643,43.12314],[142.19416,43.12282],[142.1926,43.12168],[142.19147,43.12033],[142.19046,43.12023],[142.18847,43.12054],[142.18267,43.11871],[142.18151,43.11792],[142.17919,43.11756],[142.17372,43.11761],[142.1724,43.11719],[142.17265,43.1167],[142.17323,43.11616],[142.1729,43.11543],[142.17339,43.11494],[142.17373,43.11427],[142.1729,43.11324],[142.16693,43.11172],[142.16553,43.11075],[142.16437,43.10917],[142.16271,43.10844],[142.15923,43.1088],[142.15774,43.10783],[142.15675,43.10169],[142.15029,43.09981],[142.14996,43.09938],[142.14963,43.09811],[142.14897,43.09701],[142.14616,43.09446],[142.14591,43.09391],[142.14616,43.09319],[142.14799,43.09149],[142.14815,43.09027],[142.14733,43.08833],[142.14415,43.08558],[142.14341,43.08454],[142.14316,43.08327],[142.14035,43.07883],[142.13811,43.07865],[142.13638,43.07518],[142.13464,43.07293],[142.13199,43.07086],[142.13134,43.06661],[142.12819,43.06502],[142.12529,43.06447],[142.12446,43.06411],[142.12364,43.06289],[142.12165,43.06149],[142.12008,43.06094],[142.11884,43.06094],[142.1176,43.05821],[142.11504,43.05529],[142.11435,43.0546],[142.11202,43.05387],[142.11148,43.05588],[142.11241,43.0562],[142.11079,43.06008],[142.10862,43.06058],[142.10958,43.06142],[142.10969,43.0623],[142.10945,43.06274],[142.1087,43.06307],[142.10627,43.06311],[142.10551,43.06349],[142.10544,43.0638],[142.10559,43.06427],[142.10706,43.06467],[142.10962,43.06436],[142.11039,43.06441],[142.11092,43.06474],[142.11141,43.0654],[142.11336,43.0658],[142.11313,43.06671],[142.11283,43.06675],[142.11322,43.0686],[142.11117,43.07358],[142.11131,43.0739],[142.11361,43.07461],[142.11437,43.07509],[142.11464,43.0754],[142.11464,43.07586],[142.11421,43.07651],[142.11379,43.07677],[142.11181,43.0772],[142.11008,43.07703],[142.1072,43.07646],[142.10591,43.07659],[142.10555,43.07686],[142.10528,43.07756],[142.10543,43.07783],[142.10638,43.07843],[142.1094,43.07898],[142.11018,43.07932],[142.11128,43.0801],[142.11177,43.08078],[142.11165,43.08208],[142.11043,43.08415],[142.10928,43.0853],[142.10285,43.08691],[142.10143,43.08751],[142.10071,43.08813],[142.10092,43.08896],[142.10177,43.08952],[142.10252,43.08971],[142.10411,43.0897],[142.10578,43.08933],[142.10638,43.0895],[142.10679,43.08995],[142.10691,43.09046],[142.1066,43.09146],[142.10609,43.09231],[142.10543,43.09287],[142.1031,43.09367],[142.1018,43.09382],[142.0989,43.09354],[142.09699,43.09408],[142.09624,43.09451],[142.09615,43.0948],[142.09677,43.09564],[142.09787,43.09663],[142.0976,43.0967],[142.0973,43.09719],[142.09671,43.09735],[142.09546,43.0972],[142.09497,43.09584],[142.09492,43.09486],[142.09508,43.09356],[142.09546,43.09324],[142.09556,43.09292],[142.09524,43.09204],[142.09522,43.09157],[142.09643,43.08968],[142.09765,43.08903],[142.09796,43.08828],[142.09615,43.08464],[142.09687,43.08414],[142.09705,43.08327],[142.09774,43.08278],[142.09834,43.08182],[142.09779,43.08069],[142.09781,43.07979],[142.09847,43.0794],[142.09987,43.07907],[142.10022,43.0792],[142.10266,43.07359],[142.10342,43.07353],[142.10473,43.07157],[142.10482,43.07061],[142.10561,43.0688],[142.10553,43.06845],[142.10381,43.06617],[142.10334,43.06471],[142.10299,43.06468],[142.10261,43.06509],[142.10222,43.06499],[142.10188,43.0653],[142.10105,43.06515],[142.10087,43.0647],[142.09958,43.06392],[142.09929,43.06306],[142.09855,43.06295],[142.09845,43.06269],[142.09869,43.06211],[142.09938,43.06179],[142.09952,43.06154],[142.09943,43.06099],[142.1013,43.06114],[142.09982,43.05918],[142.09936,43.05692],[142.09907,43.05637],[142.10037,43.05571],[142.09986,43.05491],[142.09996,43.05427],[142.10079,43.0528],[142.10239,43.05098],[142.10095,43.04981],[142.09969,43.04795],[142.09927,43.04535],[142.09958,43.04468],[142.10268,43.04149],[142.10381,43.04008],[142.10475,43.0384],[142.10558,43.03593],[142.10601,43.03319],[142.10604,43.03203],[142.10558,43.02879],[142.10386,43.02726],[142.10253,43.02766],[142.10247,43.02732],[142.09729,43.02706],[142.09523,43.02776],[142.09325,43.02958],[142.09096,43.03287],[142.08825,43.03615],[142.08693,43.03694],[142.08318,43.03861],[142.0825,43.03931],[142.08088,43.04301],[142.07625,43.04788],[142.0747,43.05381],[142.0754,43.05862],[142.0749,43.06064],[142.07346,43.06488],[142.07318,43.06902],[142.07345,43.07022],[142.07581,43.07695],[142.07586,43.07852],[142.07406,43.08215],[142.07348,43.08457],[142.073,43.08556],[142.0721,43.08666],[142.0708,43.08871],[142.07075,43.0897],[142.07138,43.09164],[142.07311,43.09489],[142.07462,43.09724],[142.07464,43.0978],[142.07419,43.0985],[142.07321,43.09943],[142.07197,43.09999],[142.0684,43.1007],[142.06719,43.10155],[142.06548,43.10318],[142.06281,43.10375],[142.05765,43.10436],[142.05561,43.1051],[142.05243,43.10677],[142.05016,43.10764],[142.04819,43.10787],[142.04544,43.1079],[142.04372,43.10823],[142.0437,43.10864],[142.04222,43.10975],[142.04103,43.11092],[142.04046,43.11254],[142.0395,43.11317],[142.03931,43.11431],[142.03727,43.11651],[142.0372,43.11697],[142.03782,43.1185],[142.03889,43.11992],[142.03893,43.12016],[142.03849,43.12088],[142.03835,43.12238],[142.03789,43.12284],[142.03719,43.12411],[142.03612,43.12446],[142.03523,43.12512],[142.03471,43.12719],[142.03365,43.12808],[142.03336,43.13005],[142.03232,43.13142],[142.03225,43.13183],[142.03251,43.13275],[142.03315,43.13375],[142.0332,43.13403],[142.03283,43.13515],[142.03183,43.13658],[142.03143,43.13696],[142.03032,43.13756],[142.03015,43.13783],[142.03014,43.13806],[142.03081,43.13865],[142.03173,43.13902],[142.03289,43.13988],[142.03351,43.141],[142.0336,43.14226],[142.03484,43.14295],[142.03494,43.1435],[142.0352,43.14383],[142.03604,43.14408],[142.04054,43.1436],[142.04124,43.14349],[142.04221,43.14298],[142.04406,43.14351],[142.04577,43.14305],[142.04738,43.14339],[142.04976,43.14335],[142.05106,43.14376],[142.05171,43.14492],[142.05198,43.14513],[142.05298,43.14529],[142.0539,43.14575],[142.05582,43.14588],[142.05668,43.14632],[142.05804,43.1465],[142.06012,43.1481],[142.05973,43.14916],[142.06021,43.15031],[142.06024,43.15091],[142.05975,43.15141],[142.05897,43.15276],[142.05878,43.1543],[142.05894,43.15491],[142.05996,43.1559],[142.06072,43.15703],[142.06087,43.15753],[142.06247,43.1579],[142.06422,43.15929],[142.06542,43.15965],[142.06626,43.1601],[142.06739,43.16001],[142.06868,43.16049],[142.0698,43.1606],[142.07034,43.16209],[142.07072,43.16268],[142.07211,43.16386],[142.07281,43.16473],[142.07387,43.16519],[142.07452,43.1652],[142.07525,43.16567],[142.07952,43.16526],[142.08281,43.16617],[142.08511,43.16758],[142.08607,43.16784],[142.08645,43.16765],[142.08689,43.16701],[142.08713,43.16631],[142.08776,43.16595],[142.08956,43.16578],[142.0909,43.166],[142.09186,43.16582],[142.09379,43.16621],[142.09467,43.16546],[142.09571,43.16499],[142.09579,43.1639],[142.09598,43.16391],[142.09702,43.16515],[142.09868,43.16671],[142.09905,43.16687],[142.1001,43.16694],[142.10311,43.16893],[142.10498,43.16948],[142.10821,43.17195],[142.11059,43.17268],[142.11187,43.17204],[142.11245,43.17209],[142.11537,43.17301],[142.11698,43.17388],[142.11841,43.17559],[142.11868,43.17697],[142.12124,43.17899],[142.12176,43.18034],[142.12187,43.18133],[142.12224,43.18225],[142.12225,43.18273],[142.12193,43.18327],[142.12366,43.18385],[142.12485,43.18482],[142.12641,43.18664],[142.12744,43.18879],[142.12881,43.19038],[142.13036,43.19075],[142.13098,43.1911],[142.13253,43.19109],[142.13403,43.19161],[142.13532,43.19161],[142.13594,43.1918],[142.13727,43.19161],[142.1381,43.19124],[142.13971,43.1913],[142.14218,43.19227],[142.14316,43.19292],[142.14426,43.19319],[142.14538,43.1937],[142.14666,43.19364],[142.14864,43.19429],[142.1504,43.19414],[142.15146,43.19385],[142.15374,43.19549],[142.15503,43.19566],[142.15571,43.19628],[142.15644,43.19652],[142.15645,43.19777],[142.15505,43.19986],[142.15513,43.20029],[142.15563,43.20092],[142.15565,43.20116],[142.15423,43.20265],[142.15313,43.20335],[142.15203,43.20451],[142.15196,43.20486],[142.15293,43.20601],[142.15376,43.20855],[142.15443,43.21151],[142.1543,43.21295],[142.155,43.21465],[142.15531,43.21616],[142.15548,43.21649],[142.15632,43.21724],[142.15656,43.21788],[142.15761,43.21931],[142.15873,43.22025],[142.15868,43.22123],[142.15934,43.22165],[142.1597,43.22297],[142.16049,43.22357],[142.16151,43.22347],[142.16392,43.2208],[142.16474,43.22024],[142.16736,43.21981],[142.17097,43.21824],[142.17274,43.21771],[142.17339,43.21703],[142.17373,43.2163],[142.17456,43.21566],[142.1752,43.21456],[142.17605,43.21401],[142.17788,43.214],[142.17972,43.21341],[142.18219,43.21351],[142.1819,43.2128],[142.18201,43.21189],[142.18317,43.2114],[142.18381,43.21075],[142.18587,43.21019],[142.18634,43.2099],[142.18713,43.20724],[142.18865,43.20662],[142.19107,43.20707],[142.19281,43.20674],[142.19361,43.20711],[142.19665,43.20736],[142.19679,43.20757],[142.19642,43.20861],[142.19744,43.20881],[142.19924,43.20951],[142.2008,43.2094],[142.2021,43.20896],[142.20342,43.20889],[142.20464,43.20825],[142.20517,43.20823],[142.20719,43.20969],[142.20923,43.20984],[142.2116,43.20957],[142.21275,43.21021],[142.21322,43.21152],[142.21407,43.21161],[142.21652,43.21134],[142.21657,43.21106],[142.21711,43.21062],[142.21955,43.2092],[142.22033,43.20891],[142.22198,43.20871],[142.22365,43.20874],[142.22459,43.2083],[142.22491,43.20829],[142.22709,43.20914],[142.22915,43.21023],[142.22967,43.2109],[142.23003,43.21111],[142.23262,43.21103],[142.23402,43.2114],[142.23505,43.21186],[142.23863,43.21206],[142.24342,43.21263],[142.24435,43.21419],[142.24475,43.21625],[142.24475,43.21706],[142.24554,43.21868],[142.24611,43.21937],[142.2459,43.21989],[142.24592,43.22044],[142.24704,43.22139],[142.24762,43.22253],[142.24817,43.22286],[142.25309,43.22204],[142.25599,43.22134],[142.25653,43.22163],[142.25791,43.22285],[142.25977,43.22324],[142.26359,43.22331],[142.26514,43.22276],[142.26779,43.22276],[142.27205,43.22449],[142.27488,43.2253],[142.27622,43.22549],[142.27793,43.22535],[142.27877,43.22544]]]},"properties":{"key":"01209020011","name":"鹿島北栄町","pref":"北海道","prefCode":"01","municipality":"夕張市","areaM2":201435673.718,"population":0,"toponymIds":["01-d5b0b87c69"]}},{"type":"Feature","geometry":{"type":"Polygon","coordinates":[[[142.10549,43.08238],[142.10755,43.07873],[142.10593,43.07817],[142.10561,43.07857],[142.1053,43.07868],[142.10495,43.07841],[142.10384,43.07841],[142.10348,43.07858],[142.1034,43.08003],[142.10175,43.08151],[142.10257,43.08154],[142.10549,43.08238]]]},"properties":{"key":"01209020006","name":"鹿島緑町","pref":"北海道","prefCode":"01","municipality":"夕張市","areaM2":117818.932,"population":0,"toponymIds":["01-5107ec11d0"]}},{"type":"Feature","geometry":{"type":"Polygon","coordinates":[[[142.10863,43.07877],[142.10755,43.07873],[142.10285,43.08691],[142.10928,43.0853],[142.11043,43.08415],[142.11165,43.08208],[142.11177,43.08078],[142.11155,43.08034],[142.11084,43.07973],[142.1094,43.07898],[142.10863,43.07877]]]},"properties":{"key":"01209020009","name":"鹿島代々木町","pref":"北海道","prefCode":"01","municipality":"夕張市","areaM2":343021.076,"population":0,"toponymIds":["01-a9dbad655c"]}},{"type":"Feature","geometry":{"type":"Polygon","coordinates":[[[141.96341,43.04362],[141.96378,43.04242],[141.96402,43.04248],[141.9641,43.04228],[141.96369,43.0422],[141.96344,43.04191],[141.96392,43.04037],[141.96284,43.03963],[141.96096,43.03904],[141.96023,43.03942],[141.96066,43.03955],[141.96152,43.04037],[141.96029,43.04066],[141.96114,43.04175],[141.96117,43.04213],[141.9616,43.04226],[141.96251,43.04358],[141.96288,43.04358],[141.96291,43.04527],[141.96329,43.04617],[141.9637,43.0461],[141.96324,43.04473],[141.96341,43.04362]]]},"properties":{"key":"01209010002","name":"鹿の谷一丁目","pref":"北海道","prefCode":"01","municipality":"夕張市","areaM2":97855.342,"population":83,"toponymIds":["01-eb02dca4d4"]}},{"type":"Feature","geometry":{"type":"Polygon","coordinates":[[[141.96681,43.04223],[141.96675,43.03996],[141.96754,43.03788],[141.96707,43.03728],[141.96655,43.03608],[141.96645,43.03622],[141.96548,43.03648],[141.96562,43.03723],[141.96521,43.0385],[141.96527,43.03961],[141.96443,43.04194],[141.96422,43.04191],[141.96402,43.04248],[141.96577,43.04298],[141.96691,43.04301],[141.96681,43.04223]]]},"properties":{"key":"01209010005","name":"鹿の谷東丘町","pref":"北海道","prefCode":"01","municipality":"夕張市","areaM2":113796.783,"population":22,"toponymIds":["01-83c63e2599"]}},{"type":"Feature","geometry":{"type":"Polygon","coordinates":[[[141.96086,43.04866],[141.96068,43.04848],[141.96121,43.04771],[141.96119,43.04708],[141.96155,43.04656],[141.96192,43.04634],[141.96329,43.04617],[141.96291,43.04527],[141.96288,43.04358],[141.96251,43.04358],[141.9616,43.04226],[141.96117,43.04213],[141.96106,43.04163],[141.95979,43.04006],[141.95684,43.03923],[141.95482,43.04056],[141.95438,43.0412],[141.95405,43.04221],[141.95549,43.04202],[141.95528,43.04228],[141.95544,43.04281],[141.9562,43.04328],[141.95588,43.04384],[141.95613,43.04452],[141.95705,43.04574],[141.95756,43.04601],[141.95683,43.04721],[141.95864,43.04793],[141.95873,43.04818],[141.95953,43.04877],[141.95978,43.04854],[141.96016,43.04866],[141.96033,43.0489],[141.96086,43.04866]]]},"properties":{"key":"01209010001","name":"鹿の谷山手町","pref":"北海道","prefCode":"01","municipality":"夕張市","areaM2":441207.595,"population":58,"toponymIds":["01-7f9ce25dda"]}},{"type":"Feature","geometry":{"type":"Polygon","coordinates":[[[144.25752,44.03658],[144.25922,44.03505],[144.25981,44.03377],[144.26062,44.03263],[144.26227,44.03125],[144.26051,44.03035],[144.26067,44.03013],[144.25832,44.03069],[144.25836,44.03153],[144.25776,44.03448],[144.2569,44.0361],[144.25641,44.03658],[144.25688,44.03661],[144.25728,44.03688],[144.25752,44.03658]]]},"properties":{"key":"012110520","name":"海岸町","pref":"北海道","prefCode":"01","municipality":"網走市","areaM2":125121.422,"population":342,"toponymIds":["01-dbe4d4b21a"]}},{"type":"Feature","geometry":{"type":"Polygon","coordinates":[[[142.16524,43.46983],[142.1658,43.46987],[142.16638,43.47028],[142.16927,43.469],[142.16901,43.46848],[142.1676,43.46699],[142.16751,43.46673],[142.16791,43.46527],[142.16777,43.46489],[142.16743,43.46464],[142.1668,43.46455],[142.16506,43.46448],[142.16411,43.46424],[142.16338,43.46385],[142.16244,43.46267],[142.16242,43.46228],[142.16299,43.46032],[142.16311,43.45909],[142.16293,43.45866],[142.16176,43.45785],[142.16034,43.45731],[142.15957,43.45669],[142.15865,43.45633],[142.15708,43.45603],[142.15548,43.45499],[142.1549,43.45369],[142.15461,43.4513],[142.1546,43.44978],[142.154,43.44625],[142.15399,43.44532],[142.15379,43.44513],[142.15336,43.44521],[142.1529,43.4449],[142.15252,43.44494],[142.15258,43.44479],[142.15106,43.44404],[142.14916,43.44266],[142.14877,43.44193],[142.14865,43.44125],[142.14876,43.44032],[142.14937,43.43894],[142.15009,43.43825],[142.15109,43.43772],[142.15527,43.43624],[142.15609,43.43576],[142.15763,43.43418],[142.15873,43.43227],[142.1631,43.42714],[142.16523,43.42396],[142.1664,43.4217],[142.16643,43.42078],[142.16676,43.4197],[142.16779,43.41791],[142.16847,43.41636],[142.16858,43.41524],[142.16879,43.41479],[142.16926,43.41504],[142.16961,43.41497],[142.16984,43.41527],[142.16973,43.41599],[142.16988,43.41631],[142.17029,43.41638],[142.17118,43.41589],[142.17144,43.41653],[142.17235,43.41756],[142.17286,43.41791],[142.17455,43.41832],[142.1748,43.41854],[142.1747,43.41912],[142.17404,43.42014],[142.17248,43.422],[142.17246,43.42294],[142.17209,43.42387],[142.17136,43.42442],[142.1697,43.42465],[142.16992,43.42476],[142.1697,43.42541],[142.17016,43.42577],[142.17138,43.42576],[142.17166,43.42584],[142.17158,43.42611],[142.17017,43.42924],[142.16865,43.43152],[142.16673,43.4337],[142.16568,43.43547],[142.16499,43.43677],[142.16134,43.44538],[142.17719,43.46863],[142.17754,43.46871],[142.17749,43.46767],[142.17704,43.46605],[142.17361,43.43757],[142.18575,43.41342],[142.20471,43.39835],[142.21443,43.37233],[142.23165,43.34889],[142.22676,43.25453],[142.24751,43.22237],[142.24704,43.22139],[142.24592,43.22044],[142.2459,43.21989],[142.24611,43.21937],[142.24554,43.21868],[142.24475,43.21706],[142.24475,43.21625],[142.24435,43.21419],[142.2437,43.21298],[142.24328,43.21254],[142.23505,43.21186],[142.23402,43.2114],[142.23262,43.21103],[142.23003,43.21111],[142.22967,43.2109],[142.22915,43.21023],[142.22709,43.20914],[142.22473,43.20828],[142.22365,43.20874],[142.22198,43.20871],[142.21993,43.20904],[142.21711,43.21062],[142.21657,43.21106],[142.21652,43.21134],[142.21484,43.2116],[142.21343,43.21158],[142.2131,43.2114],[142.21275,43.21021],[142.2116,43.20957],[142.20923,43.20984],[142.20719,43.20969],[142.20517,43.20823],[142.20464,43.20825],[142.20342,43.20889],[142.2021,43.20896],[142.2008,43.2094],[142.19924,43.20951],[142.19744,43.20881],[142.19642,43.20861],[142.19679,43.20757],[142.19665,43.20736],[142.19361,43.20711],[142.19281,43.20674],[142.19107,43.20707],[142.18865,43.20662],[142.18713,43.20724],[142.18634,43.2099],[142.18587,43.21019],[142.18381,43.21075],[142.18317,43.2114],[142.18201,43.21189],[142.1819,43.2128],[142.18219,43.21351],[142.17972,43.21341],[142.17788,43.214],[142.17605,43.21401],[142.1752,43.21456],[142.17456,43.21566],[142.17373,43.2163],[142.17339,43.21703],[142.17274,43.21771],[142.17097,43.21824],[142.16736,43.21981],[142.16474,43.22024],[142.16392,43.2208],[142.16177,43.22325],[142.16103,43.2236],[142.16122,43.22408],[142.16131,43.22563],[142.16153,43.22623],[142.16133,43.22655],[142.16006,43.22702],[142.15797,43.22702],[142.15704,43.22716],[142.15596,43.22748],[142.15406,43.22861],[142.15137,43.22876],[142.14937,43.2292],[142.14903,43.22913],[142.14794,43.22838],[142.14748,43.22832],[142.14593,43.22861],[142.14486,43.22827],[142.14349,43.22706],[142.14277,43.22685],[142.14202,43.22594],[142.14196,43.22557],[142.14224,43.2249],[142.14212,43.22458],[142.14116,43.22396],[142.13949,43.22319],[142.13441,43.22237],[142.13015,43.22145],[142.12921,43.22111],[142.12753,43.22092],[142.12706,43.22081],[142.12596,43.2201],[142.12457,43.21976],[142.12331,43.21996],[142.12126,43.2213],[142.1203,43.22112],[142.11917,43.22115],[142.11753,43.22194],[142.11391,43.22236],[142.11334,43.22328],[142.11301,43.22351],[142.11073,43.22448],[142.11151,43.22594],[142.11167,43.22662],[142.11082,43.22813],[142.1086,43.23028],[142.1084,43.23067],[142.10852,43.23169],[142.10767,43.23281],[142.10761,43.23315],[142.10793,43.2346],[142.10779,43.23503],[142.10685,43.23591],[142.1059,43.23631],[142.10436,43.23664],[142.10346,43.23789],[142.10361,43.23925],[142.10241,43.24136],[142.10111,43.24227],[142.10067,43.24277],[142.10068,43.24525],[142.1,43.24609],[142.09982,43.24679],[142.09786,43.24815],[142.097,43.24916],[142.0957,43.24978],[142.09571,43.25084],[142.09552,43.25169],[142.09566,43.25399],[142.09408,43.25475],[142.09371,43.25564],[142.0937,43.2564],[142.0938,43.25693],[142.09409,43.25734],[142.09402,43.25757],[142.09323,43.25786],[142.09246,43.25872],[142.08945,43.25962],[142.0891,43.25988],[142.08855,43.26087],[142.08929,43.26222],[142.09053,43.26319],[142.0901,43.26358],[142.08944,43.26522],[142.08887,43.26893],[142.08914,43.26937],[142.08823,43.26956],[142.08681,43.26958],[142.08651,43.26977],[142.08596,43.2709],[142.08547,43.27118],[142.08415,43.27122],[142.08265,43.27159],[142.08195,43.27244],[142.07868,43.27158],[142.0785,43.27172],[142.07853,43.27241],[142.07894,43.27306],[142.07836,43.2737],[142.07727,43.27398],[142.07681,43.27452],[142.07636,43.27551],[142.07663,43.27665],[142.07682,43.2768],[142.07814,43.27694],[142.07838,43.27718],[142.07828,43.27771],[142.07787,43.2781],[142.07789,43.28086],[142.07873,43.2827],[142.07914,43.28317],[142.08039,43.28374],[142.08055,43.284],[142.0804,43.28443],[142.07937,43.28494],[142.07915,43.28529],[142.07907,43.28726],[142.07661,43.28745],[142.07535,43.28782],[142.07477,43.28816],[142.07411,43.28891],[142.07314,43.28941],[142.07255,43.2901],[142.07044,43.29108],[142.06835,43.29084],[142.06578,43.29134],[142.06391,43.29222],[142.06232,43.29271],[142.06135,43.29362],[142.06052,43.29404],[142.06011,43.29534],[142.05915,43.2968],[142.05828,43.29764],[142.0575,43.29808],[142.05545,43.29852],[142.05515,43.299],[142.05527,43.30003],[142.05514,43.30035],[142.05392,43.3009],[142.05256,43.30118],[142.05236,43.30138],[142.05235,43.30171],[142.05266,43.30242],[142.0536,43.3035],[142.05352,43.30369],[142.05223,43.30463],[142.05186,43.30523],[142.04992,43.30496],[142.04919,43.30521],[142.04865,43.30587],[142.04796,43.30623],[142.04722,43.30757],[142.04622,43.30828],[142.04608,43.30866],[142.04597,43.3096],[142.04611,43.31001],[142.04767,43.31144],[142.04779,43.31175],[142.04769,43.31297],[142.04949,43.31491],[142.05021,43.31524],[142.05045,43.31557],[142.05061,43.31645],[142.05101,43.31727],[142.04973,43.31782],[142.04964,43.31801],[142.04988,43.31881],[142.05055,43.31976],[142.05382,43.32283],[142.05565,43.32351],[142.05723,43.32524],[142.05951,43.32666],[142.0595,43.3274],[142.05989,43.32829],[142.06005,43.32933],[142.05967,43.32994],[142.05923,43.33007],[142.05903,43.33032],[142.05911,43.33082],[142.0602,43.33201],[142.06248,43.33365],[142.06383,43.33576],[142.0632,43.33618],[142.06278,43.33673],[142.06205,43.33691],[142.06044,43.33813],[142.06061,43.33869],[142.06105,43.33931],[142.06097,43.34006],[142.05841,43.34088],[142.05796,43.34172],[142.05728,43.34219],[142.05693,43.34305],[142.05593,43.34347],[142.0545,43.34452],[142.05293,43.34521],[142.0494,43.34817],[142.04984,43.34948],[142.05049,43.35011],[142.05295,43.35146],[142.0541,43.35182],[142.05533,43.35137],[142.05634,43.35121],[142.05769,43.35199],[142.05823,43.35289],[142.05822,43.35399],[142.05857,43.35475],[142.05948,43.35547],[142.06049,43.35589],[142.0611,43.35637],[142.06122,43.3569],[142.06087,43.3575],[142.06001,43.35838],[142.05906,43.35833],[142.05833,43.35852],[142.05729,43.35842],[142.05634,43.35877],[142.05483,43.36158],[142.05499,43.36278],[142.05593,43.36366],[142.05603,43.36423],[142.05666,43.36503],[142.05679,43.36604],[142.05716,43.3664],[142.05954,43.36755],[142.06,43.36769],[142.06104,43.36768],[142.06073,43.36806],[142.06078,43.36877],[142.06212,43.37021],[142.06207,43.37127],[142.06176,43.37165],[142.06168,43.37209],[142.06194,43.37305],[142.06146,43.37385],[142.06157,43.3745],[142.06082,43.37512],[142.0606,43.37681],[142.05912,43.37761],[142.05804,43.37798],[142.05487,43.37816],[142.05382,43.37886],[142.05224,43.37928],[142.05254,43.38118],[142.053,43.38207],[142.053,43.38352],[142.05277,43.38469],[142.05196,43.38632],[142.05244,43.38772],[142.05303,43.38854],[142.05293,43.38992],[142.05108,43.39106],[142.05084,43.39141],[142.05075,43.39223],[142.04987,43.39351],[142.05011,43.39382],[142.04864,43.39547],[142.04854,43.396],[142.04869,43.39653],[142.04848,43.39717],[142.04942,43.40081],[142.05011,43.40139],[142.05076,43.40155],[142.05132,43.40198],[142.05189,43.40357],[142.0532,43.40459],[142.05377,43.40528],[142.05318,43.40708],[142.05303,43.40812],[142.05234,43.40875],[142.05208,43.40957],[142.05214,43.40987],[142.05275,43.41043],[142.05285,43.41072],[142.05267,43.41161],[142.05161,43.41294],[142.05161,43.41372],[142.05114,43.41465],[142.05117,43.4154],[142.05163,43.41646],[142.05177,43.41734],[142.05279,43.41955],[142.05282,43.41984],[142.05252,43.42061],[142.05259,43.42127],[142.05319,43.42254],[142.05384,43.42272],[142.05541,43.42387],[142.05608,43.42395],[142.05689,43.42375],[142.05932,43.42479],[142.05931,43.42609],[142.06078,43.42812],[142.05971,43.42934],[142.0599,43.42998],[142.06164,43.43068],[142.0631,43.43256],[142.06594,43.43428],[142.0674,43.43437],[142.06991,43.43505],[142.07113,43.43517],[142.07248,43.43627],[142.07126,43.4412],[142.07134,43.44215],[142.06983,43.44336],[142.06894,43.44489],[142.06796,43.44534],[142.06712,43.44542],[142.06701,43.44577],[142.06701,43.44625],[142.06764,43.44741],[142.0677,43.44792],[142.06655,43.44999],[142.0668,43.45086],[142.06654,43.45263],[142.06787,43.45459],[142.06747,43.45524],[142.06717,43.45624],[142.06691,43.46005],[142.06574,43.46178],[142.0656,43.46279],[142.06599,43.46405],[142.06595,43.46458],[142.06406,43.46664],[142.06284,43.46675],[142.06263,43.4669],[142.06283,43.46752],[142.06355,43.46837],[142.0641,43.46972],[142.06494,43.47021],[142.06515,43.47085],[142.06575,43.47148],[142.06612,43.47422],[142.06951,43.47332],[142.07511,43.47155],[142.08085,43.4688],[142.08183,43.47016],[142.08304,43.47136],[142.0856,43.47331],[142.08888,43.47452],[142.09288,43.475],[142.09885,43.47473],[142.10291,43.47397],[142.10408,43.47356],[142.10577,43.47251],[142.1079,43.4715],[142.11172,43.46981],[142.11494,43.4686],[142.11718,43.46725],[142.11963,43.46602],[142.12242,43.46495],[142.1249,43.46421],[142.12812,43.4634],[142.13429,43.46279],[142.14191,43.46307],[142.14617,43.46355],[142.14675,43.46382],[142.14788,43.46497],[142.1511,43.46723],[142.15958,43.47412],[142.16009,43.47474],[142.16061,43.47741],[142.16093,43.47797],[142.16154,43.47858],[142.16383,43.47935],[142.16449,43.47908],[142.16435,43.47883],[142.16465,43.47797],[142.16459,43.4775],[142.16088,43.47174],[142.16444,43.47048],[142.16463,43.47006],[142.16524,43.46983]]]},"properties":{"key":"012160370","name":"芦別","pref":"北海道","prefCode":"01","municipality":"芦別市","areaM2":328456534.805,"population":6,"toponymIds":["01-3d111b80a4"]}},{"type":"Feature","geometry":{"type":"Polygon","coordinates":[[[142.20719,43.51021],[142.20782,43.5098],[142.21014,43.50901],[142.21231,43.50793],[142.21373,43.50661],[142.21493,43.50411],[142.21591,43.49985],[142.21626,43.49908],[142.22061,43.49507],[142.22301,43.49346],[142.2304,43.49115],[142.23312,43.49069],[142.2357,43.49068],[142.23707,43.49112],[142.24059,43.49268],[142.24004,43.49123],[142.23836,43.4911],[142.23766,43.49062],[142.23503,43.4871],[142.23326,43.48585],[142.23129,43.48506],[142.22929,43.48466],[142.22465,43.48442],[142.20878,43.48312],[142.21066,43.46968],[142.20763,43.47058],[142.20482,43.47255],[142.19798,43.47681],[142.19504,43.47743],[142.19266,43.47819],[142.18649,43.47853],[142.1851,43.47845],[142.18443,43.47859],[142.18408,43.47887],[142.184,43.47927],[142.18441,43.48141],[142.18595,43.48532],[142.18653,43.48593],[142.18809,43.48663],[142.19062,43.48854],[142.19113,43.48957],[142.19094,43.48981],[142.19044,43.48993],[142.18949,43.48952],[142.18595,43.48758],[142.18476,43.48646],[142.18223,43.48346],[142.18071,43.48444],[142.18086,43.48475],[142.18035,43.48529],[142.17789,43.48658],[142.17746,43.48696],[142.17742,43.48717],[142.1796,43.48818],[142.18173,43.48943],[142.18307,43.49074],[142.18309,43.49195],[142.1823,43.49318],[142.18151,43.49494],[142.18118,43.4954],[142.18058,43.49543],[142.17996,43.4957],[142.17937,43.49625],[142.17935,43.49698],[142.17973,43.49757],[142.18057,43.49773],[142.18285,43.49777],[142.18346,43.49793],[142.18506,43.49917],[142.18772,43.49959],[142.1889,43.49947],[142.19037,43.49969],[142.19114,43.50027],[142.19563,43.50265],[142.19673,43.50368],[142.19753,43.50501],[142.1978,43.50664],[142.19716,43.50854],[142.19749,43.51013],[142.19801,43.51073],[142.19884,43.51077],[142.20069,43.51021],[142.20199,43.51019],[142.20259,43.51053],[142.20416,43.51288],[142.20435,43.51238],[142.20554,43.51104],[142.20719,43.51021]]]},"properties":{"key":"012160220","name":"上芦別町","pref":"北海道","prefCode":"01","municipality":"芦別市","areaM2":9930144.61,"population":2830,"toponymIds":["01-3cd62b2360"]}},{"type":"Feature","geometry":{"type":"Polygon","coordinates":[[[142.15258,43.44479],[142.15485,43.43891],[142.15648,43.43917],[142.15802,43.43798],[142.15969,43.43731],[142.16054,43.43673],[142.16199,43.4348],[142.1626,43.43248],[142.16313,43.43216],[142.16363,43.4321],[142.16431,43.43165],[142.16524,43.4302],[142.16704,43.42829],[142.16754,43.42716],[142.16735,43.42593],[142.1669,43.42549],[142.16695,43.42484],[142.16793,43.42441],[142.16995,43.4247],[142.17136,43.42442],[142.17209,43.42387],[142.17246,43.42294],[142.17248,43.422],[142.1747,43.41912],[142.1748,43.41854],[142.17455,43.41832],[142.17286,43.41791],[142.17235,43.41756],[142.17144,43.41653],[142.17118,43.41589],[142.17029,43.41638],[142.16988,43.41631],[142.16973,43.41599],[142.16984,43.41527],[142.16961,43.41497],[142.16926,43.41504],[142.16879,43.41479],[142.16858,43.41524],[142.16847,43.41636],[142.16779,43.41791],[142.16676,43.4197],[142.16643,43.42078],[142.1664,43.4217],[142.16523,43.42396],[142.1631,43.42714],[142.15873,43.43227],[142.15763,43.43418],[142.15609,43.43576],[142.15527,43.43624],[142.15109,43.43772],[142.15009,43.43825],[142.14937,43.43894],[142.14876,43.44032],[142.14865,43.44125],[142.14877,43.44193],[142.14916,43.44266],[142.15106,43.44404],[142.15258,43.44479]]]},"properties":{"key":"012160360","name":"川岸","pref":"北海道","prefCode":"01","municipality":"芦別市","areaM2":1339179.926,"population":20,"toponymIds":["01-ead29f106c"]}},{"type":"Feature","geometry":{"type":"Polygon","coordinates":[[[142.17085,43.51025],[142.17139,43.51011],[142.17161,43.5104],[142.1722,43.51049],[142.17796,43.50793],[142.17851,43.50751],[142.18145,43.50609],[142.18481,43.50358],[142.18656,43.50128],[142.18719,43.50068],[142.18772,43.49959],[142.18506,43.49917],[142.18346,43.49793],[142.18285,43.49777],[142.1801,43.49769],[142.17948,43.49736],[142.17937,43.49625],[142.17996,43.4957],[142.18058,43.49543],[142.18118,43.4954],[142.18309,43.49195],[142.18307,43.49074],[142.18173,43.48943],[142.1796,43.48818],[142.17742,43.48717],[142.17746,43.48696],[142.17789,43.48658],[142.17978,43.48563],[142.18077,43.48495],[142.18086,43.48475],[142.18071,43.48444],[142.17727,43.48244],[142.17519,43.48191],[142.1732,43.48114],[142.17139,43.4801],[142.17006,43.47863],[142.16903,43.47919],[142.16896,43.47956],[142.16944,43.48055],[142.16918,43.48065],[142.16812,43.48029],[142.16746,43.47984],[142.16581,43.47935],[142.16449,43.47908],[142.16383,43.47935],[142.16154,43.47858],[142.16061,43.47741],[142.16009,43.47474],[142.15958,43.47412],[142.15333,43.46898],[142.14788,43.46497],[142.14675,43.46382],[142.14617,43.46355],[142.14191,43.46307],[142.13429,43.46279],[142.12812,43.4634],[142.12242,43.46495],[142.11963,43.46602],[142.11718,43.46725],[142.11494,43.4686],[142.11172,43.46981],[142.1079,43.4715],[142.10577,43.47251],[142.10408,43.47356],[142.10291,43.47397],[142.09885,43.47473],[142.09288,43.475],[142.08888,43.47452],[142.0856,43.47331],[142.08304,43.47136],[142.08183,43.47016],[142.08085,43.4688],[142.07511,43.47155],[142.06951,43.47332],[142.06612,43.47422],[142.0662,43.47532],[142.06673,43.47598],[142.06804,43.47628],[142.06888,43.47694],[142.06976,43.47688],[142.07145,43.47722],[142.0718,43.47774],[142.07165,43.47824],[142.07188,43.47886],[142.07182,43.4796],[142.07148,43.47997],[142.07168,43.48068],[142.0714,43.48107],[142.07133,43.4821],[142.07301,43.48262],[142.07348,43.4834],[142.07513,43.48448],[142.07534,43.48477],[142.07535,43.48519],[142.07485,43.48588],[142.07572,43.48635],[142.07583,43.48682],[142.07668,43.48806],[142.07833,43.48825],[142.07997,43.48959],[142.08365,43.48983],[142.08536,43.48908],[142.08658,43.4888],[142.08786,43.48871],[142.08991,43.48926],[142.09138,43.48879],[142.09256,43.48813],[142.09272,43.48745],[142.09376,43.48648],[142.09287,43.48527],[142.09263,43.48443],[142.09331,43.48312],[142.09517,43.48207],[142.09598,43.48183],[142.09747,43.48183],[142.15644,43.49028],[142.1735,43.50073],[142.16836,43.51028],[142.16841,43.51112],[142.16986,43.51047],[142.17085,43.51025]]]},"properties":{"key":"012160310","name":"西芦別町","pref":"北海道","prefCode":"01","municipality":"芦別市","areaM2":18424345.32,"population":234,"toponymIds":["01-a804a263b9"]}},{"type":"Feature","geometry":{"type":"Polygon","coordinates":[[[142.12007,43.54095],[142.12021,43.54006],[142.11658,43.53977],[142.11639,43.54092],[142.12005,43.54111],[142.12007,43.54095]]]},"properties":{"key":"01218046001","name":"平岸曙町一丁目","pref":"北海道","prefCode":"01","municipality":"赤平市","areaM2":36280.532,"population":90,"toponymIds":["01-54e998318d"]}},{"type":"Feature","geometry":{"type":"Polygon","coordinates":[[[142.10513,43.53728],[142.10421,43.53688],[142.10133,43.53615],[142.09845,43.53567],[142.09777,43.53564],[142.09765,43.53596],[142.09761,43.53641],[142.09897,43.53663],[142.09996,43.53711],[142.10212,43.53884],[142.10513,43.53728]]]},"properties":{"key":"012180430","name":"平岸桂町","pref":"北海道","prefCode":"01","municipality":"赤平市","areaM2":90284.707,"population":16,"toponymIds":["01-ecedd1ea67"]}},{"type":"Feature","geometry":{"type":"Polygon","coordinates":[[[142.11996,43.54183],[142.12005,43.54111],[142.1148,43.5408],[142.1132,43.54052],[142.11309,43.54125],[142.11996,43.54183]]]},"properties":{"key":"01218045001","name":"平岸新光町一丁目","pref":"北海道","prefCode":"01","municipality":"赤平市","areaM2":39441.688,"population":15,"toponymIds":["01-2b7a54d6db"]}},{"type":"Feature","geometry":{"type":"Polygon","coordinates":[[[142.12387,43.54212],[142.12394,43.54161],[142.12777,43.54184],[142.12781,43.54133],[142.12769,43.5412],[142.12083,43.54085],[142.12007,43.54095],[142.11996,43.54183],[142.12387,43.54212]]]},"properties":{"key":"01218047001","name":"平岸仲町一丁目","pref":"北海道","prefCode":"01","municipality":"赤平市","areaM2":58091.006,"population":33,"toponymIds":["01-ec19cf2e5b"]}},{"type":"Feature","geometry":{"type":"Polygon","coordinates":[[[142.11309,43.54125],[142.11319,43.54055],[142.11056,43.53967],[142.11018,43.54008],[142.1098,43.54001],[142.109,43.54037],[142.10844,43.54044],[142.10781,43.54003],[142.10782,43.54049],[142.1066,43.54029],[142.1064,43.54043],[142.10787,43.54084],[142.11309,43.54125]]]},"properties":{"key":"01218044001","name":"平岸西町一丁目","pref":"北海道","prefCode":"01","municipality":"赤平市","areaM2":46199.448,"population":31,"toponymIds":["01-f8478b52c6"]}},{"type":"Feature","geometry":{"type":"Polygon","coordinates":[[[142.13323,43.54462],[142.13335,43.54292],[142.13075,43.54268],[142.13072,43.54256],[142.1277,43.54241],[142.12757,43.54324],[142.12673,43.54316],[142.12649,43.54416],[142.12833,43.545],[142.12939,43.54517],[142.13103,43.54508],[142.13323,43.54462]]]},"properties":{"key":"01218048001","name":"平岸東町一丁目","pref":"北海道","prefCode":"01","municipality":"赤平市","areaM2":129889.697,"population":49,"toponymIds":["01-a766cb431a"]}},{"type":"Feature","geometry":{"type":"Polygon","coordinates":[[[142.1345,43.53788],[142.13935,43.53825],[142.14335,43.53606],[142.14251,43.53589],[142.13889,43.53685],[142.13742,43.53706],[142.13516,43.53706],[142.13605,43.53635],[142.13708,43.53461],[142.1358,43.53184],[142.13379,43.53138],[142.13386,43.52975],[142.13321,43.52937],[142.13254,43.52947],[142.13191,43.52911],[142.13198,43.52879],[142.12994,43.52835],[142.12896,43.52859],[142.12714,43.5284],[142.12656,43.52892],[142.12565,43.52896],[142.12521,43.52935],[142.12278,43.52993],[142.12107,43.53093],[142.1204,43.53194],[142.11043,43.53264],[142.11197,43.53019],[142.11272,43.52836],[142.11318,43.52486],[142.11262,43.52442],[142.11148,43.52472],[142.10983,43.52463],[142.1093,43.52478],[142.10846,43.52456],[142.10642,43.52319],[142.10589,43.52241],[142.10589,43.52214],[142.10454,43.52141],[142.10266,43.52232],[142.10251,43.52489],[142.10212,43.52508],[142.10226,43.5254],[142.10119,43.52657],[142.10589,43.52665],[142.1016,43.53236],[142.10072,43.53222],[142.10008,43.53435],[142.09964,43.53467],[142.09801,43.53455],[142.09793,43.53542],[142.09777,43.53564],[142.1028,43.53647],[142.1061,43.53763],[142.10616,43.53748],[142.10537,43.53718],[142.10542,43.53689],[142.10479,43.53656],[142.10432,43.53592],[142.10453,43.53567],[142.10636,43.53597],[142.11053,43.5359],[142.11385,43.53643],[142.11507,43.53636],[142.1345,43.53788]]]},"properties":{"key":"012180490","name":"平岸南町","pref":"北海道","prefCode":"01","municipality":"赤平市","areaM2":2645485.642,"population":4,"toponymIds":["01-b2475d3c42"]}},{"type":"Feature","geometry":{"type":"Polygon","coordinates":[[[145.58866,43.33157],[145.588,43.33129],[145.58561,43.33433],[145.58691,43.33489],[145.58931,43.33186],[145.58866,43.33157]]]},"properties":{"key":"01223013001","name":"有磯町一丁目","pref":"北海道","prefCode":"01","municipality":"根室市","areaM2":47943.058,"population":88,"toponymIds":["01-3e97d2c692"]}},{"type":"Feature","geometry":{"type":"Polygon","coordinates":[[[145.57927,43.33356],[145.57786,43.33301],[145.57734,43.33344],[145.57885,43.33407],[145.57927,43.33356]]]},"properties":{"key":"01223024001","name":"梅ケ枝町一丁目","pref":"北海道","prefCode":"01","municipality":"根室市","areaM2":8704.691,"population":24,"toponymIds":["01-eaa6a4f554"]}},{"type":"Feature","geometry":{"type":"Polygon","coordinates":[[[145.58708,43.34123],[145.58797,43.34069],[145.58715,43.33942],[145.58583,43.33864],[145.58494,43.33932],[145.58651,43.34041],[145.58612,43.34128],[145.5864,43.34084],[145.58637,43.34105],[145.58708,43.34123]]]},"properties":{"key":"01223003001","name":"海岸町一丁目","pref":"北海道","prefCode":"01","municipality":"根室市","areaM2":32449.155,"population":0,"toponymIds":["01-0931e3dd53"]}},{"type":"Feature","geometry":{"type":"Polygon","coordinates":[[[145.44232,43.26175],[145.4433,43.26208],[145.44513,43.26236],[145.44616,43.26297],[145.44702,43.26326],[145.44937,43.26391],[145.45105,43.26419],[145.45446,43.26326],[145.45608,43.26299],[145.45861,43.26312],[145.4599,43.2636],[145.46112,43.26375],[145.46148,43.26399],[145.46212,43.26485],[145.46292,43.26535],[145.46405,43.26576],[145.46502,43.26649],[145.46572,43.26672],[145.46832,43.2681],[145.47015,43.26867],[145.47009,43.26912],[145.47042,43.26955],[145.47097,43.26979],[145.471,43.27016],[145.47189,43.27056],[145.47167,43.27079],[145.47116,43.27075],[145.47167,43.27134],[145.47228,43.27138],[145.47283,43.27172],[145.47341,43.27144],[145.47509,43.27159],[145.47598,43.27263],[145.47697,43.27317],[145.47816,43.27333],[145.479,43.27326],[145.48071,43.27364],[145.48107,43.27359],[145.48188,43.27296],[145.48489,43.27202],[145.48654,43.27111],[145.48699,43.27059],[145.48693,43.26992],[145.48733,43.26736],[145.48812,43.26509],[145.4895,43.26309],[145.49089,43.26221],[145.49383,43.26095],[145.49838,43.25999],[145.50106,43.25911],[145.5017,43.2584],[145.50359,43.2575],[145.50524,43.25622],[145.50683,43.25565],[145.50832,43.25443],[145.5086,43.25372],[145.50854,43.25329],[145.50762,43.25205],[145.50768,43.25183],[145.50723,43.25101],[145.50613,43.25022],[145.50631,43.2499],[145.50622,43.24949],[145.50665,43.24904],[145.50777,43.24855],[145.50854,43.24794],[145.51006,43.24737],[145.51275,43.24601],[145.51354,43.24485],[145.51397,43.24355],[145.51373,43.2421],[145.51391,43.24147],[145.51498,43.23983],[145.51543,43.23857],[145.51528,43.2381],[145.51537,43.23771],[145.51278,43.23594],[145.51263,43.23564],[145.51272,43.23549],[145.51244,43.23515],[145.51147,43.23478],[145.51086,43.23431],[145.51049,43.2336],[145.50985,43.23147],[145.50771,43.2286],[145.50753,43.22782],[145.50759,43.22738],[145.50878,43.2253],[145.50842,43.22441],[145.50729,43.22315],[145.50692,43.22245],[145.50643,43.22024],[145.50576,43.21906],[145.50582,43.21871],[145.5054,43.21826],[145.50517,43.21763],[145.50511,43.21715],[145.50538,43.21661],[145.50703,43.21629],[145.50821,43.2163],[145.50858,43.21608],[145.50838,43.21528],[145.50725,43.21422],[145.50615,43.2138],[145.49967,43.21437],[145.49818,43.21494],[145.49516,43.21645],[145.49406,43.21678],[145.49127,43.2174],[145.48883,43.21756],[145.48623,43.21746],[145.48515,43.21712],[145.48498,43.21558],[145.48441,43.21585],[145.47268,43.21902],[145.47002,43.21881],[145.46529,43.21987],[145.46213,43.21918],[145.45771,43.21771],[145.45324,43.2166],[145.45217,43.2166],[145.4484,43.21708],[145.4461,43.21684],[145.44298,43.21759],[145.45405,43.224],[145.45776,43.2264],[145.46255,43.22772],[145.46296,43.22832],[145.463,43.22899],[145.46275,43.23011],[145.46228,43.23118],[145.46204,43.23252],[145.46229,43.23397],[145.46298,43.23518],[145.46298,43.23574],[145.46203,43.23762],[145.46188,43.23933],[145.46152,43.24033],[145.46159,43.24053],[145.46219,43.2417],[145.46293,43.24187],[145.46475,43.24157],[145.46679,43.24219],[145.46858,43.24332],[145.469,43.24383],[145.46967,43.24426],[145.46936,43.24534],[145.46918,43.24538],[145.46851,43.24663],[145.46565,43.2482],[145.46456,43.2486],[145.46317,43.2496],[145.46394,43.24983],[145.46435,43.25048],[145.46426,43.25088],[145.46397,43.25106],[145.46397,43.25148],[145.4642,43.25156],[145.46418,43.25217],[145.46444,43.25232],[145.46382,43.25279],[145.46395,43.25305],[145.4637,43.25328],[145.46371,43.25375],[145.46341,43.25428],[145.46357,43.2544],[145.46338,43.25466],[145.45485,43.25397],[145.44414,43.25255],[145.44436,43.25283],[145.44396,43.2531],[145.44395,43.25328],[145.4442,43.25352],[145.44383,43.25369],[145.44394,43.25379],[145.44372,43.25411],[145.44385,43.25429],[145.44359,43.25427],[145.44336,43.25448],[145.44365,43.25505],[145.44314,43.25527],[145.44328,43.25539],[145.4432,43.25549],[145.44143,43.25633],[145.44119,43.25677],[145.44016,43.25709],[145.44069,43.25758],[145.44061,43.25779],[145.44092,43.25828],[145.44082,43.25853],[145.44121,43.25858],[145.44104,43.25889],[145.44138,43.25891],[145.44143,43.25945],[145.44191,43.25957],[145.44254,43.26042],[145.44265,43.26092],[145.44295,43.26113],[145.44232,43.26175]]]},"properties":{"key":"012230460","name":"東梅","pref":"北海道","prefCode":"01","municipality":"根室市","areaM2":23042559.018,"population":162,"toponymIds":["01-44a2aee593"]}},{"type":"Feature","geometry":{"type":"Polygon","coordinates":[[[141.67639,42.82831],[141.67593,42.82816],[141.67465,42.82987],[141.67938,42.83103],[141.68012,42.82912],[141.67639,42.82831]]]},"properties":{"key":"01224068001","name":"梅ヶ丘一丁目","pref":"北海道","prefCode":"01","municipality":"千歳市","areaM2":83402.429,"population":496,"toponymIds":["01-16690e9343"]}},{"type":"Feature","geometry":{"type":"Polygon","coordinates":[[[141.69691,42.85998],[141.70148,42.85991],[141.70909,42.85902],[141.70952,42.85868],[141.70912,42.85724],[141.71109,42.85633],[141.71135,42.8559],[141.71126,42.85521],[141.71146,42.855],[141.71224,42.855],[141.7132,42.85629],[141.71442,42.85713],[141.71424,42.85594],[141.7145,42.8548],[141.7162,42.85378],[141.71695,42.85264],[141.71738,42.85167],[141.72315,42.85105],[141.72386,42.85067],[141.72426,42.85022],[141.72565,42.85051],[141.72639,42.8504],[141.72826,42.84925],[141.72977,42.84764],[141.73155,42.84674],[141.73264,42.84417],[141.73369,42.84315],[141.73421,42.84237],[141.73561,42.8377],[141.73715,42.83327],[141.73752,42.83239],[141.7386,42.83069],[141.73901,42.82942],[141.73099,42.82555],[141.71992,42.81928],[141.71504,42.82076],[141.71025,42.82117],[141.70705,42.82116],[141.70115,42.82276],[141.69675,42.82289],[141.694,42.82273],[141.68684,42.82361],[141.67854,42.82331],[141.67918,42.82357],[141.6876,42.82458],[141.68949,42.82859],[141.69082,42.83188],[141.68949,42.83162],[141.68918,42.83243],[141.68795,42.83217],[141.68748,42.83333],[141.68682,42.83382],[141.68693,42.83395],[141.68492,42.83456],[141.68439,42.83592],[141.68308,42.83563],[141.68253,42.83709],[141.68207,42.83701],[141.68189,42.83745],[141.68223,42.83759],[141.68235,42.83819],[141.68269,42.83837],[141.68435,42.83782],[141.68524,42.83776],[141.68725,42.83845],[141.6887,42.83952],[141.68926,42.8404],[141.68948,42.84123],[141.68936,42.84326],[141.68891,42.84481],[141.69023,42.8473],[141.69081,42.84786],[141.69355,42.84855],[141.69412,42.84915],[141.69166,42.85338],[141.68983,42.85393],[141.69152,42.85544],[141.69127,42.85645],[141.69159,42.85755],[141.69148,42.85821],[141.69089,42.85943],[141.69082,42.86002],[141.69156,42.86067],[141.69259,42.86096],[141.69691,42.85998]]]},"properties":{"key":"012240292","name":"祝梅","pref":"北海道","prefCode":"01","municipality":"千歳市","areaM2":13719846.456,"population":1793,"toponymIds":["01-546cf12dfb"]}},{"type":"Feature","geometry":{"type":"Polygon","coordinates":[[[141.6456,42.81529],[141.64359,42.81418],[141.64183,42.81277],[141.64027,42.81396],[141.64056,42.81464],[141.64094,42.81494],[141.64101,42.81521],[141.6409,42.81531],[141.64121,42.81543],[141.64187,42.8155],[141.64283,42.81516],[141.64501,42.81576],[141.64598,42.81567],[141.6456,42.81529]]]},"properties":{"key":"01224011001","name":"真々地一丁目","pref":"北海道","prefCode":"01","municipality":"千歳市","areaM2":71262.302,"population":335,"toponymIds":["01-ad73b5bfb5"]}},{"type":"Feature","geometry":{"type":"Polygon","coordinates":[[[141.0938,42.41622],[141.09392,42.41562],[141.09374,42.41548],[141.09264,42.41517],[141.09151,42.41565],[141.09102,42.4153],[141.08707,42.41882],[141.08862,42.41949],[141.08829,42.41984],[141.08902,42.42025],[141.08892,42.42106],[141.08965,42.42136],[141.08972,42.42085],[141.09002,42.42029],[141.09097,42.41945],[141.09076,42.41866],[141.09118,42.4178],[141.09095,42.41747],[141.0938,42.41622]]]},"properties":{"key":"01230024001","name":"片倉町一丁目","pref":"北海道","prefCode":"01","municipality":"登別市","areaM2":135212.269,"population":94,"toponymIds":["01-9dfd8bf565"]}},{"type":"Feature","geometry":{"type":"Polygon","coordinates":[[[141.07119,42.39742],[141.07064,42.39683],[141.0701,42.39729],[141.06678,42.39622],[141.06328,42.39428],[141.06355,42.39279],[141.06563,42.39183],[141.06615,42.3904],[141.05711,42.3882],[141.05646,42.38967],[141.05554,42.38921],[141.0542,42.39133],[141.05271,42.39193],[141.05168,42.39582],[141.05164,42.39687],[141.05178,42.39747],[141.05256,42.39798],[141.05277,42.39836],[141.05358,42.40032],[141.05365,42.40084],[141.05043,42.40212],[141.04939,42.40277],[141.04459,42.40959],[141.04736,42.41003],[141.05144,42.41099],[141.05858,42.41464],[141.06302,42.41397],[141.06498,42.4119],[141.06778,42.40594],[141.06833,42.40549],[141.06899,42.40532],[141.0702,42.403],[141.07177,42.39791],[141.07119,42.39742]]]},"properties":{"key":"01230034000","name":"富岸町","pref":"北海道","prefCode":"01","municipality":"登別市","areaM2":3686915.237,"population":59,"toponymIds":["01-5114c2e27e"]}},{"type":"Feature","geometry":{"type":"Polygon","coordinates":[[[141.61386,42.87104],[141.60989,42.86516],[141.60949,42.86531],[141.60837,42.86362],[141.60507,42.85778],[141.60412,42.85828],[141.58833,42.87023],[141.58858,42.8704],[141.58879,42.8709],[141.59002,42.87194],[141.58992,42.87246],[141.59041,42.87245],[141.59082,42.87274],[141.59123,42.8728],[141.59153,42.87309],[141.59214,42.87295],[141.59141,42.87189],[141.5975,42.86965],[141.59916,42.87224],[141.59439,42.87628],[141.6036,42.89],[141.62219,42.88327],[141.61386,42.87104]]]},"properties":{"key":"012310520","name":"戸磯","pref":"北海道","prefCode":"01","municipality":"恵庭市","areaM2":4639043.315,"population":135,"toponymIds":["01-4c3893b116"]}},{"type":"Feature","geometry":{"type":"Polygon","coordinates":[[[140.87624,42.47512],[140.87665,42.47489],[140.87699,42.47517],[140.87876,42.4742],[140.87721,42.47324],[140.87656,42.47354],[140.87532,42.47285],[140.87446,42.47194],[140.87445,42.4714],[140.87401,42.47088],[140.87441,42.47056],[140.87329,42.46942],[140.873,42.46862],[140.87107,42.46959],[140.87159,42.47017],[140.86784,42.47185],[140.86809,42.47221],[140.86813,42.47289],[140.8689,42.47355],[140.86913,42.47432],[140.87065,42.47513],[140.87143,42.47621],[140.8719,42.47661],[140.87249,42.47672],[140.87259,42.47695],[140.87624,42.47512]]]},"properties":{"key":"012330040","name":"梅本町","pref":"北海道","prefCode":"01","municipality":"伊達市","areaM2":378876.917,"population":1194,"toponymIds":["01-02887901c8"]}},{"type":"Feature","geometry":{"type":"Polygon","coordinates":[[[140.86649,42.47011],[140.86636,42.46984],[140.86598,42.46998],[140.8657,42.46931],[140.86512,42.46959],[140.86474,42.46943],[140.86417,42.46975],[140.86374,42.46952],[140.86253,42.46993],[140.86264,42.47076],[140.86281,42.471],[140.86254,42.4716],[140.86344,42.47238],[140.86357,42.47267],[140.86413,42.47288],[140.86702,42.47223],[140.86784,42.47185],[140.86711,42.47127],[140.86649,42.47011]]]},"properties":{"key":"012330010","name":"鹿島町","pref":"北海道","prefCode":"01","municipality":"伊達市","areaM2":113578.145,"population":267,"toponymIds":["01-c396cbdf36"]}}]}
