{"type":"FeatureCollection","features":[{"type":"Feature","geometry":{"type":"Polygon","coordinates":[[[136.11548,36.08178],[136.11505,36.07971],[136.11672,36.07737],[136.11703,36.07662],[136.11694,36.07593],[136.11634,36.07543],[136.11618,36.07249],[136.11218,36.07332],[136.11191,36.07301],[136.11188,36.07231],[136.11152,36.07202],[136.11145,36.07145],[136.11108,36.07146],[136.1109,36.07104],[136.11052,36.07098],[136.11033,36.07034],[136.10945,36.07025],[136.10778,36.06927],[136.10761,36.06867],[136.10649,36.06834],[136.10505,36.07005],[136.10315,36.07182],[136.10138,36.07274],[136.09948,36.07268],[136.09972,36.07374],[136.0995,36.07436],[136.1008,36.07484],[136.10139,36.07525],[136.10166,36.07565],[136.10234,36.07803],[136.10392,36.0794],[136.1059,36.07915],[136.10661,36.0801],[136.10777,36.08085],[136.10825,36.08158],[136.1083,36.08216],[136.10905,36.08253],[136.10982,36.08251],[136.11005,36.08286],[136.10982,36.08362],[136.11011,36.08474],[136.1118,36.08408],[136.11228,36.08347],[136.11248,36.08267],[136.11323,36.08169],[136.11428,36.08133],[136.11548,36.08178]]]},"properties":{"key":"182010030","name":"足谷町","pref":"福井県","prefCode":"18","municipality":"福井市","areaM2":1484894.218,"population":4,"toponymIds":["18-1e5c2ca78d"]}},{"type":"Feature","geometry":{"type":"Polygon","coordinates":[[[136.21044,36.06164],[136.21154,36.06035],[136.21233,36.0578],[136.21169,36.05772],[136.21171,36.05725],[136.21156,36.0572],[136.20986,36.05732],[136.20674,36.05718],[136.20699,36.05924],[136.20697,36.06164],[136.21044,36.06164]]]},"properties":{"key":"18201004001","name":"足羽一丁目","pref":"福井県","prefCode":"18","municipality":"福井市","areaM2":208288.799,"population":715,"toponymIds":["18-d75771bd53"]}},{"type":"Feature","geometry":{"type":"Polygon","coordinates":[[[136.21072,36.05728],[136.21048,36.05683],[136.21053,36.05592],[136.21018,36.05551],[136.20954,36.05538],[136.20974,36.05499],[136.20968,36.05467],[136.20847,36.05462],[136.20844,36.05334],[136.20779,36.05323],[136.20713,36.05346],[136.20651,36.05294],[136.20594,36.05301],[136.20589,36.0523],[136.20541,36.05205],[136.20392,36.05287],[136.20505,36.05411],[136.20607,36.05405],[136.20666,36.05454],[136.20702,36.05435],[136.20726,36.05439],[136.20806,36.05561],[136.20854,36.05718],[136.21072,36.05728]]]},"properties":{"key":"182010050","name":"足羽上町","pref":"福井県","prefCode":"18","municipality":"福井市","areaM2":115712.079,"population":0,"toponymIds":["18-5ca2e366c8"]}},{"type":"Feature","geometry":{"type":"Polygon","coordinates":[[[136.17271,36.12561],[136.17221,36.12476],[136.17156,36.12307],[136.17089,36.12029],[136.1708,36.11841],[136.17101,36.11672],[136.16559,36.11564],[136.16234,36.11477],[136.16176,36.11504],[136.15944,36.11703],[136.15834,36.11771],[136.15865,36.11825],[136.15959,36.11841],[136.16046,36.1189],[136.1607,36.11927],[136.16095,36.12035],[136.16206,36.12112],[136.16296,36.12202],[136.16578,36.12273],[136.16662,36.12328],[136.16714,36.12295],[136.16751,36.12308],[136.16805,36.12294],[136.16797,36.12374],[136.16824,36.12396],[136.16828,36.12431],[136.16813,36.12545],[136.17271,36.12561]]]},"properties":{"key":"182010140","name":"天菅生町","pref":"福井県","prefCode":"18","municipality":"福井市","areaM2":822616.49,"population":96,"toponymIds":["18-769ab7e41f"]}},{"type":"Feature","geometry":{"type":"Polygon","coordinates":[[[135.99167,36.01364],[135.99336,36.0121],[135.99362,36.01163],[135.99386,36.01051],[135.99424,36.00996],[135.99512,36.00956],[135.99689,36.00942],[136.00252,36.00683],[136.0042,36.00589],[136.0036,36.00553],[136.00333,36.00348],[136.0037,36.00311],[136.0038,36.00263],[136.00386,36.00015],[136.00437,35.9999],[136.00461,35.99955],[136.00405,35.99827],[136.00343,35.99734],[136.00248,35.99692],[136.00403,35.993],[136.00403,35.99114],[136.00438,35.99039],[136.00506,35.98967],[136.006,35.98906],[136.00858,35.98789],[136.00865,35.98773],[136.00776,35.98674],[136.00706,35.98632],[136.00608,35.98629],[136.00523,35.98602],[136.00274,35.98643],[136.00271,35.98802],[136.00196,35.98983],[136.00007,35.99307],[135.99767,35.99628],[135.9946,35.99894],[135.99174,36.00081],[135.99111,36.00139],[135.98827,36.00525],[135.98756,36.00719],[135.98686,36.0081],[135.98572,36.00914],[135.98675,36.01026],[135.98675,36.01052],[135.98689,36.01051],[135.98683,36.01077],[135.98699,36.01042],[135.98844,36.01168],[135.98835,36.01174],[135.98855,36.01183],[135.98867,36.01215],[135.98915,36.01241],[135.98903,36.01264],[135.98925,36.01304],[135.9891,36.01262],[135.98928,36.01229],[135.98968,36.01236],[135.99034,36.01287],[135.98995,36.01321],[135.98856,36.01342],[135.9888,36.01357],[135.98997,36.01326],[135.99049,36.01282],[135.99125,36.01365],[135.99123,36.0139],[135.99167,36.01364]]]},"properties":{"key":"182014850","name":"居倉町","pref":"福井県","prefCode":"18","municipality":"福井市","areaM2":2227402.807,"population":104,"toponymIds":["18-853d103f79"]}},{"type":"Feature","geometry":{"type":"Polygon","coordinates":[[[136.26221,36.00923],[136.26238,36.00922],[136.26234,36.00491],[136.26246,36.00442],[136.26273,36.00454],[136.26321,36.00436],[136.26319,36.00323],[136.26348,36.00322],[136.26373,36.00262],[136.26344,36.0017],[136.26307,36.0014],[136.26352,35.99944],[136.26236,35.99993],[136.26154,36.00049],[136.26099,36.00188],[136.25991,36.00245],[136.25975,36.00338],[136.25949,36.00325],[136.25739,36.00329],[136.25739,36.00352],[136.25825,36.00358],[136.25844,36.00379],[136.25848,36.00489],[136.2587,36.00488],[136.25871,36.00455],[136.25923,36.00455],[136.2592,36.00547],[136.25865,36.00562],[136.25868,36.00804],[136.25984,36.00804],[136.25984,36.00877],[136.26109,36.00877],[136.26109,36.00921],[136.26221,36.00923]]]},"properties":{"key":"182010420","name":"岩倉町","pref":"福井県","prefCode":"18","municipality":"福井市","areaM2":298481.613,"population":86,"toponymIds":["18-3ade680135"]}},{"type":"Feature","geometry":{"type":"Polygon","coordinates":[[[136.35323,36.03611],[136.35379,36.03633],[136.35465,36.03605],[136.35581,36.03593],[136.35663,36.03615],[136.3574,36.03584],[136.35576,36.03279],[136.35429,36.03065],[136.35399,36.02998],[136.35418,36.02955],[136.35412,36.02926],[136.35353,36.02883],[136.35215,36.02849],[136.35152,36.02748],[136.35146,36.02649],[136.35192,36.02571],[136.35208,36.02505],[136.35192,36.02396],[136.35205,36.02292],[136.35188,36.02239],[136.35195,36.0211],[136.35136,36.02073],[136.35138,36.01984],[136.35102,36.01958],[136.35029,36.01975],[136.3487,36.01922],[136.34731,36.01856],[136.34622,36.01745],[136.34453,36.0164],[136.34415,36.01584],[136.3417,36.01471],[136.34181,36.01432],[136.33762,36.0141],[136.33619,36.01416],[136.33491,36.0146],[136.33528,36.01504],[136.33482,36.01542],[136.33461,36.0179],[136.33369,36.01997],[136.33572,36.02066],[136.33699,36.02081],[136.33727,36.02097],[136.3377,36.02138],[136.33796,36.02302],[136.33873,36.02333],[136.34052,36.0247],[136.34077,36.02564],[136.34132,36.0262],[136.3416,36.02579],[136.34187,36.02594],[136.34195,36.02637],[136.34225,36.02671],[136.34271,36.02656],[136.34342,36.02567],[136.3437,36.02577],[136.34358,36.02647],[136.34477,36.02729],[136.34545,36.02927],[136.34712,36.03196],[136.34725,36.03096],[136.34829,36.03052],[136.34913,36.03316],[136.35025,36.03349],[136.35065,36.03473],[136.35135,36.03492],[136.35276,36.03634],[136.35323,36.03611]]]},"properties":{"key":"182014310","name":"大久保町","pref":"福井県","prefCode":"18","municipality":"福井市","areaM2":2148035.202,"population":162,"toponymIds":["18-a61e7c44b0"]}},{"type":"Feature","geometry":{"type":"Polygon","coordinates":[[[136.14986,36.10298],[136.15032,36.1024],[136.15163,36.10217],[136.15398,36.1013],[136.15677,36.10278],[136.15737,36.10269],[136.15794,36.10253],[136.16106,36.10046],[136.1622,36.10052],[136.16253,36.09807],[136.16197,36.09725],[136.16116,36.09667],[136.1609,36.09627],[136.16074,36.09447],[136.16127,36.09321],[136.16203,36.0924],[136.16305,36.09198],[136.16333,36.09205],[136.16268,36.09144],[136.1609,36.09046],[136.15851,36.08982],[136.15807,36.08879],[136.15693,36.08799],[136.15909,36.08482],[136.15989,36.08194],[136.15971,36.08103],[136.16006,36.08054],[136.15986,36.0798],[136.16003,36.07929],[136.16094,36.07807],[136.16135,36.07675],[136.16101,36.07672],[136.16053,36.0763],[136.15925,36.07649],[136.1589,36.07636],[136.15846,36.07592],[136.1578,36.07572],[136.15738,36.07518],[136.15666,36.07503],[136.15571,36.0745],[136.15513,36.07398],[136.15457,36.07314],[136.15389,36.0727],[136.15364,36.07122],[136.15372,36.07098],[136.15251,36.07038],[136.1519,36.06914],[136.1511,36.06857],[136.15,36.06869],[136.14891,36.06914],[136.14776,36.06917],[136.14741,36.06902],[136.14624,36.06915],[136.14312,36.07008],[136.14216,36.07076],[136.14185,36.07133],[136.14198,36.07163],[136.14339,36.07246],[136.14345,36.07306],[136.14231,36.07464],[136.14069,36.07593],[136.13989,36.07701],[136.14047,36.07875],[136.14137,36.08005],[136.14171,36.08113],[136.14241,36.08191],[136.14259,36.08237],[136.14349,36.08491],[136.1439,36.08713],[136.14506,36.08891],[136.14647,36.08988],[136.14889,36.09062],[136.14931,36.09132],[136.1499,36.09306],[136.14989,36.09501],[136.15004,36.09596],[136.14977,36.09635],[136.15006,36.0968],[136.15013,36.09734],[136.14995,36.09767],[136.14963,36.09952],[136.14994,36.10009],[136.14919,36.10214],[136.14986,36.10298]]]},"properties":{"key":"182010800","name":"柿谷町","pref":"福井県","prefCode":"18","municipality":"福井市","areaM2":4576202.251,"population":18,"toponymIds":["18-b6125cb1b4"]}},{"type":"Feature","geometry":{"type":"Polygon","coordinates":[[[136.28146,35.9948],[136.28198,35.99439],[136.28275,35.99417],[136.28438,35.99303],[136.28454,35.99239],[136.2844,35.99206],[136.2845,35.99153],[136.28482,35.99126],[136.28502,35.99062],[136.28489,35.9892],[136.28592,35.98768],[136.28644,35.98797],[136.28737,35.98695],[136.28701,35.98639],[136.28641,35.98596],[136.28627,35.98542],[136.28667,35.9849],[136.28666,35.98238],[136.28573,35.98159],[136.28476,35.98115],[136.28427,35.98051],[136.28448,35.97806],[136.28408,35.9775],[136.28414,35.97649],[136.28445,35.97449],[136.28484,35.97372],[136.28381,35.97312],[136.28279,35.97192],[136.28241,35.97176],[136.28085,35.97158],[136.28002,35.97173],[136.27965,35.97164],[136.27809,35.97202],[136.27685,35.97212],[136.27588,35.97196],[136.27482,35.97213],[136.27463,35.97238],[136.27434,35.97395],[136.27377,35.97517],[136.27308,35.97567],[136.2724,35.97563],[136.2712,35.97703],[136.27131,35.97824],[136.27243,35.97867],[136.27333,35.97977],[136.27297,35.98126],[136.27292,35.98289],[136.27225,35.98391],[136.27241,35.98513],[136.27228,35.98611],[136.27238,35.98664],[136.27305,35.98756],[136.27331,35.98822],[136.27366,35.99091],[136.27349,35.99216],[136.27372,35.99305],[136.27387,35.99353],[136.2764,35.99459],[136.27725,35.99465],[136.27863,35.99566],[136.2792,35.99576],[136.27997,35.99559],[136.28146,35.9948]]]},"properties":{"key":"182010860","name":"鹿俣町","pref":"福井県","prefCode":"18","municipality":"福井市","areaM2":2722424.317,"population":134,"toponymIds":["18-742df6a498"]}},{"type":"Feature","geometry":{"type":"Polygon","coordinates":[[[136.1961,36.05901],[136.19525,36.0586],[136.19445,36.05965],[136.19496,36.06003],[136.19491,36.06035],[136.19577,36.06169],[136.19632,36.06342],[136.19761,36.06316],[136.1973,36.05959],[136.1961,36.05901]]]},"properties":{"key":"18201099001","name":"加茂河原一丁目","pref":"福井県","prefCode":"18","municipality":"福井市","areaM2":84158.535,"population":378,"toponymIds":["18-48d9880c4a"]}},{"type":"Feature","geometry":{"type":"Polygon","coordinates":[[[136.18637,36.05324],[136.18583,36.05321],[136.18593,36.05449],[136.18817,36.05471],[136.18819,36.05333],[136.18637,36.05324]]]},"properties":{"key":"182014141","name":"加茂河原町","pref":"福井県","prefCode":"18","municipality":"福井市","areaM2":30677.991,"population":416,"toponymIds":["18-fe412235b6"]}},{"type":"Feature","geometry":{"type":"Polygon","coordinates":[[[136.01158,36.03903],[136.01326,36.03921],[136.01474,36.03968],[136.01548,36.03926],[136.01634,36.03816],[136.01777,36.03833],[136.01864,36.03794],[136.01909,36.03793],[136.01893,36.03738],[136.01941,36.03706],[136.02042,36.03576],[136.02135,36.03511],[136.02595,36.03325],[136.02533,36.03302],[136.0253,36.03246],[136.02504,36.03234],[136.02507,36.03172],[136.02295,36.03077],[136.02254,36.02949],[136.02217,36.029],[136.02198,36.02841],[136.02184,36.02829],[136.02128,36.02837],[136.02097,36.02824],[136.02105,36.02724],[136.02063,36.027],[136.0203,36.0265],[136.02035,36.02616],[136.01988,36.02591],[136.01973,36.02521],[136.0199,36.02494],[136.01937,36.02498],[136.01916,36.024],[136.01856,36.02384],[136.01703,36.02301],[136.01715,36.02227],[136.01674,36.02209],[136.01641,36.0216],[136.01667,36.02092],[136.01581,36.02043],[136.01507,36.02052],[136.0143,36.02038],[136.01397,36.01901],[136.0143,36.01826],[136.01419,36.01747],[136.01469,36.01689],[136.01456,36.01639],[136.01208,36.01678],[136.00941,36.01797],[136.00491,36.0175],[136.00126,36.01839],[136.00046,36.01875],[135.99915,36.01961],[135.99806,36.02065],[135.99823,36.02127],[135.99922,36.02254],[135.99945,36.02324],[136.00043,36.02391],[136.0006,36.02453],[136.00185,36.02582],[136.00208,36.02644],[136.00289,36.02702],[136.00363,36.0282],[136.00495,36.02942],[136.00688,36.03024],[136.00802,36.031],[136.00804,36.03117],[136.00923,36.03131],[136.00891,36.03132],[136.00995,36.03248],[136.01144,36.03455],[136.01168,36.03465],[136.01193,36.03435],[136.01154,36.03467],[136.01223,36.03596],[136.01213,36.03687],[136.00966,36.03691],[136.00966,36.04325],[136.00944,36.04358],[136.00968,36.04365],[136.00993,36.04323],[136.00993,36.03923],[136.01115,36.03923],[136.0112,36.03909],[136.01158,36.03903]]]},"properties":{"key":"182014820","name":"蒲生町","pref":"福井県","prefCode":"18","municipality":"福井市","areaM2":3218561.021,"population":368,"toponymIds":["18-d46b0a296e"]}},{"type":"Feature","geometry":{"type":"Polygon","coordinates":[[[136.17101,36.11672],[136.17155,36.11473],[136.17345,36.11234],[136.17444,36.11158],[136.17338,36.11041],[136.17285,36.11085],[136.17311,36.11025],[136.17265,36.10963],[136.17235,36.10955],[136.17198,36.10861],[136.16915,36.10893],[136.1672,36.10872],[136.16596,36.10927],[136.16606,36.11138],[136.16545,36.11177],[136.16451,36.11305],[136.16259,36.11314],[136.16234,36.11477],[136.16559,36.11564],[136.17101,36.11672]]]},"properties":{"key":"182011050","name":"岸水町","pref":"福井県","prefCode":"18","municipality":"福井市","areaM2":582244.73,"population":33,"toponymIds":["18-8f60ea3eb8"]}},{"type":"Feature","geometry":{"type":"Polygon","coordinates":[[[136.04947,36.10971],[136.04962,36.10955],[136.04973,36.10964],[136.05123,36.10932],[136.05581,36.10783],[136.05657,36.10719],[136.0578,36.10574],[136.05749,36.10483],[136.05519,36.10404],[136.05448,36.10338],[136.05369,36.10227],[136.05257,36.10161],[136.05168,36.10152],[136.05081,36.10092],[136.04992,36.10142],[136.04966,36.10173],[136.04935,36.10401],[136.04896,36.1048],[136.04747,36.10605],[136.04694,36.10605],[136.04649,36.10646],[136.04632,36.10638],[136.04604,36.10692],[136.04614,36.10701],[136.04559,36.10772],[136.04584,36.10784],[136.04538,36.10829],[136.04591,36.10783],[136.04592,36.10796],[136.04644,36.10802],[136.0471,36.10844],[136.04736,36.1088],[136.04778,36.10898],[136.04778,36.10919],[136.04833,36.1094],[136.0483,36.10968],[136.04843,36.1096],[136.04865,36.10989],[136.04947,36.10971]]]},"properties":{"key":"182011070","name":"北菅生町","pref":"福井県","prefCode":"18","municipality":"福井市","areaM2":581430.822,"population":84,"toponymIds":["18-936e75611b"]}},{"type":"Feature","geometry":{"type":"Polygon","coordinates":[[[136.34022,35.99403],[136.34107,35.99331],[136.34228,35.99358],[136.34316,35.99343],[136.34409,35.9929],[136.34541,35.99266],[136.34652,35.99209],[136.34724,35.99199],[136.3483,35.99135],[136.34929,35.99108],[136.35007,35.99108],[136.35236,35.9903],[136.35418,35.99069],[136.35634,35.98996],[136.35875,35.99313],[136.36054,35.99351],[136.36099,35.99344],[136.36166,35.99282],[136.35991,35.99188],[136.35945,35.99137],[136.35931,35.99066],[136.35941,35.98996],[136.35979,35.98931],[136.36031,35.98897],[136.36231,35.98877],[136.36306,35.98855],[136.36356,35.98808],[136.36383,35.98659],[136.36457,35.98465],[136.36458,35.98449],[136.36405,35.9843],[136.36498,35.98367],[136.36602,35.98336],[136.36884,35.98332],[136.36882,35.98231],[136.36896,35.98186],[136.36801,35.98041],[136.36718,35.98004],[136.3648,35.97956],[136.36293,35.9785],[136.3624,35.97847],[136.36231,35.97765],[136.36179,35.97725],[136.35939,35.97615],[136.35861,35.97595],[136.35666,35.97391],[136.35611,35.97252],[136.35405,35.97103],[136.35114,35.97165],[136.35022,35.97222],[136.35027,35.97317],[136.34915,35.97385],[136.34805,35.97406],[136.34575,35.97333],[136.34398,35.97348],[136.34311,35.97445],[136.34203,35.97502],[136.34087,35.97606],[136.34028,35.97626],[136.33866,35.97541],[136.33711,35.97534],[136.33581,35.97486],[136.33444,35.9747],[136.33379,35.97449],[136.33309,35.97397],[136.33311,35.97465],[136.33336,35.97525],[136.33277,35.97559],[136.33296,35.97617],[136.33312,35.97892],[136.33228,35.9795],[136.33109,35.97988],[136.33067,35.98045],[136.33046,35.98129],[136.32999,35.9821],[136.33055,35.98294],[136.33022,35.98414],[136.32835,35.98446],[136.32791,35.9847],[136.32659,35.98479],[136.32708,35.9857],[136.32843,35.98747],[136.32828,35.98818],[136.32899,35.98917],[136.32921,35.98979],[136.3292,35.99069],[136.32902,35.99127],[136.32985,35.99225],[136.33,35.99295],[136.33071,35.99295],[136.331,35.99332],[136.33172,35.99346],[136.3322,35.99319],[136.33314,35.99366],[136.33443,35.99402],[136.33526,35.99389],[136.33693,35.99445],[136.33827,35.99462],[136.34009,35.99511],[136.34022,35.99403]]]},"properties":{"key":"182014740","name":"蔵作町","pref":"福井県","prefCode":"18","municipality":"福井市","areaM2":6122157.539,"population":143,"toponymIds":["18-bca410969d"]}},{"type":"Feature","geometry":{"type":"Polygon","coordinates":[[[136.14327,36.15304],[136.14367,36.1517],[136.14352,36.15141],[136.14443,36.15105],[136.14496,36.15017],[136.14535,36.14998],[136.14628,36.15066],[136.14802,36.15039],[136.14786,36.14951],[136.14802,36.14889],[136.14881,36.14732],[136.14925,36.14706],[136.14733,36.14683],[136.14512,36.14755],[136.14382,36.14735],[136.14375,36.14702],[136.14307,36.14718],[136.14177,36.14708],[136.14149,36.1473],[136.14082,36.14692],[136.14046,36.14704],[136.13949,36.14685],[136.14022,36.14747],[136.14022,36.14793],[136.13957,36.14805],[136.13836,36.14766],[136.13749,36.14765],[136.13716,36.14737],[136.13624,36.14716],[136.13577,36.14867],[136.13506,36.14876],[136.13479,36.14899],[136.13479,36.14931],[136.13581,36.15051],[136.13659,36.15105],[136.13868,36.15209],[136.14002,36.15307],[136.14028,36.15319],[136.14056,36.15297],[136.14132,36.15328],[136.14292,36.15423],[136.14327,36.15304]]]},"properties":{"key":"182011910","name":"菖蒲谷町","pref":"福井県","prefCode":"18","municipality":"福井市","areaM2":566692.269,"population":134,"toponymIds":["18-7ddffe11e3"]}},{"type":"Feature","geometry":{"type":"Polygon","coordinates":[[[136.19913,36.08791],[136.19868,36.08693],[136.19499,36.08558],[136.19341,36.08542],[136.19157,36.08564],[136.19086,36.08589],[136.18936,36.08565],[136.18856,36.08585],[136.18728,36.08437],[136.18595,36.08591],[136.18503,36.08663],[136.18635,36.08802],[136.18778,36.08709],[136.1889,36.08723],[136.1888,36.08754],[136.18912,36.08763],[136.18912,36.0879],[136.18987,36.08781],[136.1899,36.08803],[136.19136,36.08796],[136.1913,36.08744],[136.19216,36.08751],[136.19216,36.08706],[136.19256,36.087],[136.19282,36.08667],[136.1938,36.08651],[136.19573,36.08664],[136.19851,36.08805],[136.19928,36.08826],[136.19913,36.08791]]]},"properties":{"key":"182012000","name":"地蔵堂町","pref":"福井県","prefCode":"18","municipality":"福井市","areaM2":214946.9,"population":78,"toponymIds":["18-f0b2652aa1"]}},{"type":"Feature","geometry":{"type":"Polygon","coordinates":[[[136.19587,36.07298],[136.19643,36.07297],[136.19724,36.07336],[136.19735,36.07087],[136.1959,36.07081],[136.19388,36.06872],[136.19141,36.07152],[136.19276,36.07238],[136.19434,36.07403],[136.19528,36.0732],[136.19587,36.07298]]]},"properties":{"key":"18201209001","name":"菅谷一丁目","pref":"福井県","prefCode":"18","municipality":"福井市","areaM2":162698.333,"population":431,"toponymIds":["18-06c9a73755"]}},{"type":"Feature","geometry":{"type":"Polygon","coordinates":[[[136.18466,36.07748],[136.18613,36.07675],[136.18772,36.07648],[136.19104,36.07539],[136.19204,36.07522],[136.19037,36.07354],[136.18899,36.07272],[136.1869,36.07385],[136.18599,36.07457],[136.18585,36.07481],[136.18615,36.07513],[136.18532,36.07569],[136.18518,36.07608],[136.18533,36.07626],[136.18368,36.07741],[136.18363,36.07725],[136.18289,36.0787],[136.18311,36.07874],[136.18336,36.0783],[136.18363,36.07821],[136.18353,36.07807],[136.18466,36.07748]]]},"properties":{"key":"182014190","name":"菅谷町","pref":"福井県","prefCode":"18","municipality":"福井市","areaM2":165844.539,"population":7,"toponymIds":["18-008b4b1742"]}},{"type":"Feature","geometry":{"type":"Polygon","coordinates":[[[136.36904,35.96975],[136.36852,35.96924],[136.36804,35.96817],[136.3672,35.96724],[136.36701,35.96656],[136.36734,35.96546],[136.36786,35.96451],[136.36919,35.9637],[136.36956,35.96322],[136.36745,35.96052],[136.36665,35.9589],[136.36592,35.95798],[136.36547,35.95682],[136.36481,35.95611],[136.3635,35.95546],[136.36322,35.95496],[136.36249,35.9531],[136.36286,35.95224],[136.36324,35.9518],[136.36305,35.95093],[136.36282,35.95064],[136.36241,35.95052],[136.3616,35.95048],[136.36014,35.95048],[136.35893,35.95077],[136.35909,35.95115],[136.35979,35.95127],[136.36011,35.95189],[136.35942,35.95267],[136.35935,35.95397],[136.3588,35.95562],[136.35776,35.95649],[136.35761,35.95681],[136.35727,35.95835],[136.35669,35.95936],[136.35657,35.96057],[136.35573,35.96104],[136.35523,35.96173],[136.35428,35.9626],[136.35438,35.9632],[136.35518,35.96445],[136.35557,35.96566],[136.35551,35.96694],[136.35576,35.96737],[136.35605,35.96861],[136.35738,35.9696],[136.35922,35.96992],[136.36037,35.96985],[136.36246,35.96896],[136.36736,35.97],[136.36904,35.96975]]]},"properties":{"key":"182014710","name":"西河原町","pref":"福井県","prefCode":"18","municipality":"福井市","areaM2":1757236.493,"population":92,"toponymIds":["18-0aaddcb9a8"]}},{"type":"Feature","geometry":{"type":"Polygon","coordinates":[[[136.38634,35.97164],[136.3816,35.968],[136.38146,35.9668],[136.38055,35.96621],[136.3798,35.96499],[136.38161,35.96386],[136.38251,35.96168],[136.38301,35.9612],[136.38511,35.95999],[136.3853,35.95822],[136.38578,35.95793],[136.38592,35.95633],[136.38631,35.95584],[136.38626,35.95392],[136.38661,35.95227],[136.3862,35.95223],[136.38588,35.95193],[136.38437,35.95118],[136.38371,35.9514],[136.38276,35.95117],[136.38126,35.95168],[136.38023,35.95127],[136.37872,35.95131],[136.37803,35.95156],[136.37632,35.95181],[136.37552,35.95136],[136.3748,35.9506],[136.37386,35.95048],[136.3734,35.94996],[136.37221,35.94917],[136.37054,35.94899],[136.36982,35.94863],[136.36783,35.94878],[136.3671,35.94842],[136.3669,35.9479],[136.36629,35.94815],[136.3649,35.94807],[136.36428,35.94914],[136.36366,35.95136],[136.36321,35.95145],[136.36318,35.95198],[136.36286,35.95224],[136.36249,35.9531],[136.3635,35.95546],[136.36481,35.95611],[136.36547,35.95682],[136.36592,35.95798],[136.36665,35.9589],[136.36745,35.96052],[136.36956,35.96322],[136.36919,35.9637],[136.36786,35.96451],[136.36734,35.96546],[136.36701,35.96656],[136.3672,35.96724],[136.36804,35.96817],[136.36852,35.96924],[136.36904,35.96975],[136.36945,35.96955],[136.37047,35.96828],[136.37148,35.96756],[136.37266,35.96706],[136.37454,35.96659],[136.3765,35.96699],[136.37826,35.9681],[136.37849,35.9691],[136.37922,35.96985],[136.38001,35.97018],[136.3828,35.97019],[136.38377,35.97095],[136.3854,35.97163],[136.38634,35.97164]]]},"properties":{"key":"182014700","name":"東河原町","pref":"福井県","prefCode":"18","municipality":"福井市","areaM2":3292757.552,"population":56,"toponymIds":["18-f6cf9c0144"]}},{"type":"Feature","geometry":{"type":"Polygon","coordinates":[[[136.17849,36.13367],[136.18145,36.13345],[136.18802,36.13072],[136.19174,36.13069],[136.19198,36.13026],[136.19192,36.12834],[136.19223,36.12827],[136.19283,36.12704],[136.19378,36.12741],[136.19391,36.12717],[136.1941,36.12648],[136.19408,36.12453],[136.19338,36.12461],[136.19418,36.12384],[136.19415,36.1234],[136.19368,36.12364],[136.19335,36.12362],[136.19315,36.12396],[136.19272,36.12417],[136.19109,36.12451],[136.18791,36.12447],[136.18549,36.12493],[136.18182,36.12483],[136.18062,36.12518],[136.1792,36.12596],[136.17771,36.12707],[136.17739,36.12878],[136.17613,36.12957],[136.17756,36.13207],[136.17797,36.13367],[136.17849,36.13367]]]},"properties":{"key":"182013300","name":"二日市町","pref":"福井県","prefCode":"18","municipality":"福井市","areaM2":1111627.585,"population":290,"toponymIds":["18-9d0e47f942"]}},{"type":"Feature","geometry":{"type":"Polygon","coordinates":[[[136.04484,36.10764],[136.04487,36.10751],[136.04525,36.10764],[136.04518,36.10785],[136.04533,36.1076],[136.04559,36.10772],[136.04614,36.10701],[136.04604,36.10692],[136.04632,36.10638],[136.04649,36.10646],[136.04694,36.10605],[136.04747,36.10605],[136.04896,36.1048],[136.04935,36.10401],[136.04966,36.10173],[136.04992,36.10142],[136.05081,36.10092],[136.0487,36.09885],[136.04687,36.09889],[136.04586,36.09855],[136.04484,36.0985],[136.04376,36.09883],[136.04141,36.10035],[136.04104,36.10079],[136.03952,36.10045],[136.03974,36.10091],[136.03828,36.10156],[136.03668,36.10189],[136.03684,36.10245],[136.03677,36.10271],[136.03633,36.10267],[136.03617,36.10294],[136.0364,36.10292],[136.03644,36.10321],[136.03655,36.1031],[136.03703,36.10337],[136.03728,36.10381],[136.03764,36.10399],[136.03736,36.10418],[136.03793,36.10423],[136.03733,36.10435],[136.03708,36.1051],[136.03752,36.10508],[136.03796,36.10424],[136.03802,36.10456],[136.0386,36.10453],[136.03845,36.10493],[136.03891,36.10462],[136.03874,36.10503],[136.03882,36.10518],[136.03933,36.1046],[136.0394,36.10486],[136.03967,36.10473],[136.03964,36.10461],[136.04032,36.10472],[136.04059,36.10497],[136.04088,36.10484],[136.04215,36.10557],[136.0425,36.10613],[136.04234,36.10618],[136.04269,36.1065],[136.04448,36.10737],[136.04444,36.10754],[136.04476,36.10754],[136.04471,36.10784],[136.04529,36.10861],[136.04478,36.1078],[136.04484,36.10764]]]},"properties":{"key":"182013610","name":"南菅生町","pref":"福井県","prefCode":"18","municipality":"福井市","areaM2":764639.582,"population":102,"toponymIds":["18-9f95666941"]}},{"type":"Feature","geometry":{"type":"Polygon","coordinates":[[[136.27939,36.01631],[136.27882,36.01578],[136.27866,36.01491],[136.27702,36.01493],[136.277,36.01521],[136.27667,36.01517],[136.27656,36.01564],[136.27595,36.01553],[136.27577,36.01463],[136.27546,36.01472],[136.2756,36.01511],[136.27538,36.01517],[136.27525,36.01477],[136.27503,36.01482],[136.27484,36.01435],[136.27452,36.01442],[136.27508,36.01596],[136.27517,36.01704],[136.27635,36.01689],[136.27613,36.01635],[136.27575,36.01639],[136.27571,36.01614],[136.2757,36.01591],[136.27621,36.01583],[136.27641,36.01631],[136.27686,36.01629],[136.27717,36.01652],[136.27763,36.01642],[136.27761,36.01631],[136.27985,36.01705],[136.28026,36.01747],[136.28265,36.0179],[136.28286,36.01725],[136.27939,36.01631]]]},"properties":{"key":"182013830","name":"安原町","pref":"福井県","prefCode":"18","municipality":"福井市","areaM2":85928.536,"population":284,"toponymIds":["18-1885d53f86"]}},{"type":"Feature","geometry":{"type":"Polygon","coordinates":[[[136.09615,35.66252],[136.09656,35.66246],[136.09728,35.66121],[136.09795,35.66111],[136.09845,35.66016],[136.09879,35.65857],[136.09869,35.65774],[136.09831,35.65679],[136.09608,35.65359],[136.0956,35.65249],[136.09538,35.6515],[136.09415,35.65107],[136.09186,35.65119],[136.09037,35.65093],[136.09027,35.65133],[136.09079,35.65148],[136.09065,35.65149],[136.09063,35.65267],[136.09036,35.65265],[136.09033,35.65292],[136.09009,35.65293],[136.09004,35.65449],[136.08957,35.65449],[136.08962,35.65513],[136.08901,35.65488],[136.08865,35.65452],[136.08839,35.6546],[136.08828,35.65482],[136.08886,35.65578],[136.08814,35.65677],[136.08861,35.65653],[136.08897,35.65668],[136.08886,35.65696],[136.08818,35.6572],[136.08811,35.65751],[136.08875,35.65843],[136.08883,35.65898],[136.08854,35.65903],[136.08784,35.65872],[136.08755,35.65899],[136.08658,35.65927],[136.08496,35.65926],[136.08482,35.65933],[136.08483,35.65959],[136.08631,35.66197],[136.08798,35.66365],[136.08873,35.66467],[136.08947,35.66638],[136.08977,35.66667],[136.09075,35.66695],[136.09136,35.66735],[136.09165,35.66726],[136.09214,35.66577],[136.09292,35.66473],[136.09336,35.66433],[136.09507,35.66361],[136.09615,35.66252]]]},"properties":{"key":"182020690","name":"大蔵","pref":"福井県","prefCode":"18","municipality":"敦賀市","areaM2":1258725.666,"population":66,"toponymIds":["18-c4e13a3574"]}},{"type":"Feature","geometry":{"type":"Polygon","coordinates":[[[136.09037,35.65093],[136.08681,35.64853],[136.08551,35.6481],[136.08534,35.64806],[136.08446,35.64955],[136.08527,35.64972],[136.08734,35.65071],[136.08914,35.65128],[136.09076,35.6515],[136.09027,35.65133],[136.09037,35.65093]]]},"properties":{"key":"182020660","name":"河原町","pref":"福井県","prefCode":"18","municipality":"敦賀市","areaM2":82067.881,"population":18,"toponymIds":["18-ae90e8f39c"]}},{"type":"Feature","geometry":{"type":"Polygon","coordinates":[[[136.06289,35.63438],[136.06339,35.63432],[136.06368,35.63445],[136.06404,35.63431],[136.0646,35.63443],[136.06542,35.63429],[136.06598,35.63381],[136.06593,35.63357],[136.06684,35.63328],[136.06707,35.63333],[136.06709,35.63369],[136.06731,35.63369],[136.06785,35.63276],[136.06904,35.63264],[136.06894,35.63139],[136.06913,35.63136],[136.069,35.63102],[136.06972,35.631],[136.06979,35.63071],[136.07032,35.63017],[136.07006,35.62942],[136.07069,35.62952],[136.07033,35.62884],[136.06982,35.62718],[136.06769,35.62743],[136.06719,35.62566],[136.0647,35.62668],[136.06187,35.62816],[136.06109,35.62912],[136.06051,35.63014],[136.06037,35.63105],[136.06044,35.63193],[136.06126,35.63459],[136.06289,35.63438]]]},"properties":{"key":"182020870","name":"古田刈","pref":"福井県","prefCode":"18","municipality":"敦賀市","areaM2":607972.348,"population":2146,"toponymIds":["18-84f21b36ac"]}},{"type":"Feature","geometry":{"type":"Polygon","coordinates":[[[136.07781,35.65647],[136.08015,35.65314],[136.08078,35.65318],[136.0815,35.65265],[136.08101,35.65251],[136.08067,35.65274],[136.07821,35.65265],[136.07819,35.65282],[136.07754,35.65333],[136.07761,35.65349],[136.07743,35.65347],[136.0769,35.65409],[136.07672,35.65398],[136.07666,35.65423],[136.07709,35.65584],[136.07722,35.65581],[136.0773,35.65603],[136.07725,35.65647],[136.07744,35.65645],[136.07722,35.65717],[136.0776,35.65702],[136.07781,35.65647]]]},"properties":{"key":"182020110","name":"角鹿町","pref":"福井県","prefCode":"18","municipality":"敦賀市","areaM2":81303.81,"population":269,"toponymIds":["18-571d1a7399"]}},{"type":"Feature","geometry":{"type":"Polygon","coordinates":[[[135.73304,35.49172],[135.73382,35.49128],[135.73356,35.49082],[135.7337,35.49066],[135.7333,35.49002],[135.73348,35.48982],[135.73309,35.48987],[135.73303,35.4897],[135.73255,35.48992],[135.73205,35.49066],[135.73235,35.4909],[135.73255,35.4916],[135.73304,35.49172]]]},"properties":{"key":"182040250","name":"小浜飛鳥","pref":"福井県","prefCode":"18","municipality":"小浜市","areaM2":21998.03,"population":107,"toponymIds":["18-04218fa77d"]}},{"type":"Feature","geometry":{"type":"Polygon","coordinates":[[[135.73875,35.4939],[135.73928,35.4935],[135.73912,35.49335],[135.73955,35.49291],[135.7392,35.49283],[135.73778,35.4919],[135.73796,35.49156],[135.73761,35.49143],[135.73795,35.49069],[135.73667,35.49046],[135.73656,35.49104],[135.73691,35.49114],[135.73667,35.4917],[135.73737,35.49195],[135.73714,35.49253],[135.73732,35.49261],[135.73744,35.49246],[135.73807,35.49273],[135.73793,35.49289],[135.73848,35.49308],[135.73836,35.49334],[135.73875,35.4939]]]},"properties":{"key":"182040190","name":"小浜鹿島","pref":"福井県","prefCode":"18","municipality":"小浜市","areaM2":33064.564,"population":140,"toponymIds":["18-1f3da32d21"]}},{"type":"Feature","geometry":{"type":"Polygon","coordinates":[[[135.74343,35.4992],[135.74318,35.4991],[135.74275,35.49849],[135.74145,35.49908],[135.74198,35.50013],[135.74341,35.49949],[135.74328,35.49926],[135.74343,35.4992]]]},"properties":{"key":"182040040","name":"小浜鈴鹿","pref":"福井県","prefCode":"18","municipality":"小浜市","areaM2":18137.475,"population":78,"toponymIds":["18-9cbb38608a"]}},{"type":"Feature","geometry":{"type":"Polygon","coordinates":[[[136.65714,35.90321],[136.65665,35.902],[136.65674,35.90153],[136.65544,35.90073],[136.65405,35.90058],[136.65227,35.90086],[136.64909,35.90281],[136.64655,35.90526],[136.64468,35.90642],[136.64222,35.90685],[136.63855,35.9067],[136.63853,35.9087],[136.64219,35.90854],[136.64394,35.90818],[136.64609,35.90691],[136.64904,35.9045],[136.65191,35.90333],[136.65513,35.90287],[136.65714,35.90321]]]},"properties":{"key":"182051540","name":"板倉","pref":"福井県","prefCode":"18","municipality":"大野市","areaM2":334238.441,"population":12,"toponymIds":["18-eeef771a4c"]}},{"type":"Feature","geometry":{"type":"Polygon","coordinates":[[[136.51861,35.96555],[136.51883,35.963],[136.52187,35.96275],[136.5224,35.96191],[136.51932,35.96164],[136.5151,35.96017],[136.51493,35.96165],[136.51453,35.96207],[136.51454,35.96239],[136.51489,35.96301],[136.51403,35.96403],[136.5142,35.96429],[136.51318,35.96795],[136.51481,35.96806],[136.51507,35.96534],[136.51861,35.96555]]]},"properties":{"key":"18205058000","name":"猪島","pref":"福井県","prefCode":"18","municipality":"大野市","areaM2":269625.741,"population":60,"toponymIds":["18-a5e0894947"]}},{"type":"Feature","geometry":{"type":"Polygon","coordinates":[[[136.56776,35.98089],[136.56824,35.9809],[136.56881,35.98032],[136.57301,35.9807],[136.57281,35.98026],[136.57285,35.97979],[136.57312,35.97865],[136.57356,35.97783],[136.57382,35.9783],[136.57476,35.97827],[136.57567,35.97884],[136.57856,35.97998],[136.57986,35.98081],[136.58078,35.9799],[136.58003,35.97918],[136.57795,35.97832],[136.57737,35.97697],[136.57604,35.97555],[136.57583,35.9751],[136.57588,35.97218],[136.57669,35.97158],[136.57819,35.96996],[136.57741,35.96925],[136.57659,35.96862],[136.57304,35.96962],[136.57361,35.97015],[136.56922,35.97208],[136.56625,35.97409],[136.56567,35.97464],[136.56417,35.97695],[136.56301,35.98053],[136.56246,35.98176],[136.56137,35.98344],[136.56226,35.9838],[136.56454,35.9823],[136.56776,35.98089]]]},"properties":{"key":"182051370","name":"柿ケ島","pref":"福井県","prefCode":"18","municipality":"大野市","areaM2":1197535.266,"population":116,"toponymIds":["18-6ec8e79a29"]}},{"type":"Feature","geometry":{"type":"Polygon","coordinates":[[[136.52243,35.97813],[136.52362,35.97647],[136.52195,35.97588],[136.51912,35.9757],[136.51618,35.97761],[136.51602,35.97812],[136.5127,35.97788],[136.51284,35.97644],[136.5094,35.9762],[136.50909,35.97774],[136.50886,35.97827],[136.50803,35.97931],[136.50737,35.98216],[136.51837,35.98496],[136.52243,35.97813]]]},"properties":{"key":"182050540","name":"菖蒲池","pref":"福井県","prefCode":"18","municipality":"大野市","areaM2":913049.984,"population":337,"toponymIds":["18-966f4fdedc"]}},{"type":"Feature","geometry":{"type":"Polygon","coordinates":[[[136.52367,36.01808],[136.52812,36.01604],[136.53088,36.01513],[136.53466,36.01343],[136.54058,36.00982],[136.54309,36.00727],[136.54391,36.00681],[136.54308,36.00617],[136.54212,36.00623],[136.53957,36.00599],[136.53877,36.00621],[136.53688,36.00774],[136.53585,36.00896],[136.53461,36.00804],[136.53401,36.00841],[136.53362,36.00909],[136.53199,36.01063],[136.53114,36.01002],[136.52656,36.01427],[136.52257,36.01549],[136.52367,36.01808]]]},"properties":{"key":"182051020","name":"新河原","pref":"福井県","prefCode":"18","municipality":"大野市","areaM2":750734.227,"population":74,"toponymIds":["18-cc05a81973"]}},{"type":"Feature","geometry":{"type":"Polygon","coordinates":[[[136.51666,36.04599],[136.51703,36.04524],[136.51836,36.0446],[136.52003,36.04407],[136.52118,36.04336],[136.5197,36.04247],[136.51918,36.04232],[136.51303,36.04224],[136.51309,36.04267],[136.51284,36.04395],[136.51332,36.04404],[136.51274,36.04562],[136.51435,36.04594],[136.51563,36.04574],[136.51666,36.04599]]]},"properties":{"key":"182060170","name":"猪野","pref":"福井県","prefCode":"18","municipality":"勝山市","areaM2":220098.745,"population":263,"toponymIds":["18-b0e8a88d9b"]}},{"type":"Feature","geometry":{"type":"Polygon","coordinates":[[[136.52053,36.03603],[136.52088,36.03454],[136.52143,36.03425],[136.52196,36.0342],[136.52202,36.03335],[136.52017,36.03233],[136.51343,36.02924],[136.51168,36.02865],[136.50982,36.02829],[136.50626,36.03069],[136.50994,36.03339],[136.51335,36.03503],[136.51371,36.03528],[136.51384,36.03577],[136.51639,36.03575],[136.51639,36.03599],[136.51675,36.03604],[136.52053,36.03603]]]},"properties":{"key":"182060120","name":"猪野口","pref":"福井県","prefCode":"18","municipality":"勝山市","areaM2":670467.697,"population":77,"toponymIds":["18-70d52e9218"]}},{"type":"Feature","geometry":{"type":"Polygon","coordinates":[[[136.46258,36.04828],[136.46196,36.04606],[136.45988,36.0426],[136.45825,36.03919],[136.4545,36.03598],[136.45258,36.03488],[136.44934,36.03379],[136.44577,36.03282],[136.4423,36.03224],[136.44129,36.03213],[136.4397,36.03283],[136.43971,36.03371],[136.43951,36.03405],[136.43871,36.03482],[136.43806,36.03572],[136.43724,36.03637],[136.43559,36.03829],[136.43524,36.03891],[136.43421,36.03989],[136.43269,36.04037],[136.43258,36.04106],[136.43283,36.04193],[136.4323,36.04291],[136.4319,36.04327],[136.43276,36.04513],[136.43271,36.04572],[136.43327,36.0461],[136.43436,36.048],[136.43512,36.04983],[136.43565,36.05018],[136.43536,36.0504],[136.43918,36.05054],[136.44143,36.05023],[136.44414,36.04946],[136.44717,36.04821],[136.44865,36.04863],[136.45037,36.04979],[136.45271,36.05176],[136.4546,36.0529],[136.45511,36.05287],[136.45898,36.05246],[136.46321,36.05164],[136.46326,36.05127],[136.46258,36.04828]]]},"properties":{"key":"182060970","name":"鹿谷町北西俣","pref":"福井県","prefCode":"18","municipality":"勝山市","areaM2":4238551.307,"population":167,"toponymIds":["18-7850dd0e29"]}},{"type":"Feature","geometry":{"type":"Polygon","coordinates":[[[136.46292,36.06081],[136.46326,36.05601],[136.46318,36.05493],[136.46341,36.05436],[136.4626,36.05331],[136.46271,36.05247],[136.46236,36.05177],[136.45898,36.05246],[136.4546,36.0529],[136.45271,36.05176],[136.45037,36.04979],[136.44865,36.04863],[136.44717,36.04821],[136.44595,36.0488],[136.442,36.05013],[136.44242,36.0531],[136.44542,36.05399],[136.4531,36.05714],[136.45703,36.0584],[136.46146,36.06058],[136.46292,36.06081]]]},"properties":{"key":"182060960","name":"鹿谷町西光寺","pref":"福井県","prefCode":"18","municipality":"勝山市","areaM2":1247567.967,"population":62,"toponymIds":["18-21326fdcfc"]}},{"type":"Feature","geometry":{"type":"Polygon","coordinates":[[[136.46272,36.06885],[136.46352,36.06734],[136.46429,36.06647],[136.46505,36.06599],[136.46664,36.06536],[136.4667,36.06283],[136.46793,36.06091],[136.46682,36.06066],[136.46612,36.06071],[136.46514,36.06165],[136.46347,36.06219],[136.46247,36.06317],[136.45973,36.06481],[136.45823,36.06638],[136.45794,36.06651],[136.45846,36.06692],[136.46046,36.0678],[136.46071,36.06849],[136.46091,36.06862],[136.46157,36.06879],[136.46235,36.06865],[136.46272,36.06885]]]},"properties":{"key":"182061030","name":"鹿谷町志田","pref":"福井県","prefCode":"18","municipality":"勝山市","areaM2":360088.115,"population":274,"toponymIds":["18-e66bfe19d8"]}},{"type":"Feature","geometry":{"type":"Polygon","coordinates":[[[136.47171,36.06306],[136.472,36.06161],[136.47245,36.06035],[136.47319,36.05892],[136.47431,36.05768],[136.47658,36.05651],[136.47778,36.05613],[136.47933,36.05581],[136.48129,36.05566],[136.47984,36.05443],[136.4789,36.05398],[136.47495,36.05292],[136.4711,36.05117],[136.46977,36.05147],[136.47014,36.05246],[136.46931,36.05443],[136.46935,36.05561],[136.46965,36.05697],[136.46895,36.06018],[136.46854,36.06066],[136.46793,36.06091],[136.4667,36.06283],[136.47171,36.06306]]]},"properties":{"key":"182061020","name":"鹿谷町杉俣","pref":"福井県","prefCode":"18","municipality":"勝山市","areaM2":675411.662,"population":52,"toponymIds":["18-d2f33eb6dc"]}},{"type":"Feature","geometry":{"type":"Polygon","coordinates":[[[136.47056,36.05133],[136.4711,36.05117],[136.47201,36.0484],[136.47354,36.04657],[136.47448,36.04493],[136.47529,36.04227],[136.47583,36.0394],[136.47501,36.03985],[136.47157,36.04244],[136.46813,36.0447],[136.46626,36.04534],[136.46273,36.04578],[136.46196,36.04606],[136.46278,36.04913],[136.46359,36.04901],[136.46564,36.04912],[136.46573,36.04867],[136.46664,36.04856],[136.46684,36.05008],[136.46731,36.0501],[136.46758,36.05134],[136.46793,36.05125],[136.46814,36.05176],[136.46794,36.05181],[136.468,36.05199],[136.4684,36.0519],[136.46836,36.05171],[136.47056,36.05133]]]},"properties":{"key":"182061000","name":"鹿谷町西遅羽口","pref":"福井県","prefCode":"18","municipality":"勝山市","areaM2":700389.992,"population":73,"toponymIds":["18-b25df1e400"]}},{"type":"Feature","geometry":{"type":"Polygon","coordinates":[[[136.48146,36.05372],[136.48187,36.05067],[136.48336,36.045],[136.47866,36.04089],[136.47763,36.04015],[136.47586,36.03934],[136.47529,36.04227],[136.47448,36.04493],[136.47354,36.04657],[136.47201,36.0484],[136.4711,36.05117],[136.47495,36.05292],[136.4789,36.05398],[136.47984,36.05443],[136.48129,36.05566],[136.48146,36.05372]]]},"properties":{"key":"182061010","name":"鹿谷町東遅羽口","pref":"福井県","prefCode":"18","municipality":"勝山市","areaM2":1111524.416,"population":59,"toponymIds":["18-f77a251041"]}},{"type":"Feature","geometry":{"type":"Polygon","coordinates":[[[136.44419,36.07501],[136.44543,36.07466],[136.44745,36.07439],[136.44865,36.07377],[136.45046,36.07355],[136.45111,36.07319],[136.45368,36.07246],[136.45366,36.07048],[136.45381,36.06964],[136.454,36.0694],[136.45641,36.06851],[136.45655,36.06814],[136.45646,36.06737],[136.45674,36.06698],[136.45823,36.06638],[136.45937,36.06508],[136.46282,36.06289],[136.46331,36.06235],[136.46287,36.06123],[136.46292,36.06081],[136.46146,36.06058],[136.45703,36.0584],[136.4531,36.05714],[136.44542,36.05399],[136.44242,36.0531],[136.442,36.05013],[136.43918,36.05054],[136.43536,36.0504],[136.43375,36.05095],[136.43329,36.05129],[136.43307,36.05179],[136.43327,36.05275],[136.43246,36.05437],[136.43272,36.0548],[136.43247,36.05621],[136.43274,36.05691],[136.43257,36.0579],[136.43311,36.05863],[136.43405,36.05872],[136.4344,36.059],[136.43426,36.06056],[136.43437,36.06076],[136.43542,36.06127],[136.43604,36.06179],[136.43607,36.06226],[136.43717,36.0642],[136.4382,36.06519],[136.43821,36.06641],[136.43959,36.06979],[136.43868,36.07301],[136.43879,36.0752],[136.43986,36.075],[136.44252,36.07526],[136.44419,36.07501]]]},"properties":{"key":"182060950","name":"鹿谷町保田","pref":"福井県","prefCode":"18","municipality":"勝山市","areaM2":4347693.806,"population":276,"toponymIds":["18-f2c77a0d0a"]}},{"type":"Feature","geometry":{"type":"Polygon","coordinates":[[[136.47186,36.06946],[136.47146,36.06538],[136.47171,36.06306],[136.47159,36.06304],[136.4667,36.06283],[136.46664,36.06536],[136.46505,36.06599],[136.46429,36.06647],[136.46352,36.06734],[136.46272,36.06885],[136.46468,36.07019],[136.46717,36.07102],[136.46757,36.0704],[136.46883,36.07076],[136.46953,36.07007],[136.47015,36.0697],[136.47186,36.06946]]]},"properties":{"key":"182061040","name":"鹿谷町発坂","pref":"福井県","prefCode":"18","municipality":"勝山市","areaM2":501939.007,"population":121,"toponymIds":["18-7db505a979"]}},{"type":"Feature","geometry":{"type":"Polygon","coordinates":[[[136.46612,36.06071],[136.46682,36.06066],[136.46793,36.06091],[136.46854,36.06066],[136.46895,36.06018],[136.46965,36.05697],[136.46935,36.05561],[136.46931,36.05443],[136.47014,36.05246],[136.46977,36.05147],[136.46836,36.05171],[136.4684,36.0519],[136.468,36.05199],[136.46794,36.05181],[136.46814,36.05176],[136.46793,36.05125],[136.46758,36.05134],[136.46731,36.0501],[136.46684,36.05008],[136.46664,36.04856],[136.46573,36.04867],[136.46564,36.04912],[136.46359,36.04901],[136.46278,36.04913],[136.46322,36.05159],[136.46236,36.05177],[136.46271,36.05247],[136.4626,36.05331],[136.46341,36.05436],[136.46318,36.05493],[136.4632,36.05727],[136.46287,36.06123],[136.46331,36.06235],[136.46514,36.06165],[136.46612,36.06071]]]},"properties":{"key":"182060990","name":"鹿谷町本郷","pref":"福井県","prefCode":"18","municipality":"勝山市","areaM2":726994.188,"population":233,"toponymIds":["18-9bc8d810f8"]}},{"type":"Feature","geometry":{"type":"Polygon","coordinates":[[[136.47486,36.02928],[136.47484,36.0291],[136.47519,36.02885],[136.47278,36.02864],[136.47136,36.02817],[136.46982,36.02667],[136.46922,36.02565],[136.46814,36.02278],[136.46755,36.02051],[136.46732,36.0184],[136.46578,36.01813],[136.46377,36.01697],[136.46215,36.01683],[136.46047,36.01695],[136.45936,36.01649],[136.45781,36.01641],[136.45697,36.01761],[136.45654,36.01788],[136.45544,36.01793],[136.45402,36.01824],[136.45299,36.01799],[136.45192,36.01827],[136.4514,36.01853],[136.4494,36.02018],[136.44874,36.02048],[136.44678,36.02085],[136.44602,36.02121],[136.44529,36.02219],[136.44541,36.02267],[136.44533,36.02326],[136.44464,36.02465],[136.44488,36.02537],[136.44475,36.02562],[136.44275,36.02693],[136.44219,36.02935],[136.44231,36.03042],[136.44153,36.03139],[136.44129,36.03213],[136.44656,36.03301],[136.45167,36.03455],[136.45394,36.03558],[136.45825,36.03919],[136.45988,36.0426],[136.46196,36.04606],[136.46273,36.04578],[136.46626,36.04534],[136.46813,36.0447],[136.47157,36.04244],[136.47501,36.03985],[136.47583,36.0394],[136.47613,36.03739],[136.47537,36.0341],[136.47486,36.02928]]]},"properties":{"key":"182060980","name":"鹿谷町矢戸口","pref":"福井県","prefCode":"18","municipality":"勝山市","areaM2":6024534.802,"population":170,"toponymIds":["18-ea56c1d6ac"]}},{"type":"Feature","geometry":{"type":"Polygon","coordinates":[[[136.50532,36.1468],[136.50645,36.14658],[136.5088,36.14664],[136.50969,36.14639],[136.51159,36.14626],[136.51221,36.14689],[136.51295,36.14725],[136.51443,36.14854],[136.51521,36.14851],[136.5174,36.14937],[136.51842,36.14956],[136.5191,36.15015],[136.52004,36.15046],[136.5206,36.15098],[136.52151,36.15141],[136.52445,36.1503],[136.52515,36.14982],[136.52641,36.14835],[136.52802,36.14859],[136.52864,36.14889],[136.52988,36.14895],[136.53036,36.14838],[136.53073,36.14755],[136.53264,36.14744],[136.53285,36.1476],[136.53302,36.14824],[136.53359,36.14857],[136.53401,36.14944],[136.53528,36.14946],[136.53557,36.14979],[136.5361,36.14998],[136.53751,36.15028],[136.53812,36.1514],[136.53826,36.15241],[136.53986,36.1534],[136.54146,36.15367],[136.54503,36.153],[136.54643,36.15302],[136.54754,36.15365],[136.54795,36.15411],[136.5491,36.15467],[136.55078,36.15447],[136.55172,36.15476],[136.55234,36.15451],[136.55009,36.15244],[136.54902,36.15119],[136.54489,36.14716],[136.54159,36.14329],[136.53775,36.13916],[136.53416,36.13479],[136.52702,36.13372],[136.52549,36.13317],[136.52487,36.13284],[136.52198,36.13005],[136.52099,36.12612],[136.52114,36.12226],[136.52134,36.12069],[136.52169,36.11982],[136.52185,36.1168],[136.52177,36.11522],[136.52102,36.11378],[136.51986,36.1125],[136.51849,36.11174],[136.51427,36.1104],[136.51311,36.10973],[136.51222,36.1084],[136.51033,36.10426],[136.5092,36.10307],[136.50659,36.10086],[136.5061,36.10052],[136.50541,36.10032],[136.50463,36.10025],[136.50449,36.10271],[136.50409,36.1051],[136.49651,36.11056],[136.48795,36.1178],[136.49003,36.1199],[136.49346,36.12499],[136.49351,36.1255],[136.49382,36.12608],[136.4957,36.12776],[136.49622,36.12851],[136.49701,36.12925],[136.4975,36.12954],[136.4978,36.1303],[136.49927,36.13253],[136.50065,36.13693],[136.50097,36.13726],[136.5009,36.13751],[136.50251,36.13984],[136.50264,36.14064],[136.50314,36.14185],[136.50422,36.14308],[136.50471,36.14461],[136.50498,36.14503],[136.50532,36.1468]]]},"properties":{"key":"182060550","name":"野向町横倉","pref":"福井県","prefCode":"18","municipality":"勝山市","areaM2":13313011.968,"population":7,"toponymIds":["18-0ba4d0b8e6"]}},{"type":"Feature","geometry":{"type":"Polygon","coordinates":[[[136.52757,36.02437],[136.53241,36.0232],[136.53392,36.02361],[136.53298,36.02264],[136.53172,36.02019],[136.53015,36.01536],[136.52812,36.01604],[136.52477,36.01755],[136.52128,36.01941],[136.52302,36.02312],[136.52364,36.02322],[136.52565,36.02413],[136.52616,36.02409],[136.5267,36.02452],[136.52757,36.02437]]]},"properties":{"key":"182060780","name":"平泉寺町壁倉","pref":"福井県","prefCode":"18","municipality":"勝山市","areaM2":667967.588,"population":40,"toponymIds":["18-57005cafcc"]}},{"type":"Feature","geometry":{"type":"Polygon","coordinates":[[[136.51333,36.04118],[136.51365,36.04017],[136.51397,36.03772],[136.51394,36.0364],[136.51371,36.03528],[136.50994,36.03339],[136.50626,36.03069],[136.50534,36.03131],[136.5045,36.03214],[136.50373,36.03343],[136.50296,36.03603],[136.50473,36.03683],[136.50745,36.03849],[136.5079,36.04037],[136.50917,36.0406],[136.51045,36.04104],[136.51061,36.04059],[136.51333,36.04118]]]},"properties":{"key":"182060130","name":"若猪野","pref":"福井県","prefCode":"18","municipality":"勝山市","areaM2":676807.689,"population":173,"toponymIds":["18-2e7cb8d325"]}},{"type":"Feature","geometry":{"type":"Polygon","coordinates":[[[136.2402,35.96436],[136.24072,35.96363],[136.24244,35.963],[136.24282,35.96178],[136.24398,35.96167],[136.24458,35.96114],[136.2445,35.9603],[136.24494,35.95982],[136.24495,35.95942],[136.24407,35.95934],[136.24393,35.95236],[136.24159,35.95235],[136.2415,35.95409],[136.24012,35.95321],[136.23976,35.95333],[136.23887,35.9551],[136.23875,35.95626],[136.23575,35.95818],[136.23569,35.95872],[136.23592,35.95933],[136.23571,35.96024],[136.23523,35.96113],[136.23467,35.96154],[136.23491,35.96217],[136.23558,35.9628],[136.23605,35.9639],[136.23644,35.96403],[136.23852,35.96385],[136.23922,35.9641],[136.23998,35.96478],[136.2402,35.96436]]]},"properties":{"key":"182070820","name":"磯部町","pref":"福井県","prefCode":"18","municipality":"鯖江市","areaM2":754853.31,"population":303,"toponymIds":["18-0dd6ed046a"]}},{"type":"Feature","geometry":{"type":"Polygon","coordinates":[[[136.1602,35.96779],[136.1604,35.96192],[136.16055,35.96094],[136.15781,35.96085],[136.1578,35.96053],[136.15626,35.9605],[136.15623,35.96121],[136.15211,35.96112],[136.15188,35.96778],[136.15724,35.96788],[136.15807,35.96759],[136.15859,35.96792],[136.1602,35.96779]]]},"properties":{"key":"182070660","name":"大倉町","pref":"福井県","prefCode":"18","municipality":"鯖江市","areaM2":575513.102,"population":622,"toponymIds":["18-eeda7156b9"]}},{"type":"Feature","geometry":{"type":"Polygon","coordinates":[[[136.14701,35.97687],[136.1474,35.97657],[136.14768,35.97495],[136.14795,35.97447],[136.14819,35.96772],[136.14556,35.96772],[136.14568,35.96376],[136.14388,35.96377],[136.14305,35.96443],[136.14213,35.96468],[136.13974,35.9647],[136.13969,35.96569],[136.13754,35.96561],[136.1371,35.96615],[136.13738,35.96802],[136.13862,35.9681],[136.13812,35.9687],[136.13898,35.96911],[136.1385,35.96985],[136.13881,35.96993],[136.13867,35.97046],[136.13806,35.97066],[136.13796,35.97158],[136.14122,35.97159],[136.14199,35.97257],[136.14355,35.97383],[136.14306,35.97437],[136.14378,35.97438],[136.14395,35.97423],[136.14506,35.97484],[136.14601,35.97572],[136.14608,35.97632],[136.14532,35.97625],[136.14526,35.97661],[136.14557,35.97676],[136.14701,35.97687]]]},"properties":{"key":"182070590","name":"川去町","pref":"福井県","prefCode":"18","municipality":"鯖江市","areaM2":836200.693,"population":618,"toponymIds":["18-97d0ed0fdf"]}},{"type":"Feature","geometry":{"type":"Polygon","coordinates":[[[136.19438,36.23075],[136.19435,36.23053],[136.19361,36.23147],[136.19352,36.23168],[136.19376,36.23213],[136.19343,36.23241],[136.19405,36.23319],[136.19409,36.23388],[136.19444,36.23351],[136.19548,36.23307],[136.19484,36.23207],[136.19479,36.2317],[136.19425,36.2311],[136.19438,36.23075]]]},"properties":{"key":"182081150","name":"芦鶴","pref":"福井県","prefCode":"18","municipality":"あわら市","areaM2":30484.625,"population":103,"toponymIds":["18-775e1fc903"]}},{"type":"Feature","geometry":{"type":"Polygon","coordinates":[[[136.21879,36.23914],[136.21898,36.23798],[136.21841,36.23769],[136.21937,36.23639],[136.21958,36.23538],[136.2175,36.23451],[136.21638,36.23426],[136.21786,36.23208],[136.2161,36.2319],[136.21582,36.23139],[136.21432,36.23102],[136.21385,36.23056],[136.21368,36.23067],[136.21353,36.23132],[136.2143,36.23195],[136.21348,36.233],[136.21307,36.23267],[136.21214,36.231],[136.21197,36.23033],[136.21195,36.23006],[136.21263,36.22907],[136.21337,36.22921],[136.21389,36.22894],[136.21442,36.22831],[136.21445,36.22776],[136.21471,36.22741],[136.21569,36.22698],[136.21578,36.2265],[136.21627,36.22602],[136.216,36.22562],[136.21503,36.22504],[136.21409,36.22507],[136.21391,36.2235],[136.21532,36.22346],[136.21607,36.22267],[136.21475,36.22201],[136.21385,36.22103],[136.20969,36.22103],[136.20962,36.22067],[136.20508,36.22061],[136.2049,36.22103],[136.20494,36.22323],[136.20518,36.22323],[136.20628,36.2266],[136.20767,36.2261],[136.20854,36.22765],[136.2087,36.22764],[136.20869,36.22786],[136.20923,36.228],[136.20927,36.2282],[136.20914,36.22929],[136.20862,36.22919],[136.20846,36.22946],[136.20808,36.23129],[136.20689,36.23123],[136.20685,36.23172],[136.20569,36.23166],[136.20557,36.23333],[136.2084,36.23383],[136.21177,36.23542],[136.21162,36.23562],[136.21264,36.23613],[136.21195,36.23709],[136.213,36.23756],[136.21249,36.23827],[136.21455,36.23924],[136.21439,36.23946],[136.21542,36.23998],[136.21606,36.23902],[136.21895,36.24011],[136.21879,36.23914]]]},"properties":{"key":"182080820","name":"井江葭","pref":"福井県","prefCode":"18","municipality":"あわら市","areaM2":1416411.76,"population":266,"toponymIds":["18-d2c2dde6d4"]}},{"type":"Feature","geometry":{"type":"Polygon","coordinates":[[[136.24932,36.24995],[136.24629,36.24706],[136.24702,36.24563],[136.24699,36.24516],[136.24789,36.24523],[136.24864,36.24475],[136.24948,36.24451],[136.25081,36.24254],[136.25182,36.24165],[136.25241,36.24142],[136.25212,36.24099],[136.25238,36.24078],[136.25243,36.24047],[136.25196,36.23958],[136.25211,36.23932],[136.2514,36.23723],[136.24919,36.23591],[136.24857,36.23585],[136.24715,36.23624],[136.24478,36.23793],[136.23996,36.23465],[136.23879,36.23571],[136.23734,36.23483],[136.23535,36.23466],[136.2353,36.23521],[136.23503,36.23568],[136.23338,36.23703],[136.23343,36.23883],[136.22877,36.23953],[136.22863,36.24074],[136.22959,36.24087],[136.22949,36.24125],[136.22984,36.24261],[136.22964,36.24299],[136.22968,36.24353],[136.22989,36.24352],[136.23007,36.24316],[136.23032,36.24326],[136.23064,36.24283],[136.23102,36.243],[136.23167,36.24298],[136.23237,36.2434],[136.23314,36.24301],[136.23344,36.24349],[136.2336,36.24347],[136.23603,36.24563],[136.23719,36.24632],[136.23902,36.24792],[136.24141,36.24926],[136.24261,36.25003],[136.24312,36.25053],[136.24332,36.25056],[136.24372,36.25022],[136.24386,36.24939],[136.24465,36.25022],[136.24492,36.25022],[136.24533,36.24981],[136.24571,36.2497],[136.24752,36.25073],[136.24809,36.2509],[136.24843,36.25087],[136.24824,36.25068],[136.24932,36.24995]]]},"properties":{"key":"182080630","name":"柿原","pref":"福井県","prefCode":"18","municipality":"あわら市","areaM2":2197138.282,"population":258,"toponymIds":["18-1bbe55dc2d"]}},{"type":"Feature","geometry":{"type":"Polygon","coordinates":[[[136.2318,36.19846],[136.23268,36.19846],[136.23262,36.19679],[136.2347,36.19676],[136.23466,36.19574],[136.24028,36.19563],[136.24054,36.19423],[136.23972,36.19217],[136.23766,36.19215],[136.2373,36.19142],[136.236,36.19198],[136.23653,36.19324],[136.23346,36.19338],[136.23331,36.19435],[136.23033,36.19424],[136.23049,36.19519],[136.22916,36.19556],[136.22904,36.19732],[136.22855,36.19727],[136.22852,36.19795],[136.2308,36.19789],[136.23075,36.1972],[136.23114,36.19718],[136.23115,36.19737],[136.23195,36.19735],[136.23142,36.19847],[136.2318,36.19846]]]},"properties":{"key":"182080310","name":"河原井手","pref":"福井県","prefCode":"18","municipality":"あわら市","areaM2":362134.74,"population":62,"toponymIds":["18-cbffcd9854"]}},{"type":"Feature","geometry":{"type":"Polygon","coordinates":[[[136.23516,36.21175],[136.2363,36.21113],[136.23751,36.20984],[136.23908,36.20891],[136.23971,36.20836],[136.24043,36.20969],[136.24047,36.21045],[136.24486,36.21448],[136.24487,36.21436],[136.24625,36.21467],[136.24624,36.21403],[136.24754,36.21117],[136.24901,36.21012],[136.25028,36.20842],[136.24341,36.20427],[136.24384,36.20353],[136.2433,36.20263],[136.24358,36.20223],[136.24318,36.20131],[136.2432,36.20052],[136.24068,36.20041],[136.23864,36.20002],[136.23773,36.20037],[136.2372,36.2009],[136.23662,36.2026],[136.23555,36.20464],[136.23549,36.2057],[136.23608,36.20747],[136.23632,36.20961],[136.23588,36.21085],[136.23517,36.21107],[136.23516,36.21175]]]},"properties":{"key":"182080280","name":"菅野","pref":"福井県","prefCode":"18","municipality":"あわら市","areaM2":1134235.173,"population":204,"toponymIds":["18-6144d562dd"]}},{"type":"Feature","geometry":{"type":"Polygon","coordinates":[[[136.18651,35.90391],[136.18461,35.90372],[136.18458,35.90408],[136.18411,35.90461],[136.18395,35.90551],[136.18368,35.9057],[136.18351,35.9062],[136.18398,35.90645],[136.18382,35.90751],[136.18354,35.90784],[136.18662,35.90799],[136.18712,35.90416],[136.18651,35.90391]]]},"properties":{"key":"18209101001","name":"押田一丁目","pref":"福井県","prefCode":"18","municipality":"越前市","areaM2":118874.499,"population":608,"toponymIds":["18-ecd2f58f59"]}},{"type":"Feature","geometry":{"type":"Polygon","coordinates":[[[136.05032,35.88089],[136.0506,35.87961],[136.05129,35.87862],[136.05142,35.87718],[136.05179,35.87647],[136.05178,35.8756],[136.05226,35.87462],[136.05208,35.87356],[136.05169,35.87301],[136.05105,35.87254],[136.05089,35.8723],[136.05088,35.8717],[136.05051,35.87146],[136.0492,35.87178],[136.04865,35.87142],[136.04802,35.87168],[136.04801,35.87189],[136.04842,35.87228],[136.04842,35.87247],[136.04789,35.87319],[136.04782,35.87385],[136.04742,35.87428],[136.04835,35.87522],[136.04837,35.87559],[136.04703,35.87573],[136.04668,35.87591],[136.04706,35.87712],[136.0481,35.87862],[136.04779,35.87883],[136.0478,35.87911],[136.04696,35.87918],[136.0465,35.87878],[136.04554,35.87885],[136.04484,35.87864],[136.04407,35.87884],[136.04363,35.87851],[136.04319,35.87895],[136.04168,35.8788],[136.04073,35.87911],[136.03973,35.87953],[136.03887,35.88042],[136.04184,35.8809],[136.04303,35.88083],[136.04392,35.88176],[136.0464,35.883],[136.04742,35.88388],[136.04855,35.88413],[136.04885,35.88467],[136.04914,35.88487],[136.04976,35.88374],[136.05075,35.88322],[136.04971,35.882],[136.05024,35.88149],[136.05032,35.88089]]]},"properties":{"key":"182091940","name":"菖蒲谷町","pref":"福井県","prefCode":"18","municipality":"越前市","areaM2":663338.097,"population":66,"toponymIds":["18-629edc57d6"]}},{"type":"Feature","geometry":{"type":"Polygon","coordinates":[[[136.05983,35.86457],[136.05874,35.86399],[136.05695,35.86261],[136.05673,35.86213],[136.05684,35.86139],[136.05628,35.86071],[136.05582,35.8605],[136.05456,35.86083],[136.05381,35.86078],[136.05155,35.86015],[136.04991,35.86008],[136.04912,35.85975],[136.04793,35.85988],[136.04694,35.86057],[136.04574,35.86036],[136.0449,35.86052],[136.04452,35.86079],[136.04423,35.86145],[136.04374,35.86178],[136.04246,35.86187],[136.04183,35.86275],[136.04177,35.86308],[136.04234,35.86324],[136.04275,35.86372],[136.04285,35.86512],[136.04323,35.86573],[136.04361,35.86699],[136.04397,35.86723],[136.04396,35.86764],[136.04474,35.86781],[136.0449,35.86831],[136.04557,35.86858],[136.04616,35.86851],[136.05054,35.86934],[136.05227,35.86949],[136.05429,35.87014],[136.05522,35.87004],[136.05616,35.86899],[136.05623,35.86847],[136.05688,35.86824],[136.05709,35.86779],[136.057,35.86733],[136.05774,35.86701],[136.05765,35.86628],[136.05927,35.86637],[136.05937,35.86595],[136.05974,35.86573],[136.05983,35.86457]]]},"properties":{"key":"182091990","name":"菅町","pref":"福井県","prefCode":"18","municipality":"越前市","areaM2":1269977.422,"population":0,"toponymIds":["18-5f581db023"]}}]}
