{"type":"FeatureCollection","features":[{"type":"Feature","geometry":{"type":"Polygon","coordinates":[[[138.5663,35.75846],[138.56935,35.75105],[138.56978,35.74911],[138.56978,35.74802],[138.56949,35.74673],[138.56926,35.74424],[138.56939,35.74196],[138.56832,35.74145],[138.56831,35.7408],[138.56872,35.74053],[138.56859,35.74095],[138.56888,35.7412],[138.56929,35.74106],[138.56899,35.74084],[138.56934,35.74065],[138.56982,35.741],[138.57029,35.74103],[138.57085,35.74052],[138.57093,35.74019],[138.57041,35.73939],[138.56918,35.73831],[138.56995,35.73638],[138.56803,35.73497],[138.56623,35.73536],[138.56284,35.73566],[138.5632,35.73608],[138.56341,35.73676],[138.5642,35.73813],[138.56393,35.73878],[138.56399,35.73929],[138.56446,35.73985],[138.56524,35.73996],[138.56577,35.74028],[138.56513,35.74072],[138.56503,35.74128],[138.56387,35.74313],[138.56251,35.74398],[138.56251,35.74517],[138.56124,35.74706],[138.56066,35.74724],[138.55953,35.74724],[138.5584,35.74764],[138.55621,35.74795],[138.55395,35.74874],[138.55376,35.74902],[138.55384,35.7498],[138.5537,35.75026],[138.55391,35.75132],[138.55343,35.75168],[138.55319,35.75232],[138.55331,35.75358],[138.55434,35.75418],[138.5554,35.75521],[138.55609,35.7555],[138.55649,35.75608],[138.55768,35.75671],[138.55771,35.75687],[138.55569,35.75771],[138.55584,35.75913],[138.55574,35.7594],[138.5663,35.75846]]]},"properties":{"key":"192010750","name":"猪狩町","pref":"山梨県","prefCode":"19","municipality":"甲府市","areaM2":2285569.668,"population":6,"toponymIds":["19-e7b3dbe9b1"]}},{"type":"Feature","geometry":{"type":"Polygon","coordinates":[[[138.60628,35.65204],[138.60969,35.65161],[138.60926,35.64998],[138.6093,35.64947],[138.60853,35.64679],[138.61033,35.64662],[138.6107,35.64656],[138.61086,35.64633],[138.61222,35.64622],[138.61195,35.64525],[138.61242,35.64519],[138.61243,35.64483],[138.6118,35.64492],[138.61146,35.64337],[138.61205,35.64328],[138.61193,35.64264],[138.61329,35.64244],[138.61323,35.64209],[138.61032,35.64111],[138.60949,35.64041],[138.60318,35.64141],[138.60328,35.6419],[138.60071,35.64227],[138.60093,35.64332],[138.60114,35.6433],[138.6012,35.64362],[138.60097,35.64354],[138.60101,35.64379],[138.60152,35.64398],[138.60137,35.64417],[138.60109,35.64418],[138.60124,35.64483],[138.60304,35.64459],[138.60327,35.64558],[138.60229,35.64571],[138.60249,35.64673],[138.6037,35.64656],[138.605,35.65237],[138.60628,35.65204]]]},"properties":{"key":"192010560","name":"上阿原町","pref":"山梨県","prefCode":"19","municipality":"甲府市","areaM2":821210.658,"population":1886,"toponymIds":["19-c20ee8cd82"]}},{"type":"Feature","geometry":{"type":"Polygon","coordinates":[[[138.56759,35.6291],[138.56759,35.62888],[138.56677,35.62894],[138.56678,35.62945],[138.56487,35.63076],[138.56319,35.63289],[138.56264,35.63312],[138.56074,35.63341],[138.5658,35.63499],[138.56699,35.63312],[138.56742,35.63198],[138.56771,35.63061],[138.56759,35.6291]]]},"properties":{"key":"192011060","name":"上小河原町","pref":"山梨県","prefCode":"19","municipality":"甲府市","areaM2":175793.626,"population":463,"toponymIds":["19-56bf50e677"]}},{"type":"Feature","geometry":{"type":"Polygon","coordinates":[[[138.5852,35.62366],[138.58566,35.62315],[138.58609,35.62352],[138.58625,35.62329],[138.58667,35.62362],[138.58725,35.62279],[138.58821,35.62266],[138.58819,35.62255],[138.59128,35.62231],[138.59308,35.62195],[138.59299,35.62154],[138.59324,35.62151],[138.59322,35.62132],[138.59372,35.6214],[138.59375,35.62112],[138.59287,35.62085],[138.59275,35.62034],[138.59338,35.62025],[138.59284,35.61959],[138.59256,35.61878],[138.59236,35.61889],[138.59246,35.61938],[138.59061,35.61965],[138.59,35.61745],[138.5882,35.61765],[138.58777,35.61574],[138.58666,35.61583],[138.58674,35.61618],[138.58638,35.61623],[138.58502,35.61641],[138.58336,35.61634],[138.58308,35.61784],[138.58264,35.61856],[138.58317,35.61877],[138.58308,35.61947],[138.583,35.6196],[138.58265,35.6196],[138.58119,35.6193],[138.58118,35.62],[138.58151,35.62006],[138.5813,35.62055],[138.58098,35.62055],[138.58093,35.62067],[138.58108,35.62072],[138.58107,35.62103],[138.58128,35.62121],[138.58137,35.62169],[138.58199,35.62187],[138.58191,35.6223],[138.58296,35.62256],[138.583,35.623],[138.58344,35.62315],[138.58368,35.62268],[138.58404,35.62276],[138.58438,35.623],[138.58413,35.62311],[138.58478,35.6232],[138.58464,35.62329],[138.5852,35.62366]]]},"properties":{"key":"192010950","name":"下鍛冶屋町","pref":"山梨県","prefCode":"19","municipality":"甲府市","areaM2":586981.922,"population":905,"toponymIds":["19-595e1fb1a2"]}},{"type":"Feature","geometry":{"type":"Polygon","coordinates":[[[138.53284,35.66703],[138.53365,35.66685],[138.53357,35.6665],[138.53413,35.66617],[138.53404,35.66586],[138.53385,35.66578],[138.53395,35.66515],[138.5347,35.66479],[138.53449,35.66476],[138.53455,35.66452],[138.5347,35.66454],[138.53464,35.66423],[138.53486,35.66388],[138.53469,35.66349],[138.5341,35.66357],[138.53447,35.66316],[138.53494,35.66311],[138.53351,35.66264],[138.53221,35.66278],[138.53057,35.66395],[138.53118,35.66514],[138.53135,35.66603],[138.5317,35.66654],[138.53272,35.6665],[138.53284,35.66703]]]},"properties":{"key":"192010650","name":"下河原町","pref":"山梨県","prefCode":"19","municipality":"甲府市","areaM2":123479.7,"population":1413,"toponymIds":["19-531342f454"]}},{"type":"Feature","geometry":{"type":"Polygon","coordinates":[[[138.58081,35.63087],[138.58104,35.63029],[138.58037,35.62998],[138.57938,35.6292],[138.57886,35.62958],[138.57853,35.62956],[138.57811,35.63074],[138.57773,35.63067],[138.57659,35.6317],[138.57575,35.6326],[138.57517,35.63352],[138.57648,35.63388],[138.58002,35.63528],[138.57952,35.63418],[138.58008,35.63378],[138.57986,35.63332],[138.58072,35.63291],[138.58022,35.63234],[138.58081,35.63087]]]},"properties":{"key":"192010910","name":"下小河原町","pref":"山梨県","prefCode":"19","municipality":"甲府市","areaM2":181874.477,"population":699,"toponymIds":["19-703ad06a1f"]}},{"type":"Feature","geometry":{"type":"Polygon","coordinates":[[[138.55165,35.78052],[138.55354,35.77541],[138.55374,35.77346],[138.55361,35.77135],[138.55388,35.76651],[138.55427,35.7642],[138.55574,35.7594],[138.55456,35.75913],[138.55246,35.75948],[138.5508,35.75903],[138.54903,35.75904],[138.5477,35.75914],[138.54749,35.76025],[138.54655,35.76003],[138.54533,35.75998],[138.54469,35.75963],[138.5429,35.7602],[138.54153,35.76232],[138.54058,35.76575],[138.5407,35.76773],[138.54108,35.76982],[138.54015,35.77154],[138.5401,35.77211],[138.54039,35.77334],[138.54245,35.77576],[138.54294,35.77747],[138.54434,35.77986],[138.5449,35.78212],[138.54481,35.78433],[138.54504,35.78571],[138.54546,35.78662],[138.54601,35.78726],[138.54816,35.78524],[138.55024,35.78268],[138.55165,35.78052]]]},"properties":{"key":"192010740","name":"草鹿沢町","pref":"山梨県","prefCode":"19","municipality":"甲府市","areaM2":2838968.096,"population":2,"toponymIds":["19-9d31dbfe9f"]}},{"type":"Feature","geometry":{"type":"Polygon","coordinates":[[[138.57555,35.633],[138.57616,35.63212],[138.57773,35.63067],[138.57811,35.63074],[138.57853,35.62956],[138.57475,35.62908],[138.57434,35.62896],[138.57336,35.62807],[138.57263,35.62849],[138.57051,35.62781],[138.57029,35.62791],[138.5698,35.62758],[138.56911,35.62829],[138.56927,35.62841],[138.56883,35.629],[138.56901,35.62935],[138.56867,35.62936],[138.56866,35.6292],[138.56831,35.62911],[138.56759,35.6291],[138.56771,35.63061],[138.56699,35.63312],[138.5712,35.63296],[138.57334,35.63316],[138.57517,35.63352],[138.57555,35.633]]]},"properties":{"key":"192010602","name":"中小河原町","pref":"山梨県","prefCode":"19","municipality":"甲府市","areaM2":431560.781,"population":1410,"toponymIds":["19-1dcace1b13"]}},{"type":"Feature","geometry":{"type":"Polygon","coordinates":[[[138.78134,35.49469],[138.7814,35.4944],[138.78064,35.49437],[138.7805,35.495],[138.78092,35.49529],[138.78055,35.49557],[138.7807,35.49567],[138.78057,35.49596],[138.78076,35.496],[138.78125,35.49544],[138.78121,35.49484],[138.78134,35.49469]]]},"properties":{"key":"192020020","name":"新倉","pref":"山梨県","prefCode":"19","municipality":"富士吉田市","areaM2":8765.24,"population":0,"toponymIds":["19-8d2ebb49fb"]}},{"type":"Feature","geometry":{"type":"Polygon","coordinates":[[[138.93487,35.57857],[138.93498,35.57794],[138.93453,35.57797],[138.93376,35.57713],[138.93259,35.57621],[138.9323,35.57563],[138.93228,35.57474],[138.93133,35.57362],[138.93059,35.57334],[138.93029,35.57297],[138.92969,35.57264],[138.92935,35.57211],[138.9293,35.57156],[138.92908,35.57141],[138.9286,35.57032],[138.92806,35.56995],[138.92707,35.5698],[138.92673,35.56955],[138.92649,35.56961],[138.9263,35.56997],[138.9254,35.57026],[138.92506,35.57012],[138.92448,35.56938],[138.92389,35.56901],[138.92228,35.57112],[138.92167,35.57145],[138.92107,35.57206],[138.92049,35.57325],[138.92039,35.5732],[138.91977,35.57472],[138.92266,35.57615],[138.92295,35.57588],[138.92402,35.5755],[138.92474,35.57566],[138.92707,35.57672],[138.92895,35.5783],[138.92988,35.57867],[138.9321,35.57834],[138.93353,35.57849],[138.93476,35.57892],[138.93487,35.57857]]]},"properties":{"key":"192040250","name":"古川渡","pref":"山梨県","prefCode":"19","municipality":"都留市","areaM2":726422.857,"population":1676,"toponymIds":["19-c19fef8c82"]}},{"type":"Feature","geometry":{"type":"Polygon","coordinates":[[[138.72949,35.78038],[138.73016,35.77989],[138.73149,35.77971],[138.73265,35.77935],[138.73352,35.77934],[138.73447,35.77896],[138.7359,35.77875],[138.73649,35.77836],[138.73739,35.77858],[138.73821,35.77814],[138.74019,35.77793],[138.73973,35.77554],[138.73923,35.77449],[138.73959,35.77335],[138.73948,35.77226],[138.7387,35.77046],[138.73773,35.77017],[138.737,35.76895],[138.73702,35.76732],[138.73458,35.76755],[138.73339,35.76795],[138.73264,35.7684],[138.73077,35.77013],[138.72944,35.77189],[138.72772,35.77462],[138.72705,35.77487],[138.72349,35.7754],[138.72289,35.77563],[138.72081,35.77714],[138.71997,35.77818],[138.71947,35.77815],[138.7183,35.77869],[138.71789,35.77956],[138.71694,35.78066],[138.71724,35.78089],[138.71877,35.78031],[138.72086,35.78009],[138.72252,35.78035],[138.72432,35.78011],[138.72727,35.78083],[138.72793,35.78037],[138.72836,35.78028],[138.72949,35.78038]]]},"properties":{"key":"192050490","name":"三富下荻原","pref":"山梨県","prefCode":"19","municipality":"山梨市","areaM2":1538314.084,"population":63,"toponymIds":["19-cc09b89461"]}},{"type":"Feature","geometry":{"type":"Polygon","coordinates":[[[138.95935,35.58849],[138.96086,35.58788],[138.96381,35.58871],[138.96476,35.58961],[138.96572,35.58656],[138.96612,35.58684],[138.96922,35.58738],[138.97313,35.58779],[138.97433,35.58583],[138.97588,35.58445],[138.97828,35.58285],[138.97931,35.58196],[138.98119,35.58148],[138.985,35.57895],[138.98483,35.57888],[138.98439,35.57778],[138.98315,35.57641],[138.98216,35.57572],[138.98023,35.57572],[138.97908,35.57538],[138.97835,35.57495],[138.97669,35.57463],[138.97535,35.57478],[138.9744,35.57532],[138.97415,35.5753],[138.97288,35.5743],[138.97248,35.57363],[138.97125,35.57281],[138.97072,35.57252],[138.96902,35.57225],[138.96833,35.57109],[138.96745,35.57112],[138.9658,35.57195],[138.96544,35.57191],[138.96459,35.57133],[138.96359,35.57108],[138.96205,35.57188],[138.96172,35.57178],[138.9609,35.57093],[138.95838,35.56958],[138.95702,35.56931],[138.95653,35.56936],[138.95543,35.56996],[138.9542,35.5711],[138.95337,35.57118],[138.95299,35.57148],[138.95167,35.57348],[138.95061,35.57443],[138.95007,35.5757],[138.95042,35.57662],[138.95009,35.57714],[138.94955,35.57927],[138.94962,35.57987],[138.95004,35.58068],[138.95018,35.58206],[138.9491,35.58353],[138.9488,35.58423],[138.94872,35.58563],[138.94926,35.58905],[138.94967,35.59055],[138.95023,35.59177],[138.95024,35.59216],[138.94966,35.59375],[138.95233,35.59571],[138.95358,35.59504],[138.95465,35.59152],[138.95429,35.59028],[138.95607,35.59009],[138.95935,35.58849]]]},"properties":{"key":"19206009204","name":"猿橋町朝日小沢","pref":"山梨県","prefCode":"19","municipality":"大月市","areaM2":5097266.955,"population":116,"toponymIds":["19-be620a0353"]}},{"type":"Feature","geometry":{"type":"Polygon","coordinates":[[[138.9859,35.61665],[138.98913,35.61636],[138.99046,35.61596],[138.99083,35.61568],[138.99038,35.61499],[138.98866,35.61332],[138.98718,35.61119],[138.98661,35.61094],[138.98592,35.61018],[138.98478,35.60785],[138.98423,35.60757],[138.98243,35.60721],[138.98021,35.60947],[138.97889,35.61059],[138.97965,35.61125],[138.97918,35.61163],[138.97912,35.61202],[138.97985,35.61236],[138.98079,35.61207],[138.98173,35.61224],[138.98194,35.61322],[138.98219,35.61339],[138.9824,35.61394],[138.98348,35.61329],[138.98439,35.61344],[138.98494,35.61399],[138.98447,35.61471],[138.98447,35.61537],[138.98481,35.61636],[138.98531,35.6168],[138.9859,35.61665]]]},"properties":{"key":"19206009205","name":"猿橋町伊良原","pref":"山梨県","prefCode":"19","municipality":"大月市","areaM2":526781.189,"population":614,"toponymIds":["19-0c001e66d4"]}},{"type":"Feature","geometry":{"type":"Polygon","coordinates":[[[138.98315,35.60553],[138.98316,35.60476],[138.98164,35.60067],[138.98057,35.59913],[138.97952,35.59796],[138.97837,35.59822],[138.97759,35.59876],[138.97708,35.59886],[138.97602,35.59859],[138.97569,35.59868],[138.97506,35.59828],[138.97454,35.59831],[138.97428,35.59816],[138.97439,35.59746],[138.97421,35.59335],[138.9722,35.5912],[138.97223,35.59032],[138.97259,35.58874],[138.97313,35.58779],[138.96922,35.58738],[138.96612,35.58684],[138.96572,35.58656],[138.96476,35.58961],[138.96381,35.58871],[138.96086,35.58788],[138.95797,35.58907],[138.95607,35.59009],[138.95429,35.59028],[138.95465,35.59152],[138.95363,35.59498],[138.95233,35.59571],[138.95337,35.59644],[138.95328,35.59718],[138.95363,35.59786],[138.95423,35.5983],[138.95516,35.59867],[138.95575,35.5994],[138.95687,35.60024],[138.9587,35.60067],[138.95918,35.60112],[138.96295,35.60229],[138.96661,35.6027],[138.9677,35.60313],[138.96938,35.60437],[138.97066,35.60443],[138.97061,35.60425],[138.97114,35.60415],[138.97111,35.60399],[138.97152,35.60428],[138.97288,35.60408],[138.97318,35.60418],[138.97316,35.60395],[138.97282,35.60392],[138.9728,35.60378],[138.9732,35.60341],[138.97347,35.60342],[138.9734,35.60357],[138.97363,35.60363],[138.97387,35.60349],[138.97397,35.60386],[138.97477,35.60378],[138.97483,35.6039],[138.9741,35.60417],[138.97412,35.60451],[138.97477,35.60473],[138.97476,35.60502],[138.97511,35.60489],[138.97532,35.60528],[138.97593,35.60556],[138.97618,35.60549],[138.97621,35.60589],[138.97583,35.60603],[138.97624,35.60631],[138.97604,35.60675],[138.97651,35.60783],[138.9759,35.60835],[138.97636,35.60862],[138.98024,35.60787],[138.98243,35.60721],[138.98281,35.60673],[138.98315,35.60553]]]},"properties":{"key":"19206009203","name":"猿橋町小沢","pref":"山梨県","prefCode":"19","municipality":"大月市","areaM2":3460436.157,"population":209,"toponymIds":["19-397e11e3ec"]}},{"type":"Feature","geometry":{"type":"Polygon","coordinates":[[[139.00826,35.60288],[139.00979,35.60298],[139.01114,35.60225],[139.01062,35.60118],[139.00957,35.60054],[139.00873,35.59894],[139.00871,35.59611],[139.00939,35.59405],[139.00993,35.5934],[139.01152,35.59228],[139.01338,35.59151],[139.0142,35.5909],[139.01451,35.59044],[139.01483,35.58894],[139.01525,35.58851],[139.01815,35.58738],[139.01905,35.58686],[139.01994,35.58514],[139.01995,35.58369],[139.01977,35.58389],[139.01875,35.58376],[139.01835,35.58287],[139.018,35.58262],[139.01611,35.58224],[139.01527,35.58182],[139.0144,35.58027],[139.01428,35.57955],[139.0141,35.57946],[139.01301,35.5796],[139.01171,35.57927],[139.01064,35.57938],[139.00759,35.57883],[139.00641,35.5788],[139.00506,35.57894],[139.00415,35.57935],[139.00235,35.57922],[138.99955,35.57959],[138.99943,35.57967],[139.00024,35.58083],[139.00203,35.58412],[139.00185,35.58502],[139.00205,35.5856],[139.00271,35.58626],[139.00257,35.58773],[139.00294,35.58827],[139.00322,35.58911],[139.00328,35.59049],[139.00298,35.59157],[139.00308,35.59211],[139.00104,35.59465],[139.00088,35.5963],[139.00067,35.59654],[138.99998,35.59677],[139.001,35.59758],[139.00116,35.59802],[139.00108,35.59831],[139.00018,35.59911],[138.99995,35.5995],[138.99999,35.60048],[139.00055,35.60157],[139.00183,35.60159],[139.0015,35.60286],[139.00087,35.60385],[139.00459,35.60458],[139.00512,35.60516],[139.00859,35.60679],[139.00946,35.60705],[139.01029,35.60699],[139.01089,35.60661],[139.01106,35.60589],[139.01085,35.60513],[139.00868,35.60395],[139.00825,35.60346],[139.00826,35.60288]]]},"properties":{"key":"19206009207","name":"猿橋町小篠","pref":"山梨県","prefCode":"19","municipality":"大月市","areaM2":3025042.17,"population":158,"toponymIds":["19-9215a38816"]}},{"type":"Feature","geometry":{"type":"Polygon","coordinates":[[[138.97444,35.61302],[138.97473,35.61333],[138.97502,35.61296],[138.97498,35.61267],[138.97556,35.61247],[138.97516,35.61204],[138.97558,35.61175],[138.97544,35.61123],[138.97575,35.61093],[138.97626,35.61111],[138.97664,35.61087],[138.97689,35.6102],[138.97668,35.61023],[138.97663,35.60998],[138.97639,35.61021],[138.9762,35.61],[138.97497,35.6102],[138.97459,35.61006],[138.97454,35.60988],[138.97495,35.60948],[138.97484,35.60929],[138.97425,35.60944],[138.97406,35.60932],[138.97365,35.6099],[138.97344,35.60988],[138.97336,35.60964],[138.9705,35.61015],[138.97006,35.61007],[138.96977,35.6094],[138.96951,35.60921],[138.96957,35.60884],[138.96925,35.60824],[138.96899,35.60798],[138.96826,35.60801],[138.96845,35.60787],[138.96769,35.60759],[138.96758,35.60724],[138.96715,35.60688],[138.96712,35.60626],[138.96693,35.6062],[138.96652,35.60643],[138.96672,35.60757],[138.96636,35.6072],[138.96572,35.60757],[138.9656,35.6074],[138.966,35.60717],[138.96585,35.60699],[138.96613,35.60686],[138.96523,35.60714],[138.96527,35.60751],[138.96486,35.60772],[138.96503,35.60805],[138.96522,35.60792],[138.96523,35.60807],[138.96483,35.60827],[138.9646,35.60883],[138.96452,35.60876],[138.96441,35.60901],[138.96374,35.60929],[138.96357,35.60953],[138.96345,35.60938],[138.96282,35.60963],[138.96305,35.61012],[138.96364,35.61051],[138.96544,35.61011],[138.96598,35.61019],[138.9662,35.61077],[138.96589,35.61115],[138.96541,35.61137],[138.96552,35.61155],[138.96607,35.61132],[138.96665,35.61055],[138.96628,35.60996],[138.96588,35.60977],[138.96608,35.60927],[138.96599,35.60898],[138.96618,35.60869],[138.96628,35.60873],[138.96607,35.60895],[138.96633,35.60881],[138.96637,35.60915],[138.96616,35.60958],[138.96639,35.60971],[138.96637,35.60989],[138.96663,35.60973],[138.96745,35.60984],[138.96836,35.60956],[138.96829,35.61001],[138.96903,35.60991],[138.96904,35.61043],[138.96893,35.61049],[138.96904,35.61064],[138.96843,35.61154],[138.96872,35.61175],[138.96851,35.61208],[138.96886,35.61214],[138.9689,35.61162],[138.96926,35.61087],[138.97009,35.61098],[138.96982,35.61152],[138.97009,35.6115],[138.96997,35.61177],[138.97022,35.61226],[138.96996,35.61267],[138.97017,35.61303],[138.97059,35.6133],[138.97137,35.61327],[138.97141,35.61298],[138.97177,35.61309],[138.97184,35.61268],[138.97229,35.6131],[138.97305,35.61322],[138.9734,35.61315],[138.97336,35.61291],[138.97365,35.61275],[138.97386,35.61356],[138.97419,35.61342],[138.97421,35.61307],[138.97444,35.61302]]]},"properties":{"key":"19206009101","name":"猿橋町桂台一丁目","pref":"山梨県","prefCode":"19","municipality":"大月市","areaM2":342050.643,"population":691,"toponymIds":["19-8bc46c3060"]}},{"type":"Feature","geometry":{"type":"Polygon","coordinates":[[[138.98494,35.61399],[138.98439,35.61344],[138.98372,35.61325],[138.9824,35.61394],[138.98219,35.61339],[138.98194,35.61322],[138.98173,35.61224],[138.98079,35.61207],[138.97985,35.61236],[138.97912,35.61202],[138.97918,35.61163],[138.97965,35.61125],[138.97889,35.61059],[138.98021,35.60947],[138.98243,35.60721],[138.98024,35.60787],[138.97636,35.60862],[138.9759,35.60835],[138.97517,35.60868],[138.97509,35.60895],[138.97538,35.60902],[138.97557,35.60885],[138.97557,35.60858],[138.97605,35.60888],[138.97649,35.60938],[138.97636,35.60941],[138.97644,35.60965],[138.97609,35.60992],[138.97579,35.60987],[138.9757,35.61009],[138.97489,35.6097],[138.97451,35.61002],[138.97493,35.6102],[138.9762,35.61],[138.97639,35.61021],[138.97663,35.60998],[138.97668,35.61023],[138.97689,35.6102],[138.97686,35.61052],[138.97638,35.61106],[138.97575,35.61093],[138.97544,35.61123],[138.97558,35.61175],[138.97516,35.61204],[138.97556,35.61247],[138.97498,35.61267],[138.97502,35.61296],[138.97473,35.61333],[138.97454,35.61303],[138.97428,35.61304],[138.97417,35.61345],[138.97386,35.61356],[138.97365,35.61275],[138.97336,35.61291],[138.9734,35.61315],[138.97305,35.61322],[138.97229,35.6131],[138.97184,35.61268],[138.97177,35.61309],[138.97141,35.61298],[138.97137,35.61327],[138.97059,35.6133],[138.97005,35.61284],[138.96989,35.61317],[138.97169,35.61386],[138.9717,35.61424],[138.97463,35.61392],[138.97514,35.61505],[138.97449,35.61525],[138.97561,35.6158],[138.97573,35.6181],[138.97658,35.61904],[138.97747,35.6208],[138.97781,35.62244],[138.97751,35.62418],[138.97769,35.62479],[138.97812,35.62546],[138.97912,35.62359],[138.98099,35.62221],[138.98327,35.62],[138.98489,35.61717],[138.98531,35.6168],[138.98488,35.61648],[138.98447,35.61537],[138.98448,35.61469],[138.98494,35.61399]]]},"properties":{"key":"19206009202","name":"猿橋町猿橋","pref":"山梨県","prefCode":"19","municipality":"大月市","areaM2":1020736.94,"population":891,"toponymIds":["19-e9bf029fdb"]}},{"type":"Feature","geometry":{"type":"Polygon","coordinates":[[[138.97514,35.61505],[138.97463,35.61392],[138.9717,35.61424],[138.97169,35.61386],[138.96993,35.61328],[138.96998,35.61257],[138.97022,35.61226],[138.96997,35.61177],[138.97009,35.6115],[138.96982,35.6115],[138.97009,35.61098],[138.96926,35.61087],[138.9689,35.61162],[138.96886,35.61214],[138.96851,35.61208],[138.96872,35.61175],[138.96843,35.61154],[138.96904,35.61064],[138.96893,35.61049],[138.96904,35.61043],[138.96903,35.60991],[138.96829,35.61001],[138.96836,35.60956],[138.96745,35.60984],[138.96663,35.60973],[138.96637,35.60989],[138.96639,35.60971],[138.96616,35.60958],[138.96637,35.60915],[138.96633,35.60881],[138.96607,35.60895],[138.96628,35.60873],[138.96618,35.60869],[138.96599,35.60898],[138.96608,35.60927],[138.96588,35.60977],[138.96628,35.60996],[138.96665,35.61055],[138.96607,35.61132],[138.96552,35.61155],[138.96541,35.61137],[138.96589,35.61115],[138.9662,35.61077],[138.96598,35.61019],[138.96544,35.61011],[138.96364,35.61051],[138.96305,35.61012],[138.96282,35.60963],[138.96345,35.60938],[138.96357,35.60953],[138.96374,35.60929],[138.96441,35.60901],[138.96483,35.60827],[138.9652,35.60812],[138.96522,35.60792],[138.96503,35.60805],[138.96486,35.60772],[138.96527,35.60751],[138.96523,35.60714],[138.96613,35.60686],[138.96585,35.60699],[138.966,35.60717],[138.9656,35.6074],[138.96572,35.60757],[138.96636,35.6072],[138.96672,35.60757],[138.96652,35.60643],[138.96693,35.6062],[138.96712,35.60626],[138.96727,35.60704],[138.96781,35.60714],[138.96745,35.60667],[138.96734,35.60621],[138.96954,35.60525],[138.96938,35.60437],[138.9677,35.60313],[138.96661,35.6027],[138.96295,35.60229],[138.9608,35.60158],[138.96052,35.60352],[138.96115,35.60491],[138.96225,35.60591],[138.96272,35.6073],[138.96276,35.608],[138.96255,35.60892],[138.96292,35.61024],[138.96264,35.61097],[138.96323,35.61155],[138.96309,35.61324],[138.96392,35.61355],[138.96447,35.61421],[138.96464,35.61476],[138.96544,35.61498],[138.9669,35.61506],[138.97309,35.61477],[138.97449,35.61525],[138.97514,35.61505]]]},"properties":{"key":"19206009201","name":"猿橋町殿上","pref":"山梨県","prefCode":"19","municipality":"大月市","areaM2":739047.342,"population":311,"toponymIds":["19-66a2540bfa"]}},{"type":"Feature","geometry":{"type":"Polygon","coordinates":[[[138.99763,35.60332],[138.99913,35.60333],[139.00087,35.60385],[139.0015,35.60286],[139.00183,35.60159],[139.00055,35.60157],[138.99999,35.60048],[138.99995,35.5995],[139.00018,35.59911],[139.00108,35.59831],[139.00116,35.59802],[139.001,35.59758],[138.99998,35.59677],[139.00067,35.59654],[139.00088,35.5963],[139.00105,35.59548],[139.001,35.59472],[139.00308,35.59211],[139.00301,35.59131],[139.00328,35.59049],[139.00322,35.58911],[139.00294,35.58827],[139.00257,35.58773],[139.00271,35.58626],[139.00205,35.5856],[139.00185,35.58502],[139.00203,35.58412],[139.00024,35.58083],[138.99943,35.57967],[138.99847,35.58038],[138.9963,35.58101],[138.995,35.58352],[138.99389,35.58476],[138.99304,35.58656],[138.99145,35.58821],[138.99124,35.58861],[138.99082,35.59051],[138.99029,35.59155],[138.98968,35.59241],[138.98866,35.59335],[138.98898,35.59432],[138.9862,35.59634],[138.9847,35.59688],[138.9802,35.59755],[138.97952,35.59796],[138.98141,35.60023],[138.98192,35.60124],[138.98316,35.60476],[138.98315,35.60553],[138.98281,35.60673],[138.98243,35.60721],[138.98423,35.60757],[138.98478,35.60785],[138.98592,35.61018],[138.98661,35.61094],[138.98718,35.61119],[138.98866,35.61332],[138.99038,35.61499],[138.99083,35.61568],[138.99114,35.6152],[138.99125,35.61405],[138.99161,35.61319],[138.99443,35.61067],[138.99705,35.60759],[138.99742,35.60674],[138.99747,35.60621],[138.99672,35.60435],[138.99707,35.60345],[138.99763,35.60332]]]},"properties":{"key":"19206009206","name":"猿橋町藤崎","pref":"山梨県","prefCode":"19","municipality":"大月市","areaM2":4065591.565,"population":905,"toponymIds":["19-ac1a7f569c"]}},{"type":"Feature","geometry":{"type":"Polygon","coordinates":[[[138.944,35.63451],[138.9447,35.63381],[138.94522,35.63391],[138.94563,35.63426],[138.94614,35.63382],[138.94687,35.63378],[138.94724,35.63341],[138.94917,35.63399],[138.95054,35.63336],[138.95158,35.63353],[138.95318,35.63307],[138.95368,35.63168],[138.95486,35.63004],[138.95648,35.6283],[138.95578,35.62787],[138.95426,35.62752],[138.95383,35.62714],[138.95271,35.62705],[138.95529,35.62465],[138.95471,35.62429],[138.95405,35.62328],[138.95337,35.6228],[138.9526,35.62197],[138.95186,35.62152],[138.95018,35.62127],[138.94475,35.62278],[138.93833,35.62314],[138.9381,35.62378],[138.93773,35.62415],[138.9326,35.62518],[138.93168,35.62602],[138.93072,35.62618],[138.93025,35.62667],[138.92976,35.62665],[138.92971,35.6269],[138.92953,35.62663],[138.92929,35.62703],[138.92913,35.6266],[138.92791,35.62664],[138.9278,35.62613],[138.92755,35.62583],[138.92682,35.62585],[138.92668,35.62471],[138.92632,35.62496],[138.92619,35.62546],[138.92561,35.62509],[138.92528,35.62514],[138.92554,35.62653],[138.92543,35.62685],[138.92644,35.62713],[138.92729,35.62793],[138.92935,35.62942],[138.92974,35.62995],[138.92929,35.63139],[138.93049,35.63228],[138.93164,35.63268],[138.93655,35.63363],[138.9396,35.63462],[138.93984,35.63463],[138.94051,35.63424],[138.94157,35.63454],[138.94206,35.63441],[138.94287,35.63452],[138.94317,35.63481],[138.944,35.63451]]]},"properties":{"key":"19206007003","name":"賑岡町畑倉","pref":"山梨県","prefCode":"19","municipality":"大月市","areaM2":2654019.038,"population":878,"toponymIds":["19-4f6963b851"]}},{"type":"Feature","geometry":{"type":"Polygon","coordinates":[[[139.05925,35.61689],[139.06109,35.61625],[139.0624,35.61668],[139.06356,35.61582],[139.06378,35.61531],[139.06375,35.6148],[139.06405,35.61411],[139.06346,35.6137],[139.06344,35.61278],[139.06383,35.61212],[139.06467,35.61187],[139.06304,35.61018],[139.06205,35.60963],[139.0597,35.60755],[139.05811,35.6065],[139.05556,35.60594],[139.05348,35.60576],[139.05272,35.60542],[139.0517,35.60527],[139.05111,35.60662],[139.05082,35.60685],[139.04948,35.60704],[139.04715,35.60962],[139.04541,35.60991],[139.04503,35.61033],[139.04481,35.61199],[139.04522,35.61223],[139.05024,35.61377],[139.05246,35.61493],[139.05354,35.6151],[139.05575,35.61627],[139.05832,35.61672],[139.05875,35.61693],[139.05925,35.61689]]]},"properties":{"key":"19206011004","name":"梁川町新倉","pref":"山梨県","prefCode":"19","municipality":"大月市","areaM2":1421168.248,"population":66,"toponymIds":["19-037d750cec"]}},{"type":"Feature","geometry":{"type":"Polygon","coordinates":[[[138.40649,35.7323],[138.40777,35.73007],[138.40906,35.73045],[138.40996,35.73142],[138.41201,35.73257],[138.4168,35.73369],[138.42017,35.72902],[138.42425,35.72456],[138.42102,35.7221],[138.4195,35.72119],[138.41916,35.7215],[138.41418,35.71906],[138.4153,35.71712],[138.41554,35.71564],[138.4187,35.70671],[138.41834,35.70649],[138.40944,35.70423],[138.40743,35.70343],[138.40548,35.70223],[138.40454,35.70146],[138.4032,35.70083],[138.39834,35.69963],[138.39579,35.69859],[138.39206,35.69597],[138.38989,35.6927],[138.384,35.69265],[138.37844,35.69281],[138.37811,35.69269],[138.37622,35.68981],[138.37045,35.68392],[138.369,35.6841],[138.36666,35.68413],[138.36409,35.68451],[138.36067,35.68425],[138.36005,35.68378],[138.35853,35.68344],[138.35733,35.68349],[138.35682,35.68368],[138.3565,35.68353],[138.35596,35.68251],[138.3546,35.68083],[138.35397,35.67892],[138.35452,35.67686],[138.35418,35.67623],[138.35359,35.67566],[138.3525,35.67494],[138.3515,35.67459],[138.35045,35.67452],[138.3491,35.67494],[138.34857,35.67481],[138.34576,35.67337],[138.34471,35.67318],[138.34216,35.67308],[138.34064,35.67239],[138.33711,35.67202],[138.33378,35.67292],[138.32985,35.67343],[138.32855,35.67407],[138.3222,35.6764],[138.32094,35.67798],[138.32034,35.67839],[138.31895,35.67905],[138.31716,35.67951],[138.31666,35.67998],[138.31615,35.68091],[138.31599,35.68232],[138.31609,35.68428],[138.31554,35.68496],[138.31511,35.6874],[138.31486,35.68791],[138.31413,35.68871],[138.31273,35.68961],[138.31163,35.69086],[138.31128,35.69188],[138.31145,35.69265],[138.31135,35.69299],[138.31063,35.69335],[138.31081,35.69462],[138.3116,35.69564],[138.31151,35.69586],[138.30991,35.69668],[138.30875,35.69851],[138.30688,35.70014],[138.30543,35.7017],[138.3049,35.70305],[138.30394,35.70376],[138.30162,35.70614],[138.30025,35.70709],[138.29892,35.70883],[138.29753,35.70944],[138.29699,35.71041],[138.2992,35.71279],[138.2996,35.71298],[138.30054,35.71286],[138.30135,35.71302],[138.30283,35.71242],[138.30432,35.71219],[138.30477,35.71197],[138.30629,35.71207],[138.30703,35.71191],[138.30728,35.71126],[138.30803,35.71067],[138.312,35.70982],[138.31419,35.70979],[138.3188,35.71053],[138.32166,35.71214],[138.32675,35.71657],[138.32906,35.71742],[138.33265,35.71917],[138.33344,35.7219],[138.34219,35.72278],[138.34913,35.72225],[138.35101,35.72262],[138.35569,35.72566],[138.35937,35.72776],[138.36303,35.72904],[138.37025,35.73071],[138.37907,35.73242],[138.38457,35.73333],[138.38819,35.73334],[138.39275,35.73646],[138.39934,35.73983],[138.40155,35.74055],[138.40289,35.73855],[138.40649,35.7323]]]},"properties":{"key":"19207019002","name":"清哲町青木","pref":"山梨県","prefCode":"19","municipality":"韮崎市","areaM2":44394425.679,"population":352,"toponymIds":["19-2d222890df"]}},{"type":"Feature","geometry":{"type":"Polygon","coordinates":[[[138.49115,35.76762],[138.49133,35.76532],[138.49073,35.76406],[138.49062,35.7617],[138.48948,35.75915],[138.48904,35.75702],[138.48836,35.75594],[138.48727,35.75238],[138.48593,35.75053],[138.48527,35.74918],[138.48337,35.74757],[138.48278,35.74639],[138.48178,35.74534],[138.48019,35.74223],[138.47976,35.74214],[138.47835,35.74126],[138.47729,35.74081],[138.4765,35.74024],[138.47401,35.73923],[138.47057,35.73851],[138.46884,35.73838],[138.46899,35.73852],[138.4688,35.74009],[138.46905,35.74274],[138.46987,35.74483],[138.46996,35.74672],[138.4706,35.749],[138.4719,35.75177],[138.47388,35.752],[138.47494,35.75254],[138.47615,35.75278],[138.47666,35.75351],[138.47752,35.75411],[138.47783,35.7547],[138.47937,35.75502],[138.48038,35.75605],[138.48092,35.75629],[138.48127,35.75675],[138.48177,35.75702],[138.48189,35.75736],[138.48286,35.75757],[138.48321,35.75826],[138.4839,35.75866],[138.48467,35.75994],[138.48562,35.76024],[138.48608,35.76056],[138.48623,35.76091],[138.48706,35.76177],[138.48782,35.76227],[138.48784,35.76259],[138.48761,35.76293],[138.48776,35.76365],[138.48734,35.76445],[138.4878,35.76501],[138.48834,35.76532],[138.48832,35.76569],[138.4888,35.76627],[138.48885,35.76658],[138.48952,35.76712],[138.49115,35.76762]]]},"properties":{"key":"19207014006","name":"穂坂町三之蔵","pref":"山梨県","prefCode":"19","municipality":"韮崎市","areaM2":2463658.125,"population":77,"toponymIds":["19-29a226dbe4"]}},{"type":"Feature","geometry":{"type":"Polygon","coordinates":[[[138.23435,35.74555],[138.23434,35.74419],[138.23403,35.74264],[138.2347,35.74144],[138.23491,35.74042],[138.2344,35.73802],[138.23699,35.73608],[138.23769,35.73577],[138.23876,35.73489],[138.23922,35.73421],[138.24047,35.73346],[138.24129,35.73272],[138.24157,35.73229],[138.24161,35.73176],[138.24384,35.73155],[138.24451,35.73159],[138.24551,35.73194],[138.24796,35.73102],[138.24869,35.73101],[138.24944,35.73062],[138.25057,35.73049],[138.25267,35.73056],[138.25464,35.7303],[138.25653,35.72907],[138.25928,35.72888],[138.26207,35.72787],[138.26353,35.72678],[138.26372,35.72555],[138.26406,35.72447],[138.26454,35.72369],[138.26482,35.72266],[138.26637,35.72113],[138.26756,35.71964],[138.27134,35.71873],[138.27189,35.7179],[138.27313,35.71736],[138.27476,35.71625],[138.27566,35.71595],[138.27707,35.71438],[138.27758,35.71406],[138.27867,35.71372],[138.28039,35.71283],[138.28221,35.71241],[138.28238,35.71213],[138.28309,35.71168],[138.28358,35.71085],[138.28452,35.71025],[138.28583,35.71002],[138.28686,35.71007],[138.28777,35.70975],[138.28844,35.70978],[138.29094,35.71062],[138.29313,35.71103],[138.29437,35.71096],[138.29681,35.71028],[138.29702,35.71036],[138.29753,35.70944],[138.29892,35.70883],[138.30025,35.70709],[138.30162,35.70614],[138.30394,35.70376],[138.3049,35.70305],[138.30543,35.7017],[138.30688,35.70014],[138.30875,35.69851],[138.30991,35.69668],[138.31151,35.69586],[138.3116,35.69564],[138.31081,35.69462],[138.31063,35.69335],[138.31135,35.69299],[138.31145,35.69265],[138.31128,35.69188],[138.31163,35.69086],[138.31273,35.68961],[138.31413,35.68871],[138.31486,35.68791],[138.31511,35.6874],[138.31554,35.68496],[138.31609,35.68428],[138.31601,35.68154],[138.31636,35.68041],[138.31716,35.67951],[138.31895,35.67905],[138.32094,35.67798],[138.3222,35.6764],[138.32855,35.67407],[138.32985,35.67343],[138.33378,35.67292],[138.33711,35.67202],[138.34064,35.67239],[138.34216,35.67308],[138.34471,35.67318],[138.34576,35.67337],[138.34857,35.67481],[138.3491,35.67494],[138.35045,35.67452],[138.3515,35.67459],[138.3525,35.67494],[138.35418,35.67623],[138.35439,35.6757],[138.35502,35.67557],[138.3558,35.67502],[138.35534,35.67308],[138.35539,35.67266],[138.35599,35.67098],[138.35597,35.66988],[138.35629,35.66891],[138.35676,35.66812],[138.35857,35.66732],[138.3591,35.66666],[138.3594,35.66556],[138.35959,35.66544],[138.3605,35.66513],[138.36182,35.66413],[138.36335,35.66385],[138.36522,35.66308],[138.36592,35.66104],[138.36584,35.66051],[138.36609,35.66033],[138.36868,35.65914],[138.36973,35.65887],[138.37022,35.65837],[138.37096,35.65709],[138.37143,35.65665],[138.3719,35.65652],[138.37296,35.65674],[138.37451,35.65595],[138.37575,35.65599],[138.3765,35.65626],[138.37802,35.65756],[138.37867,35.6571],[138.38058,35.65676],[138.38141,35.65619],[138.38226,35.655],[138.38371,35.65432],[138.38492,35.65218],[138.38481,35.65182],[138.38745,35.64985],[138.38791,35.6492],[138.39075,35.64764],[138.3923,35.64708],[138.39311,35.64603],[138.39405,35.64553],[138.3983,35.64468],[138.40108,35.64482],[138.40198,35.6425],[138.40027,35.64103],[138.40026,35.64088],[138.39696,35.6385],[138.39574,35.63794],[138.39249,35.63717],[138.39192,35.63674],[138.38908,35.63812],[138.38674,35.63838],[138.38554,35.63841],[138.38292,35.6372],[138.37945,35.63719],[138.37738,35.63691],[138.37679,35.63696],[138.37556,35.6378],[138.37474,35.63792],[138.37367,35.63619],[138.37167,35.63504],[138.36766,35.63503],[138.36697,35.63468],[138.36613,35.63452],[138.36549,35.63382],[138.36436,35.63353],[138.36478,35.63267],[138.36453,35.63187],[138.36436,35.63168],[138.36291,35.63121],[138.36178,35.62986],[138.36075,35.6275],[138.36016,35.62676],[138.35777,35.62532],[138.35771,35.6245],[138.35752,35.62409],[138.3571,35.62401],[138.3568,35.62416],[138.35603,35.62418],[138.35478,35.62358],[138.35182,35.62166],[138.35166,35.62109],[138.35182,35.61927],[138.3524,35.61587],[138.35185,35.61372],[138.35126,35.61254],[138.34935,35.6108],[138.34888,35.60887],[138.34795,35.60725],[138.34052,35.5979],[138.3405,35.59743],[138.34219,35.59158],[138.3416,35.59149],[138.34024,35.59166],[138.3388,35.59121],[138.33781,35.59316],[138.33763,35.59438],[138.33703,35.59579],[138.33673,35.59624],[138.33593,35.59657],[138.33576,35.59679],[138.33574,35.59731],[138.33461,35.5986],[138.3346,35.59959],[138.3359,35.60416],[138.33474,35.60437],[138.33423,35.60504],[138.33288,35.60595],[138.33224,35.60685],[138.3307,35.60797],[138.3299,35.60824],[138.32963,35.60847],[138.32951,35.60901],[138.32814,35.6098],[138.3265,35.60855],[138.32295,35.60796],[138.32187,35.60682],[138.32069,35.60621],[138.32017,35.60565],[138.31878,35.60508],[138.3181,35.60411],[138.31729,35.60337],[138.31528,35.60306],[138.31399,35.60188],[138.31375,35.60021],[138.31243,35.60044],[138.31224,35.60055],[138.31219,35.60112],[138.31197,35.60128],[138.31069,35.60151],[138.31028,35.60187],[138.31004,35.60273],[138.3102,35.60291],[138.31184,35.60285],[138.31223,35.60337],[138.30957,35.60545],[138.30868,35.60681],[138.30872,35.60773],[138.30912,35.60842],[138.30933,35.60852],[138.31097,35.6079],[138.31213,35.60846],[138.31288,35.60846],[138.31302,35.60863],[138.31297,35.60884],[138.31173,35.61006],[138.31065,35.61047],[138.31015,35.61169],[138.31055,35.61238],[138.31263,35.61262],[138.31299,35.61361],[138.3127,35.61445],[138.31204,35.61522],[138.3117,35.61544],[138.31044,35.61554],[138.31022,35.6157],[138.31003,35.61653],[138.31053,35.61689],[138.31205,35.61715],[138.31414,35.618],[138.31417,35.61903],[138.31544,35.62161],[138.31547,35.62213],[138.3153,35.6227],[138.31468,35.6234],[138.31457,35.62374],[138.3149,35.62554],[138.31483,35.62601],[138.31464,35.62631],[138.31362,35.6269],[138.31318,35.62786],[138.31283,35.62827],[138.31333,35.62875],[138.31198,35.62992],[138.3117,35.6304],[138.31147,35.63179],[138.31163,35.63201],[138.31313,35.63221],[138.31335,35.63264],[138.31333,35.63356],[138.31317,35.63381],[138.31215,35.63426],[138.31182,35.63456],[138.31163,35.6351],[138.31204,35.63564],[138.31258,35.63566],[138.3134,35.63532],[138.31432,35.63461],[138.31511,35.6345],[138.31553,35.6352],[138.31581,35.6363],[138.31579,35.63668],[138.31485,35.63743],[138.31357,35.63915],[138.31222,35.64019],[138.3114,35.64226],[138.31135,35.6431],[138.31069,35.64387],[138.30992,35.64412],[138.30887,35.64417],[138.30798,35.64388],[138.30613,35.64425],[138.30565,35.64416],[138.30443,35.64338],[138.30399,35.64329],[138.30363,35.64338],[138.30239,35.64425],[138.30039,35.64382],[138.30003,35.64394],[138.29899,35.64484],[138.29808,35.64484],[138.29562,35.64564],[138.2952,35.6456],[138.29414,35.64491],[138.29384,35.64489],[138.29287,35.64548],[138.29202,35.64534],[138.28903,35.64584],[138.28684,35.64564],[138.2854,35.64628],[138.28373,35.64568],[138.28252,35.64503],[138.28129,35.64494],[138.28029,35.64441],[138.27882,35.6441],[138.27807,35.64357],[138.27774,35.6435],[138.27722,35.64379],[138.27676,35.64461],[138.27578,35.64495],[138.27501,35.64498],[138.27478,35.64484],[138.27462,35.64433],[138.27437,35.64424],[138.27216,35.64456],[138.26924,35.64435],[138.26637,35.64499],[138.26352,35.64615],[138.26112,35.64648],[138.26023,35.64655],[138.25854,35.64613],[138.25705,35.64607],[138.25577,35.64558],[138.25458,35.64563],[138.25276,35.6462],[138.25023,35.64668],[138.24803,35.64803],[138.24627,35.64829],[138.24506,35.64888],[138.24358,35.64932],[138.24326,35.64948],[138.24296,35.64988],[138.24221,35.64991],[138.24136,35.65037],[138.24038,35.65046],[138.23817,35.65007],[138.23632,35.65059],[138.23524,35.65026],[138.23276,35.64872],[138.22952,35.64859],[138.22896,35.64758],[138.22845,35.64603],[138.22709,35.64566],[138.22631,35.64577],[138.22451,35.64544],[138.22246,35.64529],[138.21932,35.64429],[138.21869,35.6445],[138.21772,35.64548],[138.21765,35.64632],[138.21716,35.64739],[138.21416,35.64997],[138.21275,35.65072],[138.21206,35.65151],[138.21132,35.65172],[138.21101,35.65199],[138.21019,35.65281],[138.20869,35.65529],[138.20805,35.65563],[138.20817,35.65651],[138.20761,35.65993],[138.20691,35.66174],[138.20614,35.66237],[138.20581,35.66285],[138.2054,35.66411],[138.20328,35.66481],[138.20249,35.66633],[138.20089,35.66749],[138.19871,35.66956],[138.19755,35.6698],[138.19645,35.67027],[138.19345,35.67215],[138.1944,35.67375],[138.19435,35.67485],[138.19394,35.67546],[138.19359,35.67645],[138.19315,35.67686],[138.19265,35.677],[138.1925,35.67878],[138.19259,35.67925],[138.19334,35.6808],[138.19225,35.6824],[138.19261,35.6829],[138.19248,35.68346],[138.19193,35.68444],[138.19188,35.68479],[138.1913,35.68527],[138.1913,35.68548],[138.19316,35.68727],[138.19376,35.68834],[138.19385,35.6892],[138.1936,35.68984],[138.19378,35.69089],[138.19351,35.69206],[138.19385,35.69314],[138.19411,35.69537],[138.19409,35.69566],[138.19376,35.69605],[138.19369,35.69711],[138.1927,35.69864],[138.19259,35.69968],[138.19122,35.702],[138.18698,35.70433],[138.18668,35.70471],[138.18651,35.70529],[138.18374,35.70778],[138.18294,35.70898],[138.18245,35.70934],[138.1822,35.70968],[138.18183,35.7109],[138.18078,35.71137],[138.18036,35.71277],[138.18026,35.7146],[138.1805,35.7155],[138.18131,35.71662],[138.18201,35.71831],[138.18335,35.71909],[138.18371,35.71997],[138.1849,35.71992],[138.18615,35.72029],[138.18632,35.72178],[138.18666,35.72218],[138.18775,35.72294],[138.19011,35.72388],[138.19164,35.72507],[138.193,35.72553],[138.19439,35.72562],[138.19511,35.72582],[138.19727,35.72702],[138.19829,35.72933],[138.19997,35.73181],[138.20011,35.73264],[138.20031,35.73296],[138.20287,35.73481],[138.20337,35.7349],[138.20458,35.73476],[138.20533,35.73514],[138.20695,35.73558],[138.20756,35.73632],[138.2079,35.73701],[138.20848,35.73733],[138.20887,35.73785],[138.21048,35.73858],[138.21246,35.74042],[138.21277,35.74146],[138.21358,35.74217],[138.21759,35.74508],[138.21821,35.74532],[138.21908,35.74536],[138.22002,35.7463],[138.22075,35.74785],[138.22063,35.74878],[138.22072,35.74923],[138.22152,35.74964],[138.22207,35.75045],[138.22509,35.75167],[138.22725,35.75344],[138.22814,35.75377],[138.22888,35.75363],[138.22948,35.7532],[138.23003,35.75183],[138.22991,35.75027],[138.23055,35.74897],[138.23091,35.74844],[138.23299,35.7465],[138.23418,35.74579],[138.23435,35.74555]]]},"properties":{"key":"192080220","name":"芦安芦倉","pref":"山梨県","prefCode":"19","municipality":"南アルプス市","areaM2":133937283.518,"population":195,"toponymIds":["19-5004288b28"]}},{"type":"Feature","geometry":{"type":"Polygon","coordinates":[[[138.40617,35.63701],[138.40732,35.63628],[138.40659,35.63536],[138.40485,35.6339],[138.40428,35.63282],[138.40375,35.63063],[138.40385,35.628],[138.40301,35.62685],[138.40136,35.62606],[138.39889,35.62548],[138.39772,35.62545],[138.39642,35.62571],[138.39537,35.62463],[138.39502,35.6245],[138.39342,35.62466],[138.39225,35.62458],[138.38829,35.62229],[138.38714,35.62221],[138.38499,35.62239],[138.38358,35.62215],[138.38223,35.62136],[138.38047,35.6199],[138.37932,35.61932],[138.37666,35.61843],[138.37212,35.61836],[138.37094,35.6181],[138.36985,35.6176],[138.36815,35.61626],[138.36639,35.61443],[138.36803,35.61411],[138.37261,35.61378],[138.37646,35.61279],[138.37595,35.61153],[138.35946,35.58742],[138.35839,35.58746],[138.35659,35.58782],[138.3561,35.5888],[138.35592,35.58988],[138.35612,35.59026],[138.35607,35.59056],[138.35547,35.59136],[138.35517,35.5915],[138.35466,35.59144],[138.35376,35.59189],[138.35284,35.59185],[138.35185,35.59152],[138.35139,35.59176],[138.351,35.59173],[138.35011,35.59137],[138.349,35.59036],[138.34676,35.58994],[138.34563,35.59005],[138.3435,35.59146],[138.34219,35.59158],[138.3405,35.59743],[138.34052,35.5979],[138.34795,35.60725],[138.34888,35.60887],[138.34935,35.6108],[138.35142,35.61278],[138.35212,35.61456],[138.3524,35.61587],[138.35182,35.61927],[138.35166,35.62109],[138.35182,35.62166],[138.35478,35.62358],[138.35603,35.62418],[138.3568,35.62416],[138.3571,35.62401],[138.35752,35.62409],[138.35771,35.6245],[138.35777,35.62532],[138.36016,35.62676],[138.36075,35.6275],[138.36178,35.62986],[138.36291,35.63121],[138.36436,35.63168],[138.36453,35.63187],[138.36478,35.63267],[138.36436,35.63353],[138.36549,35.63382],[138.36613,35.63452],[138.36697,35.63468],[138.36766,35.63503],[138.37167,35.63504],[138.37367,35.63619],[138.37474,35.63792],[138.37556,35.6378],[138.37679,35.63696],[138.37738,35.63691],[138.37945,35.63719],[138.38292,35.6372],[138.38554,35.63841],[138.38674,35.63838],[138.38908,35.63812],[138.39192,35.63674],[138.39249,35.63717],[138.39574,35.63794],[138.39696,35.6385],[138.40026,35.64088],[138.40166,35.63967],[138.40361,35.6387],[138.40617,35.63701]]]},"properties":{"key":"192080230","name":"芦安安通","pref":"山梨県","prefCode":"19","municipality":"南アルプス市","areaM2":13787390.991,"population":32,"toponymIds":["19-d4d858c9a6"]}},{"type":"Feature","geometry":{"type":"Polygon","coordinates":[[[138.42194,35.82709],[138.42192,35.8266],[138.42164,35.82627],[138.4218,35.82602],[138.42139,35.8257],[138.42121,35.82503],[138.42066,35.82437],[138.4207,35.82352],[138.42099,35.8228],[138.42092,35.82238],[138.42125,35.82189],[138.42095,35.82136],[138.42149,35.82087],[138.42171,35.82011],[138.42118,35.8184],[138.42139,35.81786],[138.42184,35.81769],[138.4221,35.81718],[138.42202,35.81699],[138.42148,35.81681],[138.42146,35.81589],[138.42113,35.8151],[138.42124,35.81462],[138.42193,35.81399],[138.42173,35.81344],[138.42202,35.81237],[138.42248,35.81182],[138.42263,35.81129],[138.42316,35.81092],[138.42236,35.81062],[138.42231,35.81045],[138.4228,35.81009],[138.42324,35.80943],[138.423,35.80901],[138.42314,35.80842],[138.42268,35.80805],[138.42203,35.80803],[138.42195,35.80758],[138.42144,35.80743],[138.42137,35.80725],[138.42271,35.80654],[138.42353,35.80649],[138.42376,35.8052],[138.42351,35.80461],[138.42318,35.80434],[138.4232,35.80385],[138.423,35.80341],[138.42239,35.80324],[138.42216,35.80296],[138.42237,35.80258],[138.4222,35.80215],[138.42166,35.80168],[138.42171,35.80045],[138.42098,35.79955],[138.42056,35.79864],[138.41955,35.79825],[138.41947,35.79778],[138.41844,35.79743],[138.41715,35.80073],[138.41609,35.80283],[138.41588,35.80365],[138.41498,35.80523],[138.41215,35.80847],[138.41109,35.81046],[138.41179,35.8111],[138.41218,35.81182],[138.41328,35.81228],[138.41477,35.81382],[138.41378,35.81425],[138.41433,35.81526],[138.41427,35.81602],[138.414,35.81664],[138.41355,35.81713],[138.41358,35.81804],[138.41297,35.81934],[138.4124,35.82202],[138.41141,35.82396],[138.4109,35.82586],[138.41253,35.82694],[138.41309,35.82662],[138.41457,35.82733],[138.41614,35.82712],[138.41635,35.82685],[138.41799,35.8267],[138.41853,35.8268],[138.41885,35.82741],[138.41939,35.82743],[138.41938,35.82765],[138.42029,35.82767],[138.42029,35.82791],[138.42122,35.82792],[138.42121,35.82817],[138.42215,35.82819],[138.42194,35.82709]]]},"properties":{"key":"192090320","name":"高根町蔵原","pref":"山梨県","prefCode":"19","municipality":"北杜市","areaM2":2384477.543,"population":390,"toponymIds":["19-d23d75e6da"]}},{"type":"Feature","geometry":{"type":"Polygon","coordinates":[[[138.44835,35.74724],[138.44986,35.74764],[138.4501,35.74808],[138.4506,35.7481],[138.45057,35.74824],[138.4509,35.74834],[138.4508,35.7487],[138.45094,35.74883],[138.45182,35.74794],[138.452,35.74752],[138.45273,35.74709],[138.4561,35.74692],[138.45786,35.74753],[138.46035,35.74765],[138.462,35.74746],[138.46125,35.74703],[138.45859,35.7467],[138.45699,35.74589],[138.45699,35.74511],[138.45648,35.74411],[138.45557,35.7431],[138.45395,35.74178],[138.4537,35.74047],[138.45266,35.73972],[138.45235,35.73927],[138.45096,35.73857],[138.45098,35.73788],[138.45056,35.73749],[138.45057,35.73692],[138.45125,35.73498],[138.45066,35.73403],[138.44646,35.73997],[138.44352,35.74519],[138.44305,35.74566],[138.44483,35.74571],[138.44543,35.74505],[138.44637,35.74528],[138.44677,35.74556],[138.44732,35.74554],[138.44727,35.74577],[138.44657,35.74651],[138.44791,35.74712],[138.4483,35.74709],[138.44835,35.74724]]]},"properties":{"key":"192090070","name":"明野町三之蔵","pref":"山梨県","prefCode":"19","municipality":"北杜市","areaM2":950556.759,"population":155,"toponymIds":["19-82bb0b2375"]}},{"type":"Feature","geometry":{"type":"Polygon","coordinates":[[[138.43647,35.79398],[138.43588,35.79286],[138.43569,35.79182],[138.43499,35.79045],[138.43501,35.78938],[138.43469,35.78883],[138.43393,35.78864],[138.43332,35.78824],[138.43274,35.78847],[138.43202,35.7882],[138.43173,35.78787],[138.42924,35.7881],[138.42866,35.78784],[138.42759,35.78657],[138.42708,35.78533],[138.4271,35.78456],[138.4264,35.78282],[138.42636,35.78174],[138.42595,35.78106],[138.42603,35.7804],[138.42577,35.77904],[138.42525,35.77893],[138.42502,35.77971],[138.42342,35.78025],[138.42301,35.78129],[138.42324,35.78146],[138.42308,35.78172],[138.42142,35.78198],[138.42113,35.78237],[138.42186,35.78361],[138.4222,35.7853],[138.42275,35.78603],[138.42383,35.78689],[138.42505,35.78815],[138.42495,35.78842],[138.42626,35.79105],[138.42631,35.79153],[138.42613,35.79198],[138.42641,35.79305],[138.42799,35.7947],[138.42892,35.79414],[138.43085,35.79395],[138.43186,35.79375],[138.43195,35.7936],[138.43234,35.79432],[138.43376,35.79381],[138.43375,35.7941],[138.43396,35.79436],[138.43487,35.79443],[138.43593,35.79523],[138.43607,35.7965],[138.43596,35.79689],[138.43641,35.7977],[138.4369,35.79812],[138.43769,35.79789],[138.43742,35.79701],[138.43774,35.79691],[138.43702,35.79475],[138.43647,35.79398]]]},"properties":{"key":"192090160","name":"須玉町大蔵","pref":"山梨県","prefCode":"19","municipality":"北杜市","areaM2":974329.204,"population":431,"toponymIds":["19-8d9f7c3246"]}},{"type":"Feature","geometry":{"type":"Polygon","coordinates":[[[138.44726,35.83472],[138.44814,35.83492],[138.44949,35.83448],[138.45044,35.83461],[138.45228,35.83415],[138.45561,35.83381],[138.45473,35.83309],[138.45432,35.8325],[138.45327,35.82987],[138.45355,35.827],[138.453,35.82572],[138.45281,35.82439],[138.45307,35.82329],[138.45363,35.82208],[138.45286,35.82142],[138.45169,35.82004],[138.45045,35.81786],[138.45003,35.81648],[138.44901,35.81569],[138.44472,35.81102],[138.44428,35.81294],[138.44362,35.81342],[138.44281,35.81384],[138.44272,35.81375],[138.44209,35.81232],[138.44182,35.81063],[138.44139,35.80953],[138.44086,35.80886],[138.44066,35.8083],[138.4401,35.80768],[138.43982,35.80697],[138.43938,35.80656],[138.43834,35.80465],[138.43812,35.80396],[138.43731,35.80277],[138.43662,35.80134],[138.4348,35.79871],[138.43368,35.79607],[138.43195,35.7936],[138.43186,35.79375],[138.43085,35.79395],[138.42878,35.79419],[138.42799,35.7947],[138.43083,35.79838],[138.43157,35.79978],[138.43171,35.80098],[138.43159,35.80219],[138.43262,35.80525],[138.43312,35.80564],[138.43394,35.80593],[138.43469,35.80653],[138.43602,35.80876],[138.43632,35.81119],[138.43695,35.8127],[138.43766,35.81387],[138.43754,35.81473],[138.439,35.81632],[138.43952,35.81765],[138.44027,35.81871],[138.44032,35.81929],[138.44069,35.81987],[138.44072,35.82127],[138.4412,35.82272],[138.44003,35.82671],[138.43996,35.82749],[138.44025,35.82879],[138.44105,35.82983],[138.44044,35.83117],[138.44072,35.83374],[138.4415,35.83406],[138.44384,35.83551],[138.44502,35.8351],[138.44726,35.83472]]]},"properties":{"key":"192090170","name":"須玉町小倉","pref":"山梨県","prefCode":"19","municipality":"北杜市","areaM2":3573832.059,"population":238,"toponymIds":["19-a8cf08dbe9"]}},{"type":"Feature","geometry":{"type":"Polygon","coordinates":[[[138.39269,35.83124],[138.39288,35.82816],[138.39357,35.82696],[138.39343,35.82631],[138.39402,35.82476],[138.39512,35.82321],[138.39503,35.82214],[138.39032,35.8217],[138.39053,35.82117],[138.3905,35.82076],[138.38956,35.81967],[138.38929,35.81879],[138.38952,35.81836],[138.39041,35.81816],[138.39048,35.81788],[138.38618,35.8177],[138.38506,35.81951],[138.38434,35.81982],[138.38415,35.82047],[138.38326,35.8222],[138.38247,35.8234],[138.38155,35.82412],[138.38282,35.82404],[138.38361,35.82427],[138.38519,35.82402],[138.38609,35.82369],[138.38526,35.82511],[138.38433,35.82604],[138.38427,35.82667],[138.38493,35.82766],[138.38478,35.82808],[138.38446,35.8284],[138.38482,35.82855],[138.38504,35.82892],[138.38542,35.82905],[138.3855,35.82929],[138.3859,35.82954],[138.3863,35.82939],[138.38687,35.82968],[138.38733,35.82922],[138.38766,35.8285],[138.38871,35.82738],[138.38861,35.82809],[138.38882,35.82852],[138.39102,35.83071],[138.39125,35.83102],[138.39138,35.83168],[138.39168,35.83204],[138.39243,35.83221],[138.39269,35.83124]]]},"properties":{"key":"192090430","name":"長坂町夏秋","pref":"山梨県","prefCode":"19","municipality":"北杜市","areaM2":969734.207,"population":117,"toponymIds":["19-04e5edff36"]}},{"type":"Feature","geometry":{"type":"Polygon","coordinates":[[[138.50773,35.72387],[138.50741,35.72337],[138.50622,35.72291],[138.50541,35.72212],[138.5045,35.72195],[138.50372,35.72159],[138.50327,35.72078],[138.50237,35.71984],[138.50121,35.71896],[138.49973,35.71739],[138.49927,35.71723],[138.49886,35.71687],[138.49862,35.71629],[138.49754,35.71499],[138.49707,35.71322],[138.49554,35.71035],[138.49508,35.70722],[138.49508,35.70595],[138.49471,35.70537],[138.49366,35.70449],[138.49157,35.7019],[138.49079,35.70133],[138.49007,35.70221],[138.48795,35.70412],[138.48783,35.70467],[138.48743,35.70523],[138.48732,35.70583],[138.48635,35.70638],[138.48571,35.70799],[138.48428,35.70923],[138.48396,35.71004],[138.48539,35.71166],[138.4873,35.71341],[138.4884,35.71422],[138.48992,35.71501],[138.4909,35.7169],[138.49172,35.71726],[138.49205,35.7177],[138.49227,35.7185],[138.49339,35.71942],[138.49351,35.71969],[138.49478,35.72021],[138.49575,35.72141],[138.49803,35.72015],[138.49827,35.72088],[138.50157,35.72182],[138.50183,35.72249],[138.50242,35.72275],[138.50251,35.72304],[138.50337,35.72353],[138.50362,35.72384],[138.50392,35.72377],[138.50553,35.72533],[138.50922,35.72749],[138.50945,35.72747],[138.50911,35.72653],[138.50863,35.72557],[138.50815,35.72512],[138.5082,35.72481],[138.50849,35.72473],[138.50841,35.72427],[138.50773,35.72387]]]},"properties":{"key":"192100340","name":"菖蒲沢","pref":"山梨県","prefCode":"19","municipality":"甲斐市","areaM2":1778871.147,"population":178,"toponymIds":["19-b12c736173"]}},{"type":"Feature","geometry":{"type":"Polygon","coordinates":[[[138.51703,35.70145],[138.51767,35.70143],[138.51811,35.7012],[138.51837,35.70094],[138.51839,35.70041],[138.5179,35.69851],[138.51712,35.69748],[138.51688,35.6964],[138.51696,35.69603],[138.51655,35.69197],[138.51307,35.69142],[138.51213,35.69166],[138.51182,35.69141],[138.51041,35.69172],[138.50913,35.69225],[138.50816,35.69212],[138.50643,35.6923],[138.50632,35.69386],[138.5065,35.6941],[138.50672,35.6941],[138.50682,35.69433],[138.50662,35.69452],[138.50665,35.69504],[138.50746,35.69574],[138.50803,35.69677],[138.51049,35.69847],[138.51247,35.69944],[138.5142,35.70168],[138.51482,35.70275],[138.51527,35.70266],[138.51703,35.70145]]]},"properties":{"key":"192100140","name":"大久保","pref":"山梨県","prefCode":"19","municipality":"甲斐市","areaM2":819899.205,"population":426,"toponymIds":["19-ddda1915ed"]}},{"type":"Feature","geometry":{"type":"Polygon","coordinates":[[[138.54821,35.8004],[138.54864,35.79803],[138.54798,35.79754],[138.5475,35.7974],[138.54731,35.79714],[138.54769,35.79605],[138.5481,35.7954],[138.54931,35.79462],[138.54964,35.79424],[138.54964,35.79361],[138.55045,35.79196],[138.55043,35.79165],[138.54936,35.79035],[138.54916,35.7898],[138.54855,35.78927],[138.54703,35.78858],[138.54546,35.78662],[138.54486,35.78506],[138.5449,35.78212],[138.54434,35.77986],[138.54294,35.77747],[138.54245,35.77576],[138.5408,35.77388],[138.54026,35.77293],[138.53582,35.77372],[138.53397,35.7737],[138.53103,35.77293],[138.52815,35.77324],[138.5256,35.77395],[138.52364,35.77397],[138.52285,35.7738],[138.52338,35.77426],[138.52404,35.77544],[138.5255,35.7796],[138.52645,35.78353],[138.526,35.78342],[138.52463,35.78363],[138.52177,35.78433],[138.52054,35.78488],[138.51963,35.78565],[138.5193,35.78635],[138.51954,35.78727],[138.51947,35.7881],[138.51924,35.78896],[138.51868,35.79006],[138.51667,35.79265],[138.5146,35.79442],[138.51381,35.79476],[138.51365,35.7964],[138.51407,35.79741],[138.51399,35.79795],[138.51243,35.80017],[138.5118,35.80135],[138.51279,35.802],[138.5148,35.80242],[138.5189,35.80257],[138.51963,35.80303],[138.52041,35.80393],[138.52125,35.80427],[138.52301,35.80465],[138.5244,35.8056],[138.52548,35.80657],[138.52701,35.8072],[138.52898,35.80662],[138.52918,35.80612],[138.53034,35.80573],[138.53078,35.80543],[138.53236,35.80517],[138.5326,35.80467],[138.53372,35.80378],[138.53562,35.80328],[138.53666,35.80231],[138.5386,35.80178],[138.53949,35.80217],[138.5401,35.80184],[138.54068,35.80174],[138.54134,35.80199],[138.54315,35.80204],[138.54387,35.80122],[138.54444,35.80094],[138.54491,35.80046],[138.54589,35.80038],[138.54667,35.80062],[138.54821,35.8004]]]},"properties":{"key":"192100280","name":"上芦沢","pref":"山梨県","prefCode":"19","municipality":"甲斐市","areaM2":8156344.542,"population":24,"toponymIds":["19-d547847aca"]}},{"type":"Feature","geometry":{"type":"Polygon","coordinates":[[[138.53005,35.75635],[138.53001,35.75605],[138.52963,35.75589],[138.52862,35.7563],[138.52814,35.75629],[138.52777,35.75604],[138.52762,35.75572],[138.52767,35.75515],[138.52805,35.75419],[138.52992,35.75057],[138.52969,35.74987],[138.52799,35.74865],[138.52792,35.74814],[138.52873,35.74675],[138.52924,35.74618],[138.53127,35.74575],[138.53166,35.74501],[138.53219,35.74471],[138.53276,35.74409],[138.53271,35.74383],[138.53222,35.74348],[138.53243,35.74313],[138.53184,35.74242],[138.53076,35.74047],[138.52821,35.7414],[138.52695,35.74215],[138.525,35.74368],[138.52225,35.74549],[138.52064,35.74716],[138.51738,35.75119],[138.51788,35.7516],[138.51851,35.75171],[138.51887,35.75194],[138.51871,35.75251],[138.5188,35.75315],[138.51704,35.75444],[138.51624,35.75466],[138.51607,35.75573],[138.51581,35.75622],[138.51633,35.75692],[138.51737,35.75715],[138.5181,35.75753],[138.51844,35.75803],[138.51816,35.75865],[138.52331,35.76112],[138.52563,35.76166],[138.52664,35.76154],[138.52777,35.76113],[138.52914,35.75999],[138.52969,35.75896],[138.53005,35.75635]]]},"properties":{"key":"192100210","name":"上菅口","pref":"山梨県","prefCode":"19","municipality":"甲斐市","areaM2":1911734.713,"population":15,"toponymIds":["19-6f4823b45d"]}},{"type":"Feature","geometry":{"type":"Polygon","coordinates":[[[138.5574,35.74769],[138.5584,35.74764],[138.55953,35.74724],[138.56066,35.74724],[138.56124,35.74706],[138.56251,35.74517],[138.56251,35.74398],[138.56387,35.74313],[138.56503,35.74128],[138.56513,35.74072],[138.56577,35.74028],[138.56524,35.73996],[138.56446,35.73985],[138.56399,35.73929],[138.56393,35.73878],[138.5642,35.73813],[138.56298,35.73571],[138.56229,35.73574],[138.56179,35.73627],[138.56148,35.73614],[138.56067,35.73628],[138.55997,35.73587],[138.55974,35.73494],[138.56015,35.73455],[138.56118,35.73464],[138.56167,35.7335],[138.56161,35.73337],[138.5602,35.73293],[138.55884,35.73213],[138.55619,35.7311],[138.55546,35.73034],[138.55494,35.73009],[138.55397,35.73002],[138.55289,35.73028],[138.55239,35.73018],[138.55228,35.7298],[138.55283,35.72863],[138.55205,35.72814],[138.55159,35.72756],[138.54905,35.72613],[138.54855,35.72555],[138.54848,35.72501],[138.54864,35.72459],[138.54985,35.72413],[138.55017,35.72349],[138.54996,35.72201],[138.54973,35.72151],[138.54936,35.72108],[138.54889,35.72083],[138.54741,35.72141],[138.54617,35.72152],[138.54517,35.72107],[138.54412,35.71865],[138.54438,35.71783],[138.54406,35.71586],[138.5438,35.71557],[138.54191,35.71454],[138.54236,35.71425],[138.54206,35.71371],[138.54109,35.71417],[138.53676,35.71406],[138.53556,35.71432],[138.53505,35.71392],[138.53486,35.71345],[138.5349,35.71303],[138.53451,35.71242],[138.53382,35.7119],[138.53248,35.71184],[138.53177,35.71139],[138.53128,35.71075],[138.53068,35.70907],[138.53028,35.70882],[138.5292,35.70863],[138.52822,35.70735],[138.52568,35.70787],[138.52501,35.70772],[138.52436,35.70725],[138.52401,35.70761],[138.52721,35.70973],[138.52813,35.7109],[138.5283,35.71179],[138.52912,35.71414],[138.52923,35.71568],[138.52968,35.71653],[138.5297,35.71752],[138.53045,35.71861],[138.53241,35.72041],[138.5328,35.72105],[138.53301,35.72194],[138.53296,35.72297],[138.53309,35.7236],[138.5341,35.72561],[138.53429,35.72799],[138.53537,35.73049],[138.53537,35.731],[138.53479,35.73205],[138.53474,35.73256],[138.53578,35.73471],[138.53648,35.73705],[138.53678,35.73743],[138.53801,35.73892],[138.53972,35.74024],[138.54088,35.74184],[138.54333,35.74115],[138.54383,35.742],[138.54459,35.74247],[138.54528,35.7424],[138.54551,35.74252],[138.54562,35.7429],[138.54524,35.74332],[138.54664,35.74333],[138.54776,35.74373],[138.54784,35.74395],[138.54768,35.74441],[138.54836,35.74488],[138.54863,35.74533],[138.54911,35.74542],[138.54979,35.74428],[138.55039,35.74423],[138.55079,35.74503],[138.55138,35.74494],[138.55151,35.7453],[138.55176,35.74547],[138.55255,35.74538],[138.5525,35.74586],[138.55403,35.74643],[138.55649,35.74789],[138.5574,35.74769]],[[138.55262,35.73318],[138.55356,35.73335],[138.55412,35.73297],[138.5552,35.73286],[138.55609,35.73312],[138.55641,35.73346],[138.55561,35.73692],[138.55544,35.73735],[138.55484,35.7378],[138.55383,35.73809],[138.55217,35.73796],[138.55129,35.73765],[138.5509,35.73722],[138.55101,35.73641],[138.55227,35.73345],[138.55262,35.73318]]]},"properties":{"key":"192100290","name":"吉沢","pref":"山梨県","prefCode":"19","municipality":"甲斐市","areaM2":6194414.399,"population":300,"toponymIds":["19-7a326422ac"]}},{"type":"Feature","geometry":{"type":"Polygon","coordinates":[[[138.53395,35.74307],[138.53535,35.74276],[138.53601,35.74278],[138.53722,35.74309],[138.53868,35.74376],[138.53965,35.74346],[138.54039,35.74296],[138.54069,35.74258],[138.54088,35.74184],[138.53981,35.741],[138.5354,35.7392],[138.53118,35.73679],[138.53045,35.73806],[138.53069,35.73928],[138.53065,35.74023],[138.53184,35.74242],[138.53243,35.74313],[138.53395,35.74307]]]},"properties":{"key":"192100200","name":"獅子平","pref":"山梨県","prefCode":"19","municipality":"甲斐市","areaM2":378491.323,"population":23,"toponymIds":["19-0d0e2a7b5e"]}},{"type":"Feature","geometry":{"type":"Polygon","coordinates":[[[138.48133,35.6925],[138.48161,35.69242],[138.48159,35.69216],[138.48258,35.69202],[138.48353,35.69161],[138.48413,35.691],[138.48436,35.69042],[138.48561,35.68953],[138.48566,35.6891],[138.48447,35.68887],[138.48428,35.68793],[138.48481,35.68744],[138.48548,35.68593],[138.48618,35.68544],[138.4863,35.68469],[138.48569,35.68433],[138.48527,35.68381],[138.48552,35.68351],[138.48441,35.68309],[138.4845,35.68293],[138.48295,35.68242],[138.48235,35.6834],[138.48147,35.68366],[138.48107,35.68409],[138.48142,35.68547],[138.48119,35.68571],[138.48101,35.68636],[138.48026,35.6873],[138.48032,35.68788],[138.47985,35.6887],[138.47959,35.68952],[138.47957,35.69002],[138.4797,35.69012],[138.47939,35.69059],[138.4792,35.69132],[138.47923,35.69175],[138.47954,35.69221],[138.48008,35.69243],[138.48065,35.69242],[138.48082,35.69274],[138.48133,35.6925]]]},"properties":{"key":"192100370","name":"志田","pref":"山梨県","prefCode":"19","municipality":"甲斐市","areaM2":428566.773,"population":653,"toponymIds":["19-10deead3e2"]}},{"type":"Feature","geometry":{"type":"Polygon","coordinates":[[[138.54026,35.77293],[138.54014,35.77241],[138.53968,35.77197],[138.53916,35.7707],[138.53845,35.77005],[138.53747,35.76967],[138.53604,35.76951],[138.53485,35.76917],[138.53275,35.76817],[138.53205,35.76799],[138.53141,35.76797],[138.53097,35.76824],[138.52938,35.77007],[138.52861,35.77055],[138.52818,35.77061],[138.52711,35.77039],[138.52588,35.76941],[138.52329,35.76847],[138.52201,35.7682],[138.51903,35.76812],[138.51959,35.76893],[138.52092,35.77011],[138.52095,35.77107],[138.52152,35.77251],[138.52217,35.7733],[138.52285,35.7738],[138.52364,35.77397],[138.5256,35.77395],[138.52815,35.77324],[138.53103,35.77293],[138.53397,35.7737],[138.53582,35.77372],[138.54026,35.77293]]]},"properties":{"key":"192100270","name":"下芦沢","pref":"山梨県","prefCode":"19","municipality":"甲斐市","areaM2":809979.683,"population":22,"toponymIds":["19-0654a07eba"]}},{"type":"Feature","geometry":{"type":"Polygon","coordinates":[[[138.53638,35.74584],[138.53614,35.7453],[138.53547,35.7445],[138.53395,35.74307],[138.53243,35.74313],[138.53222,35.74348],[138.53271,35.74383],[138.53276,35.74409],[138.53219,35.74471],[138.53166,35.74501],[138.53127,35.74575],[138.5307,35.74596],[138.52942,35.74604],[138.52898,35.74642],[138.52798,35.74794],[138.52799,35.74865],[138.52983,35.75006],[138.52992,35.75057],[138.52969,35.75113],[138.53077,35.75155],[138.53206,35.75159],[138.53241,35.75135],[138.53292,35.75029],[138.53396,35.74638],[138.53468,35.74601],[138.53638,35.74584]]]},"properties":{"key":"192100220","name":"下菅口","pref":"山梨県","prefCode":"19","municipality":"甲斐市","areaM2":340227.593,"population":6,"toponymIds":["19-fe346b1291"]}},{"type":"Feature","geometry":{"type":"Polygon","coordinates":[[[138.69564,35.62559],[138.69608,35.62547],[138.69673,35.62396],[138.69881,35.62272],[138.69823,35.62128],[138.69833,35.62088],[138.69812,35.61994],[138.69892,35.61935],[138.69862,35.61876],[138.6981,35.61834],[138.69684,35.61914],[138.69463,35.62001],[138.69267,35.62135],[138.68872,35.62364],[138.68846,35.62438],[138.68702,35.62646],[138.69178,35.62832],[138.69185,35.62869],[138.69433,35.62849],[138.6943,35.62813],[138.69479,35.62686],[138.6955,35.6263],[138.69564,35.62559]]]},"properties":{"key":"192110480","name":"一宮町市之蔵","pref":"山梨県","prefCode":"19","municipality":"笛吹市","areaM2":611498.569,"population":263,"toponymIds":["19-7b883e6294"]}},{"type":"Feature","geometry":{"type":"Polygon","coordinates":[[[138.70746,35.64934],[138.70633,35.64746],[138.70632,35.647],[138.70652,35.64665],[138.70604,35.64522],[138.70527,35.6449],[138.70458,35.64498],[138.70395,35.6446],[138.70259,35.64505],[138.70208,35.64582],[138.70353,35.6505],[138.70428,35.65013],[138.70541,35.6501],[138.70601,35.64984],[138.70665,35.6499],[138.70746,35.64934]]]},"properties":{"key":"192110570","name":"一宮町地蔵堂","pref":"山梨県","prefCode":"19","municipality":"笛吹市","areaM2":206154.191,"population":98,"toponymIds":["19-7739331311"]}},{"type":"Feature","geometry":{"type":"Polygon","coordinates":[[[138.66774,35.63833],[138.66902,35.63841],[138.66946,35.63869],[138.67066,35.63729],[138.67103,35.63721],[138.67123,35.63744],[138.67141,35.63729],[138.6702,35.63619],[138.67198,35.63548],[138.67338,35.63469],[138.6735,35.63477],[138.67363,35.63453],[138.67636,35.63329],[138.67765,35.63296],[138.68018,35.63162],[138.68171,35.63114],[138.68192,35.63085],[138.68218,35.63098],[138.68286,35.63032],[138.68343,35.62944],[138.68435,35.62907],[138.68268,35.62844],[138.68193,35.62771],[138.68154,35.62706],[138.68062,35.62698],[138.68045,35.62645],[138.68062,35.62637],[138.68051,35.62601],[138.68019,35.62586],[138.6801,35.62555],[138.68037,35.62491],[138.67966,35.62492],[138.67766,35.62556],[138.67686,35.62556],[138.67524,35.62605],[138.6736,35.62627],[138.67411,35.62791],[138.67537,35.62743],[138.67547,35.6277],[138.67519,35.6278],[138.67555,35.62907],[138.67361,35.62966],[138.66778,35.63189],[138.66872,35.63391],[138.66766,35.63433],[138.66759,35.63454],[138.66775,35.63466],[138.66706,35.63554],[138.66569,35.63631],[138.6658,35.63732],[138.66469,35.63779],[138.66504,35.63846],[138.66491,35.63859],[138.66563,35.63882],[138.66562,35.63921],[138.66585,35.63939],[138.66774,35.63833]]]},"properties":{"key":"192110240","name":"御坂町金川原","pref":"山梨県","prefCode":"19","municipality":"笛吹市","areaM2":996919.258,"population":673,"toponymIds":["19-6e4c30dc7f"]}},{"type":"Feature","geometry":{"type":"Polygon","coordinates":[[[138.66077,35.63328],[138.66326,35.63184],[138.6654,35.63031],[138.66761,35.6295],[138.66937,35.62783],[138.66777,35.62778],[138.66742,35.62721],[138.66685,35.62708],[138.66661,35.62645],[138.66499,35.62697],[138.66484,35.62694],[138.66469,35.6264],[138.66443,35.62622],[138.66365,35.62635],[138.66356,35.6261],[138.66311,35.62619],[138.6628,35.62528],[138.66201,35.62502],[138.66252,35.62371],[138.66208,35.62364],[138.66019,35.6239],[138.66018,35.62407],[138.65994,35.62415],[138.65834,35.62432],[138.65567,35.62489],[138.65659,35.6274],[138.65678,35.62901],[138.65664,35.62942],[138.65669,35.62997],[138.65733,35.63272],[138.66024,35.63281],[138.66068,35.63294],[138.66063,35.63332],[138.66077,35.63328]]]},"properties":{"key":"192110230","name":"御坂町夏目原","pref":"山梨県","prefCode":"19","municipality":"笛吹市","areaM2":740197.851,"population":889,"toponymIds":["19-0ae15eaed7"]}},{"type":"Feature","geometry":{"type":"Polygon","coordinates":[[[138.6593,35.62419],[138.66011,35.6241],[138.66019,35.6239],[138.66208,35.62364],[138.66252,35.62371],[138.66317,35.6222],[138.66294,35.62125],[138.66212,35.62126],[138.66223,35.62062],[138.66134,35.61866],[138.66133,35.61789],[138.66093,35.61796],[138.66022,35.61701],[138.65849,35.61794],[138.65826,35.61829],[138.65836,35.61923],[138.65768,35.61952],[138.65734,35.62004],[138.65697,35.62016],[138.65641,35.62066],[138.65551,35.62083],[138.65378,35.62174],[138.65258,35.62277],[138.65389,35.62396],[138.65567,35.62489],[138.6593,35.62419]]]},"properties":{"key":"192110260","name":"御坂町八千蔵","pref":"山梨県","prefCode":"19","municipality":"笛吹市","areaM2":442605.998,"population":585,"toponymIds":["19-245105ec8c"]}},{"type":"Feature","geometry":{"type":"Polygon","coordinates":[[[138.63027,35.61044],[138.63252,35.6103],[138.63407,35.61159],[138.6349,35.61119],[138.63556,35.6111],[138.63576,35.61151],[138.63636,35.6114],[138.63776,35.61099],[138.63797,35.61107],[138.63934,35.61052],[138.63875,35.60937],[138.63943,35.60916],[138.63896,35.60883],[138.63928,35.60872],[138.63901,35.60698],[138.64124,35.607],[138.64119,35.60614],[138.64046,35.60508],[138.64198,35.60261],[138.64277,35.60204],[138.64237,35.6014],[138.64144,35.60115],[138.64418,35.59644],[138.64471,35.59469],[138.64523,35.59033],[138.64493,35.58944],[138.64489,35.58984],[138.64358,35.59065],[138.64294,35.5914],[138.64195,35.59215],[138.64164,35.59311],[138.64098,35.59423],[138.63941,35.59593],[138.63893,35.59605],[138.63837,35.59596],[138.63772,35.59563],[138.63778,35.59532],[138.63696,35.59517],[138.63676,35.59517],[138.63588,35.59574],[138.63523,35.59751],[138.63468,35.59977],[138.63327,35.60237],[138.63318,35.60312],[138.6334,35.60356],[138.63296,35.60445],[138.63298,35.60562],[138.63097,35.60639],[138.62951,35.60824],[138.628,35.60767],[138.62551,35.6062],[138.62461,35.60793],[138.62382,35.6087],[138.62275,35.60906],[138.6214,35.60913],[138.62008,35.60971],[138.61957,35.61017],[138.61897,35.61119],[138.61887,35.61198],[138.61838,35.61243],[138.61931,35.61254],[138.6233,35.61214],[138.62445,35.61169],[138.63027,35.61044]]]},"properties":{"key":"192110690","name":"八代町米倉","pref":"山梨県","prefCode":"19","municipality":"笛吹市","areaM2":1850212.681,"population":666,"toponymIds":["19-e4e08283b0"]}},{"type":"Feature","geometry":{"type":"Polygon","coordinates":[[[139.07337,35.64997],[139.07677,35.64965],[139.07727,35.64932],[139.07772,35.6482],[139.07929,35.64278],[139.07992,35.6401],[139.08036,35.64024],[139.08095,35.63951],[139.08103,35.63914],[139.08247,35.63841],[139.08251,35.63811],[139.08196,35.63735],[139.08077,35.63692],[139.08021,35.63748],[139.07876,35.63817],[139.07846,35.63813],[139.07855,35.63743],[139.07753,35.63746],[139.07703,35.63797],[139.07705,35.63839],[139.07674,35.63889],[139.07618,35.6389],[139.07596,35.63941],[139.07546,35.63963],[139.07535,35.64039],[139.07499,35.64065],[139.07433,35.64182],[139.07358,35.64233],[139.0735,35.64315],[139.07309,35.64373],[139.07316,35.64398],[139.07298,35.64425],[139.07304,35.64463],[139.07282,35.64545],[139.07374,35.6456],[139.07477,35.6461],[139.07364,35.64753],[139.07409,35.64831],[139.07343,35.64906],[139.07301,35.64919],[139.07337,35.64957],[139.07337,35.64997]]]},"properties":{"key":"192120050","name":"芦垣","pref":"山梨県","prefCode":"19","municipality":"上野原市","areaM2":600346.29,"population":114,"toponymIds":["19-d03bae0fda"]}},{"type":"Feature","geometry":{"type":"Polygon","coordinates":[[[139.08256,35.64031],[139.08225,35.63976],[139.08195,35.63863],[139.08103,35.63914],[139.08095,35.63951],[139.08036,35.64024],[139.07992,35.6401],[139.07929,35.64278],[139.07772,35.6482],[139.07727,35.64932],[139.07677,35.64965],[139.07337,35.64997],[139.07327,35.65107],[139.07292,35.65153],[139.07213,35.65187],[139.07212,35.65363],[139.07152,35.65525],[139.07103,35.6561],[139.07049,35.6565],[139.07031,35.65689],[139.07071,35.65865],[139.07012,35.65989],[139.06996,35.66112],[139.0695,35.66176],[139.07156,35.661],[139.07312,35.66002],[139.07481,35.65822],[139.07589,35.65651],[139.07726,35.65633],[139.08006,35.65546],[139.08056,35.65515],[139.08074,35.6547],[139.08083,35.65325],[139.08063,35.65244],[139.08053,35.64954],[139.08203,35.64875],[139.08404,35.6485],[139.08475,35.6481],[139.08564,35.64721],[139.08725,35.64653],[139.08707,35.64415],[139.08804,35.64354],[139.08848,35.64296],[139.08413,35.64199],[139.08256,35.64031]]]},"properties":{"key":"192120110","name":"大倉","pref":"山梨県","prefCode":"19","municipality":"上野原市","areaM2":1387205.872,"population":97,"toponymIds":["19-50fb704e4b"]}},{"type":"Feature","geometry":{"type":"Polygon","coordinates":[[[138.51853,35.60423],[138.51845,35.60238],[138.51931,35.60237],[138.5192,35.59941],[138.51897,35.59941],[138.51881,35.59897],[138.51891,35.59805],[138.51825,35.5981],[138.5187,35.59643],[138.51939,35.59638],[138.51919,35.59561],[138.51938,35.59504],[138.51689,35.59538],[138.51608,35.59436],[138.51782,35.5937],[138.51517,35.59363],[138.50918,35.59401],[138.5101,35.59691],[138.51018,35.59822],[138.50953,35.60246],[138.50893,35.60411],[138.51246,35.60382],[138.51083,35.60752],[138.51624,35.60614],[138.51537,35.60433],[138.51853,35.60423]]]},"properties":{"key":"192140190","name":"臼井阿原","pref":"山梨県","prefCode":"19","municipality":"中央市","areaM2":1032382.154,"population":1661,"toponymIds":["19-a65c7ef447"]}},{"type":"Feature","geometry":{"type":"Polygon","coordinates":[[[138.51591,35.62347],[138.51598,35.62266],[138.51693,35.62017],[138.51738,35.61915],[138.51774,35.61901],[138.51806,35.61381],[138.51872,35.61384],[138.51985,35.61089],[138.5206,35.60991],[138.52095,35.60998],[138.52123,35.60856],[138.52196,35.60845],[138.5199,35.60672],[138.52029,35.60542],[138.51856,35.6057],[138.51853,35.60423],[138.51537,35.60433],[138.51624,35.60614],[138.51083,35.60752],[138.51246,35.60382],[138.50893,35.60411],[138.50682,35.60978],[138.50671,35.61109],[138.5068,35.62281],[138.50982,35.62279],[138.51033,35.62331],[138.51591,35.62347]]]},"properties":{"key":"192140170","name":"山之神","pref":"山梨県","prefCode":"19","municipality":"中央市","areaM2":2099991.648,"population":3690,"toponymIds":["19-9e126c7a2b"]}}]}
