{"type":"FeatureCollection","features":[{"type":"Feature","geometry":{"type":"Polygon","coordinates":[[[138.17262,36.64211],[138.17279,36.64162],[138.1737,36.64112],[138.17919,36.64159],[138.17885,36.63904],[138.17934,36.63707],[138.1794,36.6358],[138.1791,36.6326],[138.17259,36.63325],[138.1732,36.63676],[138.17274,36.6365],[138.17256,36.63707],[138.17262,36.63746],[138.17231,36.63746],[138.17224,36.63766],[138.17286,36.63793],[138.17261,36.63888],[138.17231,36.63881],[138.17212,36.63921],[138.17252,36.63931],[138.17243,36.63956],[138.17202,36.63948],[138.17191,36.63979],[138.1716,36.63964],[138.17133,36.64007],[138.1701,36.63936],[138.16973,36.63981],[138.17235,36.64101],[138.17216,36.64126],[138.17233,36.64134],[138.1722,36.64155],[138.17257,36.64172],[138.17235,36.64207],[138.17165,36.64179],[138.17124,36.64228],[138.17204,36.64259],[138.17262,36.64211]]]},"properties":{"key":"20201092001","name":"大字安茂里","pref":"長野県","prefCode":"20","municipality":"長野市","areaM2":571125.767,"population":2720,"toponymIds":["20-ecbb845b5d"]}},{"type":"Feature","geometry":{"type":"Polygon","coordinates":[[[138.17179,36.66901],[138.17331,36.66782],[138.17181,36.66713],[138.16963,36.66671],[138.16911,36.66607],[138.16841,36.66572],[138.16889,36.66498],[138.16902,36.66421],[138.16956,36.66446],[138.16994,36.66405],[138.17023,36.66239],[138.17092,36.66184],[138.17096,36.66132],[138.17031,36.66027],[138.16999,36.66018],[138.16921,36.65782],[138.16848,36.65773],[138.16756,36.65709],[138.16737,36.65726],[138.16771,36.65776],[138.16771,36.65811],[138.16681,36.65968],[138.16647,36.65974],[138.16516,36.65909],[138.16418,36.65945],[138.16248,36.65948],[138.1612,36.66003],[138.16021,36.6608],[138.15925,36.66125],[138.15941,36.66223],[138.15916,36.66249],[138.16,36.66279],[138.16029,36.66259],[138.16048,36.66285],[138.16101,36.66418],[138.16155,36.66503],[138.16156,36.66567],[138.16108,36.66626],[138.15979,36.66617],[138.15703,36.66726],[138.15638,36.66712],[138.15601,36.66879],[138.15639,36.6695],[138.15809,36.67006],[138.15915,36.67002],[138.16036,36.67035],[138.16137,36.66982],[138.16159,36.66925],[138.16301,36.6689],[138.16379,36.67016],[138.1648,36.67086],[138.16545,36.67106],[138.16713,36.67079],[138.16803,36.67009],[138.17065,36.66965],[138.17142,36.66934],[138.17179,36.66901]]]},"properties":{"key":"202010010","name":"大字茂菅","pref":"長野県","prefCode":"20","municipality":"長野市","areaM2":1224523.167,"population":233,"toponymIds":["20-3e5c22b170"]}},{"type":"Feature","geometry":{"type":"Polygon","coordinates":[[[138.18089,36.61717],[138.18037,36.61668],[138.1796,36.61711],[138.17578,36.61696],[138.17571,36.61886],[138.17635,36.62058],[138.17723,36.62107],[138.18208,36.62132],[138.1816,36.61848],[138.18135,36.61781],[138.18089,36.61717]]]},"properties":{"key":"20201157001","name":"青木島一丁目","pref":"長野県","prefCode":"20","municipality":"長野市","areaM2":237631.765,"population":1409,"toponymIds":["20-ef2affe560"]}},{"type":"Feature","geometry":{"type":"Polygon","coordinates":[[[138.18567,36.62578],[138.18609,36.62576],[138.18857,36.62652],[138.1905,36.62598],[138.19477,36.62431],[138.19945,36.62176],[138.2014,36.6213],[138.20619,36.62069],[138.2083,36.62059],[138.21025,36.62075],[138.21003,36.61831],[138.20719,36.61854],[138.20771,36.61425],[138.20365,36.6153],[138.19823,36.6173],[138.18848,36.61969],[138.18835,36.61958],[138.18822,36.61812],[138.18406,36.61935],[138.18366,36.61797],[138.18399,36.61775],[138.18359,36.6177],[138.18354,36.61648],[138.18334,36.61597],[138.18345,36.61336],[138.18332,36.61223],[138.18352,36.61214],[138.18339,36.61178],[138.1822,36.61232],[138.17977,36.61285],[138.18013,36.61649],[138.18069,36.61693],[138.18163,36.61656],[138.18194,36.61836],[138.18157,36.6184],[138.18208,36.62132],[138.17495,36.621],[138.16784,36.62148],[138.16014,36.62041],[138.15945,36.62352],[138.16344,36.62346],[138.16865,36.62374],[138.17084,36.62352],[138.18075,36.62391],[138.18062,36.62645],[138.17956,36.62796],[138.18152,36.62766],[138.182,36.62688],[138.18265,36.62635],[138.18567,36.62578]]]},"properties":{"key":"202011580","name":"青木島町青木島","pref":"長野県","prefCode":"20","municipality":"長野市","areaM2":2453967.399,"population":2000,"toponymIds":["20-a5fb0710aa"]}},{"type":"Feature","geometry":{"type":"Polygon","coordinates":[[[138.18948,36.61362],[138.19158,36.61307],[138.19685,36.61244],[138.19663,36.61165],[138.19689,36.61144],[138.19697,36.61105],[138.1971,36.60916],[138.19735,36.60808],[138.19718,36.60786],[138.19714,36.60739],[138.19746,36.60714],[138.1973,36.60706],[138.19746,36.60686],[138.19758,36.60587],[138.19757,36.60408],[138.1983,36.60073],[138.19821,36.60048],[138.19843,36.60025],[138.1989,36.60022],[138.19887,36.60008],[138.19837,36.6002],[138.19839,36.59939],[138.19658,36.59902],[138.19669,36.5995],[138.19537,36.59972],[138.19449,36.60055],[138.19291,36.60151],[138.19157,36.60208],[138.18995,36.60247],[138.18879,36.60345],[138.18755,36.60394],[138.18709,36.60377],[138.18645,36.60385],[138.18655,36.60416],[138.18542,36.60455],[138.18409,36.60484],[138.18346,36.60473],[138.18282,36.60488],[138.18283,36.60502],[138.18315,36.60513],[138.18343,36.6057],[138.18376,36.60589],[138.18386,36.60634],[138.1836,36.60688],[138.18374,36.60738],[138.18355,36.60741],[138.18344,36.60807],[138.18317,36.60806],[138.18307,36.60855],[138.18338,36.60874],[138.18347,36.60962],[138.18336,36.6097],[138.1835,36.60993],[138.18331,36.61056],[138.18352,36.61214],[138.18332,36.61223],[138.18345,36.61336],[138.18334,36.61597],[138.18354,36.61648],[138.18359,36.6177],[138.18399,36.61775],[138.18366,36.61797],[138.18406,36.61935],[138.18822,36.61812],[138.18794,36.61389],[138.189,36.61386],[138.18948,36.61362]]]},"properties":{"key":"202011610","name":"青木島町大塚","pref":"長野県","prefCode":"20","municipality":"長野市","areaM2":1759000.426,"population":5405,"toponymIds":["20-f368c58e4c"]}},{"type":"Feature","geometry":{"type":"Polygon","coordinates":[[[138.1995,36.61686],[138.20414,36.61514],[138.20771,36.61425],[138.20814,36.61158],[138.20655,36.61072],[138.20483,36.61106],[138.20301,36.61191],[138.19886,36.61225],[138.19896,36.61387],[138.19955,36.61596],[138.20019,36.61585],[138.20028,36.61639],[138.19938,36.61668],[138.19905,36.61671],[138.19902,36.61659],[138.19809,36.61678],[138.19685,36.61244],[138.19158,36.61307],[138.18987,36.61344],[138.189,36.61386],[138.18794,36.61389],[138.18835,36.61958],[138.18848,36.61969],[138.19823,36.6173],[138.1995,36.61686]]]},"properties":{"key":"202011590","name":"青木島町綱島","pref":"長野県","prefCode":"20","municipality":"長野市","areaM2":860068.006,"population":2868,"toponymIds":["20-4c547dc2a7"]}},{"type":"Feature","geometry":{"type":"Polygon","coordinates":[[[138.20606,36.69022],[138.20672,36.69018],[138.2073,36.68976],[138.20777,36.68935],[138.20797,36.68867],[138.21054,36.6893],[138.2119,36.6891],[138.21226,36.68852],[138.21282,36.68821],[138.21305,36.68788],[138.21095,36.68721],[138.21099,36.68672],[138.21162,36.68663],[138.21164,36.686],[138.21371,36.68461],[138.21336,36.68454],[138.21228,36.68509],[138.21141,36.68529],[138.21006,36.68492],[138.21001,36.68477],[138.20884,36.68459],[138.20882,36.68476],[138.20809,36.68454],[138.20815,36.68526],[138.20793,36.68531],[138.20787,36.68555],[138.20716,36.68571],[138.20719,36.68583],[138.20675,36.6859],[138.20666,36.68499],[138.20645,36.68499],[138.20622,36.68534],[138.20516,36.68549],[138.20495,36.68646],[138.20554,36.68639],[138.2058,36.68728],[138.20621,36.68795],[138.20581,36.68847],[138.20599,36.68885],[138.20516,36.68889],[138.20498,36.68904],[138.20442,36.69027],[138.20469,36.69084],[138.20438,36.69134],[138.20453,36.69141],[138.20606,36.69022]]]},"properties":{"key":"202010590","name":"浅川押田","pref":"長野県","prefCode":"20","municipality":"長野市","areaM2":290728.162,"population":767,"toponymIds":["20-4e2b9ce7a5"]}},{"type":"Feature","geometry":{"type":"Polygon","coordinates":[[[138.11785,36.5996],[138.12173,36.59959],[138.1228,36.5991],[138.12306,36.59968],[138.12369,36.59954],[138.12559,36.59964],[138.13006,36.59924],[138.13022,36.59906],[138.13082,36.59903],[138.13121,36.59906],[138.13119,36.59944],[138.13453,36.59974],[138.13477,36.59967],[138.13479,36.5989],[138.13689,36.59903],[138.1368,36.6005],[138.13755,36.60035],[138.13818,36.60054],[138.13833,36.59966],[138.13821,36.59838],[138.13775,36.59729],[138.1385,36.59637],[138.1385,36.59607],[138.13891,36.59609],[138.13917,36.59561],[138.139,36.59547],[138.13908,36.59518],[138.13826,36.59514],[138.1383,36.59452],[138.13802,36.59381],[138.13842,36.59352],[138.13884,36.5915],[138.14038,36.5916],[138.14068,36.59104],[138.14157,36.59039],[138.14222,36.59039],[138.14227,36.59053],[138.14209,36.59065],[138.14228,36.59068],[138.14351,36.59034],[138.14448,36.59046],[138.1448,36.59014],[138.14499,36.59016],[138.14507,36.59038],[138.14547,36.59026],[138.14551,36.58964],[138.14587,36.58878],[138.14593,36.58823],[138.14633,36.58807],[138.14631,36.58693],[138.14655,36.58636],[138.14566,36.58633],[138.14369,36.58563],[138.14139,36.58551],[138.14105,36.58464],[138.13972,36.58464],[138.13799,36.58444],[138.13799,36.58433],[138.1372,36.58503],[138.13709,36.58458],[138.13588,36.58475],[138.13442,36.58458],[138.13425,36.5846],[138.13411,36.58554],[138.1312,36.58554],[138.13104,36.584],[138.13041,36.58494],[138.12895,36.5852],[138.12738,36.58517],[138.12686,36.58583],[138.12616,36.58543],[138.12577,36.58549],[138.1247,36.58517],[138.12375,36.58452],[138.12354,36.58422],[138.1224,36.58367],[138.12133,36.58337],[138.11983,36.58336],[138.11962,36.58377],[138.11893,36.58423],[138.11888,36.58452],[138.11764,36.58532],[138.11688,36.58549],[138.11662,36.58571],[138.11607,36.58575],[138.11575,36.58614],[138.11462,36.58675],[138.11276,36.58722],[138.11307,36.58785],[138.11306,36.58832],[138.11217,36.58826],[138.1115,36.58855],[138.1103,36.59012],[138.10839,36.59173],[138.10819,36.59209],[138.10901,36.59573],[138.10891,36.59637],[138.10916,36.59701],[138.10901,36.59847],[138.10954,36.59921],[138.10955,36.5998],[138.10924,36.60068],[138.11017,36.60088],[138.11165,36.59992],[138.11476,36.59993],[138.11785,36.5996]]]},"properties":{"key":"202011140","name":"篠ノ井岡田","pref":"長野県","prefCode":"20","municipality":"長野市","areaM2":4519385.833,"population":2339,"toponymIds":["20-6555f1808f"]}},{"type":"Feature","geometry":{"type":"Polygon","coordinates":[[[138.20566,36.68686],[138.2055,36.68636],[138.20495,36.68646],[138.20513,36.68553],[138.20622,36.68534],[138.20645,36.685],[138.20632,36.68442],[138.2057,36.6838],[138.20502,36.68397],[138.20482,36.68419],[138.20459,36.68533],[138.204,36.68505],[138.20306,36.68516],[138.20187,36.68446],[138.20076,36.68442],[138.20011,36.68418],[138.19838,36.68511],[138.19813,36.68543],[138.1962,36.68663],[138.19603,36.68802],[138.19619,36.6892],[138.19718,36.68852],[138.19912,36.68888],[138.19953,36.68845],[138.19881,36.68801],[138.19848,36.68759],[138.19793,36.68733],[138.19786,36.68709],[138.19828,36.68695],[138.20008,36.68737],[138.19985,36.68696],[138.20073,36.68666],[138.20209,36.68749],[138.202,36.68851],[138.20218,36.6888],[138.20293,36.68915],[138.20396,36.68936],[138.2043,36.68974],[138.20465,36.6898],[138.20516,36.68889],[138.20599,36.68885],[138.20581,36.68847],[138.20621,36.68795],[138.20566,36.68686]]]},"properties":{"key":"202010460","name":"伺去","pref":"長野県","prefCode":"20","municipality":"長野市","areaM2":329168.272,"population":301,"toponymIds":["20-89933081f8"]}},{"type":"Feature","geometry":{"type":"Polygon","coordinates":[[[138.08556,36.577],[138.08965,36.57713],[138.09001,36.5772],[138.09065,36.57774],[138.09306,36.57768],[138.09389,36.57743],[138.09418,36.57704],[138.0963,36.57664],[138.09853,36.57594],[138.09916,36.57568],[138.10006,36.57497],[138.10067,36.57395],[138.10062,36.57365],[138.09917,36.57218],[138.09896,36.57175],[138.1009,36.57079],[138.10097,36.5699],[138.10012,36.56806],[138.09895,36.56693],[138.09944,36.56528],[138.09884,36.56482],[138.09784,36.56306],[138.09592,36.56281],[138.09379,36.5622],[138.09255,36.56219],[138.09178,36.5619],[138.08983,36.56257],[138.08955,36.56307],[138.08883,36.56308],[138.08811,36.56252],[138.08624,36.56219],[138.0854,36.56183],[138.08534,36.56618],[138.08371,36.56735],[138.08353,36.56797],[138.0832,36.56838],[138.08236,36.56899],[138.0826,36.56981],[138.08226,36.57015],[138.08214,36.5707],[138.08227,36.57321],[138.08262,36.57424],[138.08334,36.57522],[138.08365,36.57628],[138.08372,36.57805],[138.08391,36.57847],[138.08519,36.57704],[138.08556,36.577]]]},"properties":{"key":"202011730","name":"信更町赤田","pref":"長野県","prefCode":"20","municipality":"長野市","areaM2":2325841.176,"population":232,"toponymIds":["20-8247725461"]}},{"type":"Feature","geometry":{"type":"Polygon","coordinates":[[[138.00077,36.57544],[138.00176,36.57129],[138.00275,36.56891],[138.00318,36.56836],[138.00354,36.56835],[138.00364,36.56773],[138.0042,36.56719],[138.00483,36.56763],[138.00571,36.56778],[138.00604,36.56755],[138.00581,36.56728],[138.00515,36.56533],[138.00458,36.56501],[138.00572,36.56292],[138.00419,36.56265],[138.00181,36.56273],[137.99767,36.56466],[137.99634,36.56567],[137.99723,36.56593],[137.99779,36.56716],[137.99709,36.56893],[137.99662,36.57079],[137.99585,36.57208],[137.99594,36.57321],[137.99642,36.574],[137.99758,36.57491],[137.99891,36.5753],[137.9997,36.57524],[138.00077,36.57544]]]},"properties":{"key":"202012210","name":"信州新町里穂刈","pref":"長野県","prefCode":"20","municipality":"長野市","areaM2":741726.756,"population":330,"toponymIds":["20-32a464f8b6"]}},{"type":"Feature","geometry":{"type":"Polygon","coordinates":[[[137.99751,36.58232],[137.99777,36.58218],[137.99845,36.58241],[137.99876,36.58184],[137.99989,36.58169],[138.00108,36.58161],[138.00156,36.58186],[138.00222,36.58169],[138.00292,36.58183],[138.00332,36.58153],[138.00393,36.58164],[138.00422,36.58131],[138.00499,36.58159],[138.00589,36.58129],[138.00638,36.5805],[138.0072,36.58025],[138.0079,36.58025],[138.00837,36.5807],[138.00877,36.58074],[138.01002,36.58003],[138.0109,36.57921],[138.01249,36.5788],[138.01259,36.57827],[138.01301,36.57802],[138.01363,36.57798],[138.01417,36.57739],[138.01603,36.57715],[138.01596,36.57704],[138.01489,36.5771],[138.01297,36.57672],[138.0092,36.57741],[138.00656,36.57621],[138.00286,36.57514],[138.00191,36.57507],[138.0009,36.57545],[137.9982,36.57515],[137.99758,36.57491],[137.99642,36.574],[137.99594,36.57321],[137.99584,36.57213],[137.9927,36.57549],[137.98976,36.57629],[137.98911,36.57666],[137.98899,36.57715],[137.98913,36.57804],[137.98974,36.58054],[137.98978,36.58195],[137.99027,36.58203],[137.99077,36.58153],[137.99165,36.58121],[137.99189,36.58134],[137.9918,36.58188],[137.99205,36.58198],[137.99295,36.58128],[137.9951,36.58198],[137.99521,36.58212],[137.99491,36.58242],[137.99515,36.58251],[137.9959,36.58225],[137.99649,36.5823],[137.99712,36.58256],[137.99751,36.58232]]]},"properties":{"key":"20201234001","name":"信州新町山穂刈","pref":"長野県","prefCode":"20","municipality":"長野市","areaM2":1328134.653,"population":46,"toponymIds":["20-108f917c0b"]}},{"type":"Feature","geometry":{"type":"Polygon","coordinates":[[[138.29404,36.74566],[138.29379,36.74538],[138.29248,36.74564],[138.29291,36.74431],[138.2928,36.74408],[138.29306,36.74312],[138.29256,36.74253],[138.29298,36.74173],[138.29365,36.74155],[138.29443,36.74171],[138.29545,36.74234],[138.29557,36.74141],[138.29615,36.74016],[138.29649,36.73981],[138.29876,36.73865],[138.30012,36.73861],[138.3014,36.73829],[138.30158,36.73805],[138.30176,36.73811],[138.30183,36.73766],[138.30229,36.73743],[138.30195,36.73635],[138.30233,36.73589],[138.30227,36.73575],[138.30116,36.73473],[138.30097,36.73389],[138.29983,36.73311],[138.29936,36.73232],[138.29838,36.73133],[138.29895,36.73075],[138.29858,36.72987],[138.29822,36.72952],[138.29813,36.72886],[138.29824,36.72863],[138.29814,36.72796],[138.29839,36.7279],[138.29822,36.72675],[138.29862,36.72573],[138.29853,36.72539],[138.29784,36.72453],[138.2978,36.72417],[138.29698,36.72352],[138.29789,36.72298],[138.29716,36.72221],[138.29678,36.72262],[138.29599,36.72453],[138.29423,36.7252],[138.29322,36.72646],[138.29169,36.72707],[138.29045,36.72842],[138.29008,36.72862],[138.28872,36.72876],[138.28799,36.72912],[138.28747,36.72844],[138.28824,36.72769],[138.28795,36.72758],[138.2873,36.72767],[138.28717,36.72746],[138.28751,36.72743],[138.28763,36.72696],[138.28639,36.72669],[138.28649,36.72639],[138.28541,36.72638],[138.28445,36.72533],[138.28392,36.72532],[138.28285,36.72563],[138.28188,36.72561],[138.28115,36.72597],[138.28042,36.7266],[138.27992,36.72675],[138.28002,36.72707],[138.27943,36.72757],[138.27907,36.72859],[138.27922,36.72923],[138.28042,36.73085],[138.28049,36.73162],[138.27969,36.7315],[138.27887,36.73197],[138.27847,36.73198],[138.27819,36.73398],[138.2775,36.73454],[138.27673,36.73603],[138.2756,36.7365],[138.27437,36.73662],[138.27282,36.73731],[138.27323,36.73778],[138.27339,36.73763],[138.27367,36.73777],[138.27378,36.73765],[138.27447,36.73875],[138.27442,36.73892],[138.27472,36.7395],[138.27544,36.74048],[138.27529,36.74059],[138.27542,36.74076],[138.2753,36.74095],[138.27555,36.74116],[138.27538,36.74135],[138.27585,36.74186],[138.27653,36.74181],[138.2771,36.74208],[138.27898,36.7424],[138.27903,36.7422],[138.28033,36.74177],[138.28085,36.74116],[138.2813,36.74107],[138.2813,36.74138],[138.28101,36.74159],[138.28113,36.74193],[138.28088,36.74262],[138.28153,36.74333],[138.28186,36.74339],[138.28213,36.74324],[138.28234,36.74339],[138.28223,36.74356],[138.28243,36.74369],[138.28225,36.74399],[138.28238,36.74404],[138.28345,36.74405],[138.28501,36.74474],[138.28789,36.74493],[138.28928,36.74577],[138.29005,36.74673],[138.29171,36.74661],[138.2922,36.74632],[138.29328,36.74615],[138.29404,36.74566]]]},"properties":{"key":"202012040","name":"豊野町大倉","pref":"長野県","prefCode":"20","municipality":"長野市","areaM2":3778145.941,"population":673,"toponymIds":["20-e59222758a"]}},{"type":"Feature","geometry":{"type":"Polygon","coordinates":[[[137.98524,36.1726],[137.98608,36.17261],[137.98752,36.17235],[137.98743,36.1726],[137.98775,36.17255],[137.98784,36.17287],[137.98814,36.17283],[137.98821,36.17302],[137.98937,36.17271],[137.98915,36.17206],[137.99092,36.17161],[137.99355,36.17153],[137.9941,36.17155],[137.99447,36.17262],[137.99573,36.17227],[137.99563,36.17191],[137.9975,36.17147],[137.99818,36.17198],[137.99926,36.17068],[138.00073,36.17008],[138.00325,36.16985],[138.00443,36.16992],[138.00486,36.16951],[138.00565,36.16916],[138.00763,36.16881],[138.00885,36.16922],[138.01023,36.16931],[138.01179,36.16918],[138.01239,36.16941],[138.01362,36.16897],[138.01695,36.16859],[138.01913,36.16853],[138.0202,36.16877],[138.02205,36.1687],[138.02284,36.16899],[138.02428,36.1688],[138.02638,36.16927],[138.02787,36.16916],[138.03073,36.16943],[138.03179,36.16928],[138.03355,36.16846],[138.03614,36.16785],[138.03706,36.16719],[138.03822,36.16698],[138.04172,36.16676],[138.04246,36.16654],[138.04305,36.16594],[138.04415,36.16567],[138.04817,36.16581],[138.05031,36.16546],[138.04915,36.16409],[138.04729,36.16305],[138.04649,36.16246],[138.04547,36.16139],[138.04528,36.16089],[138.04567,36.16012],[138.04518,36.15938],[138.04546,36.15882],[138.04556,36.15742],[138.04541,36.15584],[138.04577,36.15438],[138.04556,36.15365],[138.04526,36.15327],[138.04439,36.15268],[138.04459,36.15164],[138.04438,36.15141],[138.04316,36.15102],[138.04206,36.14975],[138.04189,36.14939],[138.04226,36.14838],[138.04216,36.14808],[138.04132,36.14782],[138.03889,36.14759],[138.03802,36.1472],[138.0377,36.14733],[138.03755,36.1479],[138.03738,36.14801],[138.03486,36.14843],[138.03481,36.14856],[138.03512,36.14882],[138.03452,36.14884],[138.03441,36.14853],[138.0323,36.14856],[138.03075,36.14832],[138.0297,36.14848],[138.02641,36.14962],[138.0254,36.15033],[138.02213,36.15156],[138.02062,36.15134],[138.01954,36.15219],[138.01876,36.15254],[138.01716,36.15252],[138.01491,36.15327],[138.01485,36.15316],[138.01516,36.15286],[138.01516,36.15249],[138.01469,36.15153],[138.01399,36.15193],[138.01382,36.15243],[138.0116,36.15242],[138.01027,36.1522],[138.01001,36.15226],[138.0099,36.15279],[138.00795,36.15296],[138.00509,36.15299],[138.00431,36.15264],[138.00368,36.1526],[138.00215,36.15292],[137.99964,36.15273],[137.99879,36.15282],[137.99656,36.15385],[137.99399,36.1558],[137.9929,36.15608],[137.99154,36.15677],[137.99072,36.15687],[137.98812,36.15769],[137.98775,36.15684],[137.98414,36.15694],[137.98182,36.15783],[137.98232,36.15866],[137.97963,36.15972],[137.97939,36.1606],[137.97962,36.16084],[137.97925,36.16074],[137.97884,36.16137],[137.97811,36.16162],[137.97791,36.16216],[137.97618,36.16314],[137.97721,36.16467],[137.97546,36.16566],[137.97621,36.16811],[137.97764,36.16787],[137.97801,36.16954],[137.97868,36.16943],[137.97881,36.16987],[137.98025,36.16959],[137.98048,36.17048],[137.98146,36.17029],[137.98026,36.17227],[137.98064,36.17236],[137.9807,36.17302],[137.98524,36.1726]]]},"properties":{"key":"202020720","name":"大字内田","pref":"長野県","prefCode":"20","municipality":"松本市","areaM2":11602082.666,"population":2224,"toponymIds":["20-ee7382f545","20-1ee56225a0"]}},{"type":"Feature","geometry":{"type":"Polygon","coordinates":[[[137.99452,36.30266],[137.99512,36.30228],[137.99711,36.30278],[137.99847,36.30165],[137.99872,36.3009],[137.99922,36.30038],[138.00044,36.29997],[138.00217,36.29843],[138.00262,36.29828],[138.00438,36.29835],[138.00551,36.29817],[138.00599,36.29788],[138.00735,36.29651],[138.0084,36.29655],[138.00885,36.29631],[138.00902,36.29601],[138.01238,36.29469],[138.01335,36.29469],[138.01377,36.29445],[138.01421,36.29442],[138.01573,36.29478],[138.0175,36.29558],[138.01836,36.29526],[138.01918,36.29449],[138.02019,36.29414],[138.02274,36.29417],[138.02445,36.2932],[138.02607,36.29292],[138.02734,36.29323],[138.02819,36.2925],[138.02874,36.29227],[138.02912,36.29176],[138.02916,36.29131],[138.02759,36.29125],[138.02589,36.29037],[138.02463,36.29051],[138.02293,36.29042],[138.01908,36.289],[138.01821,36.28847],[138.01732,36.28864],[138.01673,36.28857],[138.01582,36.2881],[138.01349,36.28861],[138.01207,36.28819],[138.01044,36.28807],[138.00991,36.28757],[138.00821,36.28746],[138.00701,36.28765],[138.00627,36.28745],[138.00708,36.28584],[138.00658,36.28559],[138.00596,36.28561],[138.00672,36.28483],[138.00661,36.28449],[138.00759,36.28444],[138.00789,36.28428],[138.00771,36.28382],[138.0081,36.2834],[138.0083,36.2829],[138.00933,36.2829],[138.00857,36.2823],[138.00865,36.2821],[138.00946,36.28196],[138.00944,36.28182],[138.0088,36.28161],[138.00841,36.28179],[138.00789,36.28178],[138.00834,36.28128],[138.00729,36.28113],[138.00698,36.28092],[138.00704,36.28049],[138.00786,36.27929],[138.00664,36.27888],[138.00596,36.27901],[138.00525,36.27892],[138.00405,36.27815],[138.00281,36.27778],[138.00206,36.27647],[138.00031,36.27541],[137.99911,36.27415],[137.99876,36.27337],[137.99768,36.27319],[137.99687,36.27266],[137.99686,36.27251],[137.996,36.27214],[137.99519,36.2722],[137.99454,36.2729],[137.99446,36.27333],[137.99551,36.27415],[137.99545,36.27447],[137.99455,36.27561],[137.99464,36.2761],[137.99509,36.27666],[137.99435,36.27718],[137.99439,36.27762],[137.99424,36.27782],[137.99347,36.27818],[137.99345,36.2787],[137.99395,36.27887],[137.99406,36.27917],[137.99402,36.28024],[137.99451,36.28137],[137.99411,36.28182],[137.99303,36.28234],[137.99279,36.28287],[137.99187,36.28324],[137.99272,36.28338],[137.99367,36.28431],[137.99374,36.28457],[137.99316,36.28457],[137.99301,36.28434],[137.99285,36.28436],[137.99286,36.28461],[137.99253,36.28488],[137.99181,36.28455],[137.9913,36.28478],[137.99089,36.28397],[137.98959,36.28321],[137.98859,36.28333],[137.98727,36.28411],[137.98666,36.28397],[137.98589,36.28347],[137.98521,36.28351],[137.98386,36.28272],[137.98354,36.28281],[137.98393,36.28338],[137.98332,36.2832],[137.98392,36.28417],[137.98455,36.28485],[137.98476,36.28475],[137.98509,36.28514],[137.9849,36.28541],[137.98538,36.28629],[137.98569,36.28622],[137.98562,36.286],[137.98614,36.28603],[137.98617,36.28863],[137.98605,36.28916],[137.98655,36.29021],[137.98731,36.29069],[137.98799,36.29157],[137.98946,36.29211],[137.99011,36.29263],[137.99061,36.29355],[137.99066,36.29428],[137.99127,36.29464],[137.99145,36.29496],[137.99158,36.29753],[137.99143,36.29811],[137.99108,36.29835],[137.99084,36.29911],[137.99079,36.30009],[137.9905,36.29972],[137.99048,36.30012],[137.99063,36.30031],[137.99053,36.30066],[137.98987,36.30127],[137.98912,36.30134],[137.98913,36.30149],[137.98999,36.30222],[137.99117,36.30236],[137.99328,36.3032],[137.99385,36.30317],[137.99452,36.30266]]]},"properties":{"key":"202020880","name":"大字稲倉","pref":"長野県","prefCode":"20","municipality":"松本市","areaM2":5373750.799,"population":327,"toponymIds":["20-3c90512781"]}},{"type":"Feature","geometry":{"type":"Polygon","coordinates":[[[137.97668,36.22601],[137.97611,36.22583],[137.97597,36.22968],[137.97543,36.23122],[137.97898,36.23125],[137.97944,36.22672],[137.97668,36.22601]]]},"properties":{"key":"20202005001","name":"埋橋一丁目","pref":"長野県","prefCode":"20","municipality":"松本市","areaM2":160848.743,"population":985,"toponymIds":["20-df4787174c"]}},{"type":"Feature","geometry":{"type":"Polygon","coordinates":[[[137.99925,36.32206],[137.99769,36.31998],[137.99658,36.31778],[137.99637,36.31778],[137.99634,36.31713],[137.99681,36.31699],[137.99452,36.3156],[137.99629,36.31375],[137.9945,36.31412],[137.9924,36.31372],[137.9894,36.31164],[137.98744,36.31071],[137.98633,36.3109],[137.98494,36.31218],[137.98348,36.31483],[137.98302,36.31645],[137.9831,36.31953],[137.98384,36.32213],[137.98468,36.32255],[137.98647,36.32284],[137.98867,36.32207],[137.99045,36.32178],[137.99262,36.32195],[137.99372,36.3223],[137.99595,36.32361],[137.9967,36.32446],[137.99691,36.32491],[137.99741,36.3274],[137.99778,36.32762],[137.99832,36.32713],[137.99869,36.32616],[137.99976,36.32463],[138.00052,36.32405],[138.0013,36.32372],[137.99925,36.32206]]]},"properties":{"key":"202021010","name":"刈谷原町","pref":"長野県","prefCode":"20","municipality":"松本市","areaM2":1449451.222,"population":317,"toponymIds":["20-dfb1d6a0bb"]}},{"type":"Feature","geometry":{"type":"Polygon","coordinates":[[[137.87816,36.20219],[137.87845,36.20033],[137.88179,36.20064],[137.88184,36.20039],[137.88208,36.20041],[137.88278,36.19583],[137.8832,36.19052],[137.8835,36.1892],[137.88229,36.18896],[137.88219,36.18943],[137.88135,36.18871],[137.88021,36.18826],[137.87779,36.18736],[137.87496,36.18665],[137.87191,36.18525],[137.86891,36.18335],[137.86644,36.18206],[137.86197,36.18656],[137.86455,36.18869],[137.86482,36.18876],[137.8624,36.19428],[137.86603,36.19533],[137.86502,36.19727],[137.86182,36.19913],[137.86028,36.19931],[137.86213,36.20062],[137.87816,36.20219]]]},"properties":{"key":"20202112022","name":"波田","pref":"長野県","prefCode":"20","municipality":"松本市","areaM2":2996398.362,"population":63,"toponymIds":["20-aa481b34b5"]}},{"type":"Feature","geometry":{"type":"Polygon","coordinates":[[[138.28968,36.39167],[138.29015,36.39164],[138.2907,36.39067],[138.29117,36.39041],[138.29119,36.39001],[138.29173,36.38967],[138.29168,36.3894],[138.29425,36.38858],[138.29458,36.38832],[138.29381,36.38672],[138.29268,36.38546],[138.29069,36.38264],[138.28844,36.38029],[138.28712,36.37931],[138.28673,36.37873],[138.28813,36.37853],[138.2885,36.37899],[138.28896,36.37914],[138.28941,36.37844],[138.28958,36.37781],[138.28991,36.37777],[138.29007,36.37744],[138.29027,36.37758],[138.2904,36.37727],[138.29001,36.37713],[138.29025,36.37671],[138.29077,36.37641],[138.29061,36.37619],[138.28987,36.37616],[138.28999,36.37604],[138.28828,36.37614],[138.28792,36.37604],[138.28761,36.37616],[138.28705,36.37606],[138.28642,36.37575],[138.28592,36.37479],[138.28574,36.37469],[138.28585,36.37464],[138.28577,36.37452],[138.28475,36.37447],[138.28438,36.37462],[138.28433,36.37447],[138.28267,36.37482],[138.28142,36.37451],[138.28027,36.37506],[138.28015,36.37536],[138.27987,36.37532],[138.27919,36.37588],[138.27906,36.37576],[138.27887,36.37586],[138.27866,36.37564],[138.27707,36.37651],[138.27802,36.37777],[138.28153,36.38445],[138.28361,36.38713],[138.28424,36.38777],[138.28822,36.38979],[138.28907,36.3906],[138.28968,36.39167]]]},"properties":{"key":"202030300","name":"蒼久保","pref":"長野県","prefCode":"20","municipality":"上田市","areaM2":1477897.068,"population":3819,"toponymIds":["20-0a8e1737f0"]}},{"type":"Feature","geometry":{"type":"Polygon","coordinates":[[[138.25493,36.44045],[138.25726,36.44044],[138.25868,36.44002],[138.25969,36.44019],[138.26225,36.43969],[138.26278,36.43971],[138.26624,36.43872],[138.26666,36.43738],[138.2676,36.43556],[138.26795,36.43413],[138.26791,36.43263],[138.26767,36.43125],[138.26781,36.42945],[138.26928,36.42617],[138.26839,36.42394],[138.26843,36.42193],[138.2694,36.41931],[138.2695,36.41867],[138.27112,36.41747],[138.27157,36.41655],[138.2727,36.41593],[138.27302,36.41558],[138.27405,36.41522],[138.27444,36.41475],[138.27468,36.41474],[138.27498,36.41358],[138.27536,36.41351],[138.27542,36.41337],[138.27614,36.41335],[138.27767,36.41374],[138.27864,36.41367],[138.27913,36.41382],[138.27918,36.41365],[138.27872,36.41318],[138.2787,36.41297],[138.27832,36.41311],[138.27811,36.41278],[138.27795,36.41287],[138.27746,36.4127],[138.2775,36.41229],[138.27706,36.41207],[138.27584,36.41231],[138.2757,36.4119],[138.27543,36.41185],[138.27525,36.41154],[138.27517,36.41082],[138.27479,36.41074],[138.27386,36.40971],[138.27316,36.40922],[138.27195,36.40872],[138.2717,36.4083],[138.27076,36.40839],[138.27023,36.40821],[138.26936,36.40738],[138.26943,36.40682],[138.26977,36.40665],[138.26978,36.40635],[138.26848,36.40711],[138.26509,36.40538],[138.26498,36.40572],[138.26468,36.40589],[138.26408,36.40557],[138.26379,36.40607],[138.26384,36.40676],[138.26374,36.40678],[138.26356,36.40648],[138.26269,36.4062],[138.26195,36.40618],[138.26169,36.40582],[138.26126,36.40581],[138.26045,36.40666],[138.25988,36.40692],[138.25837,36.40857],[138.25765,36.40914],[138.25764,36.40958],[138.2572,36.40959],[138.25715,36.41052],[138.257,36.41072],[138.25675,36.41071],[138.25676,36.41106],[138.25654,36.41112],[138.25617,36.41082],[138.2557,36.41074],[138.25565,36.41123],[138.25551,36.41132],[138.25541,36.41688],[138.25504,36.41701],[138.2545,36.41676],[138.25434,36.41663],[138.2544,36.41643],[138.25382,36.41624],[138.25384,36.41602],[138.25335,36.41557],[138.25309,36.41626],[138.2528,36.41628],[138.25208,36.41683],[138.25168,36.41634],[138.25078,36.41582],[138.24881,36.41594],[138.24798,36.41624],[138.24803,36.41636],[138.24778,36.41658],[138.24792,36.41711],[138.24764,36.41763],[138.24702,36.41816],[138.24688,36.4185],[138.24696,36.41907],[138.24744,36.42015],[138.2489,36.42031],[138.24933,36.42055],[138.24991,36.42121],[138.24992,36.42227],[138.25021,36.42306],[138.25085,36.42407],[138.25268,36.42604],[138.25298,36.4283],[138.253,36.42949],[138.25259,36.43068],[138.24903,36.4332],[138.2486,36.43333],[138.24809,36.43426],[138.24799,36.43485],[138.24845,36.43628],[138.24847,36.43754],[138.24871,36.43857],[138.24908,36.43926],[138.24958,36.43975],[138.24974,36.44076],[138.25026,36.44117],[138.25277,36.44062],[138.25493,36.44045]]]},"properties":{"key":"202030150","name":"上田","pref":"長野県","prefCode":"20","municipality":"上田市","areaM2":6049619.553,"population":5987,"toponymIds":["20-f9fddb499b"]}},{"type":"Feature","geometry":{"type":"Polygon","coordinates":[[[138.11547,36.32189],[138.11761,36.32171],[138.11897,36.32139],[138.12165,36.32137],[138.12251,36.32082],[138.12241,36.31985],[138.12256,36.3193],[138.12349,36.31942],[138.12364,36.31904],[138.12405,36.31871],[138.12393,36.3184],[138.12375,36.31839],[138.1233,36.31911],[138.12266,36.3187],[138.1222,36.31931],[138.12196,36.31925],[138.12225,36.3183],[138.1233,36.3174],[138.12286,36.31721],[138.12283,36.31699],[138.124,36.31706],[138.12468,36.31626],[138.1251,36.31605],[138.12566,36.31616],[138.12561,36.31577],[138.12619,36.31488],[138.12607,36.31477],[138.12566,36.31498],[138.12521,36.31456],[138.12501,36.31405],[138.12521,36.31396],[138.12574,36.31416],[138.12596,36.31386],[138.12644,36.31388],[138.12679,36.3133],[138.12752,36.31299],[138.12786,36.31244],[138.12794,36.31173],[138.12885,36.31085],[138.12915,36.30994],[138.12896,36.30814],[138.12945,36.30724],[138.12919,36.30682],[138.13071,36.30618],[138.13155,36.30518],[138.1334,36.30448],[138.13404,36.30464],[138.13529,36.30428],[138.13661,36.30445],[138.13768,36.30484],[138.13784,36.30476],[138.13809,36.30324],[138.14026,36.2989],[138.14069,36.29771],[138.14107,36.29697],[138.14299,36.29441],[138.14226,36.2949],[138.13825,36.29937],[138.13606,36.30149],[138.13494,36.30003],[138.13407,36.30065],[138.13216,36.30064],[138.12918,36.30115],[138.12545,36.30071],[138.12331,36.30079],[138.12244,36.30094],[138.12035,36.30196],[138.11933,36.30228],[138.11877,36.30232],[138.11693,36.30203],[138.11355,36.30253],[138.11171,36.30229],[138.10917,36.30139],[138.10664,36.30137],[138.10463,36.30082],[138.10087,36.30085],[138.09965,36.3003],[138.09917,36.30026],[138.09382,36.30127],[138.09096,36.30133],[138.08873,36.30187],[138.08686,36.30274],[138.08519,36.30314],[138.08431,36.30367],[138.08304,36.30578],[138.08226,36.30772],[138.08293,36.30882],[138.08314,36.30966],[138.08285,36.31014],[138.08125,36.31148],[138.08095,36.31239],[138.0825,36.31364],[138.08395,36.31436],[138.08495,36.31511],[138.08594,36.31529],[138.08701,36.31579],[138.08877,36.31586],[138.08987,36.3165],[138.09071,36.31656],[138.09133,36.31681],[138.09281,36.31793],[138.09336,36.31912],[138.09494,36.32079],[138.09555,36.32108],[138.09782,36.32162],[138.09876,36.32207],[138.09895,36.32306],[138.10046,36.32322],[138.10192,36.32478],[138.10322,36.32505],[138.1035,36.32544],[138.10445,36.32571],[138.10543,36.32685],[138.10985,36.32925],[138.11002,36.32865],[138.10984,36.32732],[138.1105,36.32629],[138.11072,36.3251],[138.11324,36.32369],[138.11426,36.32241],[138.11472,36.32241],[138.11547,36.32189]]]},"properties":{"key":"202030890","name":"鹿教湯温泉","pref":"長野県","prefCode":"20","municipality":"上田市","areaM2":9269011.636,"population":289,"toponymIds":["20-b9250c16f5"]}},{"type":"Feature","geometry":{"type":"Polygon","coordinates":[[[138.38563,36.55354],[138.38666,36.55374],[138.38765,36.55368],[138.38979,36.55408],[138.3913,36.55371],[138.39168,36.55351],[138.39326,36.55171],[138.39382,36.55131],[138.39432,36.55043],[138.39534,36.54934],[138.39809,36.54823],[138.39918,36.54813],[138.40032,36.54774],[138.40413,36.5461],[138.4047,36.54529],[138.40512,36.54411],[138.40723,36.5416],[138.40876,36.54095],[138.40969,36.54074],[138.41085,36.54081],[138.4125,36.54166],[138.41167,36.53984],[138.41152,36.539],[138.41174,36.5384],[138.41238,36.53788],[138.41229,36.53608],[138.41255,36.53511],[138.41349,36.53449],[138.41391,36.5331],[138.4138,36.53215],[138.41336,36.53129],[138.41315,36.53029],[138.41284,36.52991],[138.41258,36.52889],[138.41177,36.52719],[138.40996,36.526],[138.40881,36.52504],[138.40549,36.52354],[138.40413,36.52177],[138.40381,36.52047],[138.40359,36.51822],[138.40278,36.5161],[138.40301,36.51555],[138.40362,36.51504],[138.40138,36.50517],[138.39956,36.50268],[138.39855,36.5023],[138.39685,36.50117],[138.39405,36.49865],[138.39148,36.49744],[138.39031,36.49729],[138.38908,36.49693],[138.38892,36.49649],[138.38871,36.49744],[138.3883,36.49757],[138.38761,36.49662],[138.38688,36.49653],[138.38637,36.49762],[138.38572,36.49818],[138.38553,36.49816],[138.38572,36.49765],[138.38521,36.49672],[138.38514,36.496],[138.38482,36.49587],[138.38367,36.49629],[138.38351,36.49608],[138.38373,36.49535],[138.38314,36.49526],[138.38279,36.49483],[138.38242,36.495],[138.38237,36.49576],[138.38179,36.49661],[138.38119,36.49634],[138.38094,36.49644],[138.381,36.49723],[138.38114,36.49716],[138.3811,36.49679],[138.3813,36.49672],[138.38213,36.49699],[138.38238,36.49745],[138.3823,36.4978],[138.38253,36.49822],[138.3818,36.49888],[138.38179,36.49927],[138.38149,36.49965],[138.38182,36.50017],[138.38177,36.5004],[138.38138,36.50059],[138.38049,36.50154],[138.37953,36.50107],[138.37865,36.50217],[138.3776,36.50228],[138.37744,36.50278],[138.37702,36.50319],[138.37698,36.50423],[138.37609,36.50468],[138.37543,36.50447],[138.37497,36.50507],[138.3752,36.50594],[138.37472,36.50651],[138.37481,36.50713],[138.37444,36.50736],[138.37435,36.5076],[138.37483,36.50826],[138.37497,36.50891],[138.37585,36.51037],[138.37476,36.50993],[138.37396,36.50938],[138.37331,36.50948],[138.37306,36.50913],[138.37243,36.50874],[138.37186,36.50895],[138.37067,36.50804],[138.37053,36.50603],[138.37,36.50519],[138.36747,36.50369],[138.36662,36.50368],[138.36601,36.50271],[138.36636,36.50226],[138.36633,36.50173],[138.3649,36.49912],[138.36297,36.49663],[138.36106,36.49533],[138.36067,36.49543],[138.36008,36.49513],[138.35998,36.49488],[138.36014,36.49463],[138.35993,36.49438],[138.35897,36.49475],[138.35858,36.49449],[138.35761,36.49466],[138.35744,36.49518],[138.35797,36.49552],[138.35801,36.49586],[138.35773,36.49621],[138.35725,36.49599],[138.35693,36.49552],[138.35637,36.49547],[138.35597,36.49559],[138.35513,36.49632],[138.35418,36.49634],[138.35378,36.49591],[138.35388,36.49536],[138.35401,36.49501],[138.3551,36.49395],[138.3549,36.49365],[138.35442,36.49379],[138.35348,36.49502],[138.35261,36.49575],[138.35145,36.49776],[138.35112,36.49795],[138.34994,36.49752],[138.34938,36.4976],[138.34932,36.49821],[138.34989,36.49901],[138.34879,36.50064],[138.34894,36.5016],[138.34858,36.50195],[138.3498,36.50286],[138.35036,36.5025],[138.35084,36.50245],[138.35211,36.50339],[138.35081,36.50345],[138.35077,36.50383],[138.35003,36.50405],[138.35001,36.50456],[138.35043,36.50541],[138.3501,36.50579],[138.34993,36.50642],[138.34961,36.50636],[138.34906,36.50575],[138.34873,36.50577],[138.34834,36.506],[138.34747,36.50777],[138.34659,36.50762],[138.34593,36.50817],[138.33836,36.5116],[138.33774,36.5117],[138.3367,36.51157],[138.33356,36.51064],[138.33209,36.51041],[138.33009,36.51038],[138.32697,36.51119],[138.32538,36.51142],[138.32387,36.51152],[138.32282,36.51131],[138.32198,36.511],[138.32122,36.51025],[138.32077,36.50867],[138.31991,36.50847],[138.31864,36.50775],[138.31662,36.50587],[138.31624,36.50569],[138.31569,36.50569],[138.31381,36.50634],[138.31315,36.50671],[138.31052,36.50888],[138.30705,36.51111],[138.30581,36.5121],[138.30543,36.51261],[138.30411,36.51759],[138.30379,36.51824],[138.30258,36.52012],[138.30197,36.52148],[138.30066,36.52291],[138.30025,36.52362],[138.29965,36.52593],[138.2985,36.52687],[138.29802,36.52748],[138.29776,36.52821],[138.29782,36.52973],[138.29523,36.531],[138.2938,36.53239],[138.29786,36.53531],[138.29853,36.53608],[138.29949,36.53759],[138.30038,36.53855],[138.30259,36.54196],[138.30356,36.54188],[138.30467,36.54227],[138.30493,36.5436],[138.30531,36.54414],[138.30644,36.54477],[138.30733,36.54472],[138.30863,36.54541],[138.30958,36.54703],[138.31013,36.54748],[138.31043,36.5484],[138.31051,36.54954],[138.31124,36.54994],[138.31235,36.54887],[138.31304,36.54851],[138.31437,36.54699],[138.31542,36.5464],[138.31719,36.54629],[138.31871,36.54661],[138.32013,36.54588],[138.32212,36.54594],[138.32315,36.54628],[138.32368,36.5461],[138.32435,36.54505],[138.32503,36.5448],[138.32701,36.54324],[138.32809,36.54266],[138.32975,36.54123],[138.33066,36.53995],[138.33178,36.53912],[138.3319,36.53886],[138.33311,36.53829],[138.33392,36.5372],[138.33437,36.53773],[138.33537,36.53846],[138.33701,36.53949],[138.33757,36.53966],[138.33967,36.54004],[138.3465,36.53984],[138.35199,36.54131],[138.35223,36.54167],[138.3533,36.54523],[138.35365,36.54741],[138.35536,36.54874],[138.35738,36.54963],[138.36243,36.5505],[138.36879,36.55283],[138.37156,36.55285],[138.37654,36.55431],[138.37909,36.55463],[138.38246,36.55467],[138.38427,36.55424],[138.38563,36.55354]]]},"properties":{"key":"202030900","name":"菅平高原","pref":"長野県","prefCode":"20","municipality":"上田市","areaM2":44960848.02,"population":940,"toponymIds":["20-980818294a"]}},{"type":"Feature","geometry":{"type":"Polygon","coordinates":[[[138.16246,36.34131],[138.16301,36.34052],[138.16353,36.34046],[138.16426,36.34082],[138.16504,36.34182],[138.16758,36.34206],[138.16839,36.34136],[138.16818,36.34103],[138.16771,36.34077],[138.16793,36.34036],[138.17052,36.3408],[138.17285,36.34054],[138.17279,36.33997],[138.17226,36.33961],[138.17235,36.33933],[138.17214,36.33901],[138.17118,36.33893],[138.17146,36.33749],[138.17101,36.33479],[138.16911,36.33226],[138.16922,36.33192],[138.16883,36.3311],[138.17147,36.32878],[138.17054,36.32738],[138.16907,36.32763],[138.16762,36.32726],[138.16591,36.32498],[138.16474,36.32402],[138.1637,36.32233],[138.16272,36.32109],[138.15865,36.3198],[138.15767,36.3185],[138.15647,36.31748],[138.1556,36.31706],[138.15505,36.31589],[138.1542,36.31527],[138.15406,36.31441],[138.15311,36.31374],[138.15286,36.31333],[138.15276,36.31273],[138.1521,36.31218],[138.15127,36.3125],[138.15076,36.3133],[138.14953,36.31343],[138.14823,36.31414],[138.14713,36.31387],[138.14596,36.3139],[138.14534,36.31344],[138.14428,36.31327],[138.14334,36.3127],[138.1425,36.31178],[138.14253,36.31125],[138.14197,36.31093],[138.14091,36.31105],[138.13952,36.31202],[138.13891,36.31227],[138.13829,36.31226],[138.13699,36.31166],[138.13633,36.31165],[138.13576,36.31209],[138.13521,36.31379],[138.13382,36.31427],[138.13285,36.31525],[138.12993,36.31637],[138.12965,36.31679],[138.1296,36.31741],[138.12902,36.31814],[138.12628,36.31886],[138.12531,36.31956],[138.12415,36.31957],[138.12336,36.31979],[138.1228,36.32064],[138.12165,36.32137],[138.11897,36.32139],[138.11761,36.32171],[138.11564,36.32182],[138.11494,36.3223],[138.11507,36.32263],[138.11549,36.323],[138.11645,36.32337],[138.11666,36.3244],[138.11695,36.3247],[138.11793,36.32545],[138.11898,36.32582],[138.12102,36.32712],[138.12149,36.32759],[138.12186,36.32841],[138.12255,36.32856],[138.12354,36.33031],[138.12477,36.33021],[138.12591,36.33112],[138.12705,36.3315],[138.12757,36.33204],[138.12805,36.33301],[138.12996,36.33397],[138.13108,36.33423],[138.13178,36.33369],[138.13315,36.33304],[138.13388,36.33284],[138.13436,36.33301],[138.13448,36.33256],[138.13435,36.33231],[138.13512,36.33261],[138.13728,36.3312],[138.14084,36.33199],[138.14361,36.33291],[138.14462,36.33284],[138.14623,36.33241],[138.14946,36.33349],[138.15014,36.33489],[138.15063,36.33556],[138.15125,36.33606],[138.15568,36.33691],[138.15741,36.3375],[138.15784,36.33838],[138.15747,36.33896],[138.15737,36.33949],[138.15767,36.34011],[138.15763,36.34105],[138.15816,36.34164],[138.15772,36.34244],[138.1588,36.34194],[138.15891,36.34141],[138.15951,36.34074],[138.1599,36.34107],[138.16058,36.34122],[138.1612,36.34269],[138.16246,36.34131]]]},"properties":{"key":"202030570","name":"野倉","pref":"長野県","prefCode":"20","municipality":"上田市","areaM2":9083365.759,"population":59,"toponymIds":["20-dd4c27b781"]}},{"type":"Feature","geometry":{"type":"Polygon","coordinates":[[[138.04333,36.05613],[138.04269,36.05583],[138.04279,36.0555],[138.04206,36.05505],[138.04134,36.05423],[138.03944,36.05435],[138.03788,36.05416],[138.03739,36.0554],[138.0398,36.0561],[138.04044,36.05604],[138.04145,36.05725],[138.04333,36.05613]]]},"properties":{"key":"202040050","name":"御倉町","pref":"長野県","prefCode":"20","municipality":"岡谷市","areaM2":93188.802,"population":215,"toponymIds":["20-ab8ab83e31"]}},{"type":"Feature","geometry":{"type":"Polygon","coordinates":[[[138.03224,36.04987],[138.0297,36.04839],[138.02865,36.04964],[138.02842,36.04931],[138.02825,36.04992],[138.02885,36.05089],[138.0315,36.05241],[138.03208,36.05298],[138.03447,36.05453],[138.03541,36.05336],[138.035,36.05302],[138.03376,36.05134],[138.03224,36.04987]]]},"properties":{"key":"20204024001","name":"川岸上一丁目","pref":"長野県","prefCode":"20","municipality":"岡谷市","areaM2":173033.094,"population":435,"toponymIds":["20-26dea796bd"]}},{"type":"Feature","geometry":{"type":"Polygon","coordinates":[[[138.01816,36.04898],[138.02163,36.0489],[138.02528,36.04763],[138.02644,36.04698],[138.0269,36.04696],[138.02678,36.04604],[138.02702,36.04493],[138.02675,36.04489],[138.02644,36.04413],[138.0252,36.04439],[138.02406,36.0449],[138.02246,36.04532],[138.02211,36.04397],[138.02285,36.04358],[138.02204,36.04377],[138.02152,36.04358],[138.02063,36.04398],[138.02003,36.0444],[138.02023,36.0451],[138.01975,36.04525],[138.01906,36.04632],[138.01845,36.04667],[138.01859,36.047],[138.01893,36.04702],[138.01902,36.04726],[138.01844,36.04719],[138.01805,36.04769],[138.01682,36.0485],[138.01694,36.04876],[138.01748,36.04907],[138.01816,36.04898]]]},"properties":{"key":"20204025001","name":"川岸中一丁目","pref":"長野県","prefCode":"20","municipality":"岡谷市","areaM2":317630.924,"population":863,"toponymIds":["20-d295fbc93e"]}},{"type":"Feature","geometry":{"type":"Polygon","coordinates":[[[138.01967,36.03872],[138.02011,36.03842],[138.02101,36.03827],[138.02266,36.03695],[138.02304,36.03697],[138.02355,36.03726],[138.02416,36.03788],[138.02429,36.03754],[138.02318,36.03656],[138.0223,36.03547],[138.02087,36.03216],[138.02002,36.03114],[138.01888,36.03191],[138.0183,36.03246],[138.01788,36.03319],[138.0174,36.03335],[138.01724,36.03369],[138.01552,36.03415],[138.01606,36.03438],[138.01535,36.03454],[138.0155,36.035],[138.0158,36.03499],[138.01781,36.03465],[138.01858,36.03428],[138.01833,36.0347],[138.01844,36.03522],[138.01889,36.03572],[138.0195,36.03594],[138.01993,36.03636],[138.01985,36.03665],[138.02,36.03675],[138.01951,36.03748],[138.02022,36.03734],[138.01928,36.03836],[138.01928,36.03874],[138.01967,36.03872]]]},"properties":{"key":"20204026001","name":"川岸西一丁目","pref":"長野県","prefCode":"20","municipality":"岡谷市","areaM2":234386.699,"population":339,"toponymIds":["20-4686c9ca7b"]}},{"type":"Feature","geometry":{"type":"Polygon","coordinates":[[[138.04033,36.05429],[138.04276,36.05417],[138.04447,36.05434],[138.0445,36.05378],[138.04482,36.05304],[138.04478,36.0528],[138.0442,36.05222],[138.04313,36.05213],[138.04246,36.05256],[138.04175,36.05239],[138.04155,36.05216],[138.03945,36.05177],[138.03906,36.05148],[138.03764,36.05105],[138.03751,36.05125],[138.03726,36.05129],[138.03693,36.05101],[138.03693,36.05071],[138.03528,36.04999],[138.03442,36.04925],[138.03426,36.05022],[138.03412,36.05013],[138.03333,36.0509],[138.03541,36.05336],[138.03841,36.0543],[138.04033,36.05429]]]},"properties":{"key":"20204027001","name":"川岸東一丁目","pref":"長野県","prefCode":"20","municipality":"岡谷市","areaM2":273134.721,"population":570,"toponymIds":["20-2cbeeceec7"]}},{"type":"Feature","geometry":{"type":"Polygon","coordinates":[[[137.82271,35.51435],[137.82248,35.5141],[137.82249,35.51388],[137.82215,35.51405],[137.82182,35.51363],[137.82273,35.51298],[137.8225,35.51258],[137.82253,35.5121],[137.82168,35.51225],[137.82159,35.51211],[137.82153,35.51239],[137.82099,35.51252],[137.821,35.51277],[137.82024,35.51237],[137.82027,35.51259],[137.81998,35.51274],[137.81964,35.51266],[137.82018,35.51326],[137.82004,35.51332],[137.82044,35.51386],[137.82017,35.514],[137.82054,35.5144],[137.82079,35.51427],[137.82166,35.51544],[137.82274,35.51483],[137.82252,35.51456],[137.82271,35.51435]]]},"properties":{"key":"202052070","name":"大久保町","pref":"長野県","prefCode":"20","municipality":"飯田市","areaM2":57458.823,"population":106,"toponymIds":["20-92faebab14"]}},{"type":"Feature","geometry":{"type":"Polygon","coordinates":[[[137.85707,35.47482],[137.85735,35.47483],[137.85774,35.47451],[137.85802,35.47458],[137.85822,35.47407],[137.85955,35.47325],[137.86045,35.47319],[137.86066,35.47284],[137.86146,35.47238],[137.86245,35.47197],[137.86287,35.47201],[137.86326,35.47122],[137.86389,35.47095],[137.86544,35.47133],[137.86682,35.47101],[137.86994,35.47124],[137.87007,35.47118],[137.86991,35.47062],[137.87001,35.46981],[137.86949,35.46981],[137.86974,35.46914],[137.87175,35.46919],[137.87222,35.46903],[137.87244,35.46847],[137.87229,35.46814],[137.87155,35.46796],[137.87225,35.46737],[137.87218,35.46729],[137.87189,35.46717],[137.8708,35.46758],[137.86996,35.46754],[137.8697,35.46649],[137.86918,35.4659],[137.86805,35.46517],[137.86688,35.46564],[137.86477,35.46583],[137.86543,35.46479],[137.86528,35.46381],[137.86583,35.46326],[137.86597,35.46259],[137.86474,35.46213],[137.86382,35.46044],[137.86289,35.45964],[137.8617,35.45912],[137.8601,35.45758],[137.85952,35.45748],[137.85905,35.45702],[137.85844,35.4569],[137.858,35.45615],[137.858,35.45582],[137.85716,35.45494],[137.85627,35.45457],[137.85526,35.45457],[137.85425,35.45499],[137.85424,35.45562],[137.85407,35.45588],[137.85305,35.45625],[137.85313,35.45657],[137.85364,35.45699],[137.85267,35.45871],[137.85251,35.45853],[137.85235,35.45949],[137.85282,35.46018],[137.85268,35.46074],[137.85305,35.46096],[137.85354,35.46163],[137.8535,35.46212],[137.85413,35.46189],[137.85438,35.4622],[137.85381,35.46224],[137.85309,35.46326],[137.85302,35.46359],[137.85318,35.46366],[137.85299,35.46409],[137.85354,35.46398],[137.8541,35.46469],[137.85353,35.46539],[137.85475,35.46522],[137.8552,35.46536],[137.85438,35.4659],[137.85433,35.46626],[137.85382,35.46697],[137.85368,35.46754],[137.85388,35.46953],[137.85373,35.46985],[137.85287,35.47045],[137.85213,35.47121],[137.85212,35.47163],[137.85127,35.47275],[137.85287,35.47328],[137.85301,35.47309],[137.85357,35.47296],[137.85429,35.47251],[137.85566,35.47257],[137.85589,35.47368],[137.85586,35.47467],[137.85634,35.47478],[137.8565,35.4753],[137.85707,35.47482]]]},"properties":{"key":"20205008006","name":"下久堅柿野沢","pref":"長野県","prefCode":"20","municipality":"飯田市","areaM2":2166985.456,"population":225,"toponymIds":["20-b1d2cffdac"]}},{"type":"Feature","geometry":{"type":"Polygon","coordinates":[[[137.79899,35.52025],[137.79956,35.51956],[137.79981,35.51975],[137.80022,35.51941],[137.80051,35.51894],[137.80038,35.51856],[137.80076,35.51821],[137.80141,35.51809],[137.80134,35.51745],[137.80174,35.51746],[137.80216,35.51781],[137.80254,35.51749],[137.80258,35.51718],[137.80206,35.51712],[137.80202,35.51673],[137.80304,35.51641],[137.80275,35.51586],[137.80207,35.51604],[137.80206,35.51591],[137.80185,35.51595],[137.80157,35.51532],[137.80135,35.51531],[137.80116,35.51549],[137.80143,35.51607],[137.80116,35.51653],[137.80011,35.51695],[137.7999,35.51667],[137.79963,35.51674],[137.79983,35.51706],[137.7989,35.51771],[137.79876,35.51759],[137.79823,35.51781],[137.79797,35.51759],[137.79779,35.51781],[137.79816,35.51802],[137.79779,35.51821],[137.79758,35.51796],[137.79698,35.51783],[137.79664,35.51745],[137.79296,35.51948],[137.79443,35.52029],[137.79476,35.52019],[137.79516,35.52033],[137.79576,35.52082],[137.79663,35.52016],[137.79784,35.52114],[137.79899,35.52025]]]},"properties":{"key":"202053110","name":"羽場赤坂","pref":"長野県","prefCode":"20","municipality":"飯田市","areaM2":206203.261,"population":333,"toponymIds":["20-b70fa9ebf7"]}},{"type":"Feature","geometry":{"type":"Polygon","coordinates":[[[137.79787,35.51769],[137.79797,35.51759],[137.79828,35.51782],[137.79876,35.51759],[137.7989,35.51771],[137.79983,35.51706],[137.79963,35.51674],[137.7999,35.51667],[137.80011,35.51695],[137.8011,35.51657],[137.80143,35.51607],[137.80116,35.51549],[137.79664,35.51745],[137.79698,35.51783],[137.79758,35.51796],[137.79779,35.51821],[137.79816,35.51802],[137.79779,35.51781],[137.79787,35.51769]]]},"properties":{"key":"202053120","name":"羽場上河原","pref":"長野県","prefCode":"20","municipality":"飯田市","areaM2":46157.684,"population":135,"toponymIds":["20-18ccbac4f6"]}},{"type":"Feature","geometry":{"type":"Polygon","coordinates":[[[137.80291,35.521],[137.80355,35.52116],[137.8036,35.52066],[137.80538,35.51956],[137.80661,35.52038],[137.80706,35.51997],[137.80583,35.51918],[137.80564,35.51933],[137.80503,35.51869],[137.80447,35.5193],[137.80413,35.51912],[137.80402,35.51926],[137.80361,35.51903],[137.8034,35.51919],[137.80264,35.51876],[137.80223,35.51905],[137.80165,35.51848],[137.80152,35.51858],[137.80117,35.51833],[137.80088,35.51842],[137.80076,35.51821],[137.80038,35.51856],[137.80051,35.51894],[137.80022,35.51941],[137.79981,35.51975],[137.79956,35.51956],[137.79854,35.52062],[137.79994,35.52201],[137.80187,35.52148],[137.80291,35.521]]]},"properties":{"key":"202053090","name":"羽場権現","pref":"長野県","prefCode":"20","municipality":"飯田市","areaM2":143655.155,"population":354,"toponymIds":["20-855e3976ed"]}},{"type":"Feature","geometry":{"type":"Polygon","coordinates":[[[137.815,35.51416],[137.81544,35.51418],[137.81592,35.51371],[137.81754,35.51314],[137.81767,35.51301],[137.81749,35.51248],[137.81767,35.51235],[137.81746,35.51241],[137.81744,35.51212],[137.81491,35.51285],[137.81486,35.51269],[137.81426,35.51279],[137.81436,35.51303],[137.81387,35.51317],[137.81381,35.51281],[137.81336,35.51286],[137.81338,35.51338],[137.81287,35.51351],[137.8128,35.51326],[137.81217,35.51325],[137.8118,35.51307],[137.8095,35.51315],[137.81023,35.5141],[137.81129,35.51456],[137.8113,35.5149],[137.815,35.51416]]]},"properties":{"key":"202053030","name":"羽場坂町","pref":"長野県","prefCode":"20","municipality":"飯田市","areaM2":101361.312,"population":104,"toponymIds":["20-884de3ec7f"]}},{"type":"Feature","geometry":{"type":"Polygon","coordinates":[[[137.80871,35.51517],[137.80727,35.5155],[137.80857,35.5176],[137.8092,35.51834],[137.81161,35.51977],[137.81195,35.51971],[137.81283,35.51864],[137.81298,35.51819],[137.80996,35.51687],[137.80871,35.51517]]]},"properties":{"key":"20205307001","name":"羽場町一丁目","pref":"長野県","prefCode":"20","municipality":"飯田市","areaM2":101199.459,"population":333,"toponymIds":["20-acbe8e427c"]}},{"type":"Feature","geometry":{"type":"Polygon","coordinates":[[[137.80447,35.5193],[137.80503,35.51869],[137.80332,35.51679],[137.80258,35.51718],[137.80254,35.51749],[137.80216,35.51781],[137.80174,35.51746],[137.80134,35.51745],[137.80141,35.51809],[137.80076,35.51821],[137.80088,35.51842],[137.80117,35.51833],[137.80152,35.51858],[137.80165,35.51848],[137.80223,35.51905],[137.80264,35.51876],[137.8034,35.51919],[137.80361,35.51903],[137.80447,35.5193]]]},"properties":{"key":"202053100","name":"羽場仲畑","pref":"長野県","prefCode":"20","municipality":"飯田市","areaM2":52362.504,"population":145,"toponymIds":["20-096fd76627"]}},{"type":"Feature","geometry":{"type":"Polygon","coordinates":[[[137.82923,35.51603],[137.82902,35.51544],[137.82776,35.51602],[137.82786,35.51615],[137.82803,35.51598],[137.82838,35.51644],[137.82923,35.51603]]]},"properties":{"key":"20205109001","name":"馬場町一丁目","pref":"長野県","prefCode":"20","municipality":"飯田市","areaM2":7473.14,"population":32,"toponymIds":["20-1a694eeb5d"]}},{"type":"Feature","geometry":{"type":"Polygon","coordinates":[[[138.11202,36.0556],[138.11149,36.05552],[138.11115,36.0565],[138.10908,36.0607],[138.11037,36.06123],[138.11103,36.06045],[138.11329,36.05612],[138.11202,36.0556]]]},"properties":{"key":"20206003001","name":"湖岸通り一丁目","pref":"長野県","prefCode":"20","municipality":"諏訪市","areaM2":98891.475,"population":281,"toponymIds":["20-b8603c4e04"]}},{"type":"Feature","geometry":{"type":"Polygon","coordinates":[[[138.32597,36.62144],[138.32697,36.62106],[138.3274,36.62156],[138.32854,36.62191],[138.32984,36.62178],[138.33091,36.62189],[138.33534,36.61503],[138.33608,36.61301],[138.33585,36.6124],[138.33486,36.61242],[138.3347,36.6114],[138.33053,36.61328],[138.32651,36.61627],[138.32463,36.61835],[138.32289,36.62114],[138.32338,36.62207],[138.32597,36.62144]]]},"properties":{"key":"202070270","name":"大字栃倉","pref":"長野県","prefCode":"20","municipality":"須坂市","areaM2":706053.982,"population":262,"toponymIds":["20-fa5c0a4b4d"]}},{"type":"Feature","geometry":{"type":"Polygon","coordinates":[[[138.3189,36.73949],[138.31702,36.73725],[138.31634,36.73629],[138.31595,36.73532],[138.31467,36.73412],[138.31439,36.73414],[138.31409,36.73352],[138.31334,36.73262],[138.31146,36.73322],[138.31154,36.73344],[138.31101,36.73371],[138.31,36.73394],[138.30849,36.73395],[138.30819,36.73834],[138.30829,36.7394],[138.30897,36.74066],[138.30995,36.74178],[138.31155,36.74285],[138.31285,36.74342],[138.31411,36.74211],[138.31445,36.74193],[138.31434,36.74185],[138.31451,36.74172],[138.31425,36.74148],[138.3189,36.73949]]]},"properties":{"key":"202110260","name":"大字牛出","pref":"長野県","prefCode":"20","municipality":"中野市","areaM2":694377.853,"population":271,"toponymIds":["20-2e0c350bc0"]}},{"type":"Feature","geometry":{"type":"Polygon","coordinates":[[[137.77567,36.65552],[137.77749,36.65548],[137.77818,36.65527],[137.7793,36.65558],[137.78053,36.65541],[137.78137,36.65548],[137.7839,36.65468],[137.78445,36.65409],[137.78654,36.65323],[137.787,36.65277],[137.78995,36.65212],[137.791,36.65225],[137.79378,36.65121],[137.7962,36.65195],[137.79766,36.65216],[137.79796,36.65208],[137.79819,36.65195],[137.79858,36.65067],[137.79936,36.64897],[137.80101,36.64761],[137.80204,36.64645],[137.80407,36.64609],[137.80425,36.64401],[137.80372,36.64287],[137.80378,36.6422],[137.80404,36.64171],[137.80515,36.64074],[137.80687,36.64032],[137.80745,36.63993],[137.80787,36.63937],[137.80887,36.63914],[137.80871,36.63879],[137.80896,36.63878],[137.80876,36.6379],[137.81046,36.63666],[137.81201,36.6367],[137.81455,36.63584],[137.81693,36.63587],[137.81711,36.63511],[137.81837,36.63383],[137.81914,36.63358],[137.82138,36.63146],[137.82127,36.63105],[137.82075,36.63069],[137.8203,36.63007],[137.81944,36.62983],[137.81999,36.62805],[137.81976,36.62725],[137.81983,36.62591],[137.81918,36.62535],[137.81985,36.62518],[137.81973,36.62474],[137.8206,36.62481],[137.8217,36.62456],[137.82282,36.62404],[137.82385,36.62426],[137.82416,36.62403],[137.82401,36.62331],[137.82183,36.62117],[137.82199,36.62085],[137.82283,36.62013],[137.82296,36.6198],[137.82241,36.61843],[137.822,36.61796],[137.82204,36.61758],[137.82282,36.61708],[137.8224,36.61631],[137.8228,36.61607],[137.82296,36.61556],[137.82306,36.61406],[137.82677,36.61427],[137.83035,36.61399],[137.83412,36.61429],[137.83391,36.61545],[137.83397,36.61639],[137.83465,36.61887],[137.83542,36.62053],[137.8362,36.6216],[137.83695,36.62194],[137.84061,36.62219],[137.84616,36.6221],[137.84928,36.62268],[137.84995,36.62255],[137.85133,36.62184],[137.852,36.62166],[137.85406,36.6228],[137.85634,36.62337],[137.85703,36.62337],[137.85761,36.62318],[137.85781,36.62244],[137.85816,36.62197],[137.85938,36.6214],[137.85993,36.6214],[137.86037,36.62169],[137.86106,36.62169],[137.8625,36.62083],[137.86308,36.62081],[137.86382,36.62117],[137.86449,36.62124],[137.8657,36.62076],[137.86734,36.62039],[137.86745,36.62004],[137.86738,36.61863],[137.86716,36.61821],[137.86621,36.61755],[137.86642,36.61643],[137.86771,36.61459],[137.86883,36.61393],[137.86976,36.61364],[137.86998,36.61328],[137.86957,36.61259],[137.86831,36.61172],[137.86737,36.61146],[137.86608,36.61139],[137.86492,36.61077],[137.86483,36.61031],[137.865,36.60912],[137.86436,36.60787],[137.86417,36.60721],[137.86427,36.60645],[137.86402,36.60589],[137.86486,36.60472],[137.86565,36.60284],[137.8703,36.59657],[137.86687,36.59457],[137.86416,36.59367],[137.86314,36.59244],[137.86257,36.59204],[137.86132,36.59196],[137.86093,36.59039],[137.85963,36.58992],[137.8585,36.589],[137.85753,36.58645],[137.85733,36.58547],[137.85759,36.58502],[137.85895,36.58396],[137.85942,36.58297],[137.85948,36.58272],[137.85931,36.58256],[137.85818,36.58216],[137.85827,36.58135],[137.85928,36.58062],[137.85956,36.58016],[137.8597,36.57964],[137.85962,36.57899],[137.85929,36.57845],[137.85818,36.57795],[137.85891,36.57629],[137.85889,36.57585],[137.85852,36.57527],[137.8583,36.57397],[137.85734,36.57279],[137.8566,36.57251],[137.85679,36.5717],[137.85679,36.5706],[137.85634,36.56914],[137.85479,36.56783],[137.8534,36.56749],[137.85349,36.5661],[137.85438,36.56503],[137.85364,36.56352],[137.85461,36.56352],[137.85562,36.56375],[137.85776,36.56337],[137.85864,36.56285],[137.86041,36.56234],[137.86117,36.56184],[137.86164,36.56172],[137.86438,36.56299],[137.8647,36.56287],[137.86534,36.56189],[137.86927,36.56231],[137.87121,36.56315],[137.87153,36.56284],[137.87334,36.56192],[137.87378,36.56053],[137.87313,36.55971],[137.87283,36.55897],[137.87257,36.55818],[137.87253,36.55723],[137.8729,36.55711],[137.87422,36.55803],[137.8746,36.55789],[137.87476,36.55728],[137.87524,36.55648],[137.875,36.55604],[137.87496,36.55521],[137.87544,36.55422],[137.876,36.55365],[137.87531,36.55297],[137.87525,36.55241],[137.87394,36.55053],[137.87368,36.54909],[137.8738,36.54822],[137.87296,36.54703],[137.87328,36.5462],[137.87323,36.54511],[137.87198,36.54363],[137.8717,36.54298],[137.87158,36.54205],[137.87298,36.54131],[137.87555,36.5407],[137.87621,36.5397],[137.87611,36.53778],[137.87627,36.53739],[137.87669,36.53702],[137.878,36.53659],[137.87841,36.53632],[137.87943,36.53522],[137.88106,36.53275],[137.88087,36.53176],[137.87996,36.53125],[137.87919,36.53037],[137.87947,36.5293],[137.88028,36.52928],[137.88065,36.52864],[137.88035,36.52816],[137.87928,36.52733],[137.87917,36.52706],[137.87956,36.52686],[137.88485,36.52598],[137.88471,36.52551],[137.8841,36.52486],[137.88397,36.52395],[137.88424,36.52344],[137.88392,36.52318],[137.88331,36.52189],[137.8825,36.52107],[137.88336,36.52066],[137.88396,36.52057],[137.88442,36.52023],[137.88389,36.51919],[137.8838,36.51861],[137.88409,36.51786],[137.88437,36.5176],[137.88411,36.51726],[137.8856,36.51638],[137.88706,36.51587],[137.88731,36.51412],[137.88761,36.5134],[137.88445,36.5115],[137.88432,36.51125],[137.88471,36.51057],[137.88475,36.51011],[137.88389,36.50893],[137.88367,36.50814],[137.88324,36.50741],[137.88234,36.50697],[137.88096,36.50707],[137.88163,36.5073],[137.88184,36.50752],[137.88128,36.50756],[137.88121,36.50802],[137.88056,36.50847],[137.88049,36.50889],[137.87992,36.50875],[137.87953,36.50835],[137.87821,36.50851],[137.8775,36.50829],[137.87555,36.50699],[137.87353,36.50624],[137.8734,36.50632],[137.8739,36.50668],[137.87385,36.50681],[137.87305,36.50647],[137.87282,36.50617],[137.87244,36.50623],[137.87247,36.50656],[137.87142,36.50665],[137.87129,36.5069],[137.87141,36.50757],[137.87048,36.50691],[137.87003,36.50688],[137.86984,36.5079],[137.86993,36.50834],[137.87034,36.50887],[137.86942,36.50878],[137.86905,36.5091],[137.86851,36.51003],[137.86849,36.51033],[137.86959,36.51077],[137.86842,36.51101],[137.87215,36.5132],[137.87254,36.51432],[137.87199,36.51503],[137.8709,36.51559],[137.87025,36.5154],[137.87006,36.51487],[137.86982,36.51503],[137.87002,36.51503],[137.87026,36.51605],[137.87001,36.516],[137.87006,36.51615],[137.8709,36.51643],[137.87259,36.5184],[137.87255,36.51969],[137.87278,36.5209],[137.87269,36.52153],[137.87186,36.5221],[137.87128,36.5222],[137.87039,36.52311],[137.86813,36.52293],[137.86654,36.52337],[137.86665,36.52359],[137.86643,36.52362],[137.86648,36.52431],[137.86581,36.52355],[137.86615,36.52476],[137.86602,36.5251],[137.86579,36.52524],[137.86577,36.52506],[137.8652,36.52458],[137.86501,36.52398],[137.86468,36.52375],[137.86444,36.52386],[137.86393,36.5236],[137.86382,36.52336],[137.8635,36.52323],[137.86347,36.52273],[137.86274,36.52228],[137.86249,36.52312],[137.86198,36.52405],[137.86182,36.52485],[137.86112,36.52606],[137.86106,36.52649],[137.86056,36.52726],[137.8598,36.52781],[137.8596,36.52843],[137.85909,36.52911],[137.85759,36.53061],[137.85678,36.5309],[137.8565,36.53171],[137.85563,36.53197],[137.85427,36.53285],[137.85261,36.5322],[137.85612,36.52688],[137.8528,36.52547],[137.8552,36.52176],[137.85478,36.52167],[137.8551,36.52112],[137.85497,36.52087],[137.85422,36.52054],[137.85325,36.5205],[137.85338,36.52025],[137.85235,36.51997],[137.85087,36.52006],[137.85084,36.5199],[137.84818,36.52094],[137.84828,36.52056],[137.84632,36.52053],[137.84623,36.52116],[137.84573,36.52151],[137.84586,36.52186],[137.84428,36.52242],[137.84322,36.521],[137.84217,36.52044],[137.84094,36.52055],[137.83967,36.52037],[137.83905,36.52071],[137.83719,36.52076],[137.83665,36.52107],[137.83576,36.52124],[137.83506,36.52178],[137.83353,36.5226],[137.83402,36.52383],[137.83269,36.52431],[137.83146,36.52528],[137.82727,36.52698],[137.82603,36.5273],[137.82451,36.52739],[137.82345,36.5278],[137.82151,36.52751],[137.81955,36.52759],[137.82026,36.52657],[137.82026,36.5252],[137.81975,36.52444],[137.8199,36.52377],[137.82184,36.52301],[137.82165,36.52269],[137.82137,36.5228],[137.82112,36.5225],[137.82083,36.52258],[137.82083,36.52238],[137.822,36.52183],[137.8227,36.52043],[137.82362,36.51954],[137.82427,36.51864],[137.82553,36.51753],[137.82654,36.51704],[137.82853,36.51672],[137.83031,36.5159],[137.83117,36.51531],[137.83243,36.51408],[137.83264,36.51419],[137.83323,36.51373],[137.83461,36.51445],[137.83597,36.51332],[137.83586,36.51278],[137.83527,36.51274],[137.8353,36.51256],[137.83565,36.51206],[137.83628,36.51159],[137.83666,36.51076],[137.83499,36.50982],[137.83572,36.50898],[137.83656,36.50759],[137.83688,36.50738],[137.83822,36.50708],[137.83686,36.50616],[137.8346,36.50644],[137.83535,36.50585],[137.8364,36.50591],[137.83738,36.50474],[137.83724,36.50452],[137.83505,36.50196],[137.83134,36.50397],[137.82653,36.506],[137.81584,36.51102],[137.81239,36.51127],[137.81268,36.51092],[137.81304,36.50975],[137.81453,36.50917],[137.81519,36.5093],[137.81577,36.50882],[137.81665,36.5085],[137.81692,36.50828],[137.81692,36.50777],[137.81716,36.50722],[137.8176,36.50671],[137.81882,36.50624],[137.81949,36.50625],[137.82003,36.50554],[137.82178,36.50434],[137.82196,36.50401],[137.8229,36.50361],[137.82269,36.50333],[137.82237,36.50326],[137.82125,36.50365],[137.82025,36.50357],[137.8188,36.5032],[137.8184,36.5026],[137.81797,36.50242],[137.81762,36.50238],[137.81718,36.50268],[137.81711,36.50208],[137.81799,36.50142],[137.81876,36.50031],[137.8179,36.49948],[137.81631,36.49886],[137.81682,36.4986],[137.81663,36.49813],[137.79439,36.48554],[137.79258,36.46552],[137.79134,36.46616],[137.79046,36.46624],[137.78473,36.46489],[137.78377,36.46499],[137.78276,36.46479],[137.78089,36.46422],[137.78074,36.46397],[137.78079,36.46306],[137.78021,36.4628],[137.77959,36.46281],[137.77847,36.46376],[137.77777,36.46379],[137.77679,36.46311],[137.77628,36.46253],[137.77519,36.46192],[137.77283,36.46125],[137.77262,36.46095],[137.77245,36.45977],[137.77002,36.45932],[137.77009,36.45884],[137.76942,36.45851],[137.76867,36.45879],[137.76646,36.45821],[137.76385,36.45836],[137.76198,36.45792],[137.76069,36.45743],[137.75928,36.4576],[137.75821,36.45797],[137.75847,36.45526],[137.75823,36.45459],[137.7578,36.45431],[137.75615,36.45351],[137.75417,36.45321],[137.75079,36.45122],[137.74948,36.4497],[137.74653,36.44865],[137.74551,36.44801],[137.74343,36.44795],[137.74235,36.44819],[137.73873,36.44848],[137.73749,36.44806],[137.73661,36.44741],[137.73604,36.44548],[137.73531,36.44483],[137.73356,36.44397],[137.73276,36.44376],[137.73254,36.44335],[137.73192,36.4431],[137.73133,36.44252],[137.73014,36.44214],[137.72995,36.44176],[137.72949,36.44149],[137.72937,36.44106],[137.72845,36.44044],[137.72834,36.44016],[137.72787,36.44023],[137.7278,36.43998],[137.72835,36.43923],[137.72824,36.43851],[137.72735,36.4381],[137.72721,36.43783],[137.72688,36.4377],[137.72752,36.43722],[137.72803,36.4362],[137.72839,36.436],[137.72954,36.43323],[137.73044,36.43258],[137.73133,36.43143],[137.73105,36.43039],[137.73116,36.42871],[137.73097,36.42827],[137.73035,36.42762],[137.73044,36.42715],[137.72998,36.42586],[137.72959,36.42536],[137.72694,36.42524],[137.72625,36.42485],[137.72493,36.42341],[137.72381,36.42295],[137.72323,36.42216],[137.72086,36.42092],[137.71953,36.41997],[137.71664,36.41746],[137.71565,36.41735],[137.71473,36.41698],[137.71355,36.41682],[137.71244,36.41696],[137.7121,36.41681],[137.712,36.41579],[137.71231,36.41514],[137.71217,36.4145],[137.71254,36.41385],[137.71266,36.4132],[137.71182,36.4117],[137.7117,36.41099],[137.71142,36.41056],[137.7114,36.40992],[137.71219,36.40891],[137.71205,36.40726],[137.7128,36.40665],[137.71305,36.40537],[137.71357,36.40426],[137.7137,36.40299],[137.71427,36.40196],[137.71498,36.40136],[137.71526,36.4009],[137.71523,36.39987],[137.71497,36.39891],[137.71471,36.39852],[137.71274,36.39711],[137.71183,36.39669],[137.71133,36.39571],[137.71061,36.3952],[137.70952,36.39396],[137.7094,36.39317],[137.70839,36.39126],[137.70765,36.38875],[137.70639,36.38732],[137.70621,36.38692],[137.70611,36.38497],[137.70656,36.38347],[137.70706,36.38267],[137.70749,36.38131],[137.70813,36.37841],[137.70892,36.37671],[137.70757,36.37573],[137.7068,36.3749],[137.7063,36.37392],[137.7064,36.37286],[137.70596,36.37202],[137.70494,36.37086],[137.70314,36.36829],[137.70165,36.36698],[137.70103,36.36513],[137.6993,36.36462],[137.6988,36.36414],[137.69705,36.36366],[137.69607,36.36306],[137.69328,36.36276],[137.69276,36.36248],[137.69193,36.36096],[137.69233,36.35992],[137.69205,36.35928],[137.69042,36.35695],[137.6898,36.35663],[137.68854,36.35635],[137.68767,36.35581],[137.68706,36.35399],[137.68719,36.35296],[137.68655,36.35158],[137.68666,36.35016],[137.68613,36.34906],[137.6862,36.34809],[137.68561,36.34674],[137.68554,36.34544],[137.68502,36.34455],[137.68419,36.3437],[137.68412,36.34342],[137.6843,36.34298],[137.68415,36.34273],[137.68348,36.34186],[137.6827,36.34119],[137.68215,36.33981],[137.68165,36.33931],[137.68137,36.3384],[137.67893,36.33697],[137.67717,36.33735],[137.67546,36.33729],[137.67331,36.33787],[137.67244,36.33732],[137.67148,36.33726],[137.67043,36.33689],[137.6689,36.33715],[137.66831,36.33758],[137.66703,36.33789],[137.66503,36.33714],[137.66427,36.33774],[137.66342,36.33793],[137.6628,36.33784],[137.6626,36.33747],[137.6623,36.33737],[137.65858,36.33737],[137.65671,36.33802],[137.65554,36.33809],[137.65436,36.33884],[137.65213,36.33923],[137.6511,36.34001],[137.64834,36.34117],[137.64776,36.34176],[137.64677,36.34227],[137.64335,36.34246],[137.63514,36.34355],[137.63479,36.34378],[137.63495,36.34448],[137.63486,36.3449],[137.63208,36.3461],[137.63151,36.34659],[137.63036,36.34836],[137.62833,36.34975],[137.62769,36.35207],[137.62648,36.35294],[137.62562,36.35329],[137.62408,36.35536],[137.6227,36.35827],[137.62254,36.35958],[137.62144,36.36059],[137.62024,36.36205],[137.6198,36.36269],[137.61948,36.36375],[137.6192,36.36414],[137.6185,36.36479],[137.61727,36.36555],[137.6159,36.36604],[137.61464,36.36618],[137.61389,36.36662],[137.61293,36.36684],[137.61146,36.36684],[137.60943,36.36656],[137.608,36.36678],[137.60741,36.36704],[137.60704,36.36743],[137.60541,36.36807],[137.60392,36.36827],[137.60358,36.369],[137.60278,36.36945],[137.60122,36.36972],[137.60005,36.37024],[137.59691,36.37034],[137.59638,36.3701],[137.59523,36.36909],[137.59438,36.36882],[137.59376,36.36885],[137.59107,36.37019],[137.58986,36.37058],[137.58707,36.37204],[137.58737,36.37321],[137.58614,36.37604],[137.58603,36.37668],[137.58627,36.37862],[137.58689,36.38001],[137.58744,36.38207],[137.58734,36.38249],[137.58655,36.38338],[137.58651,36.38362],[137.58694,36.38584],[137.58665,36.38766],[137.58699,36.38924],[137.58752,36.38985],[137.59089,36.38963],[137.5923,36.38972],[137.59257,36.39039],[137.59342,36.39136],[137.59381,36.39245],[137.59369,36.39343],[137.59401,36.39364],[137.59597,36.39409],[137.59681,36.39453],[137.59771,36.39543],[137.5983,36.39664],[137.59989,36.39867],[137.60075,36.39952],[137.60227,36.40068],[137.60534,36.40246],[137.60544,36.40266],[137.60532,36.40341],[137.60555,36.40451],[137.60465,36.40737],[137.60394,36.40866],[137.60384,36.41079],[137.60413,36.41168],[137.60471,36.41229],[137.60544,36.41265],[137.60739,36.41299],[137.60714,36.41399],[137.60853,36.41549],[137.60819,36.41588],[137.60819,36.41641],[137.60911,36.41797],[137.60905,36.41816],[137.60832,36.41863],[137.60821,36.41953],[137.6128,36.41958],[137.61389,36.4193],[137.61513,36.41862],[137.61734,36.41855],[137.61865,36.41931],[137.61957,36.42056],[137.62057,36.42124],[137.62128,36.42254],[137.62297,36.42388],[137.62416,36.42398],[137.62582,36.42362],[137.62708,36.42379],[137.6284,36.42372],[137.62997,36.42403],[137.63155,36.42467],[137.63313,36.42494],[137.63352,36.4254],[137.63374,36.42635],[137.6351,36.42754],[137.63639,36.42829],[137.63653,36.42953],[137.63802,36.43205],[137.63791,36.43265],[137.6373,36.43387],[137.63723,36.4354],[137.63764,36.4369],[137.63829,36.43684],[137.63852,36.43716],[137.63858,36.43872],[137.6389,36.43948],[137.63883,36.44135],[137.63998,36.4441],[137.63988,36.44591],[137.64318,36.44872],[137.64354,36.44985],[137.64397,36.45057],[137.64385,36.45204],[137.64512,36.45383],[137.64527,36.4545],[137.64641,36.45464],[137.64707,36.45448],[137.64747,36.45465],[137.64918,36.45484],[137.64944,36.45503],[137.65028,36.45673],[137.65167,36.45847],[137.65296,36.45839],[137.65406,36.45854],[137.65496,36.4588],[137.65528,36.45934],[137.65515,36.46304],[137.65485,36.46351],[137.65474,36.46469],[137.65515,36.46646],[137.65584,36.46761],[137.65587,36.46968],[137.65635,36.46999],[137.65661,36.47047],[137.65548,36.4719],[137.6548,36.47356],[137.65326,36.47517],[137.65347,36.47572],[137.65316,36.47638],[137.65313,36.47763],[137.65249,36.47784],[137.65153,36.47956],[137.65094,36.47948],[137.65071,36.47976],[137.65071,36.48023],[137.65117,36.48127],[137.65144,36.48247],[137.65145,36.4841],[137.65189,36.48525],[137.65189,36.48816],[137.6527,36.48908],[137.65321,36.49008],[137.654,36.49046],[137.65557,36.49179],[137.65657,36.49219],[137.65764,36.49298],[137.65885,36.49315],[137.66052,36.49372],[137.6635,36.49387],[137.66446,36.49372],[137.66475,36.49302],[137.66558,36.49304],[137.66599,36.49313],[137.66675,36.49402],[137.66693,36.49436],[137.66683,36.49492],[137.66745,36.49593],[137.6671,36.49719],[137.66731,36.49854],[137.66696,36.49992],[137.66729,36.5006],[137.66702,36.50236],[137.66748,36.50489],[137.66709,36.50619],[137.66733,36.50651],[137.66815,36.50687],[137.66852,36.50854],[137.66893,36.50935],[137.66966,36.51002],[137.67035,36.51031],[137.67143,36.51007],[137.67261,36.51025],[137.67553,36.51118],[137.67591,36.51167],[137.67649,36.51201],[137.67683,36.51321],[137.67741,36.51416],[137.6789,36.51355],[137.68089,36.51334],[137.68323,36.51251],[137.68491,36.51274],[137.68517,36.5129],[137.68526,36.51343],[137.68553,36.5136],[137.68673,36.51357],[137.68776,36.51373],[137.68917,36.51352],[137.68991,36.5136],[137.69111,36.51316],[137.69169,36.51274],[137.69242,36.5112],[137.69287,36.51072],[137.69348,36.51052],[137.69422,36.51052],[137.69454,36.51071],[137.69462,36.51154],[137.69542,36.51204],[137.69633,36.51337],[137.69702,36.51385],[137.69719,36.51455],[137.69819,36.51473],[137.69939,36.51526],[137.70145,36.51559],[137.70228,36.51673],[137.70329,36.51711],[137.70371,36.5175],[137.70558,36.51765],[137.70539,36.51841],[137.70546,36.51898],[137.7045,36.52016],[137.70368,36.52198],[137.70369,36.52284],[137.70308,36.52371],[137.70282,36.52455],[137.70357,36.52563],[137.70372,36.52664],[137.70435,36.52696],[137.70456,36.52745],[137.70564,36.52874],[137.70561,36.52947],[137.70638,36.53065],[137.70693,36.53095],[137.70758,36.53254],[137.70841,36.53364],[137.70874,36.5337],[137.70942,36.53428],[137.7099,36.53439],[137.70988,36.53479],[137.7101,36.5349],[137.71025,36.53554],[137.71043,36.53567],[137.70952,36.536],[137.70771,36.53583],[137.70671,36.5359],[137.7041,36.53663],[137.70339,36.53629],[137.70159,36.53625],[137.69874,36.53724],[137.69883,36.53754],[137.69863,36.53767],[137.69708,36.53779],[137.69554,36.53724],[137.69228,36.5373],[137.6918,36.53744],[137.68935,36.53659],[137.68731,36.53632],[137.68694,36.53639],[137.68593,36.53723],[137.68509,36.53758],[137.68448,36.53819],[137.68471,36.53838],[137.68459,36.53954],[137.685,36.54155],[137.68565,36.54282],[137.6848,36.54445],[137.68536,36.54473],[137.68597,36.54572],[137.68658,36.54603],[137.6867,36.54658],[137.68653,36.54725],[137.68698,36.54781],[137.68748,36.54965],[137.68834,36.55003],[137.68822,36.55036],[137.68853,36.55178],[137.68926,36.55375],[137.68916,36.55458],[137.6885,36.55576],[137.68801,36.55868],[137.68758,36.56028],[137.68747,36.56186],[137.68834,36.56242],[137.69036,36.56418],[137.69242,36.56674],[137.69259,36.56723],[137.69331,36.56764],[137.69373,36.56837],[137.69384,36.56891],[137.69443,36.569],[137.69525,36.5688],[137.69587,36.56924],[137.69803,36.56964],[137.69936,36.57038],[137.7004,36.57044],[137.70177,36.57086],[137.70712,36.57361],[137.7075,36.57419],[137.70809,36.57443],[137.70883,36.57499],[137.70912,36.57555],[137.71005,36.57562],[137.71125,36.57608],[137.7123,36.57679],[137.71338,36.57706],[137.71323,36.57756],[137.71354,36.578],[137.71436,36.57841],[137.71476,36.57899],[137.71567,36.57927],[137.71611,36.57973],[137.71615,36.58053],[137.71754,36.58158],[137.71792,36.58206],[137.71922,36.58232],[137.71978,36.5828],[137.721,36.58329],[137.7221,36.58332],[137.72244,36.58407],[137.72323,36.58443],[137.7231,36.58507],[137.7232,36.58534],[137.72407,36.58617],[137.72462,36.58647],[137.72683,36.58662],[137.72797,36.5865],[137.72953,36.58705],[137.73057,36.58782],[137.73307,36.58789],[137.73397,36.58836],[137.7368,36.58732],[137.7373,36.58745],[137.73792,36.58792],[137.73886,36.58795],[137.74283,36.58718],[137.74525,36.58707],[137.74718,36.58662],[137.74887,36.58776],[137.74979,36.58802],[137.75058,36.58897],[137.75076,36.59008],[137.75047,36.59082],[137.7513,36.59209],[137.75244,36.593],[137.75285,36.5944],[137.75197,36.59674],[137.75124,36.59761],[137.75095,36.59895],[137.75107,36.59958],[137.7508,36.60018],[137.75019,36.60106],[137.74983,36.60114],[137.7492,36.60162],[137.74863,36.60302],[137.74761,36.60354],[137.74721,36.60539],[137.7461,36.60752],[137.74594,36.60853],[137.74519,36.60989],[137.74505,36.61071],[137.74455,36.61158],[137.74406,36.61303],[137.74439,36.61441],[137.74446,36.61744],[137.74474,36.61837],[137.74523,36.61922],[137.74674,36.62441],[137.74724,36.62485],[137.7477,36.62557],[137.74869,36.62575],[137.75022,36.62653],[137.75109,36.62676],[137.75136,36.62703],[137.75097,36.62728],[137.75135,36.62754],[137.75129,36.62918],[137.75176,36.63073],[137.7521,36.63133],[137.75193,36.63231],[137.75228,36.63264],[137.75252,36.63358],[137.75229,36.63406],[137.7525,36.63442],[137.7522,36.63514],[137.75239,36.63576],[137.75277,36.63579],[137.75284,36.63612],[137.75326,36.63636],[137.75296,36.63683],[137.75318,36.63722],[137.75312,36.63756],[137.75418,36.63835],[137.75438,36.63934],[137.75388,36.63992],[137.75368,36.64128],[137.75458,36.64222],[137.75478,36.64356],[137.75527,36.6447],[137.7551,36.6454],[137.75608,36.64695],[137.75621,36.64812],[137.75563,36.64884],[137.75568,36.65026],[137.75547,36.65091],[137.75563,36.65122],[137.75625,36.65167],[137.75623,36.65234],[137.75484,36.6549],[137.75412,36.65528],[137.75378,36.65598],[137.75371,36.65687],[137.75326,36.65779],[137.75649,36.65903],[137.75712,36.66016],[137.75866,36.66071],[137.75907,36.66124],[137.75909,36.66165],[137.75949,36.66231],[137.75963,36.66291],[137.7602,36.66374],[137.76034,36.66452],[137.76068,36.66481],[137.76179,36.6652],[137.76267,36.6648],[137.76308,36.66421],[137.76593,36.66245],[137.76588,36.66148],[137.76608,36.66068],[137.76651,36.66026],[137.76686,36.65953],[137.76844,36.65858],[137.7687,36.65787],[137.76929,36.65728],[137.77032,36.65704],[137.77114,36.6566],[137.7729,36.6564],[137.77567,36.65552]]]},"properties":{"key":"202120020","name":"平","pref":"長野県","prefCode":"20","municipality":"大町市","areaM2":373944632.485,"population":3965,"toponymIds":["20-52d9398d58","20-013e798ac0"]}},{"type":"Feature","geometry":{"type":"Polygon","coordinates":[[[138.334,36.9257],[138.33491,36.92523],[138.33721,36.92509],[138.3378,36.92452],[138.33841,36.92324],[138.33907,36.92282],[138.3393,36.92234],[138.34022,36.92201],[138.34178,36.9219],[138.34323,36.92089],[138.34209,36.91323],[138.33991,36.91047],[138.33816,36.9093],[138.33616,36.90718],[138.33474,36.90696],[138.3342,36.90665],[138.33267,36.90633],[138.33182,36.90597],[138.33073,36.90608],[138.32901,36.90565],[138.32846,36.90577],[138.32787,36.90546],[138.32755,36.90568],[138.32743,36.90537],[138.32678,36.90554],[138.32675,36.90533],[138.32641,36.90525],[138.32561,36.90553],[138.32527,36.90524],[138.32462,36.90417],[138.32448,36.90285],[138.32299,36.90162],[138.32887,36.89445],[138.3299,36.8929],[138.32939,36.89319],[138.32113,36.89458],[138.3213,36.89595],[138.32121,36.89627],[138.32065,36.89705],[138.31988,36.89773],[138.31921,36.89879],[138.31857,36.89915],[138.31864,36.89955],[138.31835,36.90007],[138.31845,36.90061],[138.3177,36.90151],[138.31736,36.90243],[138.3164,36.90294],[138.31516,36.90284],[138.31455,36.90338],[138.31422,36.90495],[138.3144,36.90586],[138.3143,36.90665],[138.31159,36.91186],[138.30925,36.91395],[138.309,36.9145],[138.30904,36.91563],[138.30798,36.9178],[138.30771,36.91893],[138.30786,36.91891],[138.30883,36.92071],[138.31097,36.92051],[138.31162,36.92071],[138.31208,36.92128],[138.31261,36.92153],[138.31384,36.92187],[138.31458,36.92179],[138.31561,36.92292],[138.3159,36.92408],[138.31767,36.9252],[138.31995,36.92484],[138.32119,36.9252],[138.32288,36.92597],[138.32419,36.92568],[138.32494,36.92569],[138.32687,36.92607],[138.32955,36.92706],[138.3299,36.9268],[138.33219,36.92639],[138.334,36.9257]]]},"properties":{"key":"20213005001","name":"大字富倉","pref":"長野県","prefCode":"20","municipality":"飯山市","areaM2":6461357.32,"population":34,"toponymIds":["20-d1d3d70951"]}},{"type":"Feature","geometry":{"type":"Polygon","coordinates":[[[138.38707,36.84868],[138.38761,36.848],[138.38877,36.8485],[138.38891,36.84812],[138.3908,36.84541],[138.39159,36.84473],[138.39297,36.84459],[138.39315,36.84398],[138.39424,36.84405],[138.39419,36.84442],[138.39431,36.84445],[138.39475,36.84424],[138.39505,36.8443],[138.39564,36.84385],[138.39671,36.84349],[138.39742,36.84281],[138.39824,36.84239],[138.39773,36.84121],[138.39784,36.84055],[138.39467,36.83979],[138.39245,36.83895],[138.39085,36.83866],[138.38954,36.84208],[138.38898,36.84245],[138.38597,36.84645],[138.3865,36.8467],[138.38536,36.84815],[138.38589,36.84839],[138.38609,36.84819],[138.38707,36.84868]]]},"properties":{"key":"202130170","name":"大字山岸","pref":"長野県","prefCode":"20","municipality":"飯山市","areaM2":534891.881,"population":51,"toponymIds":["20-bc98d7c441"]}},{"type":"Feature","geometry":{"type":"Polygon","coordinates":[[[138.36168,36.84096],[138.36228,36.84097],[138.36202,36.84046],[138.36157,36.84059],[138.36143,36.83986],[138.36089,36.8399],[138.36098,36.84064],[138.36078,36.84086],[138.36152,36.84122],[138.36168,36.84096]]]},"properties":{"key":"20213001001","name":"大字飯山","pref":"長野県","prefCode":"20","municipality":"飯山市","areaM2":9932.025,"population":202,"toponymIds":["20-2a26503de7"]}},{"type":"Feature","geometry":{"type":"Polygon","coordinates":[[[138.48309,36.21987],[138.48346,36.21958],[138.48429,36.22036],[138.48596,36.21922],[138.48629,36.21861],[138.4862,36.21645],[138.48005,36.21549],[138.48036,36.21417],[138.47806,36.21377],[138.47915,36.20975],[138.47681,36.20938],[138.47602,36.21212],[138.47373,36.21178],[138.47338,36.21334],[138.47382,36.21314],[138.47457,36.21326],[138.47405,36.21529],[138.47429,36.21535],[138.47263,36.21844],[138.47314,36.21812],[138.47368,36.21745],[138.47469,36.21772],[138.47463,36.21797],[138.4767,36.21829],[138.47684,36.21774],[138.4794,36.21816],[138.47898,36.22004],[138.48211,36.22047],[138.48309,36.21987]]]},"properties":{"key":"202170180","name":"鍛冶屋","pref":"長野県","prefCode":"20","municipality":"佐久市","areaM2":665213.088,"population":876,"toponymIds":["20-c636bdb458"]}},{"type":"Feature","geometry":{"type":"Polygon","coordinates":[[[138.46239,36.28062],[138.46334,36.28057],[138.4634,36.28016],[138.465,36.28002],[138.46512,36.27982],[138.46706,36.28025],[138.4682,36.2799],[138.4655,36.27885],[138.46448,36.27825],[138.46006,36.27625],[138.4608,36.28185],[138.46234,36.28153],[138.46239,36.28062]]]},"properties":{"key":"202170420","name":"佐久平駅北","pref":"長野県","prefCode":"20","municipality":"佐久市","areaM2":182586.032,"population":1185,"toponymIds":["20-99010eda90"]}},{"type":"Feature","geometry":{"type":"Polygon","coordinates":[[[138.47004,36.28027],[138.46975,36.28006],[138.46987,36.27997],[138.46963,36.27941],[138.46962,36.27897],[138.46939,36.27884],[138.469,36.27779],[138.4692,36.27768],[138.46924,36.27702],[138.46896,36.27695],[138.4694,36.27642],[138.46962,36.27549],[138.46322,36.27767],[138.4655,36.27885],[138.4682,36.2799],[138.46976,36.28045],[138.47004,36.28027]]]},"properties":{"key":"202170430","name":"佐久平駅東","pref":"長野県","prefCode":"20","municipality":"佐久市","areaM2":151302.086,"population":129,"toponymIds":["20-4ebfe493e8"]}},{"type":"Feature","geometry":{"type":"Polygon","coordinates":[[[138.46922,36.27369],[138.46913,36.27359],[138.45923,36.27442],[138.45996,36.27539],[138.46006,36.27625],[138.46324,36.27767],[138.4696,36.2755],[138.46936,36.27504],[138.46945,36.2742],[138.46922,36.27369]]]},"properties":{"key":"202170440","name":"佐久平駅南","pref":"長野県","prefCode":"20","municipality":"佐久市","areaM2":264539.833,"population":27,"toponymIds":["20-1291bedf9b"]}},{"type":"Feature","geometry":{"type":"Polygon","coordinates":[[[138.47866,36.26208],[138.47952,36.26208],[138.48128,36.26249],[138.48117,36.26017],[138.48201,36.26007],[138.48217,36.25992],[138.48229,36.2607],[138.48295,36.26075],[138.48489,36.26151],[138.48576,36.26149],[138.4862,36.26176],[138.48623,36.2627],[138.48671,36.26286],[138.48696,36.26248],[138.48692,36.26181],[138.48773,36.26223],[138.48822,36.26068],[138.48881,36.26028],[138.48926,36.26025],[138.48932,36.25902],[138.48953,36.25875],[138.48875,36.25837],[138.48811,36.25827],[138.48752,36.25771],[138.48788,36.2577],[138.48838,36.25812],[138.48908,36.25821],[138.49042,36.25884],[138.49101,36.25868],[138.49113,36.25728],[138.49146,36.25685],[138.49159,36.25597],[138.48785,36.25652],[138.48683,36.252],[138.48207,36.25257],[138.48184,36.25176],[138.47969,36.25235],[138.4806,36.25447],[138.48086,36.25626],[138.47952,36.25648],[138.47767,36.25518],[138.4784,36.25693],[138.4749,36.25685],[138.47504,36.25656],[138.47495,36.25612],[138.4742,36.25617],[138.47418,36.2558],[138.47308,36.25596],[138.47272,36.25396],[138.47032,36.25405],[138.46821,36.25445],[138.46557,36.25471],[138.46508,36.25532],[138.46321,36.25672],[138.46445,36.25674],[138.46416,36.25791],[138.46429,36.25794],[138.46429,36.25848],[138.46444,36.25855],[138.46426,36.25891],[138.46497,36.25916],[138.46475,36.25982],[138.46486,36.26005],[138.46496,36.26014],[138.46549,36.25997],[138.46616,36.2609],[138.46688,36.26297],[138.4671,36.26314],[138.46741,36.26313],[138.46797,36.26264],[138.46859,36.26152],[138.46891,36.26124],[138.46958,36.26157],[138.4708,36.2631],[138.4714,36.26346],[138.47236,36.26369],[138.47443,36.26306],[138.47586,36.26233],[138.47866,36.26208]]]},"properties":{"key":"202170030","name":"猿久保","pref":"長野県","prefCode":"20","municipality":"佐久市","areaM2":1878000.271,"population":1683,"toponymIds":["20-075bc6f288"]}},{"type":"Feature","geometry":{"type":"Polygon","coordinates":[[[138.4083,36.25438],[138.40823,36.25421],[138.40994,36.25344],[138.41129,36.25216],[138.41184,36.25185],[138.4134,36.25118],[138.41418,36.25113],[138.4157,36.25054],[138.41843,36.25003],[138.41775,36.24939],[138.41778,36.24925],[138.41905,36.24974],[138.41893,36.24967],[138.41902,36.24928],[138.41936,36.24931],[138.41947,36.24887],[138.42067,36.249],[138.42059,36.24871],[138.42084,36.24766],[138.42162,36.24688],[138.42169,36.24622],[138.42196,36.24624],[138.42525,36.24346],[138.42595,36.24265],[138.42623,36.24188],[138.43457,36.23916],[138.43457,36.23891],[138.4338,36.23893],[138.433,36.23816],[138.43251,36.237],[138.43276,36.237],[138.43246,36.23597],[138.43143,36.23433],[138.43048,36.23008],[138.42999,36.2286],[138.42936,36.22734],[138.42943,36.22693],[138.42921,36.22573],[138.42946,36.22495],[138.42992,36.22433],[138.42921,36.22249],[138.42819,36.22157],[138.42697,36.22008],[138.4259,36.21916],[138.42456,36.21755],[138.42459,36.21704],[138.42438,36.21654],[138.42447,36.21551],[138.42427,36.21499],[138.42349,36.21423],[138.42229,36.21354],[138.42139,36.21208],[138.41985,36.21206],[138.41903,36.21173],[138.41793,36.20964],[138.41751,36.2093],[138.41744,36.20909],[138.41766,36.20862],[138.41805,36.20843],[138.41847,36.20723],[138.41852,36.20593],[138.41821,36.20436],[138.41744,36.20216],[138.41705,36.20169],[138.41577,36.20114],[138.41443,36.20079],[138.41329,36.19937],[138.41192,36.19894],[138.41092,36.1972],[138.40971,36.19676],[138.40882,36.19613],[138.40864,36.19514],[138.40788,36.19431],[138.40726,36.1932],[138.40593,36.19152],[138.40502,36.1908],[138.4042,36.1908],[138.40276,36.1899],[138.40159,36.18952],[138.40089,36.18971],[138.40085,36.19014],[138.40184,36.19128],[138.40168,36.19171],[138.40294,36.19293],[138.40378,36.19424],[138.40625,36.19912],[138.41059,36.20997],[138.4109,36.21216],[138.41164,36.21471],[138.41585,36.22178],[138.40571,36.23131],[138.408,36.23251],[138.40878,36.23265],[138.40925,36.23255],[138.4099,36.23285],[138.40978,36.23318],[138.40863,36.23354],[138.40831,36.23379],[138.40824,36.23449],[138.40904,36.23464],[138.40947,36.23495],[138.40936,36.23596],[138.40901,36.23707],[138.4087,36.2373],[138.40794,36.23866],[138.40804,36.23963],[138.40785,36.24014],[138.40207,36.24272],[138.40137,36.24345],[138.40261,36.24484],[138.40336,36.24538],[138.40517,36.24746],[138.40525,36.24845],[138.40569,36.24985],[138.40543,36.25056],[138.40512,36.25079],[138.40537,36.25153],[138.40532,36.25201],[138.40611,36.25192],[138.40625,36.2526],[138.40664,36.25255],[138.40675,36.25344],[138.40742,36.25438],[138.40805,36.25425],[138.40854,36.25497],[138.40873,36.25489],[138.4083,36.25438]]]},"properties":{"key":"202170260","name":"根岸","pref":"長野県","prefCode":"20","municipality":"佐久市","areaM2":8727877.53,"population":1605,"toponymIds":["20-c166fdae38"]}},{"type":"Feature","geometry":{"type":"Polygon","coordinates":[[[138.49452,36.27176],[138.49445,36.27148],[138.49673,36.2722],[138.50007,36.27003],[138.50269,36.26914],[138.50463,36.26886],[138.50636,36.269],[138.50654,36.26914],[138.50665,36.26959],[138.50772,36.26951],[138.51004,36.27002],[138.51099,36.26998],[138.51186,36.26964],[138.51207,36.26983],[138.51266,36.2698],[138.51584,36.26906],[138.51682,36.2693],[138.51705,36.26952],[138.51767,36.26958],[138.51814,36.26946],[138.51877,36.26902],[138.52012,36.26881],[138.52071,36.26897],[138.52123,36.26962],[138.5223,36.26977],[138.52264,36.26964],[138.52389,36.26708],[138.5218,36.26551],[138.5185,36.26501],[138.51712,36.26416],[138.51651,36.2634],[138.51594,36.26311],[138.51531,36.26223],[138.51463,36.26161],[138.51327,36.26182],[138.51276,36.26156],[138.51039,36.2613],[138.50935,36.2617],[138.50896,36.2616],[138.50749,36.26182],[138.50338,36.26195],[138.50335,36.26159],[138.50095,36.26163],[138.50032,36.26245],[138.49976,36.26282],[138.49608,36.26411],[138.49628,36.26664],[138.4922,36.26783],[138.49001,36.26898],[138.48931,36.26898],[138.49042,36.2681],[138.48948,36.26821],[138.4892,36.26788],[138.48785,36.26862],[138.48829,36.26924],[138.48804,36.26925],[138.48787,36.27035],[138.4883,36.27032],[138.48933,36.27069],[138.48874,36.27202],[138.4891,36.27379],[138.4897,36.27549],[138.49215,36.27577],[138.49282,36.27531],[138.49508,36.2734],[138.49452,36.27176]]]},"properties":{"key":"202170380","name":"安原","pref":"長野県","prefCode":"20","municipality":"佐久市","areaM2":2339156.293,"population":1892,"toponymIds":["20-19d8863806"]}},{"type":"Feature","geometry":{"type":"Polygon","coordinates":[[[138.18113,36.54288],[138.18291,36.54328],[138.18499,36.54341],[138.18595,36.54325],[138.18709,36.54334],[138.18847,36.54153],[138.19053,36.53969],[138.19045,36.53814],[138.19085,36.53575],[138.19265,36.53391],[138.19282,36.53353],[138.19263,36.53227],[138.19325,36.53046],[138.19343,36.53021],[138.19403,36.53005],[138.19511,36.52943],[138.19606,36.52807],[138.19621,36.52707],[138.19704,36.52656],[138.19773,36.52583],[138.19936,36.52348],[138.19961,36.52293],[138.19954,36.5215],[138.19906,36.5207],[138.19877,36.51951],[138.19902,36.51739],[138.19895,36.51666],[138.19829,36.51522],[138.19896,36.51389],[138.19975,36.51118],[138.19917,36.50933],[138.19868,36.5084],[138.19794,36.5092],[138.19713,36.50974],[138.19511,36.51033],[138.19375,36.51028],[138.19107,36.50939],[138.1899,36.50932],[138.18917,36.50988],[138.18852,36.51175],[138.18804,36.51225],[138.18616,36.5134],[138.18474,36.51354],[138.18325,36.51402],[138.18166,36.51532],[138.18004,36.516],[138.17931,36.5165],[138.1792,36.51685],[138.17872,36.51733],[138.17675,36.51855],[138.17589,36.51944],[138.17491,36.52001],[138.17437,36.52096],[138.17284,36.52229],[138.1708,36.52302],[138.16866,36.52417],[138.16662,36.52462],[138.16524,36.52458],[138.16461,36.52493],[138.16374,36.52491],[138.16293,36.52535],[138.16071,36.52529],[138.15912,36.52698],[138.15922,36.52845],[138.15809,36.52808],[138.15695,36.52804],[138.15505,36.5277],[138.15492,36.52694],[138.15423,36.52726],[138.15415,36.52677],[138.15357,36.52678],[138.15242,36.52747],[138.15235,36.52821],[138.15204,36.52828],[138.15205,36.52861],[138.15189,36.52868],[138.15175,36.53096],[138.15135,36.53183],[138.15087,36.53511],[138.1513,36.53513],[138.15115,36.53666],[138.15158,36.53827],[138.15537,36.5384],[138.15549,36.53642],[138.15771,36.53648],[138.15872,36.53598],[138.15947,36.53537],[138.15978,36.53539],[138.16131,36.53642],[138.16273,36.53643],[138.16464,36.53684],[138.16514,36.53741],[138.16625,36.53811],[138.16833,36.53922],[138.1698,36.53979],[138.17047,36.54061],[138.17115,36.54341],[138.17068,36.54496],[138.17128,36.54574],[138.17172,36.54828],[138.1721,36.54817],[138.17332,36.54717],[138.17516,36.54641],[138.17648,36.54613],[138.17732,36.54567],[138.17781,36.54509],[138.17928,36.54475],[138.18069,36.54303],[138.18113,36.54288]]]},"properties":{"key":"202180140","name":"大字倉科","pref":"長野県","prefCode":"20","municipality":"千曲市","areaM2":9414032.572,"population":1619,"toponymIds":["20-b453402a8c"]}},{"type":"Feature","geometry":{"type":"Polygon","coordinates":[[[138.14773,36.48499],[138.14839,36.48299],[138.14997,36.48017],[138.14621,36.47878],[138.1445,36.47998],[138.14534,36.48042],[138.14179,36.48406],[138.14286,36.48522],[138.14254,36.48582],[138.14287,36.48613],[138.14297,36.48652],[138.1427,36.4872],[138.14667,36.48812],[138.14773,36.48499]]]},"properties":{"key":"202180330","name":"大字戸倉温泉","pref":"長野県","prefCode":"20","municipality":"千曲市","areaM2":413223.136,"population":80,"toponymIds":["20-942e5cbead"]}},{"type":"Feature","geometry":{"type":"Polygon","coordinates":[[[138.357,36.34185],[138.35722,36.34174],[138.35746,36.34196],[138.35782,36.34156],[138.35795,36.3416],[138.35775,36.34185],[138.36088,36.34152],[138.36073,36.34078],[138.36043,36.34082],[138.36029,36.34012],[138.35946,36.34],[138.35978,36.33805],[138.35973,36.33519],[138.35933,36.33453],[138.36088,36.33397],[138.36121,36.3337],[138.3618,36.33242],[138.36303,36.33198],[138.36576,36.33054],[138.36567,36.33021],[138.36551,36.33015],[138.36527,36.32908],[138.36407,36.32852],[138.36407,36.32807],[138.36434,36.32756],[138.36443,36.32599],[138.36299,36.32569],[138.36393,36.32503],[138.36385,36.32441],[138.36401,36.3243],[138.3616,36.32362],[138.35458,36.32827],[138.35345,36.32876],[138.35223,36.32876],[138.35023,36.32797],[138.35025,36.32964],[138.35043,36.33066],[138.35089,36.33187],[138.35052,36.33302],[138.351,36.33339],[138.351,36.33429],[138.35071,36.335],[138.35046,36.33524],[138.3485,36.33663],[138.34807,36.33904],[138.34873,36.33921],[138.34985,36.33993],[138.35298,36.34119],[138.35405,36.3412],[138.3544,36.34171],[138.35495,36.34201],[138.35642,36.34219],[138.357,36.34185]]]},"properties":{"key":"202190170","name":"島川原","pref":"長野県","prefCode":"20","municipality":"東御市","areaM2":1780623.026,"population":254,"toponymIds":["20-7fa60352b7"]}}]}
