{"type":"FeatureCollection","features":[{"type":"Feature","geometry":{"type":"Polygon","coordinates":[[[135.87137,35.00374],[135.87122,35.0025],[135.86641,35.00302],[135.86648,35.00346],[135.86526,35.00359],[135.86476,35.0038],[135.86503,35.00412],[135.86678,35.0038],[135.86681,35.00423],[135.86775,35.00404],[135.86776,35.00363],[135.87015,35.00363],[135.87056,35.0041],[135.87054,35.00446],[135.87156,35.00432],[135.87137,35.00374]]]},"properties":{"key":"25201166001","name":"梅林一丁目","pref":"滋賀県","prefCode":"25","municipality":"大津市","areaM2":63825.595,"population":472,"toponymIds":["25-6e968f9a6f"]}},{"type":"Feature","geometry":{"type":"Polygon","coordinates":[[[135.8817,35.26856],[135.87787,35.25713],[135.87145,35.25992],[135.86975,35.26041],[135.87021,35.26122],[135.8731,35.26826],[135.8739,35.27133],[135.87615,35.27038],[135.87773,35.26992],[135.87783,35.26982],[135.87762,35.26961],[135.8778,35.26951],[135.88024,35.26904],[135.8817,35.26856]]]},"properties":{"key":"252010060","name":"葛川梅ノ木町","pref":"滋賀県","prefCode":"25","municipality":"大津市","areaM2":979091.711,"population":27,"toponymIds":["25-85d268f6a1"]}},{"type":"Feature","geometry":{"type":"Polygon","coordinates":[[[135.88613,35.08483],[135.88649,35.08461],[135.88701,35.0838],[135.88801,35.08362],[135.89001,35.08443],[135.89066,35.08421],[135.89143,35.08425],[135.88962,35.08201],[135.88784,35.07911],[135.88561,35.08014],[135.88243,35.08085],[135.88309,35.08227],[135.8827,35.08247],[135.88405,35.08485],[135.88486,35.0848],[135.88505,35.08516],[135.88569,35.08485],[135.88613,35.08483]]]},"properties":{"key":"25201064001","name":"苗鹿一丁目","pref":"滋賀県","prefCode":"25","municipality":"大津市","areaM2":301092.02,"population":232,"toponymIds":["25-01a7f08895"]}},{"type":"Feature","geometry":{"type":"Polygon","coordinates":[[[135.88452,35.00149],[135.88442,35.00005],[135.88335,35.00004],[135.88335,34.99966],[135.88284,34.99973],[135.88238,34.99955],[135.88162,34.99981],[135.88155,35.00104],[135.88098,35.00098],[135.8804,35.00193],[135.87955,35.00258],[135.87999,35.00451],[135.8812,35.00386],[135.88486,35.00247],[135.88452,35.00149]]]},"properties":{"key":"25201191001","name":"馬場一丁目","pref":"滋賀県","prefCode":"25","municipality":"大津市","areaM2":147162.202,"population":394,"toponymIds":["25-163a9397d3"]}},{"type":"Feature","geometry":{"type":"Polygon","coordinates":[[[135.90302,35.13203],[135.90379,35.13205],[135.90441,35.13257],[135.90532,35.13304],[135.9066,35.13287],[135.90664,35.13252],[135.90532,35.13118],[135.90529,35.13082],[135.90662,35.13045],[135.90757,35.13041],[135.90751,35.13019],[135.90839,35.1299],[135.90846,35.12898],[135.90893,35.12855],[135.90943,35.12856],[135.90954,35.12828],[135.90944,35.12793],[135.9091,35.12784],[135.90855,35.12837],[135.90783,35.12852],[135.90712,35.12907],[135.90679,35.12908],[135.90621,35.12849],[135.90573,35.12719],[135.90539,35.12705],[135.90531,35.12662],[135.90363,35.12732],[135.90243,35.12716],[135.901,35.12624],[135.90016,35.12507],[135.89984,35.12489],[135.89948,35.12496],[135.89962,35.12529],[135.89874,35.12553],[135.89861,35.12613],[135.89899,35.12679],[135.89874,35.12773],[135.89746,35.13023],[135.89786,35.13026],[135.89804,35.13045],[135.89798,35.13088],[135.8982,35.1313],[135.89857,35.13152],[135.89899,35.13214],[135.89918,35.13212],[135.89964,35.13156],[135.90106,35.13071],[135.90153,35.13139],[135.90157,35.13213],[135.90138,35.13288],[135.90291,35.13324],[135.90283,35.13238],[135.90302,35.13203]]]},"properties":{"key":"252010310","name":"真野家田町","pref":"滋賀県","prefCode":"25","municipality":"大津市","areaM2":482596.581,"population":28,"toponymIds":["25-cbefbdfa8b"]}},{"type":"Feature","geometry":{"type":"Polygon","coordinates":[[[136.24082,35.22472],[136.24099,35.22457],[136.2398,35.22373],[136.2396,35.22388],[136.23907,35.22336],[136.24167,35.22149],[136.24233,35.22095],[136.24227,35.22078],[136.24305,35.22023],[136.24239,35.21935],[136.24037,35.22075],[136.24046,35.22084],[136.23853,35.22263],[136.23745,35.22275],[136.23469,35.22471],[136.23344,35.22439],[136.23241,35.22336],[136.23169,35.22405],[136.23106,35.22356],[136.23062,35.22385],[136.23054,35.224],[136.23102,35.2245],[136.23026,35.22494],[136.23085,35.22566],[136.23072,35.22572],[136.23089,35.2259],[136.23066,35.22611],[136.23108,35.22666],[136.2309,35.22692],[136.23103,35.22713],[136.23081,35.22728],[136.2309,35.22752],[136.22876,35.22854],[136.23034,35.22998],[136.23394,35.2281],[136.23655,35.2272],[136.23873,35.22616],[136.24082,35.22472]]]},"properties":{"key":"25202096001","name":"川瀬馬場町","pref":"滋賀県","prefCode":"25","municipality":"彦根市","areaM2":458157.196,"population":801,"toponymIds":["25-3d0654f94d"]}},{"type":"Feature","geometry":{"type":"Polygon","coordinates":[[[136.25697,35.26153],[136.25682,35.26143],[136.25599,35.26279],[136.25539,35.26323],[136.25614,35.26435],[136.25825,35.26304],[136.25755,35.26204],[136.25697,35.26153]]]},"properties":{"key":"25202012001","name":"河原一丁目","pref":"滋賀県","prefCode":"25","municipality":"彦根市","areaM2":41848.942,"population":171,"toponymIds":["25-daa3d7fb13"]}},{"type":"Feature","geometry":{"type":"Polygon","coordinates":[[[136.28937,35.29194],[136.2886,35.29175],[136.28701,35.2904],[136.28379,35.2901],[136.28185,35.29018],[136.28216,35.29221],[136.28937,35.29194]]]},"properties":{"key":"252020770","name":"下矢倉町","pref":"滋賀県","prefCode":"25","municipality":"彦根市","areaM2":111727.138,"population":12,"toponymIds":["25-2cc96c6ddd"]}},{"type":"Feature","geometry":{"type":"Polygon","coordinates":[[[136.26865,35.25726],[136.26926,35.2569],[136.26998,35.25805],[136.27153,35.25745],[136.27127,35.25647],[136.27172,35.2562],[136.27223,35.25679],[136.27304,35.25623],[136.27109,35.25365],[136.2696,35.2522],[136.26882,35.25099],[136.26755,35.2497],[136.26661,35.24839],[136.26461,35.2502],[136.26602,35.25156],[136.26462,35.25233],[136.26609,35.25326],[136.26724,35.25447],[136.26625,35.255],[136.26703,35.25595],[136.26575,35.25675],[136.26578,35.25702],[136.26622,35.25678],[136.26714,35.25811],[136.26865,35.25726]]]},"properties":{"key":"25202059001","name":"地蔵町","pref":"滋賀県","prefCode":"25","municipality":"彦根市","areaM2":387632.376,"population":1414,"toponymIds":["25-097295df6a"]}},{"type":"Feature","geometry":{"type":"Polygon","coordinates":[[[136.26429,35.26452],[136.26538,35.26393],[136.26527,35.2638],[136.26541,35.26371],[136.26553,35.26385],[136.26683,35.26316],[136.26667,35.26301],[136.26776,35.26239],[136.26698,35.26152],[136.26664,35.26165],[136.26654,35.26152],[136.26671,35.26144],[136.26666,35.26103],[136.26565,35.26167],[136.26533,35.26126],[136.26563,35.26108],[136.26516,35.26046],[136.26485,35.26063],[136.26423,35.25981],[136.26523,35.25931],[136.26496,35.25896],[136.26399,35.2595],[136.26356,35.25896],[136.26257,35.25951],[136.26187,35.25872],[136.2618,35.25806],[136.2611,35.25791],[136.26107,35.25837],[136.26021,35.25936],[136.26181,35.26591],[136.26429,35.26452]]]},"properties":{"key":"25202051001","name":"芹川町","pref":"滋賀県","prefCode":"25","municipality":"彦根市","areaM2":303190.915,"population":1719,"toponymIds":["25-c942966d5b"]}},{"type":"Feature","geometry":{"type":"Polygon","coordinates":[[[136.25619,35.26248],[136.25682,35.26143],[136.25738,35.26107],[136.2567,35.26048],[136.25612,35.26091],[136.25596,35.26071],[136.2554,35.26168],[136.25539,35.26208],[136.25619,35.26248]]]},"properties":{"key":"252020190","name":"芹中町","pref":"滋賀県","prefCode":"25","municipality":"彦根市","areaM2":20127.692,"population":66,"toponymIds":["25-2fd2eefdee"]}},{"type":"Feature","geometry":{"type":"Polygon","coordinates":[[[136.25213,35.26792],[136.25243,35.26785],[136.25436,35.26637],[136.2537,35.26562],[136.25386,35.26549],[136.25314,35.26457],[136.25029,35.26615],[136.25202,35.2681],[136.25213,35.26792]]]},"properties":{"key":"25202016001","name":"芹橋一丁目","pref":"滋賀県","prefCode":"25","municipality":"彦根市","areaM2":74389.623,"population":290,"toponymIds":["25-ac39c185c3"]}},{"type":"Feature","geometry":{"type":"Polygon","coordinates":[[[136.2605,35.2606],[136.2603,35.25976],[136.26014,35.25992],[136.25924,35.26131],[136.25882,35.26247],[136.25825,35.26304],[136.25875,35.26372],[136.25985,35.26321],[136.26095,35.26239],[136.2605,35.2606]]]},"properties":{"key":"25202050001","name":"芹町","pref":"滋賀県","prefCode":"25","municipality":"彦根市","areaM2":50018.633,"population":223,"toponymIds":["25-1943abb6cc"]}},{"type":"Feature","geometry":{"type":"Polygon","coordinates":[[[136.25109,35.28123],[136.25104,35.28086],[136.24999,35.28096],[136.24959,35.28085],[136.24931,35.28062],[136.24932,35.28039],[136.24844,35.27981],[136.24879,35.2795],[136.24689,35.2772],[136.24774,35.27666],[136.24729,35.27608],[136.24703,35.27624],[136.2471,35.27633],[136.24484,35.27767],[136.24445,35.27731],[136.24355,35.27787],[136.24469,35.27862],[136.24933,35.28303],[136.25145,35.28143],[136.25109,35.28123]]]},"properties":{"key":"25202039001","name":"馬場一丁目","pref":"滋賀県","prefCode":"25","municipality":"彦根市","areaM2":173424.854,"population":381,"toponymIds":["25-640f8347a6"]}},{"type":"Feature","geometry":{"type":"Polygon","coordinates":[[[136.20878,35.24801],[136.20929,35.24817],[136.21652,35.24419],[136.21966,35.24274],[136.21778,35.24043],[136.21748,35.24063],[136.21728,35.24045],[136.21764,35.24027],[136.21753,35.24014],[136.21655,35.2407],[136.21586,35.23988],[136.20737,35.24439],[136.2068,35.24595],[136.20878,35.24801]]]},"properties":{"key":"25202075002","name":"日夏町","pref":"滋賀県","prefCode":"25","municipality":"彦根市","areaM2":495243.097,"population":49,"toponymIds":["25-169164c5e2"]}},{"type":"Feature","geometry":{"type":"Polygon","coordinates":[[[136.24765,35.41491],[136.24788,35.41492],[136.24802,35.41458],[136.24827,35.41464],[136.24839,35.41432],[136.24883,35.41444],[136.24907,35.4136],[136.24575,35.41368],[136.24513,35.41477],[136.24749,35.41531],[136.24765,35.41491]]]},"properties":{"key":"252031690","name":"柿ノ木","pref":"滋賀県","prefCode":"25","municipality":"長浜市","areaM2":45596.824,"population":151,"toponymIds":["25-3f222ef33d"]}},{"type":"Feature","geometry":{"type":"Polygon","coordinates":[[[136.33233,35.46225],[136.33272,35.46221],[136.33237,35.46183],[136.3323,35.46089],[136.33204,35.46016],[136.33215,35.45962],[136.33331,35.45855],[136.33416,35.45838],[136.33457,35.4579],[136.33489,35.45776],[136.33555,35.45791],[136.33611,35.4583],[136.33658,35.45784],[136.33728,35.45788],[136.33844,35.45893],[136.33871,35.45935],[136.33874,35.45969],[136.33831,35.46012],[136.33831,35.46039],[136.33919,35.46002],[136.3397,35.46022],[136.33962,35.45974],[136.33996,35.45955],[136.33939,35.4591],[136.33925,35.45795],[136.33824,35.45705],[136.33815,35.4568],[136.33819,35.45627],[136.33953,35.45573],[136.33981,35.4554],[136.33933,35.45534],[136.33772,35.45561],[136.33578,35.4554],[136.33605,35.45379],[136.33519,35.45364],[136.3349,35.4526],[136.33524,35.45197],[136.3349,35.45195],[136.3346,35.45228],[136.33294,35.45193],[136.33263,35.45163],[136.33209,35.45164],[136.33218,35.45254],[136.33277,35.45372],[136.33238,35.45455],[136.33051,35.45561],[136.33021,35.4557],[136.32972,35.45557],[136.32873,35.45657],[136.328,35.4576],[136.32642,35.45734],[136.32625,35.45754],[136.32673,35.45815],[136.32648,35.45829],[136.32729,35.45933],[136.32844,35.45896],[136.32913,35.45962],[136.33016,35.46],[136.33094,35.4605],[136.33146,35.46118],[136.33089,35.46153],[136.33103,35.46184],[136.33161,35.46226],[136.33174,35.46278],[136.33233,35.46225]]]},"properties":{"key":"252031360","name":"鍛冶屋町","pref":"滋賀県","prefCode":"25","municipality":"長浜市","areaM2":530887.317,"population":183,"toponymIds":["25-26f7955622"]}},{"type":"Feature","geometry":{"type":"Polygon","coordinates":[[[136.24503,35.43589],[136.24543,35.43452],[136.24586,35.434],[136.24293,35.43341],[136.24305,35.43295],[136.24145,35.43259],[136.24126,35.43236],[136.24114,35.43272],[136.24018,35.43251],[136.24029,35.43215],[136.23609,35.43122],[136.23545,35.43324],[136.2356,35.43328],[136.23536,35.43411],[136.23624,35.4343],[136.23597,35.43526],[136.2348,35.43501],[136.23412,35.43697],[136.24445,35.43924],[136.24448,35.43795],[136.24503,35.43589]]]},"properties":{"key":"252031830","name":"湖北町小倉","pref":"滋賀県","prefCode":"25","municipality":"長浜市","areaM2":575030.415,"population":195,"toponymIds":["25-3c54f86625"]}},{"type":"Feature","geometry":{"type":"Polygon","coordinates":[[[136.27159,35.40318],[136.27185,35.40233],[136.27077,35.40211],[136.27078,35.40199],[136.26667,35.40146],[136.26464,35.40103],[136.26487,35.4003],[136.26363,35.40004],[136.26358,35.39987],[136.26317,35.39976],[136.25789,35.39857],[136.25697,35.40151],[136.26373,35.40303],[136.26506,35.40313],[136.27111,35.40464],[136.27159,35.40318]]]},"properties":{"key":"252030520","name":"新庄馬場町","pref":"滋賀県","prefCode":"25","municipality":"長浜市","areaM2":382947.566,"population":169,"toponymIds":["25-558401e413"]}},{"type":"Feature","geometry":{"type":"Polygon","coordinates":[[[136.21859,35.48291],[136.21899,35.48199],[136.22022,35.48234],[136.22149,35.4791],[136.21816,35.47826],[136.2184,35.47735],[136.21816,35.47728],[136.21825,35.47706],[136.21279,35.4755],[136.21296,35.47508],[136.21146,35.47467],[136.21139,35.47428],[136.21059,35.47448],[136.20948,35.47515],[136.20793,35.47615],[136.20764,35.47683],[136.20684,35.47691],[136.20527,35.47803],[136.20401,35.47779],[136.2028,35.47796],[136.20083,35.47859],[136.20049,35.47884],[136.20188,35.47923],[136.20353,35.48003],[136.20499,35.48],[136.20805,35.48104],[136.20906,35.48224],[136.21052,35.48275],[136.21102,35.48287],[136.21132,35.48207],[136.21221,35.48236],[136.21242,35.48181],[136.21206,35.48141],[136.21239,35.48113],[136.21859,35.48291]]]},"properties":{"key":"252032400","name":"高月町磯野","pref":"滋賀県","prefCode":"25","municipality":"長浜市","areaM2":924864.183,"population":277,"toponymIds":["25-cb7b2fabdb"]}},{"type":"Feature","geometry":{"type":"Polygon","coordinates":[[[136.23798,35.47668],[136.23812,35.47628],[136.23953,35.47664],[136.23954,35.47627],[136.24143,35.47674],[136.24231,35.47646],[136.24309,35.47569],[136.24551,35.47626],[136.24542,35.4757],[136.24504,35.47574],[136.24293,35.47527],[136.243,35.47506],[136.24018,35.47442],[136.23911,35.47363],[136.23888,35.47413],[136.23828,35.47377],[136.23613,35.47398],[136.23429,35.47318],[136.2338,35.47398],[136.23365,35.47467],[136.23245,35.47432],[136.23209,35.47514],[136.23798,35.47686],[136.23798,35.47668]]]},"properties":{"key":"252032180","name":"高月町渡岸寺","pref":"滋賀県","prefCode":"25","municipality":"長浜市","areaM2":235303.238,"population":255,"toponymIds":["25-661a4b9a11"]}},{"type":"Feature","geometry":{"type":"Polygon","coordinates":[[[136.13573,35.48945],[136.13696,35.48964],[136.1377,35.48942],[136.13846,35.48894],[136.14006,35.48728],[136.14174,35.48651],[136.14336,35.48519],[136.14577,35.48479],[136.14522,35.48412],[136.14512,35.48327],[136.14529,35.48276],[136.14486,35.48229],[136.144,35.4802],[136.14225,35.47865],[136.14249,35.47696],[136.14278,35.47642],[136.1428,35.47557],[136.14252,35.47474],[136.14255,35.47382],[136.14301,35.47262],[136.14361,35.47186],[136.14103,35.47109],[136.14193,35.46979],[136.14065,35.46784],[136.13976,35.46713],[136.14153,35.46608],[136.14306,35.46542],[136.14347,35.46491],[136.14384,35.46401],[136.14517,35.46297],[136.14882,35.4594],[136.14898,35.45677],[136.14887,35.45562],[136.14902,35.4549],[136.14859,35.45484],[136.1482,35.45455],[136.14763,35.45364],[136.14741,35.45315],[136.14755,35.45254],[136.14747,35.45204],[136.14704,35.45149],[136.14705,35.45065],[136.14641,35.44914],[136.14629,35.4467],[136.14693,35.44571],[136.14763,35.44499],[136.14788,35.44434],[136.14794,35.44204],[136.14702,35.44229],[136.14684,35.44259],[136.14632,35.44282],[136.14415,35.44296],[136.143,35.44343],[136.14174,35.44349],[136.1408,35.44381],[136.14022,35.44428],[136.14007,35.44461],[136.14022,35.44542],[136.14263,35.4476],[136.14315,35.44859],[136.14367,35.4503],[136.14382,35.4513],[136.14379,35.45458],[136.14351,35.45594],[136.14397,35.45734],[136.14339,35.45801],[136.14202,35.45848],[136.1397,35.45844],[136.13671,35.45765],[136.13463,35.45753],[136.1332,35.45687],[136.13119,35.45637],[136.13003,35.45584],[136.12838,35.45551],[136.12795,35.45561],[136.12765,35.45588],[136.12737,35.45655],[136.12844,35.45757],[136.12902,35.4584],[136.12798,35.45899],[136.12548,35.45978],[136.12453,35.46062],[136.12426,35.46151],[136.12423,35.462],[136.12575,35.46359],[136.12591,35.46399],[136.1256,35.46511],[136.12435,35.46617],[136.12298,35.4689],[136.12307,35.4703],[136.12371,35.47087],[136.12447,35.47303],[136.12435,35.47555],[136.12411,35.47659],[136.12441,35.47746],[136.12475,35.47758],[136.12469,35.47699],[136.12578,35.47638],[136.12621,35.47634],[136.12658,35.47665],[136.12713,35.47762],[136.12759,35.47777],[136.12902,35.47707],[136.13082,35.47679],[136.13192,35.47691],[136.13247,35.4772],[136.13241,35.47758],[136.13259,35.4783],[136.13125,35.47889],[136.13106,35.47933],[136.1318,35.47992],[136.13192,35.48051],[136.13244,35.48129],[136.1325,35.48169],[136.13216,35.48358],[136.13125,35.48405],[136.12984,35.48434],[136.12816,35.48499],[136.12694,35.48489],[136.12657,35.48415],[136.12547,35.48455],[136.12443,35.48537],[136.12805,35.48882],[136.1308,35.48963],[136.13255,35.48979],[136.13573,35.48945]]]},"properties":{"key":"252032950","name":"西浅井町菅浦","pref":"滋賀県","prefCode":"25","municipality":"長浜市","areaM2":6105353.502,"population":103,"toponymIds":["25-5f9853fe1e"]}},{"type":"Feature","geometry":{"type":"Polygon","coordinates":[[[136.32358,35.43791],[136.32372,35.43683],[136.32234,35.43654],[136.32263,35.43617],[136.32251,35.43614],[136.32267,35.43551],[136.32111,35.43502],[136.32272,35.43084],[136.32155,35.43054],[136.3214,35.43084],[136.32018,35.43055],[136.31917,35.43314],[136.3182,35.43254],[136.3172,35.43157],[136.31706,35.43243],[136.31777,35.43282],[136.3182,35.43368],[136.3182,35.43382],[136.31756,35.43418],[136.31888,35.43466],[136.31908,35.43496],[136.31916,35.43559],[136.31914,35.43625],[136.31876,35.43779],[136.31803,35.43778],[136.31788,35.43791],[136.31841,35.43819],[136.31844,35.43834],[136.31804,35.43893],[136.31784,35.43993],[136.3173,35.44091],[136.31834,35.4414],[136.31846,35.44133],[136.31855,35.44051],[136.31913,35.43982],[136.31942,35.43899],[136.32023,35.43842],[136.3211,35.43837],[136.32148,35.43864],[136.32176,35.43819],[136.32201,35.43806],[136.32231,35.43813],[136.32252,35.43846],[136.32324,35.43841],[136.32358,35.43791]]]},"properties":{"key":"252031180","name":"乗倉町","pref":"滋賀県","prefCode":"25","municipality":"長浜市","areaM2":309619.66,"population":106,"toponymIds":["25-97d2101c13"]}},{"type":"Feature","geometry":{"type":"Polygon","coordinates":[[[136.31547,35.39324],[136.3158,35.39253],[136.31634,35.39044],[136.3058,35.388],[136.30469,35.39192],[136.30537,35.39194],[136.30534,35.39213],[136.30595,35.3922],[136.30601,35.39194],[136.30741,35.39229],[136.30751,35.39197],[136.30847,35.39259],[136.30958,35.39298],[136.31174,35.39323],[136.3113,35.39433],[136.31461,35.39501],[136.31524,35.39396],[136.31547,35.39324]]]},"properties":{"key":"252030380","name":"南小足町","pref":"滋賀県","prefCode":"25","municipality":"長浜市","areaM2":456895.794,"population":1345,"toponymIds":["25-d81ea5e363"]}},{"type":"Feature","geometry":{"type":"Polygon","coordinates":[[[136.20916,35.6153],[136.20979,35.61512],[136.21104,35.61422],[136.21316,35.61339],[136.21389,35.61268],[136.21436,35.61187],[136.21828,35.60726],[136.22042,35.60631],[136.22214,35.60627],[136.22766,35.60767],[136.23167,35.60896],[136.23441,35.60946],[136.23521,35.60948],[136.23886,35.60741],[136.24038,35.60705],[136.24195,35.60801],[136.2444,35.60915],[136.24679,35.60979],[136.2472,35.61043],[136.24828,35.61057],[136.2493,35.61041],[136.25184,35.61051],[136.25374,35.61081],[136.25474,35.61052],[136.25595,35.60979],[136.25642,35.60925],[136.25682,35.60753],[136.25877,35.60407],[136.25974,35.60303],[136.26153,35.60185],[136.26162,35.60154],[136.26062,35.59861],[136.26029,35.59807],[136.25952,35.59732],[136.25939,35.59682],[136.25981,35.59566],[136.25957,35.59467],[136.25949,35.59317],[136.25862,35.5902],[136.25742,35.58808],[136.25679,35.5865],[136.25567,35.58503],[136.25419,35.58404],[136.25379,35.58328],[136.25259,35.58273],[136.25091,35.58058],[136.2486,35.57965],[136.24773,35.57877],[136.2478,35.57856],[136.24653,35.57874],[136.24542,35.57958],[136.24393,35.58034],[136.24343,35.5808],[136.2423,35.58081],[136.24031,35.58162],[136.2397,35.58171],[136.23706,35.58114],[136.23531,35.58234],[136.23457,35.5826],[136.23379,35.58263],[136.23076,35.58189],[136.22952,35.58216],[136.22743,35.58188],[136.22513,35.58185],[136.22396,35.58245],[136.22274,35.58344],[136.21825,35.58537],[136.21729,35.58593],[136.21723,35.58636],[136.2175,35.58663],[136.21755,35.58736],[136.21725,35.58781],[136.21683,35.58808],[136.21595,35.58828],[136.21528,35.58889],[136.21147,35.59024],[136.21111,35.59046],[136.21036,35.59157],[136.20991,35.59191],[136.20892,35.59227],[136.20798,35.59295],[136.20679,35.59349],[136.20552,35.5936],[136.20483,35.59439],[136.20253,35.59565],[136.20176,35.59585],[136.20042,35.59655],[136.19973,35.59897],[136.19945,35.59961],[136.19881,35.60035],[136.19816,35.6023],[136.19675,35.60393],[136.19632,35.60599],[136.19635,35.60669],[136.19703,35.60821],[136.19702,35.60871],[136.19638,35.61059],[136.19637,35.61192],[136.19681,35.61306],[136.19788,35.61379],[136.19994,35.61463],[136.20325,35.61487],[136.20557,35.61531],[136.20916,35.6153]]]},"properties":{"key":"252032700","name":"余呉町菅並","pref":"滋賀県","prefCode":"25","municipality":"長浜市","areaM2":15204203.336,"population":48,"toponymIds":["25-b7fcbd9748"]}},{"type":"Feature","geometry":{"type":"Polygon","coordinates":[[[136.16236,35.14541],[136.16339,35.14554],[136.16454,35.14498],[136.16557,35.14485],[136.16646,35.14495],[136.16876,35.14379],[136.1691,35.1432],[136.17008,35.14232],[136.17143,35.14167],[136.17182,35.14163],[136.17195,35.14138],[136.17147,35.14064],[136.17148,35.13986],[136.1721,35.13922],[136.17223,35.13928],[136.17259,35.13893],[136.17255,35.13881],[136.17345,35.13785],[136.1725,35.13717],[136.17298,35.13657],[136.17244,35.13625],[136.17169,35.13505],[136.17165,35.13455],[136.17181,35.1342],[136.17207,35.13401],[136.17278,35.13397],[136.17348,35.13332],[136.17371,35.13261],[136.17424,35.13226],[136.17476,35.13219],[136.17612,35.13001],[136.17668,35.1297],[136.17921,35.12896],[136.17855,35.12886],[136.17462,35.12908],[136.17281,35.12815],[136.17264,35.12849],[136.1728,35.12857],[136.17218,35.12927],[136.17004,35.12805],[136.16646,35.13225],[136.16449,35.13112],[136.16396,35.13173],[136.16313,35.13164],[136.16301,35.13255],[136.16143,35.13186],[136.16098,35.13203],[136.15982,35.13183],[136.15611,35.13649],[136.15514,35.136],[136.15499,35.13612],[136.15539,35.13633],[136.15398,35.13823],[136.15201,35.1393],[136.15799,35.14405],[136.15851,35.14609],[136.15848,35.14662],[136.15955,35.14733],[136.15983,35.14692],[136.16045,35.14671],[136.16143,35.14605],[136.16174,35.14565],[136.16236,35.14541]]]},"properties":{"key":"252041750","name":"安土町石寺","pref":"滋賀県","prefCode":"25","municipality":"近江八幡市","areaM2":2399049.98,"population":347,"toponymIds":["25-78b47100ac"]}},{"type":"Feature","geometry":{"type":"Polygon","coordinates":[[[136.16979,35.12083],[136.16988,35.12043],[136.17067,35.11979],[136.1707,35.11948],[136.1703,35.11884],[136.17037,35.1185],[136.16968,35.11799],[136.16979,35.11759],[136.16968,35.11686],[136.16841,35.11448],[136.16898,35.11341],[136.16883,35.11271],[136.16928,35.11274],[136.16978,35.11102],[136.17005,35.11083],[136.16963,35.11042],[136.16859,35.11038],[136.16852,35.11012],[136.16679,35.10942],[136.16641,35.11014],[136.16563,35.10992],[136.16524,35.11018],[136.16438,35.10977],[136.16375,35.10777],[136.16396,35.10589],[136.1635,35.10533],[136.16295,35.10512],[136.16277,35.10519],[136.15929,35.10715],[136.15903,35.10685],[136.1583,35.10733],[136.15714,35.10736],[136.15633,35.10762],[136.1561,35.10817],[136.15518,35.10888],[136.15314,35.10956],[136.15257,35.11303],[136.15272,35.11306],[136.15258,35.11326],[136.15296,35.11335],[136.15309,35.11318],[136.1544,35.11362],[136.15554,35.11439],[136.15528,35.11466],[136.15611,35.11534],[136.15493,35.11635],[136.15545,35.11659],[136.15495,35.11694],[136.15512,35.11705],[136.15542,35.11674],[136.15826,35.11792],[136.15864,35.11818],[136.15813,35.11901],[136.15947,35.11957],[136.15963,35.11919],[136.16307,35.12004],[136.16353,35.11904],[136.16404,35.1188],[136.16446,35.11887],[136.16561,35.11744],[136.16588,35.11754],[136.16746,35.11936],[136.16781,35.11981],[136.16769,35.11997],[136.16898,35.12091],[136.16946,35.12077],[136.16973,35.12113],[136.16979,35.12083]]]},"properties":{"key":"252041760","name":"安土町内野","pref":"滋賀県","prefCode":"25","municipality":"近江八幡市","areaM2":1673609.626,"population":412,"toponymIds":["25-f51405cf05"]}},{"type":"Feature","geometry":{"type":"Polygon","coordinates":[[[136.15499,35.13612],[136.15514,35.136],[136.15611,35.13649],[136.15982,35.13183],[136.15933,35.13153],[136.1593,35.13094],[136.14768,35.12617],[136.14548,35.12847],[136.14096,35.12627],[136.13977,35.12795],[136.14089,35.12848],[136.1399,35.12978],[136.14045,35.13005],[136.14,35.13052],[136.13906,35.1306],[136.13867,35.13084],[136.14074,35.13163],[136.14169,35.13229],[136.14192,35.13263],[136.14211,35.1324],[136.14453,35.13182],[136.1452,35.13188],[136.1475,35.13405],[136.14798,35.13593],[136.14856,35.13698],[136.14923,35.13746],[136.1506,35.13798],[136.15201,35.1393],[136.15398,35.13823],[136.15539,35.13633],[136.15499,35.13612]]]},"properties":{"key":"252041630","name":"安土町上出","pref":"滋賀県","prefCode":"25","municipality":"近江八幡市","areaM2":1359336.379,"population":202,"toponymIds":["25-30b402252c"]}},{"type":"Feature","geometry":{"type":"Polygon","coordinates":[[[136.13597,35.14231],[136.13642,35.14012],[136.1372,35.13856],[136.13801,35.13758],[136.14402,35.14083],[136.14446,35.1403],[136.14629,35.14132],[136.14813,35.14077],[136.14896,35.14078],[136.14951,35.14042],[136.15064,35.14004],[136.15079,35.13993],[136.15082,35.13947],[136.1503,35.13926],[136.15025,35.13907],[136.1515,35.13927],[136.15164,35.1394],[136.15167,35.14006],[136.15185,35.13997],[136.15201,35.1393],[136.1506,35.13798],[136.14923,35.13746],[136.14856,35.13698],[136.14798,35.13593],[136.1476,35.13423],[136.14735,35.13382],[136.1452,35.13188],[136.14453,35.13182],[136.14211,35.1324],[136.14131,35.13312],[136.13689,35.13832],[136.13677,35.13877],[136.13603,35.13933],[136.13484,35.14065],[136.13428,35.14157],[136.13377,35.14135],[136.133,35.14226],[136.133,35.14261],[136.13277,35.14273],[136.13209,35.14588],[136.13433,35.14653],[136.13458,35.14526],[136.13541,35.14367],[136.13576,35.14353],[136.13597,35.14231]]]},"properties":{"key":"252041680","name":"安土町上豊浦","pref":"滋賀県","prefCode":"25","municipality":"近江八幡市","areaM2":912047.857,"population":1022,"toponymIds":["25-4e69dd5c2b"]}},{"type":"Feature","geometry":{"type":"Polygon","coordinates":[[[136.14836,35.15333],[136.14879,35.15312],[136.15051,35.15312],[136.15325,35.15257],[136.1543,35.15175],[136.15625,35.14968],[136.15726,35.14925],[136.15905,35.14922],[136.15928,35.14908],[136.15941,35.14872],[136.15955,35.14733],[136.15848,35.14662],[136.15851,35.14609],[136.15799,35.14405],[136.15201,35.1393],[136.15185,35.13997],[136.15167,35.14006],[136.15164,35.1394],[136.1515,35.13927],[136.15025,35.13907],[136.1503,35.13926],[136.15082,35.13947],[136.15079,35.13993],[136.14896,35.14078],[136.14923,35.14131],[136.14916,35.14179],[136.14969,35.14263],[136.14951,35.14317],[136.1484,35.14322],[136.14804,35.14299],[136.14789,35.14331],[136.14632,35.14287],[136.14647,35.1425],[136.14545,35.14165],[136.14341,35.14395],[136.14316,35.14474],[136.14358,35.14486],[136.14331,35.14544],[136.14012,35.14768],[136.14374,35.15118],[136.14587,35.15364],[136.14642,35.15329],[136.14735,35.15341],[136.14769,35.15366],[136.14836,35.15333]]]},"properties":{"key":"252041700","name":"安土町桑実寺","pref":"滋賀県","prefCode":"25","municipality":"近江八幡市","areaM2":1649964.629,"population":682,"toponymIds":["25-f31cfeb7e6"]}},{"type":"Feature","geometry":{"type":"Polygon","coordinates":[[[136.13596,35.13941],[136.13677,35.13877],[136.13689,35.13832],[136.13882,35.13593],[136.14131,35.13312],[136.14192,35.13263],[136.14149,35.13214],[136.14074,35.13163],[136.13867,35.13084],[136.1385,35.13127],[136.13854,35.13181],[136.13914,35.13279],[136.13759,35.13429],[136.13208,35.14054],[136.13428,35.14157],[136.13484,35.14065],[136.13596,35.13941]]]},"properties":{"key":"252041670","name":"安土町小中","pref":"滋賀県","prefCode":"25","municipality":"近江八幡市","areaM2":274579.059,"population":495,"toponymIds":["25-94c4375782"]}},{"type":"Feature","geometry":{"type":"Polygon","coordinates":[[[136.12561,35.14154],[136.12711,35.13955],[136.12767,35.13982],[136.12802,35.13933],[136.1246,35.13737],[136.11889,35.14468],[136.12198,35.14627],[136.12483,35.14254],[136.12524,35.14224],[136.12561,35.14154]]]},"properties":{"key":"252041640","name":"安土町香庄","pref":"滋賀県","prefCode":"25","municipality":"近江八幡市","areaM2":319977.771,"population":138,"toponymIds":["25-707f1b6c92"]}},{"type":"Feature","geometry":{"type":"Polygon","coordinates":[[[136.13329,35.16843],[136.13515,35.16628],[136.13557,35.16545],[136.13616,35.16491],[136.13665,35.16477],[136.13699,35.16373],[136.1376,35.16336],[136.13783,35.1627],[136.13859,35.16258],[136.13931,35.16105],[136.13985,35.1607],[136.13958,35.15873],[136.13966,35.15749],[136.13988,35.15698],[136.13989,35.15636],[136.1396,35.15602],[136.13971,35.15578],[136.14061,35.15516],[136.14128,35.15514],[136.14257,35.1546],[136.14587,35.15364],[136.14374,35.15118],[136.14012,35.14768],[136.14331,35.14544],[136.14358,35.14486],[136.14316,35.14474],[136.14341,35.14395],[136.14545,35.14165],[136.14629,35.14132],[136.14446,35.1403],[136.14402,35.14083],[136.13801,35.13758],[136.1372,35.13856],[136.13642,35.14012],[136.13576,35.14353],[136.13541,35.14367],[136.13458,35.14526],[136.13436,35.14603],[136.1344,35.14648],[136.13067,35.14553],[136.12998,35.14641],[136.13034,35.14662],[136.12991,35.14723],[136.13015,35.14743],[136.12957,35.14837],[136.129,35.14792],[136.12602,35.15144],[136.12526,35.1521],[136.12481,35.1523],[136.12466,35.15222],[136.12503,35.15147],[136.12472,35.15135],[136.12396,35.15254],[136.12191,35.15274],[136.12134,35.15338],[136.12127,35.15382],[136.12084,35.15411],[136.12059,35.15418],[136.11989,35.15401],[136.11929,35.15442],[136.11872,35.15416],[136.11891,35.15395],[136.1188,35.15383],[136.11916,35.15356],[136.11884,35.15288],[136.11866,35.15279],[136.11814,35.15278],[136.11723,35.15246],[136.11644,35.15242],[136.1162,35.15259],[136.11496,35.15233],[136.1145,35.15234],[136.11432,35.15257],[136.11413,35.15238],[136.11254,35.15209],[136.10741,35.16137],[136.10652,35.16345],[136.10658,35.16364],[136.11253,35.16604],[136.12211,35.16837],[136.1238,35.16833],[136.12475,35.16853],[136.13047,35.17168],[136.13329,35.16843]]]},"properties":{"key":"252041690","name":"安土町下豊浦","pref":"滋賀県","prefCode":"25","municipality":"近江八幡市","areaM2":6218177.206,"population":3557,"toponymIds":["25-adaeb1c108"]}},{"type":"Feature","geometry":{"type":"Polygon","coordinates":[[[136.12986,35.14043],[136.134,35.13522],[136.1297,35.13275],[136.13042,35.13195],[136.12952,35.13144],[136.1246,35.13737],[136.12802,35.13933],[136.12767,35.13982],[136.12959,35.14083],[136.12986,35.14043]]]},"properties":{"key":"252041650","name":"安土町慈恩寺","pref":"滋賀県","prefCode":"25","municipality":"近江八幡市","areaM2":417315.038,"population":132,"toponymIds":["25-1cf5b2cbca"]}},{"type":"Feature","geometry":{"type":"Polygon","coordinates":[[[136.11945,35.15438],[136.11989,35.15401],[136.12061,35.15418],[136.12124,35.15385],[136.12134,35.15338],[136.12191,35.15274],[136.12396,35.15254],[136.12472,35.15135],[136.12503,35.15147],[136.12466,35.15222],[136.12484,35.15229],[136.12537,35.15203],[136.129,35.14792],[136.12957,35.14837],[136.13015,35.14743],[136.12991,35.14723],[136.13034,35.14662],[136.12998,35.14641],[136.13067,35.14553],[136.13209,35.14588],[136.13277,35.14273],[136.133,35.14261],[136.133,35.14226],[136.13377,35.14135],[136.13208,35.14054],[136.13585,35.13626],[136.134,35.13522],[136.12959,35.14083],[136.12711,35.13955],[136.12523,35.14203],[136.12524,35.14224],[136.12483,35.14254],[136.12198,35.14627],[136.11859,35.14453],[136.11254,35.15209],[136.11413,35.15238],[136.11432,35.15257],[136.1145,35.15234],[136.11496,35.15233],[136.1162,35.15259],[136.11644,35.15242],[136.11723,35.15246],[136.11814,35.15278],[136.11866,35.15279],[136.11884,35.15288],[136.11916,35.15356],[136.1188,35.15383],[136.11891,35.15395],[136.11872,35.15416],[136.11895,35.15437],[136.11945,35.15438]]]},"properties":{"key":"252041620","name":"安土町常楽寺","pref":"滋賀県","prefCode":"25","municipality":"近江八幡市","areaM2":1530365.638,"population":2690,"toponymIds":["25-fb309aebf9"]}},{"type":"Feature","geometry":{"type":"Polygon","coordinates":[[[136.12325,35.187],[136.12443,35.18233],[136.12965,35.18317],[136.13164,35.17508],[136.13518,35.17567],[136.13574,35.17352],[136.13347,35.17305],[136.13044,35.17173],[136.12475,35.16853],[136.1238,35.16833],[136.12211,35.16837],[136.11253,35.16604],[136.10658,35.16364],[136.10572,35.16693],[136.10614,35.16702],[136.10559,35.16936],[136.11075,35.17025],[136.1084,35.17962],[136.11881,35.18138],[136.11765,35.18603],[136.12325,35.187]]]},"properties":{"key":"252041720","name":"安土町大中","pref":"滋賀県","prefCode":"25","municipality":"近江八幡市","areaM2":3504860.312,"population":241,"toponymIds":["25-ef34e25900"]}},{"type":"Feature","geometry":{"type":"Polygon","coordinates":[[[136.13906,35.1306],[136.14,35.13052],[136.14045,35.13005],[136.1399,35.12978],[136.14089,35.12848],[136.13977,35.12795],[136.14057,35.12679],[136.13798,35.12558],[136.13767,35.12599],[136.13611,35.12524],[136.13478,35.12487],[136.13378,35.12608],[136.13396,35.12618],[136.13338,35.12697],[136.13313,35.12686],[136.13286,35.12725],[136.13212,35.12734],[136.13231,35.12789],[136.13144,35.12847],[136.13171,35.12871],[136.13074,35.13014],[136.12952,35.13144],[136.13042,35.13195],[136.1297,35.13275],[136.13585,35.13626],[136.13914,35.13279],[136.13871,35.13227],[136.1385,35.13127],[136.13867,35.13082],[136.13906,35.1306]]]},"properties":{"key":"252041660","name":"安土町中屋","pref":"滋賀県","prefCode":"25","municipality":"近江八幡市","areaM2":759637.694,"population":161,"toponymIds":["25-4d42d7bb87"]}},{"type":"Feature","geometry":{"type":"Polygon","coordinates":[[[136.15647,35.12555],[136.15703,35.12418],[136.15832,35.12448],[136.15836,35.12389],[136.15919,35.12397],[136.15947,35.11957],[136.15813,35.11901],[136.15864,35.11818],[136.15826,35.11792],[136.15542,35.11674],[136.15512,35.11705],[136.15431,35.11672],[136.15373,35.11761],[136.15424,35.11785],[136.15362,35.11848],[136.15342,35.11838],[136.15324,35.11862],[136.15344,35.11871],[136.15256,35.1196],[136.1507,35.12209],[136.14914,35.12455],[136.14768,35.12617],[136.1593,35.13094],[136.16027,35.13034],[136.16118,35.12917],[136.16076,35.12913],[136.15803,35.12766],[136.15867,35.12711],[136.15892,35.12643],[136.15647,35.12555]]]},"properties":{"key":"252041740","name":"安土町西老蘇","pref":"滋賀県","prefCode":"25","municipality":"近江八幡市","areaM2":971606.641,"population":1207,"toponymIds":["25-76ae8675ae"]}},{"type":"Feature","geometry":{"type":"Polygon","coordinates":[[[136.16302,35.1323],[136.16313,35.13164],[136.16396,35.13173],[136.16449,35.13112],[136.16646,35.13225],[136.17004,35.12805],[136.17218,35.12927],[136.1728,35.12857],[136.17264,35.12849],[136.17281,35.12815],[136.17462,35.12908],[136.17855,35.12886],[136.17921,35.12896],[136.18042,35.1287],[136.18205,35.12876],[136.18307,35.12706],[136.18325,35.12639],[136.18319,35.12587],[136.18206,35.12476],[136.18097,35.12453],[136.18024,35.12478],[136.17956,35.1242],[136.17887,35.12426],[136.1769,35.12331],[136.17629,35.12328],[136.17501,35.12147],[136.17365,35.12045],[136.17349,35.11993],[136.17089,35.11889],[136.17037,35.1185],[136.1703,35.11884],[136.1707,35.11948],[136.17067,35.11979],[136.16988,35.12043],[136.16973,35.12113],[136.16946,35.12077],[136.16898,35.12091],[136.16769,35.11997],[136.16781,35.11981],[136.16746,35.11936],[136.16588,35.11754],[136.16561,35.11744],[136.16446,35.11887],[136.16404,35.1188],[136.16353,35.11904],[136.16307,35.12004],[136.15963,35.11919],[136.1594,35.11995],[136.15919,35.12397],[136.15836,35.12389],[136.15832,35.12448],[136.15703,35.12418],[136.15647,35.12555],[136.15892,35.12643],[136.15867,35.12711],[136.15803,35.12766],[136.16076,35.12913],[136.16118,35.12917],[136.16027,35.13034],[136.1593,35.13094],[136.15933,35.13153],[136.16002,35.13191],[136.16098,35.13203],[136.16143,35.13186],[136.16301,35.13255],[136.16302,35.1323]]]},"properties":{"key":"252041730","name":"安土町東老蘇","pref":"滋賀県","prefCode":"25","municipality":"近江八幡市","areaM2":2159535.841,"population":638,"toponymIds":["25-4e7e916540"]}},{"type":"Feature","geometry":{"type":"Polygon","coordinates":[[[136.14789,35.14331],[136.14804,35.14299],[136.1484,35.14322],[136.14951,35.14317],[136.14969,35.14263],[136.14916,35.14179],[136.14923,35.14131],[136.14896,35.14078],[136.14789,35.14082],[136.14545,35.14165],[136.14647,35.1425],[136.14632,35.14287],[136.14789,35.14331]]]},"properties":{"key":"252041710","name":"安土町宮津","pref":"滋賀県","prefCode":"25","municipality":"近江八幡市","areaM2":73336.709,"population":269,"toponymIds":["25-252ee29e35"]}},{"type":"Feature","geometry":{"type":"Polygon","coordinates":[[[136.07956,35.10394],[136.07822,35.10315],[136.07778,35.10357],[136.07727,35.10457],[136.07746,35.10488],[136.0784,35.10529],[136.07956,35.10394]]]},"properties":{"key":"252041130","name":"川原町一丁目","pref":"滋賀県","prefCode":"25","municipality":"近江八幡市","areaM2":27696.286,"population":196,"toponymIds":["25-0963ad4dc6"]}},{"type":"Feature","geometry":{"type":"Polygon","coordinates":[[[136.13094,35.09219],[136.12571,35.08925],[136.12341,35.09098],[136.12228,35.09159],[136.12039,35.09172],[136.11974,35.09159],[136.1187,35.09089],[136.11703,35.09284],[136.12169,35.09527],[136.12105,35.09614],[136.12176,35.09647],[136.12271,35.09648],[136.12575,35.09553],[136.12631,35.09482],[136.12728,35.09454],[136.12869,35.09368],[136.12927,35.09313],[136.13094,35.09219]]]},"properties":{"key":"252041420","name":"倉橋部町","pref":"滋賀県","prefCode":"25","municipality":"近江八幡市","areaM2":503230.131,"population":120,"toponymIds":["25-e3f84813a3"]}},{"type":"Feature","geometry":{"type":"Polygon","coordinates":[[[136.08434,35.13917],[136.08505,35.13825],[136.08433,35.13788],[136.08354,35.13893],[136.08434,35.13917]]]},"properties":{"key":"252040610","name":"佐久間町","pref":"滋賀県","prefCode":"25","municipality":"近江八幡市","areaM2":10207.407,"population":56,"toponymIds":["25-a0b3e0859d"]}},{"type":"Feature","geometry":{"type":"Polygon","coordinates":[[[136.06838,35.11316],[136.06889,35.11263],[136.07003,35.11338],[136.07206,35.11096],[136.07443,35.11231],[136.0764,35.1099],[136.07426,35.10872],[136.07328,35.10968],[136.07276,35.10978],[136.07219,35.10953],[136.071,35.10964],[136.07133,35.10861],[136.07113,35.10836],[136.07157,35.10783],[136.07204,35.10811],[136.07265,35.1082],[136.07357,35.10795],[136.07406,35.10753],[136.07556,35.1053],[136.07373,35.10419],[136.07346,35.10388],[136.07357,35.10346],[136.07281,35.10287],[136.07292,35.10262],[136.07141,35.10227],[136.07083,35.10244],[136.07128,35.10184],[136.07059,35.10153],[136.07075,35.10117],[136.06998,35.10096],[136.07036,35.10016],[136.07021,35.10013],[136.06961,35.1001],[136.06948,35.10034],[136.06972,35.10054],[136.06969,35.10112],[136.06992,35.10152],[136.06747,35.1048],[136.06593,35.10762],[136.06506,35.10841],[136.06258,35.11229],[136.06653,35.11504],[136.06838,35.11316]]]},"properties":{"key":"252041170","name":"古川町","pref":"滋賀県","prefCode":"25","municipality":"近江八幡市","areaM2":936376.675,"population":1644,"toponymIds":["25-8b01160fcd"]}},{"type":"Feature","geometry":{"type":"Polygon","coordinates":[[[135.9471,35.06372],[135.94802,35.06321],[135.94824,35.06346],[135.9504,35.06159],[135.9508,35.06151],[135.95177,35.06168],[135.95399,35.06067],[135.95493,35.06045],[135.95594,35.06036],[135.95679,35.06134],[135.95757,35.06144],[135.95817,35.06031],[135.95885,35.05991],[135.95924,35.05993],[135.96093,35.05904],[135.96094,35.05859],[135.9603,35.05771],[135.9602,35.05727],[135.96036,35.05656],[135.96158,35.05527],[135.96063,35.05548],[135.96037,35.05576],[135.95958,35.05602],[135.95898,35.05595],[135.95837,35.0563],[135.95771,35.05548],[135.95704,35.05584],[135.95649,35.05453],[135.95499,35.05263],[135.95536,35.0524],[135.9541,35.05083],[135.95169,35.05212],[135.9531,35.05387],[135.95161,35.05462],[135.95223,35.05541],[135.95142,35.05566],[135.95245,35.05588],[135.95244,35.05612],[135.95176,35.05619],[135.9521,35.0568],[135.94924,35.05741],[135.95129,35.06009],[135.95096,35.06025],[135.95128,35.06073],[135.95023,35.0609],[135.94941,35.06124],[135.9497,35.06164],[135.94674,35.06331],[135.9471,35.06372]]]},"properties":{"key":"252060780","name":"芦浦町","pref":"滋賀県","prefCode":"25","municipality":"草津市","areaM2":679715.129,"population":733,"toponymIds":["25-ce6be5fa30"]}},{"type":"Feature","geometry":{"type":"Polygon","coordinates":[[[135.95924,35.03651],[135.95841,35.03549],[135.95892,35.03517],[135.95617,35.03186],[135.95503,35.03252],[135.95535,35.03294],[135.9555,35.03286],[135.95681,35.03438],[135.95641,35.03458],[135.95737,35.03587],[135.95789,35.03575],[135.95887,35.03685],[135.95938,35.03668],[135.95924,35.03651]]]},"properties":{"key":"25206070001","name":"川原一丁目","pref":"滋賀県","prefCode":"25","municipality":"草津市","areaM2":68178.398,"population":413,"toponymIds":["25-f691e5b915"]}},{"type":"Feature","geometry":{"type":"Polygon","coordinates":[[[135.94979,35.0366],[135.95093,35.03593],[135.95127,35.03638],[135.95468,35.03526],[135.95351,35.03507],[135.95101,35.03417],[135.95018,35.03502],[135.94884,35.03689],[135.94899,35.03705],[135.94979,35.0366]]]},"properties":{"key":"252060660","name":"川原町","pref":"滋賀県","prefCode":"25","municipality":"草津市","areaM2":63606.979,"population":0,"toponymIds":["25-ce0585c5c8"]}},{"type":"Feature","geometry":{"type":"Polygon","coordinates":[[[135.94424,35.01819],[135.95261,35.01342],[135.95126,35.01196],[135.94242,35.01693],[135.94387,35.01846],[135.94424,35.01819]]]},"properties":{"key":"25206031001","name":"西矢倉一丁目","pref":"滋賀県","prefCode":"25","municipality":"草津市","areaM2":199022.304,"population":0,"toponymIds":["25-8ee6528695"]}},{"type":"Feature","geometry":{"type":"Polygon","coordinates":[[[135.98525,34.99953],[135.98652,34.99954],[135.98675,34.99937],[135.98687,34.99888],[135.98855,34.99737],[135.98923,34.997],[135.98921,34.99683],[135.99004,34.99663],[135.99025,34.99627],[135.99023,34.99534],[135.99048,34.99466],[135.99053,34.99361],[135.99082,34.99316],[135.99148,34.99276],[135.99149,34.99224],[135.99234,34.99122],[135.99248,34.99052],[135.99239,34.99019],[135.99204,34.99007],[135.99184,34.99058],[135.99106,34.9916],[135.98988,34.99089],[135.98978,34.98985],[135.98988,34.98847],[135.98878,34.98757],[135.98883,34.98706],[135.9894,34.98697],[135.99005,34.98624],[135.99076,34.98483],[135.99139,34.98424],[135.9914,34.98292],[135.99001,34.98257],[135.98983,34.98203],[135.98908,34.98106],[135.98933,34.97975],[135.98828,34.98004],[135.98835,34.97909],[135.98802,34.97853],[135.98739,34.97801],[135.98523,34.97843],[135.98346,34.97931],[135.98356,34.97951],[135.98337,34.97962],[135.98299,34.97963],[135.98289,34.97934],[135.98251,34.97914],[135.98229,34.97918],[135.98144,34.97976],[135.98116,34.97977],[135.98107,34.98036],[135.97975,34.97986],[135.97924,34.97986],[135.97866,34.98036],[135.97911,34.98119],[135.97915,34.98189],[135.97827,34.98198],[135.97732,34.98186],[135.97707,34.98193],[135.97694,34.9822],[135.97748,34.98258],[135.97814,34.98265],[135.97836,34.98291],[135.97946,34.98308],[135.97947,34.9833],[135.97918,34.98331],[135.97921,34.98356],[135.97789,34.98336],[135.97791,34.98415],[135.97754,34.98422],[135.97754,34.98465],[135.97963,34.98599],[135.98046,34.98742],[135.98056,34.98835],[135.98317,34.98818],[135.98302,34.99074],[135.98283,34.99157],[135.98181,34.99375],[135.98146,34.99488],[135.98221,34.99741],[135.98247,34.99998],[135.98362,35.00161],[135.9839,35.00196],[135.98434,35.00153],[135.98449,35.00088],[135.98506,35.00039],[135.98525,34.99953]]]},"properties":{"key":"252060010","name":"馬場町","pref":"滋賀県","prefCode":"25","municipality":"草津市","areaM2":1917244.398,"population":535,"toponymIds":["25-efe8bdd538"]}},{"type":"Feature","geometry":{"type":"Polygon","coordinates":[[[135.96054,35.00926],[135.96063,35.00918],[135.96092,35.00948],[135.9618,35.00932],[135.9606,35.00748],[135.96055,35.00726],[135.96069,35.00722],[135.96053,35.0066],[135.96005,35.0066],[135.95983,35.00577],[135.95914,35.00642],[135.95625,35.00811],[135.95911,35.01016],[135.96054,35.00926]]]},"properties":{"key":"25206027001","name":"東矢倉一丁目","pref":"滋賀県","prefCode":"25","municipality":"草津市","areaM2":117877.304,"population":792,"toponymIds":["25-92f6c0e9d7"]}},{"type":"Feature","geometry":{"type":"Polygon","coordinates":[[[135.93194,35.01815],[135.93582,35.01603],[135.93555,35.01574],[135.93772,35.01454],[135.93843,35.01543],[135.93953,35.01469],[135.93957,35.01423],[135.94036,35.01304],[135.94091,35.013],[135.94209,35.01446],[135.94271,35.01534],[135.94312,35.01658],[135.94394,35.01606],[135.94294,35.01491],[135.94326,35.01473],[135.94286,35.01419],[135.94304,35.0141],[135.93974,35.00998],[135.93289,35.01365],[135.92549,35.01417],[135.92605,35.01559],[135.92532,35.01583],[135.92502,35.01689],[135.92585,35.01692],[135.92664,35.0165],[135.9276,35.0163],[135.92802,35.01742],[135.92842,35.01722],[135.92904,35.01802],[135.92991,35.01757],[135.93018,35.01789],[135.93079,35.01756],[135.93097,35.01779],[135.93143,35.01752],[135.93194,35.01815]]]},"properties":{"key":"252060520","name":"御倉町","pref":"滋賀県","prefCode":"25","municipality":"草津市","areaM2":607141.906,"population":191,"toponymIds":["25-ac46bc9bf2"]}},{"type":"Feature","geometry":{"type":"Polygon","coordinates":[[[135.9563,35.01139],[135.95987,35.01069],[135.95897,35.01007],[135.95756,35.01091],[135.95702,35.0101],[135.95803,35.0094],[135.95625,35.00811],[135.95564,35.00862],[135.95216,35.01022],[135.95389,35.01251],[135.95502,35.01246],[135.955,35.01225],[135.95651,35.01174],[135.9563,35.01139]]]},"properties":{"key":"25206025001","name":"矢倉一丁目","pref":"滋賀県","prefCode":"25","municipality":"草津市","areaM2":153374.038,"population":941,"toponymIds":["25-46b4bb8bf6"]}},{"type":"Feature","geometry":{"type":"Polygon","coordinates":[[[135.99503,35.0544],[135.99544,35.05409],[135.9972,35.05382],[135.99665,35.05325],[135.99723,35.05307],[135.99801,35.0525],[135.99578,35.05073],[135.99598,35.05062],[135.99526,35.05009],[135.99426,35.05072],[135.99434,35.05081],[135.99391,35.05115],[135.99258,35.05285],[135.99306,35.05283],[135.99307,35.05322],[135.99371,35.05426],[135.99503,35.0544]]]},"properties":{"key":"252070080","name":"梅田町","pref":"滋賀県","prefCode":"25","municipality":"守山市","areaM2":132790.639,"population":2181,"toponymIds":["25-b481c7c4d6"]}},{"type":"Feature","geometry":{"type":"Polygon","coordinates":[[[135.99867,35.05315],[135.99914,35.05301],[136.00012,35.05219],[136.0005,35.05207],[136.00109,35.05219],[136.00153,35.0514],[136.00181,35.05154],[136.0019,35.05138],[136.00221,35.05157],[136.00381,35.04917],[136.00363,35.04852],[136.00386,35.04845],[136.00384,35.04831],[136.00329,35.04774],[136.00217,35.04603],[135.99808,35.04825],[135.99827,35.04868],[135.99713,35.04944],[135.99739,35.04977],[135.99792,35.04946],[135.99862,35.05033],[135.99742,35.05101],[135.99671,35.05017],[135.99578,35.05073],[135.99801,35.0525],[135.99769,35.05269],[135.99777,35.05303],[135.99797,35.05294],[135.99805,35.05309],[135.99828,35.05299],[135.99844,35.05322],[135.99867,35.05315]]]},"properties":{"key":"25207007001","name":"浮気町","pref":"滋賀県","prefCode":"25","municipality":"守山市","areaM2":296555.659,"population":2134,"toponymIds":["25-2a75545e15"]}},{"type":"Feature","geometry":{"type":"Polygon","coordinates":[[[135.95453,35.06669],[135.95554,35.06616],[135.95617,35.06699],[135.95928,35.06528],[135.95671,35.06202],[135.95761,35.0616],[135.95753,35.06147],[135.95695,35.06142],[135.9565,35.06108],[135.95534,35.06158],[135.95529,35.06147],[135.95463,35.06171],[135.95434,35.06125],[135.9531,35.06188],[135.95298,35.06174],[135.95221,35.0621],[135.95216,35.06152],[135.95177,35.06168],[135.95052,35.06154],[135.94814,35.0636],[135.94824,35.06471],[135.94756,35.06642],[135.94751,35.06782],[135.94782,35.06843],[135.94761,35.06881],[135.94839,35.06979],[135.95453,35.06669]]]},"properties":{"key":"252070220","name":"森川原町","pref":"滋賀県","prefCode":"25","municipality":"守山市","areaM2":607015.819,"population":395,"toponymIds":["25-7befc6e2a2"]}},{"type":"Feature","geometry":{"type":"Polygon","coordinates":[[[135.97889,35.02593],[135.97728,35.02398],[135.97443,35.02556],[135.97513,35.0264],[135.97606,35.0259],[135.9767,35.02667],[135.97693,35.02706],[135.97676,35.02717],[135.97712,35.02767],[135.97948,35.0263],[135.97889,35.02593]]]},"properties":{"key":"25208009101","name":"小柿一丁目","pref":"滋賀県","prefCode":"25","municipality":"栗東市","areaM2":84015.987,"population":326,"toponymIds":["25-f9656f0879"]}},{"type":"Feature","geometry":{"type":"Polygon","coordinates":[[[136.01111,35.03186],[136.01204,35.0313],[136.01224,35.03138],[136.01257,35.03118],[136.01247,35.03104],[136.01295,35.03077],[136.01395,35.03091],[136.01565,35.02934],[136.01616,35.02916],[136.01692,35.02856],[136.01679,35.0282],[136.01771,35.0276],[136.01787,35.02772],[136.01871,35.02726],[136.01913,35.0266],[136.02145,35.02634],[136.02163,35.02584],[136.02216,35.02562],[136.02515,35.02533],[136.0261,35.02247],[136.03671,35.02134],[136.03806,35.01944],[136.0387,35.01895],[136.03946,35.01786],[136.03893,35.01724],[136.03889,35.01692],[136.03828,35.0165],[136.03792,35.01643],[136.03794,35.0158],[136.03686,35.01411],[136.0367,35.0132],[136.03684,35.01255],[136.0363,35.01155],[136.03683,35.01059],[136.0367,35.01028],[136.03688,35.00984],[136.03763,35.00919],[136.03889,35.00848],[136.03919,35.00812],[136.03946,35.00718],[136.03935,35.00693],[136.03866,35.00648],[136.03756,35.00472],[136.0369,35.00475],[136.03589,35.00449],[136.03488,35.00358],[136.03381,35.00454],[136.03326,35.00571],[136.03294,35.00595],[136.0319,35.00602],[136.03073,35.00657],[136.03002,35.00667],[136.02959,35.0071],[136.02816,35.00958],[136.02811,35.01138],[136.02789,35.01163],[136.02814,35.01233],[136.0279,35.01295],[136.02685,35.01248],[136.02657,35.01153],[136.02601,35.01077],[136.02572,35.01049],[136.02504,35.01025],[136.02411,35.00916],[136.02344,35.00889],[136.02363,35.0098],[136.02357,35.01034],[136.0232,35.01069],[136.0226,35.01072],[136.02241,35.01162],[136.0222,35.01186],[136.02148,35.01209],[136.0217,35.01317],[136.02137,35.01328],[136.02122,35.01394],[136.0213,35.01455],[136.02176,35.0156],[136.02193,35.01718],[136.02116,35.01792],[136.02065,35.01963],[136.01724,35.02122],[136.01063,35.02504],[136.00926,35.02531],[136.00928,35.02572],[136.00879,35.02589],[136.00878,35.02611],[136.0071,35.0269],[136.01111,35.03186]]]},"properties":{"key":"252080130","name":"六地蔵","pref":"滋賀県","prefCode":"25","municipality":"栗東市","areaM2":3356072.959,"population":762,"toponymIds":["25-42e1896294"]}},{"type":"Feature","geometry":{"type":"Polygon","coordinates":[[[136.00125,35.13799],[136.0008,35.13797],[135.99975,35.13728],[136.00081,35.13785],[136.00144,35.13727],[136.00079,35.13782],[136.00038,35.13757],[136.00081,35.13711],[136.00119,35.13732],[136.00083,35.13709],[136.00118,35.13676],[136.0017,35.13653],[136.00465,35.136],[136.00475,35.13503],[136.00373,35.13329],[136.00334,35.13321],[136.00265,35.13351],[136.00202,35.13272],[136.00194,35.13283],[136.00078,35.13118],[135.99831,35.13254],[135.99767,35.13174],[135.99456,35.13342],[135.99648,35.13581],[135.99732,35.13534],[135.99773,35.13618],[135.99615,35.13674],[135.9962,35.13714],[135.99567,35.13771],[135.99589,35.13864],[135.99552,35.1389],[135.99667,35.14018],[136.00141,35.13823],[136.00125,35.13799]]]},"properties":{"key":"252100200","name":"菖蒲","pref":"滋賀県","prefCode":"25","municipality":"野洲市","areaM2":493796.13,"population":169,"toponymIds":["25-98eafb9033"]}},{"type":"Feature","geometry":{"type":"Polygon","coordinates":[[[136.01896,35.10771],[136.01955,35.1076],[136.01923,35.10714],[136.0189,35.10697],[136.01934,35.10673],[136.01962,35.107],[136.02018,35.10697],[136.02271,35.10561],[136.01648,35.09794],[136.01552,35.09847],[136.01495,35.09776],[136.01274,35.09895],[136.01134,35.09725],[136.01072,35.09757],[136.01086,35.09791],[136.01033,35.09789],[136.01012,35.09825],[136.00976,35.09832],[136.00956,35.0993],[136.00906,35.09925],[136.00893,35.10025],[136.00937,35.10032],[136.00916,35.10156],[136.01065,35.10183],[136.01046,35.10226],[136.01194,35.10289],[136.01174,35.10309],[136.01405,35.10587],[136.01436,35.10572],[136.01463,35.10607],[136.01524,35.10575],[136.0165,35.10714],[136.01553,35.1077],[136.01723,35.10984],[136.0183,35.10926],[136.01762,35.1084],[136.01896,35.10771]]]},"properties":{"key":"252100060","name":"西河原","pref":"滋賀県","prefCode":"25","municipality":"野洲市","areaM2":811810.678,"population":2084,"toponymIds":["25-af0a09ca4f"]}},{"type":"Feature","geometry":{"type":"Polygon","coordinates":[[[136.01091,35.06625],[136.01377,35.06625],[136.01487,35.06337],[136.01493,35.06328],[136.01595,35.06394],[136.017,35.06287],[136.01676,35.06278],[136.01703,35.06187],[136.01716,35.06186],[136.01716,35.06127],[136.01698,35.06087],[136.01723,35.06085],[136.01741,35.06024],[136.01778,35.05975],[136.01838,35.05958],[136.01825,35.05884],[136.01862,35.05862],[136.01911,35.05865],[136.01682,35.05635],[136.01476,35.05804],[136.01466,35.05785],[136.0139,35.05822],[136.01349,35.05781],[136.01318,35.05799],[136.01299,35.05782],[136.01246,35.05829],[136.01252,35.05843],[136.01225,35.05848],[136.01223,35.05833],[136.01184,35.05857],[136.01144,35.05821],[136.01407,35.05611],[136.0151,35.05466],[136.01329,35.05288],[136.01217,35.05404],[136.00835,35.05877],[136.00827,35.05953],[136.00425,35.05863],[136.00398,35.05884],[136.00408,35.05891],[136.00386,35.05921],[136.00362,35.05906],[136.00024,35.06105],[135.9992,35.06149],[135.99871,35.06204],[135.9977,35.06231],[135.99666,35.06297],[135.99719,35.06376],[135.99711,35.06399],[135.99632,35.06442],[135.99699,35.06516],[135.99805,35.06466],[136.00132,35.06882],[136.00341,35.06936],[136.0071,35.06992],[136.00952,35.06777],[136.01047,35.06651],[136.01091,35.06625]]]},"properties":{"key":"252100240","name":"野洲","pref":"滋賀県","prefCode":"25","municipality":"野洲市","areaM2":1807427.732,"population":2224,"toponymIds":["25-ffe190e479"]}},{"type":"Feature","geometry":{"type":"Polygon","coordinates":[[[136.12369,35.0065],[136.12309,35.00576],[136.12213,35.00709],[136.12279,35.00926],[136.12445,35.01159],[136.12528,35.01312],[136.1271,35.01245],[136.12469,35.00791],[136.12369,35.0065]]]},"properties":{"key":"252110170","name":"梅影町","pref":"滋賀県","prefCode":"25","municipality":"湖南市","areaM2":151160.576,"population":813,"toponymIds":["25-7f2a173d65"]}},{"type":"Feature","geometry":{"type":"Polygon","coordinates":[[[136.09747,35.00123],[136.09808,35.00068],[136.09902,35.00018],[136.10013,34.99886],[136.10039,34.99808],[136.10113,34.99701],[136.1033,34.99529],[136.10281,34.99481],[136.10181,34.99286],[136.09853,34.98856],[136.09887,34.9884],[136.09761,34.98672],[136.09752,34.98632],[136.09698,34.9855],[136.09704,34.98521],[136.09749,34.98504],[136.09634,34.98445],[136.09315,34.9813],[136.08977,34.97705],[136.0873,34.97652],[136.08645,34.97989],[136.08627,34.98261],[136.08673,34.98525],[136.08731,34.98714],[136.08781,34.98979],[136.08713,34.99317],[136.08693,34.99353],[136.08696,34.9939],[136.08734,34.99459],[136.08591,34.99611],[136.08723,34.99781],[136.08755,34.99787],[136.08803,34.99883],[136.08702,34.99937],[136.0888,35.00169],[136.08983,35.00121],[136.09133,35.00294],[136.09127,35.00324],[136.09166,35.00336],[136.09277,35.00456],[136.09747,35.00123]]]},"properties":{"key":"252110030","name":"夏見","pref":"滋賀県","prefCode":"25","municipality":"湖南市","areaM2":2778806.358,"population":1068,"toponymIds":["25-840ab472cd"]}},{"type":"Feature","geometry":{"type":"Polygon","coordinates":[[[135.99999,35.41315],[136.00005,35.41266],[135.99908,35.413],[135.99755,35.41312],[135.99891,35.41201],[135.9996,35.41181],[136.00101,35.4118],[136.00279,35.41232],[136.00372,35.4122],[136.00389,35.41008],[136.00328,35.41028],[136.00221,35.40985],[136.00236,35.40903],[136.00086,35.40901],[135.99884,35.40928],[135.99877,35.40897],[135.99671,35.40926],[135.99691,35.41025],[135.99565,35.40985],[135.99404,35.40904],[135.99353,35.40911],[135.99307,35.40886],[135.99207,35.40901],[135.98881,35.40883],[135.98753,35.40861],[135.98504,35.4077],[135.98358,35.4066],[135.98325,35.4059],[135.98293,35.40559],[135.98076,35.40448],[135.97919,35.40912],[135.97906,35.4202],[135.99155,35.42111],[135.99197,35.42014],[135.99402,35.41993],[135.99405,35.41963],[135.99645,35.4194],[135.9967,35.41853],[135.9966,35.41807],[135.99678,35.41683],[135.99728,35.41558],[136.00024,35.41532],[136.00024,35.41511],[135.99994,35.41504],[136.00016,35.41318],[135.99999,35.41315]]]},"properties":{"key":"252120310","name":"今津町梅原","pref":"滋賀県","prefCode":"25","municipality":"高島市","areaM2":2495475.956,"population":214,"toponymIds":["25-5159121cd1"]}},{"type":"Feature","geometry":{"type":"Polygon","coordinates":[[[136.00446,35.42052],[136.00616,35.42033],[136.00675,35.42058],[136.00784,35.41999],[136.00879,35.41995],[136.01035,35.41919],[136.0108,35.41916],[136.01159,35.41863],[136.01374,35.41837],[136.01457,35.41787],[136.01684,35.41718],[136.01735,35.41688],[136.01746,35.41648],[136.01769,35.41634],[136.01776,35.41529],[136.01548,35.41522],[136.01466,35.41444],[136.01427,35.41363],[136.01434,35.41312],[136.01306,35.41342],[136.01191,35.4133],[136.01089,35.41283],[136.00846,35.41245],[136.0068,35.41171],[136.0057,35.41151],[136.00492,35.41201],[136.00332,35.41231],[136.00242,35.41227],[136.00041,35.41171],[135.99891,35.41201],[135.99755,35.41312],[135.99908,35.413],[136.00005,35.41266],[135.99999,35.41315],[136.00016,35.41318],[135.99994,35.41504],[136.00123,35.41521],[136.00157,35.41714],[136.00221,35.41713],[136.00214,35.41776],[136.00284,35.41852],[136.00331,35.41937],[136.00364,35.42081],[136.00411,35.42076],[136.00446,35.42052]]]},"properties":{"key":"252120320","name":"今津町岸脇","pref":"滋賀県","prefCode":"25","municipality":"高島市","areaM2":1044938.889,"population":191,"toponymIds":["25-1ceb261c3b"]}},{"type":"Feature","geometry":{"type":"Polygon","coordinates":[[[135.90344,35.34103],[135.90452,35.34088],[135.90599,35.34102],[135.90647,35.34077],[135.90745,35.34082],[135.90641,35.33834],[135.90887,35.33774],[135.9101,35.337],[135.91065,35.33628],[135.91094,35.33546],[135.91098,35.33471],[135.91008,35.33204],[135.91032,35.33019],[135.91015,35.32972],[135.90968,35.32924],[135.91032,35.32718],[135.91015,35.32648],[135.91167,35.32504],[135.91242,35.32346],[135.91364,35.32238],[135.91388,35.32162],[135.91115,35.32212],[135.90897,35.32272],[135.9071,35.32361],[135.90549,35.32464],[135.90435,35.32544],[135.90375,35.32634],[135.90119,35.3272],[135.90064,35.32773],[135.89988,35.32813],[135.89916,35.3279],[135.89686,35.32624],[135.89565,35.32603],[135.89282,35.32472],[135.89068,35.32393],[135.88944,35.32376],[135.88787,35.32269],[135.8872,35.32246],[135.8866,35.32246],[135.88186,35.32348],[135.88078,35.32339],[135.87919,35.32229],[135.87818,35.3221],[135.87592,35.32224],[135.87549,35.32257],[135.87514,35.32374],[135.87463,35.32459],[135.87447,35.32523],[135.87493,35.33067],[135.87378,35.33221],[135.87387,35.33341],[135.87464,35.33486],[135.87702,35.3359],[135.879,35.33654],[135.88101,35.33751],[135.8821,35.33834],[135.88304,35.33956],[135.88457,35.34053],[135.88596,35.34093],[135.88784,35.34102],[135.88939,35.34264],[135.89025,35.34324],[135.89164,35.34549],[135.89247,35.346],[135.89357,35.34638],[135.89473,35.34785],[135.89679,35.3486],[135.89709,35.34884],[135.89785,35.34786],[135.89843,35.34764],[135.89909,35.34705],[135.89948,35.34641],[135.90012,35.34435],[135.90081,35.34319],[135.90227,35.34155],[135.90287,35.34116],[135.90344,35.34103]]]},"properties":{"key":"252120740","name":"朽木古川","pref":"滋賀県","prefCode":"25","municipality":"高島市","areaM2":6267525.446,"population":50,"toponymIds":["25-dc0d4a6839"]}},{"type":"Feature","geometry":{"type":"Polygon","coordinates":[[[135.95355,35.30371],[135.95382,35.30309],[135.9546,35.3026],[135.95572,35.30105],[135.95511,35.3012],[135.95409,35.30054],[135.95432,35.30026],[135.9542,35.29989],[135.95458,35.29945],[135.95518,35.29919],[135.95522,35.29898],[135.95611,35.29839],[135.95597,35.2971],[135.95606,35.29601],[135.95703,35.29435],[135.95703,35.29338],[135.95676,35.29266],[135.95747,35.29038],[135.95773,35.28804],[135.95773,35.28647],[135.95727,35.28484],[135.95673,35.28401],[135.95614,35.28222],[135.95511,35.28153],[135.95546,35.28011],[135.95538,35.27974],[135.95478,35.27921],[135.95475,35.27882],[135.95632,35.27769],[135.95621,35.27771],[135.95558,35.27647],[135.95536,35.27557],[135.95336,35.27527],[135.95249,35.27529],[135.95113,35.27463],[135.94981,35.27476],[135.94879,35.27424],[135.94829,35.27338],[135.94783,35.27302],[135.94689,35.27174],[135.94583,35.27128],[135.94622,35.27061],[135.94613,35.27041],[135.94553,35.27011],[135.94569,35.26937],[135.94512,35.26874],[135.94491,35.26795],[135.94491,35.26766],[135.94532,35.26723],[135.94454,35.26709],[135.94163,35.26726],[135.94081,35.26712],[135.94037,35.2667],[135.94007,35.26586],[135.93881,35.26453],[135.93843,35.26338],[135.93827,35.26214],[135.93745,35.26061],[135.93623,35.26042],[135.93522,35.26053],[135.93332,35.26112],[135.93268,35.26102],[135.93225,35.26088],[135.93,35.2589],[135.92797,35.25812],[135.9274,35.25842],[135.92628,35.25934],[135.92564,35.25959],[135.92442,35.25978],[135.92153,35.25984],[135.9196,35.26039],[135.91872,35.26093],[135.9177,35.26239],[135.91708,35.26414],[135.91713,35.26601],[135.91825,35.26747],[135.91779,35.2682],[135.91889,35.26834],[135.91912,35.26857],[135.91914,35.26987],[135.9193,35.2702],[135.91926,35.272],[135.91951,35.2727],[135.92008,35.27321],[135.92058,35.27334],[135.92062,35.27351],[135.92017,35.27491],[135.92021,35.27527],[135.92109,35.27586],[135.92219,35.27611],[135.92286,35.27692],[135.92382,35.27761],[135.92452,35.27727],[135.92551,35.27733],[135.928,35.27887],[135.92864,35.27842],[135.92907,35.27845],[135.92919,35.27809],[135.93059,35.27819],[135.93087,35.27866],[135.93154,35.27856],[135.93171,35.27825],[135.93285,35.27859],[135.93336,35.2797],[135.93497,35.28081],[135.93629,35.28235],[135.93679,35.28356],[135.93725,35.28375],[135.93725,35.28419],[135.93756,35.28474],[135.93822,35.2856],[135.93847,35.28561],[135.93843,35.28616],[135.93895,35.28665],[135.93903,35.28726],[135.93979,35.28806],[135.93979,35.28848],[135.94031,35.28864],[135.93996,35.2902],[135.94084,35.29033],[135.94067,35.29108],[135.94246,35.29133],[135.94215,35.29284],[135.94382,35.29355],[135.94322,35.29403],[135.94199,35.29382],[135.94036,35.29298],[135.94001,35.29305],[135.93882,35.29239],[135.93667,35.29165],[135.93566,35.29159],[135.9336,35.29211],[135.93565,35.29374],[135.93697,35.29591],[135.93859,35.29686],[135.93889,35.29768],[135.93926,35.29777],[135.93955,35.29826],[135.93987,35.29841],[135.93987,35.29876],[135.94049,35.29875],[135.94053,35.29897],[135.94017,35.29938],[135.94037,35.29958],[135.94037,35.29985],[135.9402,35.30006],[135.93997,35.30006],[135.93988,35.3006],[135.94011,35.30056],[135.9404,35.30088],[135.94062,35.30091],[135.94072,35.3013],[135.94093,35.30146],[135.94166,35.3015],[135.94184,35.30264],[135.94144,35.30278],[135.94099,35.30256],[135.94085,35.30196],[135.94062,35.30199],[135.93993,35.30231],[135.93903,35.30248],[135.93932,35.30312],[135.94087,35.30403],[135.94222,35.30458],[135.94382,35.30484],[135.94559,35.30563],[135.94665,35.30578],[135.94837,35.30542],[135.94975,35.30417],[135.95096,35.30366],[135.95144,35.30434],[135.95149,35.30476],[135.95228,35.30519],[135.95299,35.30591],[135.95348,35.30584],[135.95308,35.30478],[135.95355,35.30371]]]},"properties":{"key":"252121100","name":"鹿ケ瀬","pref":"滋賀県","prefCode":"25","municipality":"高島市","areaM2":9586254.372,"population":151,"toponymIds":["25-70dd51bdb8"]}},{"type":"Feature","geometry":{"type":"Polygon","coordinates":[[[136.18139,35.06173],[136.18166,35.06147],[136.18354,35.06283],[136.1845,35.06202],[136.18426,35.06182],[136.18461,35.06183],[136.18511,35.06153],[136.18664,35.0599],[136.18693,35.05811],[136.18902,35.05814],[136.18982,35.05838],[136.18944,35.05738],[136.18983,35.05653],[136.18981,35.0559],[136.19057,35.05491],[136.19103,35.05367],[136.19028,35.05347],[136.19042,35.05382],[136.19013,35.05479],[136.18924,35.0544],[136.18904,35.05321],[136.18872,35.05306],[136.18857,35.05266],[136.18541,35.05092],[136.18419,35.05128],[136.18583,35.05229],[136.18409,35.05426],[136.18317,35.05371],[136.18065,35.05657],[136.17999,35.05709],[136.17847,35.05925],[136.17902,35.05937],[136.17886,35.05988],[136.17975,35.06024],[136.17913,35.0613],[136.17897,35.06203],[136.17837,35.0622],[136.17943,35.06298],[136.18086,35.06219],[136.18139,35.06173]]]},"properties":{"key":"252132050","name":"市子川原町","pref":"滋賀県","prefCode":"25","municipality":"東近江市","areaM2":755837.594,"population":451,"toponymIds":["25-242ac875c4"]}},{"type":"Feature","geometry":{"type":"Polygon","coordinates":[[[136.1735,35.0834],[136.17418,35.08304],[136.17451,35.08233],[136.17592,35.08129],[136.17586,35.08033],[136.17523,35.07962],[136.17554,35.07913],[136.17613,35.07897],[136.17563,35.07819],[136.17118,35.07691],[136.17079,35.07632],[136.17023,35.0762],[136.17002,35.07659],[136.16962,35.07657],[136.1694,35.07628],[136.16897,35.07623],[136.16831,35.07577],[136.16769,35.0757],[136.16816,35.0751],[136.16691,35.07441],[136.16652,35.07488],[136.1652,35.07446],[136.16464,35.07565],[136.16353,35.07706],[136.16251,35.07675],[136.16222,35.07906],[136.1639,35.07978],[136.1647,35.08094],[136.16614,35.08135],[136.1669,35.0824],[136.16703,35.08318],[136.16827,35.08365],[136.16877,35.08344],[136.16998,35.08333],[136.17264,35.08352],[136.1735,35.0834]]]},"properties":{"key":"252132140","name":"稲垂町","pref":"滋賀県","prefCode":"25","municipality":"東近江市","areaM2":797719.95,"population":92,"toponymIds":["25-5b8ab31a74"]}},{"type":"Feature","geometry":{"type":"Polygon","coordinates":[[[136.1629,35.17912],[136.1651,35.17811],[136.16565,35.17885],[136.16668,35.17836],[136.16729,35.17924],[136.16926,35.17816],[136.1681,35.17654],[136.16915,35.17638],[136.16867,35.17493],[136.16961,35.17428],[136.16947,35.17373],[136.17021,35.17385],[136.17027,35.1737],[136.17,35.17347],[136.17005,35.1733],[136.16989,35.17314],[136.1704,35.17281],[136.16976,35.17269],[136.16957,35.17246],[136.16802,35.17239],[136.167,35.17177],[136.16601,35.17175],[136.16569,35.17144],[136.16433,35.17095],[136.16426,35.17327],[136.16464,35.17436],[136.16499,35.17488],[136.16495,35.17606],[136.16268,35.17687],[136.15981,35.17845],[136.161,35.18016],[136.1629,35.17912]]]},"properties":{"key":"252132220","name":"猪子町","pref":"滋賀県","prefCode":"25","municipality":"東近江市","areaM2":414240.781,"population":902,"toponymIds":["25-240016f53d"]}},{"type":"Feature","geometry":{"type":"Polygon","coordinates":[[[136.24012,35.12316],[136.24032,35.12307],[136.24042,35.1233],[136.24102,35.12319],[136.24106,35.12294],[136.24124,35.1231],[136.24269,35.12245],[136.24392,35.12249],[136.24404,35.12192],[136.24426,35.122],[136.24517,35.12155],[136.24586,35.12095],[136.24605,35.12043],[136.2472,35.11988],[136.24644,35.11876],[136.24464,35.11987],[136.24347,35.11927],[136.24232,35.12014],[136.24159,35.11965],[136.24119,35.12004],[136.24099,35.11989],[136.23995,35.1198],[136.23854,35.12086],[136.23832,35.12066],[136.23746,35.12129],[136.23769,35.12173],[136.238,35.12161],[136.23848,35.1225],[136.23722,35.12294],[136.23739,35.12328],[136.23658,35.12356],[136.23743,35.12442],[136.23814,35.12429],[136.24012,35.12316]]]},"properties":{"key":"252131540","name":"梅林町","pref":"滋賀県","prefCode":"25","municipality":"東近江市","areaM2":259487.913,"population":72,"toponymIds":["25-68447ef26b"]}},{"type":"Feature","geometry":{"type":"Polygon","coordinates":[[[136.3059,35.10485],[136.30626,35.10486],[136.30702,35.10396],[136.30651,35.10285],[136.30647,35.10179],[136.30635,35.10157],[136.305,35.10119],[136.30335,35.0991],[136.30093,35.09765],[136.2999,35.0976],[136.29878,35.09802],[136.29827,35.09759],[136.29696,35.09709],[136.29335,35.09644],[136.29199,35.0965],[136.29106,35.09629],[136.2909,35.09613],[136.29071,35.09523],[136.29022,35.09482],[136.29021,35.09419],[136.2894,35.09224],[136.28802,35.09098],[136.28731,35.08987],[136.28605,35.08871],[136.28555,35.08837],[136.28347,35.0876],[136.28294,35.08807],[136.2823,35.08824],[136.27798,35.0882],[136.27582,35.08836],[136.26985,35.09048],[136.26683,35.09262],[136.26782,35.09332],[136.26775,35.09359],[136.26863,35.09414],[136.26885,35.09397],[136.26937,35.09405],[136.26962,35.09459],[136.27009,35.09479],[136.27279,35.09726],[136.27435,35.09624],[136.27698,35.09906],[136.27427,35.10115],[136.27462,35.10144],[136.27407,35.1017],[136.27424,35.10195],[136.27485,35.10174],[136.27535,35.10196],[136.27629,35.1008],[136.27663,35.10109],[136.27726,35.10062],[136.27796,35.10079],[136.27932,35.10055],[136.27885,35.09986],[136.27992,35.09926],[136.28206,35.09891],[136.28372,35.09797],[136.28547,35.09789],[136.2861,35.09804],[136.28657,35.09843],[136.28698,35.09838],[136.28762,35.09799],[136.28847,35.09837],[136.28817,35.09884],[136.28834,35.09925],[136.29354,35.10248],[136.2956,35.10322],[136.2979,35.10363],[136.29877,35.10351],[136.29912,35.10374],[136.30086,35.10522],[136.30083,35.1059],[136.3012,35.10641],[136.30149,35.10736],[136.30271,35.10916],[136.30306,35.10935],[136.30376,35.10889],[136.3045,35.1076],[136.30486,35.10609],[136.30525,35.10525],[136.3059,35.10485]]]},"properties":{"key":"252131470","name":"小倉町","pref":"滋賀県","prefCode":"25","municipality":"東近江市","areaM2":3062368.976,"population":285,"toponymIds":["25-3662e4c29d"]}},{"type":"Feature","geometry":{"type":"Polygon","coordinates":[[[136.23293,35.11959],[136.23355,35.11865],[136.23627,35.11988],[136.2358,35.12027],[136.23658,35.1206],[136.23669,35.12036],[136.23788,35.121],[136.23832,35.12066],[136.23854,35.12086],[136.24005,35.11976],[136.24099,35.11989],[136.24119,35.12004],[136.24159,35.11965],[136.24232,35.12014],[136.24347,35.11927],[136.24464,35.11987],[136.24613,35.11895],[136.24149,35.11823],[136.24191,35.11639],[136.24059,35.11617],[136.24011,35.11572],[136.23836,35.11562],[136.23809,35.11574],[136.23847,35.11509],[136.24065,35.1132],[136.2385,35.11081],[136.23754,35.11012],[136.23746,35.1099],[136.23641,35.11013],[136.23576,35.11002],[136.23338,35.10786],[136.22842,35.11112],[136.23027,35.1132],[136.23007,35.11303],[136.22914,35.11405],[136.22717,35.11431],[136.228,35.1153],[136.22734,35.1157],[136.22779,35.11621],[136.22701,35.11668],[136.2286,35.11841],[136.22946,35.11789],[136.23075,35.11956],[136.23024,35.12006],[136.23105,35.12061],[136.23071,35.12105],[136.23116,35.12138],[136.23248,35.12024],[136.23293,35.11959]]]},"properties":{"key":"252131530","name":"上岸本町","pref":"滋賀県","prefCode":"25","municipality":"東近江市","areaM2":1260178.663,"population":294,"toponymIds":["25-7d56211f86"]}},{"type":"Feature","geometry":{"type":"Polygon","coordinates":[[[136.16317,35.05302],[136.16336,35.0528],[136.16426,35.05319],[136.16592,35.05294],[136.16719,35.05295],[136.16902,35.05093],[136.16938,35.05116],[136.17096,35.04973],[136.17235,35.04896],[136.1728,35.04787],[136.17277,35.04633],[136.17224,35.04456],[136.17148,35.04361],[136.17039,35.04273],[136.16926,35.04129],[136.16934,35.0407],[136.17025,35.03825],[136.17007,35.03737],[136.17041,35.03662],[136.1705,35.03562],[136.17109,35.03424],[136.17067,35.03392],[136.17093,35.03357],[136.17079,35.03291],[136.17007,35.03248],[136.17032,35.03212],[136.17025,35.03194],[136.16915,35.03096],[136.16873,35.03042],[136.16879,35.03017],[136.16847,35.02998],[136.16824,35.02888],[136.16828,35.02846],[136.16854,35.0281],[136.1671,35.02855],[136.16654,35.02923],[136.16564,35.02897],[136.16544,35.02936],[136.16564,35.02967],[136.16527,35.03007],[136.16296,35.03103],[136.16289,35.03349],[136.1631,35.03442],[136.16292,35.03541],[136.16281,35.04277],[136.16346,35.04261],[136.16403,35.04412],[136.16424,35.04416],[136.16358,35.04556],[136.16345,35.04626],[136.16157,35.04817],[136.16108,35.04894],[136.16006,35.04981],[136.15984,35.05033],[136.16068,35.05065],[136.16263,35.0518],[136.16158,35.05265],[136.16288,35.05339],[136.16317,35.05302]]]},"properties":{"key":"252131940","name":"蒲生堂町","pref":"滋賀県","prefCode":"25","municipality":"東近江市","areaM2":1861568.826,"population":2377,"toponymIds":["25-8439950644"]}},{"type":"Feature","geometry":{"type":"Polygon","coordinates":[[[136.18719,35.04718],[136.1886,35.04555],[136.1822,35.04181],[136.18264,35.04067],[136.18167,35.03952],[136.1809,35.03767],[136.18106,35.0358],[136.18119,35.0354],[136.18152,35.03512],[136.18073,35.03544],[136.17962,35.03627],[136.17866,35.03737],[136.17591,35.03968],[136.17582,35.03998],[136.17657,35.04055],[136.17494,35.04131],[136.17734,35.04363],[136.17718,35.04397],[136.17701,35.04599],[136.1779,35.04655],[136.17836,35.04626],[136.17861,35.04644],[136.17901,35.04609],[136.18005,35.04671],[136.17947,35.04737],[136.18161,35.04877],[136.18307,35.04704],[136.18495,35.04816],[136.18626,35.04664],[136.18719,35.04718]]]},"properties":{"key":"252131920","name":"蒲生大森町","pref":"滋賀県","prefCode":"25","municipality":"東近江市","areaM2":782740.227,"population":115,"toponymIds":["25-df32272806"]}},{"type":"Feature","geometry":{"type":"Polygon","coordinates":[[[136.20934,35.04599],[136.20981,35.04593],[136.21029,35.04552],[136.21038,35.04491],[136.21155,35.04378],[136.21327,35.04284],[136.21416,35.04213],[136.2144,35.0418],[136.21412,35.04112],[136.21287,35.04092],[136.21143,35.04134],[136.21043,35.04143],[136.2097,35.0411],[136.20809,35.03947],[136.20249,35.03898],[136.19763,35.0361],[136.1946,35.03449],[136.19261,35.03626],[136.19337,35.03618],[136.19403,35.03649],[136.19228,35.03859],[136.19338,35.03923],[136.1923,35.0405],[136.19282,35.04074],[136.19074,35.0431],[136.19238,35.04415],[136.19359,35.04478],[136.19431,35.04445],[136.19508,35.04435],[136.19473,35.04518],[136.19818,35.04601],[136.19845,35.04575],[136.19869,35.04573],[136.19914,35.04598],[136.19924,35.04634],[136.20078,35.04626],[136.20133,35.04641],[136.20221,35.04578],[136.20332,35.04601],[136.20462,35.04552],[136.20561,35.04568],[136.20618,35.04529],[136.20689,35.04534],[136.20855,35.04668],[136.20934,35.04599]]]},"properties":{"key":"252131870","name":"蒲生岡本町","pref":"滋賀県","prefCode":"25","municipality":"東近江市","areaM2":1509377.433,"population":230,"toponymIds":["25-8bfb5292b8"]}},{"type":"Feature","geometry":{"type":"Polygon","coordinates":[[[136.20314,35.0595],[136.20336,35.05909],[136.2036,35.05909],[136.20383,35.05855],[136.20372,35.05764],[136.2034,35.05691],[136.20132,35.05657],[136.20215,35.05613],[136.204,35.05456],[136.20395,35.05391],[136.20445,35.05342],[136.20446,35.05319],[136.20438,35.05296],[136.20388,35.05262],[136.20392,35.05163],[136.20419,35.05149],[136.2054,35.04953],[136.20673,35.04532],[136.20609,35.04529],[136.20561,35.04568],[136.20462,35.04552],[136.20332,35.04601],[136.20221,35.04578],[136.20133,35.04641],[136.20021,35.04976],[136.19909,35.05041],[136.19825,35.05063],[136.19827,35.05301],[136.19801,35.05337],[136.19769,35.05525],[136.19791,35.05559],[136.19787,35.05579],[136.19725,35.05623],[136.19625,35.05611],[136.19565,35.05624],[136.19544,35.05656],[136.1954,35.05769],[136.19495,35.05808],[136.19407,35.05833],[136.19546,35.05898],[136.19556,35.05996],[136.19682,35.06171],[136.19986,35.06327],[136.2017,35.06087],[136.20239,35.06011],[136.20284,35.05994],[136.20314,35.0595]]]},"properties":{"key":"252132090","name":"蒲生寺町","pref":"滋賀県","prefCode":"25","municipality":"東近江市","areaM2":1016275.353,"population":160,"toponymIds":["25-51dc8e76fd"]}},{"type":"Feature","geometry":{"type":"Polygon","coordinates":[[[136.20021,35.09884],[136.20146,35.0975],[136.20248,35.09819],[136.20502,35.09546],[136.20399,35.0948],[136.20449,35.09426],[136.20351,35.09362],[136.20373,35.09339],[136.20264,35.09269],[136.202,35.09289],[136.20071,35.09069],[136.20172,35.09034],[136.20191,35.09002],[136.2003,35.08833],[136.20054,35.08794],[136.20115,35.08772],[136.20092,35.08736],[136.20029,35.08709],[136.20008,35.08666],[136.19856,35.08564],[136.19949,35.085],[136.20003,35.08438],[136.20037,35.0836],[136.19988,35.084],[136.19994,35.08366],[136.19955,35.0818],[136.19882,35.08118],[136.19826,35.08093],[136.19813,35.08068],[136.19656,35.08099],[136.19647,35.08122],[136.19476,35.08147],[136.19253,35.08233],[136.19093,35.08322],[136.19236,35.08511],[136.19221,35.08746],[136.19181,35.08786],[136.19192,35.08843],[136.19138,35.08928],[136.19171,35.08927],[136.19215,35.09029],[136.19306,35.09054],[136.19454,35.09126],[136.19634,35.09277],[136.19665,35.09328],[136.19681,35.09469],[136.19681,35.09549],[136.19656,35.09652],[136.20021,35.09884]]]},"properties":{"key":"252130200","name":"芝原町","pref":"滋賀県","prefCode":"25","municipality":"東近江市","areaM2":1274071.898,"population":287,"toponymIds":["25-e248e6c7ef"]}},{"type":"Feature","geometry":{"type":"Polygon","coordinates":[[[136.23384,35.12637],[136.23417,35.1262],[136.23462,35.12674],[136.23546,35.12626],[136.23512,35.12592],[136.23697,35.12503],[136.23675,35.12479],[136.23618,35.12441],[136.23486,35.12489],[136.23435,35.12528],[136.2273,35.11985],[136.22481,35.12124],[136.22356,35.11964],[136.22297,35.11997],[136.22172,35.11841],[136.22114,35.11876],[136.21997,35.11987],[136.21911,35.12118],[136.22006,35.12157],[136.22026,35.12146],[136.22283,35.12272],[136.22315,35.12278],[136.22352,35.12226],[136.22457,35.12267],[136.22516,35.12268],[136.22573,35.12305],[136.22731,35.12414],[136.22707,35.12661],[136.22732,35.12683],[136.22906,35.12735],[136.2301,35.12857],[136.23101,35.12809],[136.23099,35.12796],[136.23352,35.12717],[136.2333,35.12673],[136.23384,35.12637]]]},"properties":{"key":"252131770","name":"下岸本町","pref":"滋賀県","prefCode":"25","municipality":"東近江市","areaM2":590568.365,"population":199,"toponymIds":["25-bff8d3e6ae"]}},{"type":"Feature","geometry":{"type":"Polygon","coordinates":[[[136.23486,35.12489],[136.23618,35.12441],[136.23697,35.12503],[136.23794,35.12464],[136.23768,35.12437],[136.23743,35.12442],[136.23658,35.12356],[136.23739,35.12328],[136.23722,35.12294],[136.23848,35.1225],[136.238,35.12161],[136.23769,35.12173],[136.23746,35.12129],[136.23788,35.121],[136.23669,35.12036],[136.23658,35.1206],[136.2358,35.12027],[136.23627,35.11988],[136.23355,35.11865],[136.23248,35.12024],[136.23116,35.12138],[136.23071,35.12105],[136.23105,35.12061],[136.23024,35.12006],[136.23075,35.11956],[136.22946,35.11789],[136.2286,35.11841],[136.22701,35.11668],[136.22631,35.11709],[136.22587,35.11657],[136.22531,35.11673],[136.22519,35.1166],[136.22501,35.11694],[136.22442,35.11696],[136.22458,35.11725],[136.22172,35.11841],[136.22297,35.11997],[136.22356,35.11964],[136.22481,35.12124],[136.2273,35.11985],[136.23435,35.12528],[136.23486,35.12489]]]},"properties":{"key":"252131760","name":"中岸本町","pref":"滋賀県","prefCode":"25","municipality":"東近江市","areaM2":561888.021,"population":187,"toponymIds":["25-c7d0c82716"]}},{"type":"Feature","geometry":{"type":"Polygon","coordinates":[[[136.18748,35.09627],[136.18669,35.09416],[136.18706,35.09407],[136.18641,35.0923],[136.18846,35.09185],[136.18835,35.09098],[136.18915,35.09076],[136.18922,35.09022],[136.18881,35.08925],[136.18867,35.08809],[136.18778,35.08863],[136.18766,35.08901],[136.18661,35.08868],[136.18643,35.08897],[136.18597,35.08883],[136.18632,35.08776],[136.18595,35.08678],[136.18795,35.08559],[136.18901,35.08547],[136.18926,35.08426],[136.19011,35.08364],[136.19253,35.08233],[136.19476,35.08147],[136.19647,35.08122],[136.19656,35.08099],[136.19571,35.08067],[136.19419,35.08063],[136.19446,35.07766],[136.19464,35.07723],[136.19509,35.07684],[136.19761,35.07563],[136.19754,35.07528],[136.19743,35.07507],[136.19609,35.07434],[136.1944,35.07289],[136.19294,35.07213],[136.19234,35.07198],[136.19137,35.07197],[136.19024,35.0724],[136.18978,35.07241],[136.18901,35.07397],[136.18667,35.0749],[136.18441,35.07762],[136.18354,35.07836],[136.1814,35.07966],[136.18248,35.08199],[136.18549,35.08999],[136.1817,35.09094],[136.18195,35.09164],[136.18119,35.09184],[136.18144,35.09253],[136.17887,35.09318],[136.17925,35.09386],[136.17888,35.09395],[136.17965,35.09604],[136.18165,35.09549],[136.18344,35.10026],[136.18444,35.10011],[136.18544,35.09964],[136.18712,35.09924],[136.18615,35.09642],[136.18748,35.09627]]]},"properties":{"key":"252130120","name":"蛇溝町","pref":"滋賀県","prefCode":"25","municipality":"東近江市","areaM2":1954057.669,"population":851,"toponymIds":["25-b1c7fdbd36"]}},{"type":"Feature","geometry":{"type":"Polygon","coordinates":[[[136.26411,35.3006],[136.26344,35.2991],[136.26456,35.29855],[136.26481,35.29619],[136.2656,35.29591],[136.26618,35.29593],[136.268,35.29785],[136.27022,35.29854],[136.27268,35.30082],[136.27391,35.30414],[136.27487,35.30432],[136.27786,35.30405],[136.27875,35.30419],[136.27962,35.30458],[136.28056,35.30399],[136.28138,35.30388],[136.28147,35.3023],[136.28202,35.3023],[136.28195,35.29911],[136.28217,35.29909],[136.2822,35.29702],[136.27991,35.29713],[136.27987,35.29625],[136.27521,35.29654],[136.27484,35.29672],[136.27456,35.29664],[136.27373,35.29681],[136.27363,35.29648],[136.27229,35.29661],[136.26998,35.29643],[136.2696,35.29653],[136.26885,35.29612],[136.26858,35.2942],[136.26787,35.29429],[136.26744,35.29462],[136.26633,35.29469],[136.26547,35.2944],[136.26502,35.29456],[136.26361,35.29423],[136.26359,35.29454],[136.26342,35.29464],[136.26303,35.29457],[136.26253,35.29414],[136.26256,35.2939],[136.26225,35.2938],[136.26134,35.29421],[136.26076,35.29425],[136.26031,35.29461],[136.26041,35.29475],[136.26061,35.29471],[136.26064,35.29513],[136.26035,35.29512],[136.26017,35.29594],[136.25983,35.29623],[136.25982,35.29816],[136.25918,35.29833],[136.25874,35.29816],[136.25821,35.29899],[136.25876,35.2993],[136.25875,35.29953],[136.25786,35.30042],[136.25735,35.30057],[136.25667,35.3005],[136.25397,35.29959],[136.25338,35.30038],[136.25386,35.30055],[136.25387,35.30098],[136.25481,35.30173],[136.25659,35.30359],[136.25963,35.30687],[136.26004,35.30755],[136.25888,35.3083],[136.25935,35.30846],[136.2607,35.30986],[136.26588,35.3164],[136.2672,35.31584],[136.26565,35.31309],[136.26438,35.31029],[136.26414,35.3073],[136.26421,35.30701],[136.26581,35.30615],[136.26497,35.30494],[136.26427,35.3048],[136.26292,35.30377],[136.26259,35.3025],[136.26264,35.30195],[136.26387,35.30124],[136.26411,35.3006]]]},"properties":{"key":"252140630","name":"磯","pref":"滋賀県","prefCode":"25","municipality":"米原市","areaM2":1965595.752,"population":1004,"toponymIds":["25-a2daf183e9"]}},{"type":"Feature","geometry":{"type":"Polygon","coordinates":[[[136.29206,35.31112],[136.29293,35.31089],[136.29308,35.31118],[136.29389,35.31126],[136.29549,35.30994],[136.29619,35.30966],[136.29684,35.30976],[136.29607,35.30865],[136.29601,35.3081],[136.29622,35.30772],[136.2962,35.30693],[136.29711,35.30625],[136.29789,35.30524],[136.29807,35.30474],[136.29765,35.30367],[136.29773,35.30134],[136.29823,35.30133],[136.30056,35.30204],[136.30115,35.30202],[136.30065,35.30178],[136.30049,35.30114],[136.29983,35.30046],[136.29937,35.2997],[136.29788,35.29892],[136.29692,35.29879],[136.29637,35.29981],[136.29483,35.30072],[136.29448,35.29951],[136.29327,35.29906],[136.29299,35.29908],[136.29143,35.29942],[136.29104,35.29986],[136.29055,35.30004],[136.29044,35.30041],[136.29006,35.30081],[136.28829,35.30157],[136.28698,35.30039],[136.28688,35.29988],[136.28645,35.29935],[136.28626,35.29877],[136.28638,35.29776],[136.28601,35.29677],[136.2822,35.29702],[136.28217,35.29909],[136.28195,35.29911],[136.28202,35.3023],[136.28147,35.3023],[136.28138,35.30388],[136.28056,35.30399],[136.27977,35.30454],[136.27943,35.30458],[136.28095,35.30528],[136.28302,35.30478],[136.28337,35.30499],[136.28393,35.30636],[136.28336,35.30706],[136.28333,35.30734],[136.28416,35.30837],[136.28519,35.30859],[136.28625,35.30907],[136.28589,35.31014],[136.28783,35.31083],[136.28837,35.31239],[136.29048,35.31229],[136.29072,35.31216],[136.29055,35.31193],[136.29219,35.31148],[136.29206,35.31112]]]},"properties":{"key":"252140500","name":"梅ケ原","pref":"滋賀県","prefCode":"25","municipality":"米原市","areaM2":1750855.334,"population":862,"toponymIds":["25-fce30a337d"]}},{"type":"Feature","geometry":{"type":"Polygon","coordinates":[[[136.28776,35.3129],[136.2879,35.31232],[136.2884,35.31257],[136.28783,35.31083],[136.28589,35.31014],[136.28456,35.3118],[136.28521,35.31201],[136.2855,35.31193],[136.28567,35.3123],[136.28746,35.31185],[136.28776,35.3129]]]},"properties":{"key":"252140510","name":"梅ヶ原栄","pref":"滋賀県","prefCode":"25","municipality":"米原市","areaM2":49619.546,"population":280,"toponymIds":["25-31e1d30e8d"]}},{"type":"Feature","geometry":{"type":"Polygon","coordinates":[[[136.42214,35.44236],[136.42209,35.44106],[136.42314,35.43991],[136.42213,35.43901],[136.42018,35.43611],[136.41933,35.43538],[136.41843,35.43506],[136.41724,35.4341],[136.4159,35.43366],[136.4154,35.43271],[136.41547,35.43172],[136.41602,35.43107],[136.41629,35.43029],[136.41809,35.42887],[136.41864,35.42826],[136.41878,35.42772],[136.41818,35.42664],[136.4154,35.42524],[136.41423,35.42447],[136.41333,35.42352],[136.41203,35.42256],[136.41161,35.42175],[136.40319,35.41967],[136.39814,35.41736],[136.39643,35.41783],[136.3934,35.41935],[136.39227,35.41941],[136.39059,35.4192],[136.38963,35.4187],[136.38769,35.41698],[136.38558,35.41472],[136.38308,35.41314],[136.38235,35.41248],[136.38172,35.41134],[136.38168,35.41024],[136.38213,35.40863],[136.38259,35.40774],[136.38341,35.40744],[136.38217,35.40709],[136.3812,35.4071],[136.38068,35.40739],[136.38025,35.40793],[136.37984,35.40932],[136.37957,35.40962],[136.37889,35.40972],[136.3791,35.4108],[136.37894,35.41225],[136.37931,35.41413],[136.37925,35.41516],[136.37877,35.41626],[136.37782,35.4171],[136.37703,35.41809],[136.3749,35.41964],[136.37473,35.42002],[136.37428,35.42035],[136.37281,35.41964],[136.37167,35.41948],[136.3663,35.42001],[136.36413,35.42045],[136.36236,35.42102],[136.36096,35.42117],[136.35912,35.42195],[136.35891,35.4225],[136.3579,35.4231],[136.35718,35.42457],[136.35735,35.42565],[136.35722,35.4267],[136.35794,35.42641],[136.35877,35.42644],[136.36122,35.42707],[136.36337,35.42717],[136.36466,35.42755],[136.36679,35.42665],[136.36872,35.42624],[136.36917,35.4263],[136.36954,35.42657],[136.37015,35.4273],[136.37087,35.42749],[136.37259,35.4275],[136.37373,35.42778],[136.37402,35.42807],[136.37391,35.4293],[136.37428,35.43043],[136.37463,35.43059],[136.37535,35.43028],[136.37631,35.43026],[136.37762,35.4313],[136.378,35.4318],[136.37895,35.43203],[136.37975,35.43186],[136.38184,35.43276],[136.38363,35.4328],[136.38438,35.43345],[136.38525,35.43327],[136.3867,35.43389],[136.38738,35.43292],[136.38787,35.43262],[136.38805,35.43265],[136.38807,35.433],[136.38842,35.43324],[136.38905,35.43332],[136.38927,35.43347],[136.38938,35.43389],[136.39034,35.4343],[136.39132,35.43434],[136.39179,35.43386],[136.39217,35.43384],[136.39322,35.4341],[136.39378,35.43392],[136.39439,35.43403],[136.395,35.43462],[136.39571,35.43489],[136.39736,35.43443],[136.39841,35.4347],[136.40068,35.4348],[136.40044,35.43546],[136.40046,35.43642],[136.4009,35.43702],[136.40296,35.43874],[136.40415,35.43897],[136.40391,35.43951],[136.40404,35.43973],[136.40472,35.44014],[136.40547,35.441],[136.40599,35.44111],[136.40632,35.44193],[136.40672,35.44212],[136.40743,35.44202],[136.4081,35.44213],[136.41001,35.44261],[136.41276,35.44371],[136.41357,35.44436],[136.41537,35.44853],[136.41594,35.44929],[136.41721,35.44979],[136.41992,35.45034],[136.4224,35.45033],[136.42386,35.45016],[136.42577,35.44957],[136.4261,35.44918],[136.42619,35.44835],[136.42355,35.4452],[136.42274,35.44327],[136.42214,35.44236]]]},"properties":{"key":"252140370","name":"大久保","pref":"滋賀県","prefCode":"25","municipality":"米原市","areaM2":9939342.292,"population":127,"toponymIds":["25-548f4aa3b9"]}},{"type":"Feature","geometry":{"type":"Polygon","coordinates":[[[136.3457,35.35886],[136.34558,35.35875],[136.34629,35.35894],[136.34709,35.35889],[136.34873,35.35841],[136.34883,35.35825],[136.34948,35.35829],[136.34953,35.358],[136.34991,35.35789],[136.35012,35.35787],[136.35008,35.35807],[136.35138,35.35812],[136.35117,35.35773],[136.3506,35.35726],[136.35127,35.35168],[136.35068,35.3512],[136.35054,35.35088],[136.35092,35.34783],[136.35163,35.34712],[136.35142,35.3464],[136.35032,35.34561],[136.34972,35.34648],[136.34383,35.34605],[136.34239,35.34543],[136.34166,35.34532],[136.34026,35.34543],[136.33942,35.34622],[136.33845,35.34586],[136.33727,35.34605],[136.33612,35.34713],[136.33627,35.34769],[136.33603,35.34804],[136.33663,35.34903],[136.33658,35.34979],[136.33712,35.35054],[136.33807,35.35104],[136.34,35.35327],[136.34172,35.35383],[136.34208,35.35498],[136.34198,35.35552],[136.3425,35.35551],[136.34243,35.35602],[136.3417,35.3559],[136.34103,35.35678],[136.34075,35.35874],[136.3458,35.35917],[136.3457,35.35886]]]},"properties":{"key":"252140110","name":"大鹿","pref":"滋賀県","prefCode":"25","municipality":"米原市","areaM2":1520249.756,"population":321,"toponymIds":["25-6cbdf557cd"]}},{"type":"Feature","geometry":{"type":"Polygon","coordinates":[[[136.33739,35.37909],[136.3379,35.37877],[136.33838,35.37819],[136.33878,35.37726],[136.3405,35.37458],[136.34153,35.37504],[136.34262,35.37454],[136.34316,35.37404],[136.34321,35.37339],[136.34363,35.37257],[136.34365,35.37135],[136.34336,35.37081],[136.34397,35.36909],[136.34394,35.36825],[136.34341,35.36747],[136.34206,35.36679],[136.34217,35.36564],[136.34064,35.3655],[136.34163,35.36411],[136.33977,35.3644],[136.33814,35.36447],[136.33703,35.36532],[136.33538,35.36604],[136.33411,35.36762],[136.33411,35.36845],[136.33388,35.36929],[136.33347,35.36997],[136.33374,35.3716],[136.3343,35.37276],[136.33439,35.37335],[136.33527,35.37472],[136.3354,35.37531],[136.33602,35.37615],[136.33607,35.37668],[136.33646,35.37744],[136.33643,35.37802],[136.33739,35.37909]]]},"properties":{"key":"252140090","name":"菅江","pref":"滋賀県","prefCode":"25","municipality":"米原市","areaM2":1004817.891,"population":127,"toponymIds":["25-4f78ddc846"]}},{"type":"Feature","geometry":{"type":"Polygon","coordinates":[[[136.32072,35.32625],[136.32119,35.32549],[136.3214,35.3245],[136.31945,35.32495],[136.31835,35.32498],[136.31858,35.32432],[136.31854,35.32316],[136.31962,35.32273],[136.31821,35.3215],[136.317,35.32117],[136.3161,35.32115],[136.31453,35.32064],[136.31427,35.31982],[136.31472,35.31923],[136.31453,35.31814],[136.31475,35.31761],[136.31476,35.31684],[136.31451,35.31609],[136.31138,35.31918],[136.30978,35.32018],[136.30894,35.32051],[136.30932,35.32289],[136.30907,35.32404],[136.30899,35.32592],[136.30986,35.32594],[136.31011,35.32768],[136.31288,35.3282],[136.31521,35.32903],[136.31685,35.32925],[136.31776,35.329],[136.31945,35.32792],[136.32072,35.32625]]]},"properties":{"key":"252140790","name":"寺倉","pref":"滋賀県","prefCode":"25","municipality":"米原市","areaM2":898169.655,"population":250,"toponymIds":["25-efecaf5937"]}}]}
