{"type":"FeatureCollection","features":[{"type":"Feature","geometry":{"type":"Polygon","coordinates":[[[135.52156,35.02333],[135.52208,35.02308],[135.52208,35.02371],[135.52225,35.02401],[135.52294,35.02428],[135.52434,35.02367],[135.52584,35.02362],[135.52575,35.02276],[135.52672,35.02248],[135.52663,35.02364],[135.52935,35.02379],[135.52988,35.02331],[135.52987,35.02122],[135.53153,35.01997],[135.53139,35.01924],[135.53012,35.01962],[135.53018,35.01913],[135.52889,35.01973],[135.52988,35.01825],[135.52975,35.01823],[135.52925,35.01825],[135.52854,35.01875],[135.52729,35.01903],[135.5246,35.0186],[135.52127,35.01966],[135.51826,35.02095],[135.5173,35.02108],[135.5189,35.02457],[135.52156,35.02333]]]},"properties":{"key":"26206036006","name":"稗田野町柿花","pref":"京都府","prefCode":"26","municipality":"亀岡市","areaM2":551568.431,"population":205,"toponymIds":["26-966640db9e","26-e4cfc90ac3"]}},{"type":"Feature","geometry":{"type":"Polygon","coordinates":[[[135.51275,35.02368],[135.51569,35.0215],[135.51826,35.02095],[135.52127,35.01966],[135.51976,35.01946],[135.51962,35.0186],[135.51889,35.01859],[135.5194,35.01836],[135.51992,35.01763],[135.51899,35.01688],[135.52127,35.01585],[135.51944,35.01414],[135.51939,35.01383],[135.51967,35.01334],[135.51854,35.01351],[135.51806,35.01385],[135.51769,35.01367],[135.51658,35.01403],[135.51708,35.01314],[135.51794,35.01273],[135.5181,35.01248],[135.5167,35.01234],[135.51599,35.01249],[135.51577,35.01224],[135.51707,35.01121],[135.51697,35.01061],[135.51651,35.01016],[135.51739,35.01003],[135.5176,35.00965],[135.51749,35.00924],[135.51772,35.00897],[135.51821,35.00893],[135.51913,35.00944],[135.51974,35.01026],[135.52137,35.01115],[135.52225,35.01138],[135.52357,35.01137],[135.52562,35.01001],[135.52591,35.0109],[135.52644,35.01136],[135.52671,35.01152],[135.52763,35.01157],[135.52877,35.01144],[135.52979,35.01108],[135.53092,35.01022],[135.5313,35.00936],[135.5317,35.00946],[135.53229,35.00898],[135.53263,35.00901],[135.53296,35.00967],[135.53324,35.00988],[135.53476,35.00893],[135.53368,35.00851],[135.53307,35.00726],[135.53056,35.00675],[135.52954,35.00615],[135.52916,35.00564],[135.52882,35.00567],[135.52784,35.00529],[135.52688,35.00321],[135.52649,35.00133],[135.52367,35.0016],[135.52319,35.00201],[135.52292,35.00269],[135.52262,35.00299],[135.52183,35.00338],[135.51919,35.00334],[135.51692,35.0028],[135.5161,35.00247],[135.51531,35.00167],[135.51324,34.99746],[135.51215,34.99653],[135.51155,34.99644],[135.50878,34.99735],[135.50855,34.99562],[135.50771,34.99549],[135.50667,34.99575],[135.5048,34.99655],[135.50417,34.99658],[135.50353,34.99629],[135.50227,34.99511],[135.50145,34.99466],[135.50058,34.99446],[135.49997,34.99322],[135.49879,34.99368],[135.49833,34.9937],[135.49801,34.99331],[135.49817,34.99274],[135.49972,34.99196],[135.49995,34.99141],[135.49895,34.99061],[135.49694,34.98947],[135.49556,34.99113],[135.49474,34.99171],[135.49438,34.9922],[135.49453,34.99309],[135.49442,34.99355],[135.49398,34.99426],[135.49274,34.99523],[135.49295,34.99602],[135.49475,34.99937],[135.49521,34.99994],[135.49613,35.00063],[135.49669,35.00177],[135.49705,35.00198],[135.49755,35.0035],[135.49808,35.0043],[135.49809,35.00514],[135.49845,35.00587],[135.49914,35.00659],[135.49949,35.00778],[135.49981,35.00832],[135.50136,35.00997],[135.50353,35.01116],[135.50553,35.0117],[135.50613,35.0121],[135.50641,35.01256],[135.50696,35.01387],[135.50706,35.01528],[135.50631,35.01664],[135.50603,35.01762],[135.50597,35.01833],[135.50641,35.01964],[135.50571,35.02059],[135.50527,35.02049],[135.50518,35.01985],[135.5047,35.0188],[135.50519,35.01772],[135.50516,35.01715],[135.50497,35.01714],[135.5045,35.01839],[135.50423,35.01858],[135.50435,35.01988],[135.50479,35.02078],[135.50452,35.02104],[135.50475,35.02131],[135.50533,35.02147],[135.50574,35.02215],[135.50613,35.02213],[135.50662,35.02285],[135.50712,35.0232],[135.51275,35.02368]]]},"properties":{"key":"26206036008","name":"稗田野町芦ノ山","pref":"京都府","prefCode":"26","municipality":"亀岡市","areaM2":5720385.795,"population":192,"toponymIds":["26-35165aaeb0","26-1fee6eac1d"]}},{"type":"Feature","geometry":{"type":"Polygon","coordinates":[[[135.52936,35.03755],[135.53165,35.03742],[135.53213,35.03708],[135.53343,35.03509],[135.53485,35.03466],[135.53502,35.03449],[135.53571,35.03297],[135.53568,35.0316],[135.53536,35.03062],[135.536,35.03034],[135.53696,35.02947],[135.53726,35.02819],[135.53764,35.02776],[135.54082,35.02769],[135.54077,35.02736],[135.54033,35.02695],[135.54038,35.02631],[135.54023,35.02617],[135.53919,35.02628],[135.53823,35.02601],[135.53787,35.02565],[135.53677,35.02563],[135.53635,35.02588],[135.53543,35.02543],[135.53503,35.02545],[135.53439,35.02443],[135.53449,35.02385],[135.53472,35.02355],[135.5339,35.02349],[135.53451,35.02199],[135.53176,35.02192],[135.52935,35.02379],[135.52671,35.02368],[135.52658,35.02347],[135.52672,35.02248],[135.52575,35.02276],[135.52584,35.02362],[135.52639,35.02368],[135.5265,35.02394],[135.52598,35.02438],[135.5241,35.02487],[135.52377,35.02538],[135.52371,35.02586],[135.52277,35.02574],[135.52211,35.0265],[135.52202,35.02683],[135.52213,35.02712],[135.52001,35.02927],[135.51982,35.02918],[135.51909,35.03005],[135.51769,35.02946],[135.51754,35.02983],[135.51732,35.02985],[135.51656,35.02936],[135.51642,35.02963],[135.51611,35.02977],[135.51632,35.03026],[135.51587,35.03043],[135.51576,35.03066],[135.51478,35.03086],[135.51454,35.0312],[135.51428,35.03045],[135.5139,35.03042],[135.51375,35.03009],[135.51246,35.02888],[135.51214,35.02951],[135.51221,35.03019],[135.51205,35.03101],[135.51276,35.03229],[135.51221,35.03264],[135.51186,35.03204],[135.51106,35.0316],[135.51093,35.03119],[135.51019,35.03143],[135.50919,35.03112],[135.50838,35.03137],[135.50748,35.03118],[135.50618,35.03137],[135.50678,35.03273],[135.50684,35.0335],[135.50591,35.03472],[135.5059,35.03545],[135.5067,35.03737],[135.50699,35.03876],[135.51006,35.03875],[135.51314,35.03782],[135.51569,35.03654],[135.51652,35.03654],[135.51723,35.03683],[135.51864,35.03681],[135.51906,35.03691],[135.5196,35.03741],[135.51917,35.03853],[135.51912,35.0394],[135.52056,35.04069],[135.52237,35.04146],[135.52312,35.04147],[135.52339,35.04141],[135.52437,35.04036],[135.52613,35.03992],[135.52712,35.03938],[135.5285,35.0379],[135.52892,35.03762],[135.52936,35.03755]]]},"properties":{"key":"26206036005","name":"稗田野町鹿谷","pref":"京都府","prefCode":"26","municipality":"亀岡市","areaM2":3361319.427,"population":181,"toponymIds":["26-f885674202","26-a3972b499f"]}},{"type":"Feature","geometry":{"type":"Polygon","coordinates":[[[135.56872,35.02699],[135.57581,35.02445],[135.5752,35.02362],[135.57512,35.02324],[135.57419,35.02292],[135.57444,35.02278],[135.57428,35.02219],[135.57522,35.02162],[135.57531,35.02106],[135.57707,35.02083],[135.57704,35.02053],[135.5774,35.02051],[135.57732,35.01965],[135.5777,35.01929],[135.57519,35.0195],[135.57401,35.02053],[135.57116,35.02182],[135.56992,35.02176],[135.56964,35.02118],[135.56889,35.02129],[135.56892,35.02177],[135.56845,35.0218],[135.56826,35.02206],[135.56724,35.02205],[135.56709,35.02302],[135.56737,35.02348],[135.56744,35.02462],[135.56696,35.02612],[135.56812,35.02642],[135.56838,35.02659],[135.56831,35.02696],[135.56872,35.02699]]]},"properties":{"key":"262060290","name":"宇津根町","pref":"京都府","prefCode":"26","municipality":"亀岡市","areaM2":399131.488,"population":405,"toponymIds":["26-5fa794c667"]}},{"type":"Feature","geometry":{"type":"Polygon","coordinates":[[[135.58468,35.01919],[135.58567,35.01871],[135.58587,35.01884],[135.58603,35.01865],[135.58579,35.01849],[135.58582,35.01812],[135.58613,35.01793],[135.58586,35.01583],[135.58532,35.01526],[135.58449,35.0151],[135.58425,35.01429],[135.58327,35.01456],[135.583,35.01431],[135.58187,35.015],[135.58163,35.0148],[135.5797,35.01484],[135.5795,35.01516],[135.5783,35.01459],[135.57736,35.01546],[135.57756,35.01564],[135.57743,35.01634],[135.57674,35.01629],[135.57652,35.0167],[135.57658,35.01737],[135.57681,35.01734],[135.57742,35.0177],[135.57804,35.01758],[135.57851,35.01772],[135.57702,35.01811],[135.57905,35.0183],[135.58037,35.01904],[135.58207,35.0189],[135.58468,35.01919]]]},"properties":{"key":"262060240","name":"追分町","pref":"京都府","prefCode":"26","municipality":"亀岡市","areaM2":346284.093,"population":692,"toponymIds":["26-091fd6ddfe"]}},{"type":"Feature","geometry":{"type":"Polygon","coordinates":[[[135.54659,35.03194],[135.54906,35.03193],[135.54918,35.03166],[135.54944,35.03167],[135.54946,35.03096],[135.54996,35.03095],[135.54998,35.02983],[135.55023,35.02947],[135.55036,35.02844],[135.55035,35.02699],[135.54828,35.02708],[135.54669,35.02698],[135.54659,35.0319],[135.54506,35.03185],[135.54432,35.0316],[135.54186,35.03151],[135.54179,35.03173],[135.54117,35.03154],[135.53568,35.0316],[135.53571,35.03297],[135.54342,35.034],[135.54296,35.0348],[135.54664,35.03471],[135.54659,35.03194]]]},"properties":{"key":"26206040006","name":"大井町北金岐","pref":"京都府","prefCode":"26","municipality":"亀岡市","areaM2":415160.532,"population":46,"toponymIds":["26-d8ab3317de"]}},{"type":"Feature","geometry":{"type":"Polygon","coordinates":[[[135.5713,35.02178],[135.57401,35.02053],[135.5753,35.01939],[135.57456,35.01929],[135.57406,35.01905],[135.57337,35.01783],[135.57233,35.01802],[135.57221,35.01784],[135.5717,35.01803],[135.57194,35.01814],[135.57172,35.01831],[135.57198,35.01867],[135.57207,35.01946],[135.57139,35.01969],[135.57157,35.02001],[135.57116,35.02005],[135.57122,35.0203],[135.57063,35.02035],[135.57056,35.02083],[135.56988,35.02099],[135.56962,35.02124],[135.56992,35.02176],[135.5713,35.02178]]]},"properties":{"key":"262060270","name":"河原町","pref":"京都府","prefCode":"26","municipality":"亀岡市","areaM2":102375.31,"population":667,"toponymIds":["26-ddef08e1f5"]}},{"type":"Feature","geometry":{"type":"Polygon","coordinates":[[[135.60104,35.01555],[135.60083,35.01174],[135.6001,35.01094],[135.59974,35.01022],[135.59788,35.01032],[135.59793,35.00987],[135.59825,35.00948],[135.59799,35.00948],[135.59805,35.00902],[135.5976,35.00784],[135.59861,35.00757],[135.59788,35.0059],[135.59741,35.00614],[135.59716,35.00648],[135.59179,35.00646],[135.59216,35.00721],[135.59177,35.00706],[135.59187,35.00758],[135.59135,35.00791],[135.59224,35.00998],[135.59432,35.01002],[135.59468,35.01001],[135.59467,35.00983],[135.59488,35.00982],[135.59643,35.00985],[135.59651,35.01048],[135.59236,35.01092],[135.59338,35.01436],[135.5938,35.01506],[135.59425,35.01528],[135.59611,35.01538],[135.60108,35.01654],[135.60104,35.01555]]]},"properties":{"key":"26206048005","name":"篠町柏原","pref":"京都府","prefCode":"26","municipality":"亀岡市","areaM2":638381.721,"population":709,"toponymIds":["26-8f37098e68"]}},{"type":"Feature","geometry":{"type":"Polygon","coordinates":[[[135.60012,35.00627],[135.60162,35.00666],[135.60234,35.00665],[135.60244,35.0056],[135.60184,35.00533],[135.6019,35.00521],[135.60213,35.0053],[135.60225,35.00495],[135.6024,35.00499],[135.60196,35.00406],[135.60172,35.00218],[135.60357,35.00188],[135.60361,35.00048],[135.60335,35.00025],[135.60259,35.00066],[135.60172,35.00061],[135.60125,35.00076],[135.60118,35.00106],[135.60017,35.00157],[135.59967,35.00252],[135.5973,35.0029],[135.59727,35.00448],[135.59801,35.00616],[135.59939,35.0066],[135.59948,35.00698],[135.60012,35.00627]]]},"properties":{"key":"26206048009","name":"篠町野条","pref":"京都府","prefCode":"26","municipality":"亀岡市","areaM2":234057.126,"population":823,"toponymIds":["26-fd4d52b9be","26-c6c4b55230"]}},{"type":"Feature","geometry":{"type":"Polygon","coordinates":[[[135.55651,35.01138],[135.55653,35.01122],[135.5541,35.01116],[135.55421,35.00725],[135.55327,35.00689],[135.55297,35.00616],[135.54856,35.00628],[135.54829,35.00666],[135.5479,35.00788],[135.54686,35.00716],[135.54648,35.00733],[135.54581,35.0073],[135.54463,35.00624],[135.5441,35.00612],[135.54288,35.00517],[135.54199,35.00629],[135.54218,35.00847],[135.54205,35.00979],[135.54234,35.01014],[135.54454,35.00985],[135.54464,35.01038],[135.54453,35.01154],[135.54616,35.01133],[135.54601,35.01411],[135.54694,35.0142],[135.54827,35.0147],[135.55044,35.01512],[135.55173,35.01512],[135.55171,35.01418],[135.55654,35.01416],[135.55651,35.01138]]]},"properties":{"key":"26206034009","name":"曽我部町穴太","pref":"京都府","prefCode":"26","municipality":"亀岡市","areaM2":896114.047,"population":336,"toponymIds":["26-98f82c04fe"]}},{"type":"Feature","geometry":{"type":"Polygon","coordinates":[[[135.54358,35.00118],[135.54407,35.00013],[135.54586,35.00056],[135.54581,34.99741],[135.54229,34.99737],[135.54222,34.99475],[135.5429,34.99472],[135.5429,34.99444],[135.54456,34.99441],[135.54467,34.99242],[135.53629,34.9924],[135.53226,34.99219],[135.531,34.99139],[135.52958,34.99146],[135.52685,34.99209],[135.52612,34.99241],[135.51994,34.996],[135.51903,34.99684],[135.51871,34.9976],[135.5189,34.99822],[135.51978,34.99913],[135.52114,34.9995],[135.52224,34.99951],[135.52507,34.99913],[135.52903,34.99818],[135.53135,34.99796],[135.53221,34.99804],[135.53421,34.99886],[135.53567,34.99793],[135.53735,34.99605],[135.53817,34.99672],[135.53865,34.99787],[135.53959,34.99868],[135.53996,34.9992],[135.54083,34.99951],[135.54358,35.00118]]]},"properties":{"key":"26206034005","name":"曽我部町犬飼","pref":"京都府","prefCode":"26","municipality":"亀岡市","areaM2":1504137.107,"population":254,"toponymIds":["26-08c4a50d84"]}},{"type":"Feature","geometry":{"type":"Polygon","coordinates":[[[135.54668,34.98207],[135.54664,34.98091],[135.54693,34.97983],[135.5473,34.97946],[135.5478,34.97942],[135.54741,34.97375],[135.54408,34.97379],[135.53883,34.97294],[135.5389,34.97415],[135.53737,34.97512],[135.53731,34.97536],[135.53914,34.97581],[135.53948,34.97816],[135.54027,34.97979],[135.54001,34.98106],[135.54007,34.98186],[135.54103,34.98163],[135.54428,34.98168],[135.54508,34.98117],[135.54668,34.98207]]]},"properties":{"key":"26206034001","name":"曽我部町春日部","pref":"京都府","prefCode":"26","municipality":"亀岡市","areaM2":663738.211,"population":113,"toponymIds":["26-fe02463be1"]}},{"type":"Feature","geometry":{"type":"Polygon","coordinates":[[[135.5565,35.00846],[135.55639,35.00819],[135.55948,35.00919],[135.5602,35.00921],[135.56108,35.00955],[135.56148,35.00942],[135.56185,35.00903],[135.56195,35.00875],[135.56125,35.00811],[135.56112,35.00651],[135.56139,35.00596],[135.56095,35.00514],[135.56089,35.00461],[135.56106,35.00393],[135.56092,35.00294],[135.56022,35.0006],[135.55679,35.00145],[135.55009,35.00138],[135.55027,35.0044],[135.54965,35.00619],[135.55274,35.00609],[135.55318,35.00645],[135.55327,35.00689],[135.55421,35.00725],[135.5541,35.01116],[135.55653,35.01122],[135.55665,35.00945],[135.5565,35.00846]]]},"properties":{"key":"26206034008","name":"曽我部町重利","pref":"京都府","prefCode":"26","municipality":"亀岡市","areaM2":804618.319,"population":346,"toponymIds":["26-36577ac721"]}},{"type":"Feature","geometry":{"type":"Polygon","coordinates":[[[135.54943,34.99447],[135.54944,34.99426],[135.54995,34.99401],[135.55068,34.99316],[135.55134,34.9931],[135.55216,34.99185],[135.55363,34.99068],[135.55402,34.99054],[135.55667,34.99067],[135.55579,34.98866],[135.55414,34.98594],[135.5526,34.98381],[135.55075,34.98183],[135.54801,34.9795],[135.54752,34.97939],[135.54702,34.97966],[135.54677,34.98029],[135.54662,34.98121],[135.54668,34.98207],[135.54508,34.98117],[135.54428,34.98168],[135.54355,34.9817],[135.54367,34.98273],[135.5435,34.98368],[135.54357,34.98601],[135.54387,34.98746],[135.54461,34.98903],[135.54456,34.99441],[135.54804,34.99444],[135.54909,34.99738],[135.54952,34.99633],[135.54943,34.99447]]]},"properties":{"key":"26206034003","name":"曽我部町寺","pref":"京都府","prefCode":"26","municipality":"亀岡市","areaM2":1272861.499,"population":528,"toponymIds":["26-7cfcf23358"]}},{"type":"Feature","geometry":{"type":"Polygon","coordinates":[[[135.55394,35.00139],[135.55225,34.99928],[135.55443,34.99936],[135.55499,34.99913],[135.55502,34.99874],[135.55554,34.99846],[135.55546,34.99754],[135.55485,34.99667],[135.55467,34.9967],[135.55447,34.99644],[135.55294,34.99632],[135.55218,34.99656],[135.55178,34.99698],[135.55135,34.99679],[135.55023,34.99674],[135.54952,34.99633],[135.54909,34.99738],[135.54804,34.99444],[135.54589,34.9944],[135.54585,35.00036],[135.54944,35.00038],[135.54944,35.0014],[135.55394,35.00139]]]},"properties":{"key":"26206034006","name":"曽我部町南条","pref":"京都府","prefCode":"26","municipality":"亀岡市","areaM2":430973.703,"population":372,"toponymIds":["26-c805dafbf0","26-52a90562eb"]}},{"type":"Feature","geometry":{"type":"Polygon","coordinates":[[[135.54189,35.06588],[135.54586,35.06346],[135.5482,35.06177],[135.54914,35.06069],[135.55037,35.05761],[135.55004,35.05583],[135.54956,35.05427],[135.54833,35.05433],[135.548,35.05544],[135.54772,35.05421],[135.54646,35.05445],[135.54559,35.05443],[135.54567,35.05529],[135.54549,35.05554],[135.5431,35.05556],[135.54291,35.05639],[135.54198,35.05676],[135.54157,35.05739],[135.54142,35.05774],[135.54149,35.05853],[135.54096,35.05943],[135.54009,35.05978],[135.53931,35.0597],[135.539,35.05986],[135.53876,35.0605],[135.53866,35.06162],[135.53777,35.06233],[135.53761,35.06314],[135.53712,35.06364],[135.53689,35.06519],[135.53779,35.06541],[135.53848,35.06538],[135.53892,35.06578],[135.5401,35.06585],[135.54108,35.06638],[135.54189,35.06588]]]},"properties":{"key":"26206041013","name":"千代川町川関","pref":"京都府","prefCode":"26","municipality":"亀岡市","areaM2":929942.288,"population":108,"toponymIds":["26-43410a4f0d"]}},{"type":"Feature","geometry":{"type":"Polygon","coordinates":[[[135.53266,35.05897],[135.53293,35.05574],[135.53353,35.05452],[135.53379,35.05436],[135.5345,35.05435],[135.53456,35.05251],[135.5352,35.05257],[135.537,35.05235],[135.53791,35.05246],[135.53926,35.05213],[135.53938,35.0525],[135.54051,35.05246],[135.54059,35.05146],[135.54228,35.05146],[135.54223,35.05012],[135.5417,35.0495],[135.54341,35.0495],[135.54332,35.04846],[135.54414,35.04845],[135.54422,35.04703],[135.5438,35.04725],[135.54303,35.04691],[135.54216,35.04721],[135.54163,35.04722],[135.5414,35.04766],[135.54007,35.04795],[135.53914,35.04768],[135.53785,35.04764],[135.53733,35.04849],[135.5367,35.04859],[135.53644,35.04744],[135.53563,35.0464],[135.53447,35.04606],[135.53203,35.04454],[135.53076,35.04449],[135.52875,35.04505],[135.52829,35.0446],[135.5284,35.04377],[135.52767,35.04328],[135.52669,35.04288],[135.5261,35.04196],[135.52554,35.04147],[135.52387,35.04089],[135.52339,35.04141],[135.52237,35.04146],[135.52271,35.04232],[135.52275,35.04414],[135.52187,35.04569],[135.52167,35.04693],[135.52187,35.04844],[135.52306,35.05043],[135.52302,35.05173],[135.52251,35.05264],[135.52256,35.05416],[135.5227,35.05454],[135.5233,35.05519],[135.52502,35.05602],[135.52637,35.05698],[135.52828,35.05733],[135.52904,35.05826],[135.53006,35.05824],[135.53266,35.05897]]]},"properties":{"key":"26206041001","name":"千代川町北ノ庄","pref":"京都府","prefCode":"26","municipality":"亀岡市","areaM2":2037714.289,"population":497,"toponymIds":["26-3ebd870356"]}},{"type":"Feature","geometry":{"type":"Polygon","coordinates":[[[135.53716,35.05898],[135.5374,35.05891],[135.53744,35.05875],[135.53694,35.05651],[135.53695,35.05588],[135.53746,35.05568],[135.53804,35.05577],[135.53822,35.05432],[135.53934,35.05418],[135.54046,35.05436],[135.5404,35.05266],[135.54051,35.05246],[135.53938,35.0525],[135.53926,35.05213],[135.53791,35.05246],[135.537,35.05235],[135.5352,35.05257],[135.53456,35.05251],[135.5345,35.05435],[135.53379,35.05436],[135.53319,35.055],[135.53293,35.05574],[135.53266,35.05897],[135.53415,35.05885],[135.53603,35.05928],[135.53716,35.05898]]]},"properties":{"key":"26206041014","name":"千代川町拝田","pref":"京都府","prefCode":"26","municipality":"亀岡市","areaM2":331164.517,"population":49,"toponymIds":["26-36b9d19ba5"]}},{"type":"Feature","geometry":{"type":"Polygon","coordinates":[[[135.58509,35.00994],[135.58508,35.0098],[135.58679,35.00983],[135.58692,35.00938],[135.58505,35.00921],[135.5851,35.00894],[135.58478,35.00893],[135.58479,35.00879],[135.58469,35.00878],[135.5847,35.00899],[135.58386,35.00889],[135.58378,35.00982],[135.58509,35.00994]]]},"properties":{"key":"262060040","name":"突抜町","pref":"京都府","prefCode":"26","municipality":"亀岡市","areaM2":23397.141,"population":173,"toponymIds":["26-90c48eaf7b"]}},{"type":"Feature","geometry":{"type":"Polygon","coordinates":[[[135.5212,34.97177],[135.52325,34.9715],[135.52462,34.97109],[135.52331,34.97034],[135.52259,34.96926],[135.52263,34.9682],[135.52311,34.96693],[135.52527,34.96314],[135.52345,34.96079],[135.52164,34.96119],[135.5201,34.96181],[135.51656,34.9618],[135.51517,34.96124],[135.51472,34.9617],[135.51014,34.96465],[135.50813,34.96625],[135.50871,34.96668],[135.51266,34.97071],[135.514,34.97147],[135.51563,34.97284],[135.5161,34.97357],[135.51657,34.97586],[135.51696,34.97672],[135.51853,34.97865],[135.51692,34.98081],[135.51652,34.98241],[135.51643,34.98502],[135.52056,34.9848],[135.52354,34.98423],[135.52611,34.98284],[135.52645,34.98158],[135.5264,34.9801],[135.52573,34.97932],[135.52314,34.97541],[135.52095,34.97438],[135.5194,34.97238],[135.51983,34.97208],[135.5212,34.97177]]]},"properties":{"key":"26206033005","name":"西別院町笑路","pref":"京都府","prefCode":"26","municipality":"亀岡市","areaM2":2249973.666,"population":75,"toponymIds":["26-2796fcb84a"]}},{"type":"Feature","geometry":{"type":"Polygon","coordinates":[[[135.55613,34.93193],[135.55623,34.93108],[135.5574,34.92984],[135.55784,34.92902],[135.55974,34.92784],[135.56004,34.92717],[135.56001,34.92623],[135.55965,34.92566],[135.55646,34.92391],[135.55714,34.92069],[135.55569,34.91985],[135.55488,34.91906],[135.55413,34.91739],[135.55412,34.91604],[135.55336,34.9155],[135.55109,34.91796],[135.55046,34.91838],[135.54978,34.91856],[135.54912,34.91841],[135.54857,34.9169],[135.54684,34.91671],[135.54698,34.91983],[135.54654,34.92017],[135.54556,34.92019],[135.5451,34.9195],[135.54495,34.91868],[135.54541,34.91693],[135.54442,34.91742],[135.54408,34.91741],[135.54287,34.91566],[135.54171,34.91527],[135.54083,34.91534],[135.54053,34.91602],[135.53931,34.91735],[135.54123,34.91857],[135.54197,34.91925],[135.54212,34.91994],[135.54183,34.92109],[135.54024,34.92407],[135.53865,34.92498],[135.53798,34.92556],[135.53714,34.92553],[135.53963,34.92823],[135.54134,34.93088],[135.54531,34.92851],[135.54657,34.92804],[135.54975,34.93006],[135.54961,34.93072],[135.54998,34.93133],[135.55111,34.93171],[135.55257,34.93189],[135.55613,34.93193]]]},"properties":{"key":"26206032008","name":"東別院町鎌倉","pref":"京都府","prefCode":"26","municipality":"亀岡市","areaM2":2280687.191,"population":96,"toponymIds":["26-de5f5c5825","26-26c81cc87e","26-d087e5cf9d"]}},{"type":"Feature","geometry":{"type":"Polygon","coordinates":[[[135.55393,34.93749],[135.55406,34.93633],[135.55453,34.93473],[135.55405,34.93348],[135.55412,34.93334],[135.55659,34.93294],[135.55669,34.93244],[135.55613,34.93193],[135.55257,34.93189],[135.55111,34.93171],[135.54998,34.93133],[135.54961,34.93072],[135.54975,34.93006],[135.54657,34.92804],[135.54531,34.92851],[135.54134,34.93088],[135.54179,34.93228],[135.54179,34.93387],[135.54117,34.93635],[135.54188,34.93681],[135.5432,34.93713],[135.54371,34.93835],[135.54415,34.93889],[135.54442,34.93889],[135.54507,34.93842],[135.5467,34.93865],[135.5472,34.93829],[135.54794,34.93906],[135.5491,34.93947],[135.54991,34.9396],[135.55165,34.9395],[135.55294,34.93916],[135.55347,34.93876],[135.55371,34.93841],[135.55393,34.93749]]]},"properties":{"key":"26206032007","name":"東別院町倉谷","pref":"京都府","prefCode":"26","municipality":"亀岡市","areaM2":1123406.89,"population":35,"toponymIds":["26-2018bcb47d","26-7609af7543","26-9bebd08f9b","26-6fa51e8b7f"]}},{"type":"Feature","geometry":{"type":"Polygon","coordinates":[[[135.47635,35.04928],[135.46948,35.04473],[135.46983,35.04288],[135.47165,35.04068],[135.46853,35.03912],[135.46599,35.03864],[135.46434,35.03894],[135.46112,35.03761],[135.46066,35.03693],[135.46024,35.03433],[135.45884,35.03353],[135.45816,35.03236],[135.45572,35.02968],[135.45534,35.02868],[135.4556,35.02712],[135.45478,35.02732],[135.45367,35.02656],[135.45299,35.02733],[135.45236,35.02883],[135.45216,35.0297],[135.45146,35.03035],[135.45118,35.03225],[135.44993,35.0343],[135.44981,35.03999],[135.45155,35.04077],[135.45318,35.04116],[135.45389,35.04159],[135.45521,35.04182],[135.45614,35.04277],[135.45648,35.04427],[135.45685,35.04465],[135.45768,35.04483],[135.45868,35.04544],[135.45855,35.04655],[135.45869,35.04687],[135.46009,35.04698],[135.4608,35.0476],[135.46145,35.04766],[135.46181,35.04808],[135.46241,35.04822],[135.46308,35.04739],[135.46677,35.05008],[135.47041,35.05361],[135.47312,35.05203],[135.4742,35.05091],[135.47635,35.04928]]]},"properties":{"key":"26206047002","name":"東本梅町赤熊","pref":"京都府","prefCode":"26","municipality":"亀岡市","areaM2":2678284.702,"population":180,"toponymIds":["26-ede911e033"]}},{"type":"Feature","geometry":{"type":"Polygon","coordinates":[[[135.4844,35.06901],[135.48557,35.06898],[135.48659,35.06957],[135.4888,35.06984],[135.48995,35.06902],[135.49112,35.06853],[135.49269,35.06836],[135.49341,35.06853],[135.49527,35.06804],[135.49738,35.06794],[135.49843,35.06817],[135.49893,35.068],[135.50041,35.06822],[135.50071,35.068],[135.5026,35.06877],[135.50323,35.06872],[135.50438,35.06904],[135.50501,35.06888],[135.50553,35.06905],[135.50671,35.06835],[135.50585,35.0667],[135.50592,35.06469],[135.50562,35.06367],[135.50373,35.06301],[135.50236,35.06276],[135.50159,35.06283],[135.49963,35.06201],[135.49846,35.06176],[135.49771,35.06134],[135.49726,35.06083],[135.49681,35.05956],[135.49648,35.05992],[135.49519,35.06001],[135.49387,35.06037],[135.49062,35.05907],[135.49019,35.0585],[135.48363,35.05768],[135.48156,35.0567],[135.47722,35.05371],[135.47655,35.05451],[135.476,35.05417],[135.47504,35.05402],[135.4743,35.05296],[135.47344,35.05241],[135.47312,35.05203],[135.46896,35.05453],[135.46905,35.05502],[135.46944,35.05564],[135.47005,35.05592],[135.47056,35.05593],[135.4711,35.05684],[135.4727,35.05884],[135.47375,35.05972],[135.4742,35.06059],[135.4742,35.06102],[135.47391,35.06162],[135.47315,35.06245],[135.4727,35.06327],[135.47262,35.06434],[135.47215,35.0666],[135.47261,35.067],[135.47364,35.06739],[135.47402,35.06802],[135.4746,35.06856],[135.47465,35.06956],[135.47491,35.07052],[135.47666,35.07232],[135.47692,35.07238],[135.47904,35.07258],[135.47982,35.07224],[135.48107,35.0721],[135.48144,35.07192],[135.48207,35.07098],[135.48326,35.07012],[135.48382,35.06914],[135.4844,35.06901]],[[135.47586,35.05593],[135.47624,35.05627],[135.47619,35.0575],[135.4764,35.05809],[135.47628,35.05937],[135.47532,35.05917],[135.47534,35.05794],[135.47508,35.05692],[135.47586,35.05593]]]},"properties":{"key":"26206047004","name":"東本梅町大内","pref":"京都府","prefCode":"26","municipality":"亀岡市","areaM2":3722768.583,"population":97,"toponymIds":["26-4453471909"]}},{"type":"Feature","geometry":{"type":"Polygon","coordinates":[[[135.48182,35.04641],[135.47927,35.04459],[135.47904,35.04416],[135.4792,35.0439],[135.47789,35.04347],[135.47732,35.04272],[135.47696,35.0425],[135.47594,35.04216],[135.47538,35.04226],[135.47426,35.04139],[135.47362,35.04117],[135.47165,35.04068],[135.46983,35.04288],[135.46971,35.04328],[135.46948,35.04473],[135.47635,35.04928],[135.47823,35.04756],[135.48076,35.047],[135.48182,35.04641]]]},"properties":{"key":"26206047001","name":"東本梅町中野","pref":"京都府","prefCode":"26","municipality":"亀岡市","areaM2":553839.072,"population":34,"toponymIds":["26-f55c04d3c1"]}},{"type":"Feature","geometry":{"type":"Polygon","coordinates":[[[135.47041,35.05361],[135.46677,35.05008],[135.46308,35.04739],[135.46241,35.04822],[135.46306,35.04849],[135.46435,35.04958],[135.46616,35.05142],[135.4666,35.05128],[135.46728,35.05212],[135.4669,35.05243],[135.4679,35.05364],[135.46845,35.05365],[135.46864,35.05388],[135.46892,35.05378],[135.46933,35.05423],[135.47041,35.05361]]]},"properties":{"key":"26206047005","name":"東本梅町東大谷","pref":"京都府","prefCode":"26","municipality":"亀岡市","areaM2":116353.863,"population":24,"toponymIds":["26-ec7c0f646f"]}},{"type":"Feature","geometry":{"type":"Polygon","coordinates":[[[135.49591,35.05864],[135.4944,35.05851],[135.49341,35.05801],[135.49314,35.05743],[135.49079,35.05641],[135.49077,35.05457],[135.49012,35.05336],[135.48897,35.05289],[135.48863,35.05258],[135.48781,35.05133],[135.48731,35.05088],[135.48682,35.04993],[135.48532,35.04873],[135.48362,35.04789],[135.48182,35.04641],[135.48076,35.047],[135.47823,35.04756],[135.47794,35.04774],[135.47703,35.0488],[135.4742,35.05091],[135.47312,35.05203],[135.47344,35.05241],[135.4743,35.05296],[135.47504,35.05402],[135.476,35.05417],[135.47655,35.05451],[135.47722,35.05371],[135.48156,35.0567],[135.48363,35.05768],[135.49019,35.0585],[135.49062,35.05907],[135.49387,35.06037],[135.49467,35.0601],[135.49662,35.05981],[135.49681,35.05956],[135.49591,35.05864]]]},"properties":{"key":"26206047003","name":"東本梅町松熊","pref":"京都府","prefCode":"26","municipality":"亀岡市","areaM2":1352260.101,"population":40,"toponymIds":["26-a56e31f870","26-a0e9fd498a"]}},{"type":"Feature","geometry":{"type":"Polygon","coordinates":[[[135.49025,35.01517],[135.49159,35.01435],[135.48864,35.01168],[135.4882,35.01081],[135.48624,35.01049],[135.48615,35.01105],[135.48636,35.01176],[135.48415,35.01068],[135.48242,35.01308],[135.48186,35.01325],[135.48222,35.01499],[135.48319,35.01481],[135.48394,35.01498],[135.4846,35.01588],[135.48478,35.01674],[135.48825,35.01642],[135.48818,35.01627],[135.49025,35.01517]]]},"properties":{"key":"26206037003","name":"本梅町井手","pref":"京都府","prefCode":"26","municipality":"亀岡市","areaM2":374794.227,"population":83,"toponymIds":["26-c3dff0d0d0"]}},{"type":"Feature","geometry":{"type":"Polygon","coordinates":[[[135.48278,35.03278],[135.48334,35.0325],[135.48633,35.03231],[135.48634,35.0309],[135.4867,35.03033],[135.48782,35.02926],[135.48834,35.02895],[135.49024,35.02873],[135.49102,35.02787],[135.49182,35.02608],[135.49231,35.02558],[135.4936,35.02509],[135.49521,35.025],[135.4984,35.02292],[135.49566,35.0234],[135.4941,35.02323],[135.49306,35.02277],[135.49302,35.02257],[135.4911,35.02292],[135.48927,35.02271],[135.48924,35.02286],[135.48752,35.02284],[135.4868,35.02267],[135.48661,35.02295],[135.48602,35.02273],[135.48573,35.02312],[135.48528,35.02284],[135.48305,35.0221],[135.48204,35.02376],[135.48068,35.025],[135.47869,35.02592],[135.47665,35.02635],[135.47601,35.02666],[135.4743,35.0281],[135.47354,35.02913],[135.47345,35.03006],[135.47381,35.03162],[135.47485,35.03245],[135.4764,35.0326],[135.47743,35.03219],[135.47937,35.03279],[135.48278,35.03278]]]},"properties":{"key":"26206037001","name":"本梅町中野","pref":"京都府","prefCode":"26","municipality":"亀岡市","areaM2":1402912.122,"population":178,"toponymIds":["26-fafe1f9514"]}},{"type":"Feature","geometry":{"type":"Polygon","coordinates":[[[135.47345,35.03006],[135.47354,35.02913],[135.4743,35.0281],[135.47601,35.02666],[135.47665,35.02635],[135.47869,35.02592],[135.48008,35.02537],[135.48204,35.02376],[135.48288,35.02249],[135.48388,35.02027],[135.48478,35.01674],[135.4846,35.01588],[135.48394,35.01498],[135.48319,35.01481],[135.48222,35.01499],[135.48186,35.01325],[135.48242,35.01308],[135.48415,35.01068],[135.48244,35.00935],[135.48233,35.00883],[135.48247,35.00802],[135.48225,35.00746],[135.48055,35.00559],[135.48069,35.00523],[135.48052,35.00368],[135.48076,35.00356],[135.48031,35.00241],[135.48034,35.0014],[135.4795,35.00066],[135.47933,34.99977],[135.47761,34.9969],[135.4773,34.99582],[135.47655,34.99425],[135.4752,34.99468],[135.4709,34.99477],[135.47069,34.99507],[135.47033,34.99509],[135.46876,34.99595],[135.46755,34.99706],[135.46643,34.99712],[135.46508,34.99807],[135.46459,34.99866],[135.46368,34.99868],[135.45983,35.00148],[135.45763,35.00141],[135.45515,35.00218],[135.4552,35.0025],[135.4545,35.00409],[135.45364,35.00502],[135.45345,35.00556],[135.45345,35.00688],[135.45419,35.00876],[135.45408,35.0101],[135.45356,35.01129],[135.4554,35.01304],[135.45599,35.01313],[135.45677,35.01357],[135.45768,35.01433],[135.45821,35.01541],[135.45897,35.01644],[135.46113,35.01823],[135.4614,35.01873],[135.46125,35.02003],[135.46157,35.02062],[135.46232,35.02111],[135.46281,35.02191],[135.46357,35.02264],[135.46538,35.0238],[135.46606,35.0252],[135.46718,35.02672],[135.46768,35.0282],[135.46846,35.02919],[135.4695,35.02986],[135.47021,35.03012],[135.47133,35.02997],[135.47381,35.03162],[135.47345,35.03006]]]},"properties":{"key":"26206037004","name":"本梅町西加舎","pref":"京都府","prefCode":"26","municipality":"亀岡市","areaM2":7266587.408,"population":299,"toponymIds":["26-4ef46b5cbc"]}},{"type":"Feature","geometry":{"type":"Polygon","coordinates":[[[135.50551,35.0206],[135.50596,35.02034],[135.50641,35.01964],[135.50597,35.01833],[135.50603,35.01762],[135.50631,35.01664],[135.50706,35.01528],[135.50696,35.01387],[135.5063,35.01233],[135.50598,35.01196],[135.50553,35.0117],[135.50353,35.01116],[135.50136,35.00997],[135.49981,35.00832],[135.49949,35.00778],[135.49914,35.00659],[135.49845,35.00587],[135.49809,35.00514],[135.49808,35.0043],[135.49755,35.0035],[135.49705,35.00198],[135.49669,35.00177],[135.49613,35.00063],[135.49521,34.99994],[135.49475,34.99937],[135.49381,34.99769],[135.49295,34.99602],[135.49274,34.99523],[135.49427,34.99392],[135.49453,34.99309],[135.49438,34.9922],[135.49474,34.99171],[135.49534,34.99126],[135.49439,34.9893],[135.49381,34.98859],[135.49279,34.98935],[135.49072,34.98942],[135.48967,34.98998],[135.48891,34.99007],[135.48776,34.99196],[135.48691,34.99257],[135.48512,34.99253],[135.48289,34.99285],[135.4824,34.99472],[135.48177,34.99531],[135.48077,34.99504],[135.47926,34.99506],[135.47887,34.9947],[135.47795,34.99434],[135.47655,34.99425],[135.4773,34.99582],[135.47761,34.9969],[135.47933,34.99977],[135.4795,35.00066],[135.48034,35.0014],[135.48031,35.00241],[135.48076,35.00356],[135.48052,35.00368],[135.48069,35.00523],[135.48055,35.00559],[135.48225,35.00746],[135.48247,35.00802],[135.48233,35.00883],[135.48244,35.00935],[135.48386,35.01052],[135.48636,35.01176],[135.48615,35.01105],[135.48624,35.01049],[135.4882,35.01081],[135.48864,35.01168],[135.49159,35.01435],[135.49285,35.01476],[135.49332,35.01539],[135.50079,35.01868],[135.50052,35.0173],[135.50058,35.01622],[135.50073,35.0162],[135.50183,35.0182],[135.50259,35.01905],[135.50373,35.01954],[135.50436,35.0196],[135.50425,35.01853],[135.5045,35.01839],[135.50497,35.01714],[135.50516,35.01715],[135.50514,35.01796],[135.5047,35.0188],[135.50518,35.01985],[135.50527,35.02049],[135.50551,35.0206]]]},"properties":{"key":"26206037005","name":"本梅町東加舎","pref":"京都府","prefCode":"26","municipality":"亀岡市","areaM2":4246081.645,"population":206,"toponymIds":["26-798df9dc3c"]}},{"type":"Feature","geometry":{"type":"Polygon","coordinates":[[[135.4964,35.02326],[135.49941,35.02276],[135.50046,35.02236],[135.50065,35.02263],[135.50326,35.0212],[135.50452,35.02104],[135.50479,35.02078],[135.50435,35.01988],[135.50436,35.0196],[135.50322,35.0194],[135.50259,35.01905],[135.50183,35.0182],[135.50073,35.0162],[135.50053,35.01632],[135.5005,35.01694],[135.50079,35.01868],[135.49332,35.01539],[135.49285,35.01476],[135.49159,35.01435],[135.48818,35.01627],[135.48825,35.01642],[135.48478,35.01674],[135.48388,35.02027],[135.48305,35.0221],[135.48528,35.02284],[135.48573,35.02312],[135.48602,35.02273],[135.48661,35.02295],[135.4868,35.02267],[135.48752,35.02284],[135.48924,35.02286],[135.48927,35.02271],[135.4911,35.02292],[135.49302,35.02257],[135.49306,35.02277],[135.4941,35.02323],[135.49566,35.0234],[135.4964,35.02326]],[[135.49284,35.01699],[135.49307,35.01678],[135.49393,35.01719],[135.49478,35.01731],[135.49505,35.01778],[135.49466,35.01805],[135.49501,35.01835],[135.49478,35.01856],[135.49507,35.01911],[135.4951,35.01958],[135.49444,35.02007],[135.49333,35.02054],[135.49269,35.0203],[135.4923,35.01973],[135.4919,35.0189],[135.4916,35.0176],[135.49231,35.01756],[135.49284,35.01699]]]},"properties":{"key":"26206037002","name":"本梅町平松","pref":"京都府","prefCode":"26","municipality":"亀岡市","areaM2":1136844.039,"population":244,"toponymIds":["26-7b6c4e6517","26-14680ced8f"]}},{"type":"Feature","geometry":{"type":"Polygon","coordinates":[[[135.49537,35.03723],[135.49551,35.03513],[135.49758,35.02934],[135.49858,35.02717],[135.49991,35.02787],[135.50732,35.02811],[135.50767,35.02767],[135.50752,35.02731],[135.50554,35.02555],[135.50464,35.02443],[135.50412,35.02419],[135.50469,35.02403],[135.50507,35.02345],[135.50669,35.02281],[135.50613,35.02213],[135.50568,35.02211],[135.50527,35.02142],[135.50475,35.02131],[135.50435,35.02099],[135.50326,35.0212],[135.50065,35.02263],[135.50046,35.02236],[135.49941,35.02276],[135.4984,35.02292],[135.49521,35.025],[135.4936,35.02509],[135.49231,35.02558],[135.49182,35.02608],[135.49102,35.02787],[135.49024,35.02873],[135.48834,35.02895],[135.48782,35.02926],[135.4867,35.03033],[135.48634,35.0309],[135.48633,35.03231],[135.48384,35.03249],[135.4846,35.03386],[135.48471,35.03509],[135.48511,35.03581],[135.48584,35.03625],[135.48645,35.03522],[135.48773,35.03652],[135.4885,35.03672],[135.48925,35.03666],[135.49019,35.03621],[135.49068,35.03577],[135.4914,35.03464],[135.49175,35.03479],[135.49198,35.03516],[135.4917,35.03669],[135.49181,35.03704],[135.49236,35.03702],[135.49268,35.0361],[135.49307,35.03575],[135.49377,35.03557],[135.49418,35.03574],[135.4945,35.03655],[135.49465,35.03763],[135.49443,35.03889],[135.4946,35.03913],[135.49557,35.03894],[135.49576,35.03876],[135.49576,35.03846],[135.49541,35.03791],[135.49537,35.03723]],[[135.49913,35.02565],[135.49954,35.02448],[135.50001,35.02457],[135.50042,35.02324],[135.50029,35.02299],[135.50068,35.02279],[135.50158,35.02381],[135.50221,35.02421],[135.50264,35.02488],[135.50261,35.02532],[135.50215,35.02579],[135.50111,35.02612],[135.5,35.02611],[135.49931,35.02588],[135.49913,35.02565]]]},"properties":{"key":"26206039003","name":"宮前町猪倉","pref":"京都府","prefCode":"26","municipality":"亀岡市","areaM2":1498336.849,"population":172,"toponymIds":["26-1bc13a3634","26-17f2669692"]}},{"type":"Feature","geometry":{"type":"Polygon","coordinates":[[[135.55763,35.02112],[135.55766,35.01516],[135.55713,35.01515],[135.55711,35.01422],[135.55678,35.01417],[135.55288,35.01912],[135.55527,35.01905],[135.55527,35.02006],[135.5527,35.02006],[135.5523,35.01987],[135.55061,35.02198],[135.55148,35.02338],[135.55159,35.02289],[135.55237,35.0229],[135.55243,35.02251],[135.55276,35.02251],[135.55272,35.02202],[135.55325,35.02201],[135.55329,35.02245],[135.5565,35.0225],[135.55648,35.0222],[135.55676,35.0222],[135.55672,35.02292],[135.55757,35.02294],[135.55763,35.02112]]]},"properties":{"key":"26206035001","name":"吉川町穴川","pref":"京都府","prefCode":"26","municipality":"亀岡市","areaM2":320695.011,"population":108,"toponymIds":["26-405e4edfcf"]}},{"type":"Feature","geometry":{"type":"Polygon","coordinates":[[[135.68804,34.92098],[135.68862,34.92099],[135.68883,34.91907],[135.68673,34.91897],[135.68663,34.92062],[135.68724,34.92044],[135.68786,34.92102],[135.68804,34.92098]]]},"properties":{"key":"26209008001","name":"梅が丘一丁目","pref":"京都府","prefCode":"26","municipality":"長岡京市","areaM2":37462.92,"population":234,"toponymIds":["26-661086eaca"]}},{"type":"Feature","geometry":{"type":"Polygon","coordinates":[[[135.68163,34.92191],[135.68175,34.9217],[135.68214,34.92164],[135.6825,34.92092],[135.68251,34.9199],[135.68275,34.91952],[135.68311,34.91966],[135.68299,34.92022],[135.6832,34.92023],[135.68331,34.91995],[135.684,34.91979],[135.68401,34.91899],[135.68427,34.91899],[135.68426,34.9193],[135.68449,34.9193],[135.6845,34.91899],[135.68525,34.91898],[135.68525,34.91933],[135.68544,34.91933],[135.68544,34.91896],[135.68786,34.91901],[135.6877,34.91557],[135.68807,34.91558],[135.68799,34.91529],[135.68894,34.91448],[135.68889,34.91429],[135.68812,34.91425],[135.68773,34.91466],[135.68761,34.91419],[135.68728,34.91392],[135.68615,34.91343],[135.68587,34.91356],[135.68568,34.91343],[135.68563,34.91415],[135.6853,34.91467],[135.68523,34.91511],[135.68451,34.91529],[135.68425,34.9159],[135.68434,34.91603],[135.68341,34.91649],[135.68275,34.91602],[135.68207,34.91607],[135.68177,34.91583],[135.68124,34.91571],[135.68157,34.91518],[135.68156,34.91484],[135.68194,34.91435],[135.68219,34.91331],[135.68266,34.91313],[135.68252,34.91286],[135.68146,34.9132],[135.68034,34.91304],[135.67951,34.9126],[135.67897,34.91268],[135.67719,34.91377],[135.67775,34.9142],[135.67756,34.91448],[135.67785,34.91462],[135.67792,34.91506],[135.67766,34.91512],[135.67842,34.91617],[135.67826,34.91621],[135.67788,34.91589],[135.67764,34.91733],[135.67798,34.91789],[135.67787,34.91808],[135.67736,34.91801],[135.67698,34.9185],[135.67655,34.91859],[135.67676,34.91897],[135.67551,34.91922],[135.67649,34.91938],[135.67654,34.91956],[135.67701,34.91979],[135.67736,34.9197],[135.67739,34.91987],[135.67874,34.9194],[135.67858,34.91971],[135.67918,34.92],[135.68148,34.92011],[135.68142,34.92107],[135.68077,34.92109],[135.68073,34.92175],[135.68163,34.92191]]]},"properties":{"key":"262090070","name":"下海印寺","pref":"京都府","prefCode":"26","municipality":"長岡京市","areaM2":595537.818,"population":3362,"toponymIds":["26-a9b241c0ac","26-59bf6866fa","26-0736ea67b1"]}},{"type":"Feature","geometry":{"type":"Polygon","coordinates":[[[135.67895,34.92938],[135.67925,34.92965],[135.68005,34.92948],[135.68006,34.92983],[135.68038,34.92984],[135.68034,34.93017],[135.6797,34.93016],[135.67939,34.93051],[135.68058,34.93075],[135.67988,34.93116],[135.67887,34.931],[135.67891,34.93126],[135.67874,34.93132],[135.67799,34.93094],[135.67814,34.93075],[135.67753,34.93052],[135.67741,34.93068],[135.67635,34.93028],[135.67618,34.93005],[135.67653,34.92944],[135.67677,34.92978],[135.67718,34.92995],[135.67747,34.92939],[135.67864,34.92957],[135.67895,34.92938],[135.67806,34.92914],[135.67652,34.92916],[135.67486,34.92978],[135.67468,34.93049],[135.67432,34.93097],[135.6741,34.93102],[135.67172,34.9313],[135.67101,34.93035],[135.67086,34.93125],[135.66955,34.93147],[135.6689,34.93184],[135.66941,34.93407],[135.671,34.93434],[135.67202,34.93331],[135.67206,34.93307],[135.67256,34.93319],[135.6731,34.93435],[135.67338,34.93451],[135.68013,34.936],[135.68158,34.93574],[135.68283,34.93574],[135.6835,34.93527],[135.68386,34.93199],[135.68367,34.93124],[135.68374,34.93089],[135.68412,34.93093],[135.68413,34.93107],[135.68477,34.9308],[135.68467,34.92992],[135.68424,34.92943],[135.68412,34.92887],[135.68311,34.92792],[135.68276,34.92812],[135.68288,34.92827],[135.68158,34.92924],[135.6812,34.92889],[135.68065,34.92912],[135.68075,34.9292],[135.67895,34.92922],[135.67895,34.92938]]]},"properties":{"key":"262090120","name":"長法寺","pref":"京都府","prefCode":"26","municipality":"長岡京市","areaM2":725916.771,"population":2201,"toponymIds":["26-313acba702"]}},{"type":"Feature","geometry":{"type":"Polygon","coordinates":[[[135.70358,34.92609],[135.70426,34.92423],[135.7042,34.92216],[135.70076,34.92331],[135.70201,34.92607],[135.70277,34.9261],[135.70341,34.92637],[135.70358,34.92609]]]},"properties":{"key":"26209053001","name":"東神足一丁目","pref":"京都府","prefCode":"26","municipality":"長岡京市","areaM2":97281.326,"population":506,"toponymIds":["26-b720b34cbc"]}},{"type":"Feature","geometry":{"type":"Polygon","coordinates":[[[135.68824,34.87384],[135.68946,34.87391],[135.68947,34.87363],[135.69018,34.87337],[135.69142,34.87352],[135.69151,34.87402],[135.69181,34.87429],[135.69198,34.87401],[135.69289,34.87403],[135.69332,34.87424],[135.69313,34.87338],[135.69289,34.87326],[135.69297,34.87221],[135.69285,34.87179],[135.69241,34.87138],[135.68989,34.87122],[135.68716,34.87424],[135.6877,34.87436],[135.68785,34.87399],[135.68824,34.87384]]]},"properties":{"key":"26210121051","name":"西山足立","pref":"京都府","prefCode":"26","municipality":"八幡市","areaM2":109089.884,"population":810,"toponymIds":["26-9fe56ec60e"]}},{"type":"Feature","geometry":{"type":"Polygon","coordinates":[[[135.68807,34.878],[135.68816,34.87782],[135.68881,34.87789],[135.68966,34.87719],[135.69051,34.87688],[135.69075,34.87694],[135.6907,34.87728],[135.6904,34.87729],[135.69055,34.87761],[135.69156,34.87791],[135.69161,34.87714],[135.6919,34.87719],[135.69236,34.87551],[135.69186,34.87534],[135.69256,34.87506],[135.69265,34.87474],[135.68966,34.8762],[135.68753,34.8762],[135.68617,34.87557],[135.68517,34.87689],[135.68442,34.87746],[135.68462,34.87773],[135.68596,34.87785],[135.68602,34.87744],[135.68682,34.87746],[135.68796,34.87759],[135.68786,34.87794],[135.68807,34.878]]]},"properties":{"key":"26210111026","name":"橋本意足","pref":"京都府","prefCode":"26","municipality":"八幡市","areaM2":116558.443,"population":934,"toponymIds":["26-d9d9e3512c"]}},{"type":"Feature","geometry":{"type":"Polygon","coordinates":[[[135.69071,34.87513],[135.69096,34.87477],[135.69088,34.87419],[135.69067,34.87417],[135.69065,34.87381],[135.68892,34.87394],[135.68883,34.87434],[135.68919,34.87441],[135.68922,34.87415],[135.68945,34.87411],[135.68944,34.8744],[135.68997,34.87429],[135.69004,34.8747],[135.69043,34.87459],[135.69028,34.87507],[135.69071,34.87513]]]},"properties":{"key":"26210111024","name":"橋本西刈又","pref":"京都府","prefCode":"26","municipality":"八幡市","areaM2":13518.799,"population":135,"toponymIds":["26-f1f9498c70"]}},{"type":"Feature","geometry":{"type":"Polygon","coordinates":[[[135.69322,34.87443],[135.69347,34.87444],[135.69338,34.87429],[135.6928,34.87402],[135.69198,34.87401],[135.69181,34.87429],[135.69151,34.87402],[135.69142,34.87352],[135.69007,34.87336],[135.68947,34.87363],[135.68946,34.87391],[135.69065,34.87381],[135.69067,34.87417],[135.69088,34.87419],[135.69096,34.87477],[135.69071,34.87513],[135.69106,34.87557],[135.69322,34.87443]]]},"properties":{"key":"26210111023","name":"橋本東刈又","pref":"京都府","prefCode":"26","municipality":"八幡市","areaM2":32766.996,"population":367,"toponymIds":["26-4bf817019e"]}},{"type":"Feature","geometry":{"type":"Polygon","coordinates":[[[135.83981,34.71511],[135.84078,34.71494],[135.84261,34.71381],[135.84223,34.71354],[135.84142,34.7134],[135.83427,34.71502],[135.83422,34.71525],[135.83441,34.71536],[135.83524,34.71786],[135.83926,34.71695],[135.83931,34.71659],[135.83894,34.71532],[135.83981,34.71511]]]},"properties":{"key":"26214020001","name":"梅美台一丁目","pref":"京都府","prefCode":"26","municipality":"木津川市","areaM2":176975.194,"population":778,"toponymIds":["26-e7bdc2dd14"]}},{"type":"Feature","geometry":{"type":"Polygon","coordinates":[[[135.83482,34.74865],[135.83402,34.74805],[135.83249,34.74633],[135.83169,34.7457],[135.83142,34.74479],[135.82675,34.74277],[135.82634,34.74349],[135.82433,34.74266],[135.82446,34.74236],[135.82354,34.74165],[135.82202,34.74127],[135.82141,34.74168],[135.82081,34.74184],[135.81927,34.7417],[135.81435,34.74035],[135.81307,34.74052],[135.81182,34.74075],[135.80874,34.74203],[135.80715,34.7434],[135.80822,34.7441],[135.80984,34.74314],[135.81154,34.74243],[135.81375,34.7421],[135.81664,34.74212],[135.8185,34.7423],[135.82311,34.74334],[135.82873,34.74563],[135.83053,34.74663],[135.8351,34.75007],[135.83848,34.75347],[135.83979,34.75448],[135.84072,34.75427],[135.83865,34.75211],[135.8367,34.75055],[135.83572,34.7494],[135.83482,34.74865]]]},"properties":{"key":"26214013045","name":"木津","pref":"京都府","prefCode":"26","municipality":"木津川市","areaM2":493590.247,"population":0,"toponymIds":["26-4d6f2f0dcc","26-5ba27fe6c7","26-e21231c92f","26-e14a0016a8"]}},{"type":"Feature","geometry":{"type":"Polygon","coordinates":[[[135.80704,34.7689],[135.80737,34.76873],[135.81419,34.76846],[135.81531,34.76717],[135.81506,34.76848],[135.81777,34.76859],[135.81918,34.76831],[135.8211,34.76861],[135.82066,34.76773],[135.82051,34.76695],[135.81958,34.76675],[135.81956,34.76662],[135.82125,34.76567],[135.81796,34.76566],[135.81684,34.76626],[135.81625,34.76624],[135.8161,34.76612],[135.81641,34.76524],[135.81601,34.76515],[135.81586,34.76478],[135.81518,34.76447],[135.8146,34.76529],[135.81397,34.76532],[135.81398,34.76509],[135.81257,34.76517],[135.81243,34.76417],[135.81199,34.7642],[135.81199,34.76439],[135.81096,34.76442],[135.81081,34.7632],[135.81051,34.76313],[135.81055,34.76357],[135.80887,34.76367],[135.80948,34.76573],[135.80968,34.76705],[135.80811,34.76722],[135.80525,34.76685],[135.80451,34.76858],[135.80657,34.76914],[135.80704,34.7689]]]},"properties":{"key":"262140080","name":"北河原","pref":"京都府","prefCode":"26","municipality":"木津川市","areaM2":474835.366,"population":364,"toponymIds":["26-268152eacd"]}}]}
