{"type":"FeatureCollection","features":[{"type":"Feature","geometry":{"type":"Polygon","coordinates":[[[135.53244,34.71247],[135.53239,34.71199],[135.52934,34.71219],[135.52864,34.71255],[135.53041,34.71494],[135.53266,34.71479],[135.53244,34.71247]]]},"properties":{"key":"27102010001","name":"高倉町一丁目","pref":"大阪府","prefCode":"27","municipality":"大阪市都島区","areaM2":87558.948,"population":2460,"toponymIds":["27-a717e72596"]}},{"type":"Feature","geometry":{"type":"Polygon","coordinates":[[[135.42345,34.65864],[135.4227,34.6573],[135.4227,34.65671],[135.42248,34.6568],[135.4208,34.6538],[135.41939,34.65324],[135.4192,34.65337],[135.42045,34.66006],[135.42492,34.66131],[135.42345,34.65864]]]},"properties":{"key":"27104014001","name":"梅町一丁目","pref":"大阪府","prefCode":"27","municipality":"大阪市此花区","areaM2":200314.911,"population":0,"toponymIds":["27-fa5db64b04"]}},{"type":"Feature","geometry":{"type":"Polygon","coordinates":[[[135.46157,34.68208],[135.46119,34.68154],[135.46083,34.68172],[135.4609,34.68183],[135.45804,34.68242],[135.45862,34.68491],[135.45898,34.685],[135.46284,34.6841],[135.46157,34.68208]]]},"properties":{"key":"27104004001","name":"梅香一丁目","pref":"大阪府","prefCode":"27","municipality":"大阪市此花区","areaM2":106153.407,"population":1855,"toponymIds":["27-58860bcb20"]}},{"type":"Feature","geometry":{"type":"Polygon","coordinates":[[[135.4629,34.66501],[135.45957,34.66769],[135.46218,34.66855],[135.46404,34.66545],[135.4629,34.66501]]]},"properties":{"key":"27107004001","name":"磯路一丁目","pref":"大阪府","prefCode":"27","municipality":"大阪市港区","areaM2":72776.211,"population":606,"toponymIds":["27-43bd28dfaf"]}},{"type":"Feature","geometry":{"type":"Polygon","coordinates":[[[135.4297,34.65194],[135.42916,34.65175],[135.42916,34.6515],[135.42813,34.65112],[135.42836,34.65065],[135.42812,34.65097],[135.42794,34.6509],[135.42801,34.65076],[135.42617,34.65011],[135.4261,34.65025],[135.42582,34.65021],[135.42542,34.651],[135.42563,34.65112],[135.42555,34.65131],[135.4283,34.6522],[135.42795,34.652],[135.42804,34.65185],[135.4289,34.6523],[135.42804,34.65485],[135.42881,34.65546],[135.42871,34.65557],[135.42882,34.65567],[135.43057,34.65698],[135.43174,34.6559],[135.42984,34.65449],[135.43065,34.65228],[135.4297,34.65194]]]},"properties":{"key":"27107016001","name":"海岸通一丁目","pref":"大阪府","prefCode":"27","municipality":"大阪市港区","areaM2":132150.962,"population":4,"toponymIds":["27-856d0344ce"]}},{"type":"Feature","geometry":{"type":"Polygon","coordinates":[[[135.468,34.67149],[135.46758,34.67112],[135.46155,34.67578],[135.46269,34.67641],[135.4684,34.67185],[135.468,34.67149]]]},"properties":{"key":"27107001001","name":"波除一丁目","pref":"大阪府","prefCode":"27","municipality":"大阪市港区","areaM2":84436.78,"population":1768,"toponymIds":["27-d7de2d7ded"]}},{"type":"Feature","geometry":{"type":"Polygon","coordinates":[[[135.48817,34.66032],[135.48659,34.66228],[135.48658,34.66351],[135.48807,34.66357],[135.48817,34.66032]]]},"properties":{"key":"27111016001","name":"芦原一丁目","pref":"大阪府","prefCode":"27","municipality":"大阪市浪速区","areaM2":35240.308,"population":331,"toponymIds":["27-84b7736c4d"]}},{"type":"Feature","geometry":{"type":"Polygon","coordinates":[[[135.52717,34.73121],[135.5272,34.73016],[135.52663,34.73114],[135.52608,34.73114],[135.52483,34.73477],[135.52397,34.73632],[135.52321,34.73724],[135.52332,34.73747],[135.52676,34.73839],[135.52688,34.73824],[135.52612,34.73741],[135.5262,34.73721],[135.52848,34.73695],[135.53009,34.73613],[135.53055,34.73246],[135.52716,34.73244],[135.52717,34.73121]]]},"properties":{"key":"27114014001","name":"菅原一丁目","pref":"大阪府","prefCode":"27","municipality":"大阪市東淀川区","areaM2":298777.941,"population":2224,"toponymIds":["27-d4b4e90e5f"]}},{"type":"Feature","geometry":{"type":"Polygon","coordinates":[[[135.5383,34.69973],[135.53932,34.69985],[135.54006,34.69965],[135.53982,34.69935],[135.53949,34.69935],[135.53884,34.69837],[135.53845,34.69832],[135.53843,34.69801],[135.53803,34.69763],[135.538,34.69741],[135.53567,34.69701],[135.53641,34.69952],[135.53841,34.69991],[135.5383,34.69973]]]},"properties":{"key":"27118009001","name":"蒲生一丁目","pref":"大阪府","prefCode":"27","municipality":"大阪市城東区","areaM2":69674.551,"population":1275,"toponymIds":["27-72e6791251"]}},{"type":"Feature","geometry":{"type":"Polygon","coordinates":[[[135.49616,34.63455],[135.49604,34.63413],[135.49381,34.63434],[135.49486,34.63788],[135.49553,34.63786],[135.49707,34.63747],[135.49616,34.63455]]]},"properties":{"key":"27122011001","name":"岸里一丁目","pref":"大阪府","prefCode":"27","municipality":"大阪市西成区","areaM2":82746.929,"population":522,"toponymIds":["27-b595f1ee3d"]}},{"type":"Feature","geometry":{"type":"Polygon","coordinates":[[[135.49972,34.63424],[135.4991,34.6315],[135.49874,34.6306],[135.49529,34.6314],[135.49601,34.63407],[135.49757,34.63393],[135.49976,34.63446],[135.49972,34.63424]]]},"properties":{"key":"27122012001","name":"岸里東一丁目","pref":"大阪府","prefCode":"27","municipality":"大阪市西成区","areaM2":120721.62,"population":2570,"toponymIds":["27-da2ad35ca2"]}},{"type":"Feature","geometry":{"type":"Polygon","coordinates":[[[135.49594,34.64365],[135.49642,34.64359],[135.49602,34.64197],[135.49261,34.64201],[135.49264,34.64356],[135.49594,34.64365]]]},"properties":{"key":"27122023001","name":"梅南一丁目","pref":"大阪府","prefCode":"27","municipality":"大阪市西成区","areaM2":59409.146,"population":1361,"toponymIds":["27-2bba6b844e"]}},{"type":"Feature","geometry":{"type":"Polygon","coordinates":[[[135.56898,34.6262],[135.56899,34.62474],[135.56439,34.62464],[135.56415,34.62607],[135.56413,34.62755],[135.56898,34.62631],[135.56898,34.6262]]]},"properties":{"key":"27126025001","name":"加美鞍作一丁目","pref":"大阪府","prefCode":"27","municipality":"大阪市平野区","areaM2":107972.341,"population":1530,"toponymIds":["27-5795d5f029"]}},{"type":"Feature","geometry":{"type":"Polygon","coordinates":[[[135.54924,34.63262],[135.54913,34.63169],[135.54892,34.63176],[135.54709,34.63274],[135.54712,34.63289],[135.54523,34.63414],[135.5476,34.63653],[135.54896,34.63576],[135.54958,34.63514],[135.54924,34.63262]]]},"properties":{"key":"27126001001","name":"平野馬場一丁目","pref":"大阪府","prefCode":"27","municipality":"大阪市平野区","areaM2":120043.202,"population":548,"toponymIds":["27-3325ce1244"]}},{"type":"Feature","geometry":{"type":"Polygon","coordinates":[[[135.50029,34.69847],[135.5005,34.69811],[135.49545,34.69832],[135.49558,34.70041],[135.49799,34.7016],[135.49833,34.70162],[135.49927,34.70103],[135.50029,34.69847]]]},"properties":{"key":"27127003001","name":"梅田一丁目","pref":"大阪府","prefCode":"27","municipality":"大阪市北区","areaM2":129687.241,"population":1,"toponymIds":["27-3e8231dcc0"]}},{"type":"Feature","geometry":{"type":"Polygon","coordinates":[[[135.49474,34.70784],[135.49532,34.70498],[135.49697,34.70525],[135.49712,34.70396],[135.49335,34.70205],[135.49016,34.70006],[135.48999,34.7001],[135.49235,34.70725],[135.49345,34.70925],[135.49522,34.70883],[135.49454,34.70872],[135.49474,34.70784]]]},"properties":{"key":"271270050","name":"大深町","pref":"大阪府","prefCode":"27","municipality":"大阪市北区","areaM2":280369.211,"population":454,"toponymIds":["27-72d3890edf"]}},{"type":"Feature","geometry":{"type":"Polygon","coordinates":[[[135.51556,34.70838],[135.51556,34.70819],[135.51242,34.70859],[135.51312,34.71015],[135.51553,34.70939],[135.51556,34.70838]]]},"properties":{"key":"271270110","name":"菅栄町","pref":"大阪府","prefCode":"27","municipality":"大阪市北区","areaM2":40680.666,"population":1362,"toponymIds":["27-ffadda9cf3"]}},{"type":"Feature","geometry":{"type":"Polygon","coordinates":[[[135.51462,34.69862],[135.51459,34.69837],[135.5125,34.69851],[135.51262,34.69988],[135.51472,34.69975],[135.51462,34.69862]]]},"properties":{"key":"271270130","name":"紅梅町","pref":"大阪府","prefCode":"27","municipality":"大阪市北区","areaM2":29585.819,"population":801,"toponymIds":["27-200d76b96a"]}},{"type":"Feature","geometry":{"type":"Polygon","coordinates":[[[135.51178,34.69256],[135.51177,34.69186],[135.50878,34.69274],[135.50949,34.69408],[135.51101,34.6941],[135.5118,34.69319],[135.51178,34.69256]]]},"properties":{"key":"271270180","name":"菅原町","pref":"大阪府","prefCode":"27","municipality":"大阪市北区","areaM2":47523.283,"population":1148,"toponymIds":["27-ba042e1e1d"]}},{"type":"Feature","geometry":{"type":"Polygon","coordinates":[[[135.50709,34.68499],[135.5071,34.68474],[135.50974,34.68475],[135.50973,34.68387],[135.50938,34.68392],[135.50935,34.68423],[135.50906,34.68422],[135.50905,34.68392],[135.50652,34.68396],[135.50653,34.68485],[135.50686,34.68484],[135.50685,34.68511],[135.50709,34.68499]]]},"properties":{"key":"27128029001","name":"安土町一丁目","pref":"大阪府","prefCode":"27","municipality":"大阪市中央区","areaM2":26572.826,"population":235,"toponymIds":["27-3da8b48ecd"]}},{"type":"Feature","geometry":{"type":"Polygon","coordinates":[[[135.50166,34.66906],[135.51046,34.6689],[135.51043,34.66856],[135.51098,34.66851],[135.51087,34.6681],[135.51042,34.66807],[135.509,34.66827],[135.50897,34.66805],[135.5071,34.66815],[135.50712,34.66868],[135.50614,34.66873],[135.50613,34.66833],[135.50034,34.66813],[135.5003,34.66902],[135.50166,34.66906]]]},"properties":{"key":"27128011001","name":"道頓堀一丁目","pref":"大阪府","prefCode":"27","municipality":"大阪市中央区","areaM2":79472.384,"population":367,"toponymIds":["27-16905e9d5c"]}},{"type":"Feature","geometry":{"type":"Polygon","coordinates":[[[135.52706,34.68147],[135.52122,34.68127],[135.52147,34.68315],[135.52317,34.68228],[135.52759,34.68189],[135.52903,34.68159],[135.52706,34.68147]]]},"properties":{"key":"271280690","name":"馬場町","pref":"大阪府","prefCode":"27","municipality":"大阪市中央区","areaM2":60059.981,"population":115,"toponymIds":["27-8264f03166"]}},{"type":"Feature","geometry":{"type":"Polygon","coordinates":[[[135.464,34.56588],[135.46374,34.56502],[135.4629,34.56521],[135.4635,34.56597],[135.464,34.56588]]]},"properties":{"key":"27141096001","name":"菅原通一丁","pref":"大阪府","prefCode":"27","municipality":"堺市堺区","areaM2":6243.631,"population":84,"toponymIds":["27-c024ace9b7"]}},{"type":"Feature","geometry":{"type":"Polygon","coordinates":[[[135.4635,34.56506],[135.46374,34.56502],[135.46348,34.56412],[135.46307,34.56428],[135.46311,34.56441],[135.46332,34.56437],[135.46349,34.56495],[135.46327,34.56499],[135.4633,34.5651],[135.4635,34.56506]]]},"properties":{"key":"27141096002","name":"菅原通二丁","pref":"大阪府","prefCode":"27","municipality":"堺市堺区","areaM2":2679.494,"population":35,"toponymIds":["27-d1ae68d99a"]}},{"type":"Feature","geometry":{"type":"Polygon","coordinates":[[[135.46348,34.56412],[135.46272,34.56314],[135.46235,34.56335],[135.46309,34.56427],[135.46348,34.56412]]]},"properties":{"key":"27141096003","name":"菅原通三丁","pref":"大阪府","prefCode":"27","municipality":"堺市堺区","areaM2":5188.431,"population":53,"toponymIds":["27-405524eeaf"]}},{"type":"Feature","geometry":{"type":"Polygon","coordinates":[[[135.46235,34.56335],[135.46272,34.56314],[135.46197,34.56221],[135.46159,34.56241],[135.46235,34.56335]]]},"properties":{"key":"27141096004","name":"菅原通四丁","pref":"大阪府","prefCode":"27","municipality":"堺市堺区","areaM2":5217.259,"population":74,"toponymIds":["27-60eb2ad292"]}},{"type":"Feature","geometry":{"type":"Polygon","coordinates":[[[135.46137,34.5621],[135.46152,34.56202],[135.46176,34.56232],[135.46197,34.56221],[135.46146,34.56156],[135.46098,34.56161],[135.46137,34.5621]]]},"properties":{"key":"27141096005","name":"菅原通五丁","pref":"大阪府","prefCode":"27","municipality":"堺市堺区","areaM2":3160.846,"population":33,"toponymIds":["27-21c53d0079"]}},{"type":"Feature","geometry":{"type":"Polygon","coordinates":[[[135.45962,34.57015],[135.458,34.57089],[135.45925,34.57314],[135.46102,34.57235],[135.45962,34.57015]]]},"properties":{"key":"27141108001","name":"出島海岸通一丁","pref":"大阪府","prefCode":"27","municipality":"堺市堺区","areaM2":48628.037,"population":593,"toponymIds":["27-07cb3fc8b5"]}},{"type":"Feature","geometry":{"type":"Polygon","coordinates":[[[135.45895,34.5689],[135.45873,34.56855],[135.45852,34.56864],[135.45842,34.56852],[135.45708,34.5692],[135.458,34.57089],[135.4596,34.5701],[135.45895,34.5689]]]},"properties":{"key":"27141108002","name":"出島海岸通二丁","pref":"大阪府","prefCode":"27","municipality":"堺市堺区","areaM2":34500.001,"population":353,"toponymIds":["27-aa4a45c4f2"]}},{"type":"Feature","geometry":{"type":"Polygon","coordinates":[[[135.4581,34.56868],[135.45873,34.56855],[135.45755,34.5666],[135.45601,34.56726],[135.45708,34.5692],[135.4581,34.56868]]]},"properties":{"key":"27141108003","name":"出島海岸通三丁","pref":"大阪府","prefCode":"27","municipality":"堺市堺区","areaM2":38086.306,"population":442,"toponymIds":["27-c719d05870"]}},{"type":"Feature","geometry":{"type":"Polygon","coordinates":[[[135.45592,34.56396],[135.45583,34.56382],[135.45431,34.56451],[135.45582,34.56732],[135.45755,34.5666],[135.45592,34.56396]]]},"properties":{"key":"27141108004","name":"出島海岸通四丁","pref":"大阪府","prefCode":"27","municipality":"堺市堺区","areaM2":57245.183,"population":265,"toponymIds":["27-f61ecad360"]}},{"type":"Feature","geometry":{"type":"Polygon","coordinates":[[[135.50427,34.48745],[135.50491,34.48739],[135.50579,34.48691],[135.50658,34.48685],[135.50694,34.48657],[135.50708,34.48692],[135.50752,34.48686],[135.50752,34.48645],[135.509,34.48665],[135.51008,34.4871],[135.51089,34.48671],[135.51136,34.48621],[135.51187,34.48632],[135.51288,34.48606],[135.51339,34.48607],[135.51364,34.48634],[135.51425,34.48636],[135.5144,34.48613],[135.51459,34.48622],[135.51555,34.48458],[135.5139,34.48389],[135.51438,34.48347],[135.51296,34.48283],[135.5143,34.48086],[135.51425,34.48053],[135.51336,34.47979],[135.5132,34.47988],[135.51274,34.47968],[135.51247,34.47974],[135.51156,34.47903],[135.51129,34.47988],[135.51064,34.48045],[135.50964,34.48104],[135.50877,34.48099],[135.50859,34.48121],[135.50878,34.48132],[135.50852,34.48166],[135.50853,34.48201],[135.5078,34.48207],[135.50713,34.48186],[135.50715,34.48147],[135.50687,34.48127],[135.50651,34.48139],[135.50552,34.48119],[135.50592,34.48063],[135.50579,34.48068],[135.50496,34.47996],[135.50484,34.47952],[135.50492,34.47874],[135.50532,34.47811],[135.50523,34.47769],[135.50482,34.4776],[135.50444,34.47828],[135.50455,34.47874],[135.50438,34.47872],[135.50423,34.47903],[135.50408,34.47902],[135.50381,34.48128],[135.50286,34.48278],[135.50275,34.48322],[135.50213,34.48352],[135.50072,34.48575],[135.50126,34.48603],[135.50133,34.48624],[135.50125,34.48702],[135.50085,34.4881],[135.50137,34.48874],[135.50332,34.48802],[135.50427,34.48745]]]},"properties":{"key":"271450070","name":"片蔵","pref":"大阪府","prefCode":"27","municipality":"堺市南区","areaM2":805030.697,"population":1226,"toponymIds":["27-97aac312d0"]}},{"type":"Feature","geometry":{"type":"Polygon","coordinates":[[[135.5217,34.49215],[135.52216,34.49235],[135.52276,34.49224],[135.52279,34.49198],[135.52299,34.49194],[135.52299,34.49161],[135.5227,34.49169],[135.52234,34.49089],[135.52325,34.48938],[135.52348,34.48948],[135.52416,34.48851],[135.52252,34.48773],[135.51836,34.49397],[135.51785,34.49544],[135.51779,34.49662],[135.51944,34.49705],[135.52004,34.49558],[135.52001,34.49371],[135.52047,34.4922],[135.5217,34.49215]]]},"properties":{"key":"27145016001","name":"高倉台一丁","pref":"大阪府","prefCode":"27","municipality":"堺市南区","areaM2":175524.396,"population":1442,"toponymIds":["27-5151dc28c6"]}},{"type":"Feature","geometry":{"type":"Polygon","coordinates":[[[135.52503,34.49263],[135.52468,34.49029],[135.52544,34.48912],[135.52416,34.48851],[135.52348,34.48948],[135.52325,34.48938],[135.52234,34.49089],[135.5227,34.49169],[135.52299,34.49161],[135.52299,34.49194],[135.52279,34.49198],[135.52276,34.49224],[135.52212,34.49236],[135.52184,34.49213],[135.52047,34.4922],[135.52001,34.49371],[135.52004,34.49558],[135.51944,34.49705],[135.52395,34.49824],[135.52435,34.49703],[135.52464,34.4951],[135.52505,34.49383],[135.52503,34.49263]]]},"properties":{"key":"27145016002","name":"高倉台二丁","pref":"大阪府","prefCode":"27","municipality":"堺市南区","areaM2":334387.057,"population":3326,"toponymIds":["27-725620dc4b"]}},{"type":"Feature","geometry":{"type":"Polygon","coordinates":[[[135.52594,34.49748],[135.5266,34.49599],[135.52663,34.49497],[135.52689,34.49396],[135.52717,34.49361],[135.52712,34.49294],[135.5274,34.49173],[135.52792,34.49128],[135.52645,34.48979],[135.52544,34.48912],[135.52468,34.49029],[135.52511,34.49338],[135.52458,34.49538],[135.52435,34.49703],[135.52393,34.49829],[135.52593,34.49878],[135.52605,34.49835],[135.52594,34.49748]]]},"properties":{"key":"27145016003","name":"高倉台三丁","pref":"大阪府","prefCode":"27","municipality":"堺市南区","areaM2":195631.761,"population":1188,"toponymIds":["27-4ff0be157a"]}},{"type":"Feature","geometry":{"type":"Polygon","coordinates":[[[135.53096,34.49742],[135.53076,34.49636],[135.53023,34.49516],[135.52792,34.49128],[135.52748,34.49158],[135.52732,34.49202],[135.52712,34.49294],[135.52717,34.49361],[135.52689,34.49396],[135.52663,34.49497],[135.5266,34.49599],[135.52598,34.49721],[135.52605,34.49835],[135.52593,34.49878],[135.53051,34.49987],[135.53094,34.49838],[135.53096,34.49742]]]},"properties":{"key":"27145016004","name":"高倉台四丁","pref":"大阪府","prefCode":"27","municipality":"堺市南区","areaM2":274638.102,"population":1633,"toponymIds":["27-eda722675b"]}},{"type":"Feature","geometry":{"type":"Polygon","coordinates":[[[135.5176,34.47946],[135.51807,34.47927],[135.51853,34.47807],[135.51973,34.47655],[135.52118,34.47602],[135.52205,34.47521],[135.5236,34.47492],[135.52315,34.47441],[135.52327,34.47398],[135.52297,34.47205],[135.52406,34.46942],[135.52442,34.46905],[135.52437,34.4686],[135.52532,34.468],[135.5266,34.46799],[135.52739,34.46646],[135.52736,34.46587],[135.52804,34.46552],[135.52822,34.46494],[135.52853,34.46474],[135.52943,34.46464],[135.52973,34.4643],[135.53066,34.46388],[135.53076,34.46355],[135.53019,34.46158],[135.52986,34.46165],[135.52939,34.46147],[135.52861,34.46168],[135.52737,34.46238],[135.52655,34.46367],[135.52574,34.46415],[135.52544,34.46482],[135.52393,34.46647],[135.52309,34.46708],[135.52157,34.46771],[135.52127,34.4684],[135.52023,34.46895],[135.52015,34.46918],[135.52029,34.46976],[135.52007,34.46938],[135.51939,34.46914],[135.51875,34.4697],[135.51681,34.47055],[135.51568,34.47204],[135.51496,34.47316],[135.51435,34.47485],[135.51255,34.47744],[135.51514,34.47874],[135.51527,34.47854],[135.51555,34.47853],[135.51603,34.47942],[135.5176,34.47946]]]},"properties":{"key":"271450210","name":"富蔵","pref":"大阪府","prefCode":"27","municipality":"堺市南区","areaM2":973100.064,"population":268,"toponymIds":["27-1ec7d8776e"]}},{"type":"Feature","geometry":{"type":"Polygon","coordinates":[[[135.51219,34.57687],[135.51262,34.5763],[135.51268,34.57468],[135.50766,34.57459],[135.5077,34.57577],[135.50813,34.57652],[135.50879,34.57619],[135.50927,34.57619],[135.51079,34.5767],[135.51158,34.57669],[135.51219,34.57687]]]},"properties":{"key":"27146005001","name":"蔵前町一丁","pref":"大阪府","prefCode":"27","municipality":"堺市北区","areaM2":95469.322,"population":1448,"toponymIds":["27-bac1f3add5"]}},{"type":"Feature","geometry":{"type":"Polygon","coordinates":[[[135.51393,34.57685],[135.51631,34.57687],[135.51625,34.57494],[135.51268,34.57468],[135.51262,34.5763],[135.51219,34.57687],[135.51393,34.57685]]]},"properties":{"key":"27146005002","name":"蔵前町二丁","pref":"大阪府","prefCode":"27","municipality":"堺市北区","areaM2":78196.407,"population":857,"toponymIds":["27-e602307225"]}},{"type":"Feature","geometry":{"type":"Polygon","coordinates":[[[135.51952,34.5769],[135.52102,34.57687],[135.521,34.57633],[135.52078,34.57613],[135.52091,34.5752],[135.51625,34.57494],[135.51631,34.57687],[135.51733,34.57676],[135.51952,34.5769]]]},"properties":{"key":"27146005003","name":"蔵前町三丁","pref":"大阪府","prefCode":"27","municipality":"堺市北区","areaM2":83656.901,"population":829,"toponymIds":["27-52af0dd3bd"]}},{"type":"Feature","geometry":{"type":"Polygon","coordinates":[[[135.49282,34.56499],[135.49583,34.56283],[135.49351,34.56232],[135.49216,34.56495],[135.49236,34.56539],[135.49282,34.56499]]]},"properties":{"key":"27146025001","name":"百舌鳥梅北町一丁","pref":"大阪府","prefCode":"27","municipality":"堺市北区","areaM2":45002.315,"population":422,"toponymIds":["27-ef913da697"]}},{"type":"Feature","geometry":{"type":"Polygon","coordinates":[[[135.49523,34.5609],[135.49405,34.56065],[135.49351,34.56232],[135.49583,34.56283],[135.49738,34.56162],[135.49689,34.56121],[135.49523,34.5609]]]},"properties":{"key":"27146025002","name":"百舌鳥梅北町二丁","pref":"大阪府","prefCode":"27","municipality":"堺市北区","areaM2":52840.797,"population":913,"toponymIds":["27-fed0f8f76b"]}},{"type":"Feature","geometry":{"type":"Polygon","coordinates":[[[135.4955,34.56089],[135.49649,34.5608],[135.49748,34.56012],[135.49792,34.55972],[135.498,34.55897],[135.49851,34.55877],[135.49823,34.55832],[135.498,34.55833],[135.49732,34.55862],[135.49733,34.55885],[135.49715,34.55891],[135.49677,34.55834],[135.49743,34.558],[135.49784,34.55797],[135.49755,34.55753],[135.49593,34.55815],[135.49576,34.55856],[135.49598,34.55864],[135.49579,34.55904],[135.49537,34.55892],[135.4953,34.55913],[135.49512,34.55909],[135.49528,34.55867],[135.49469,34.55853],[135.49405,34.56065],[135.4955,34.56089]]]},"properties":{"key":"27146025003","name":"百舌鳥梅北町三丁","pref":"大阪府","prefCode":"27","municipality":"堺市北区","areaM2":83460.985,"population":1053,"toponymIds":["27-73d21880ac"]}},{"type":"Feature","geometry":{"type":"Polygon","coordinates":[[[135.49823,34.56094],[135.5011,34.55865],[135.49998,34.55747],[135.49932,34.55795],[135.49908,34.5577],[135.49805,34.55806],[135.49764,34.55749],[135.49755,34.55753],[135.49784,34.55797],[135.49743,34.558],[135.49677,34.55834],[135.49715,34.55891],[135.49733,34.55885],[135.49732,34.55862],[135.498,34.55833],[135.49823,34.55832],[135.49851,34.55877],[135.498,34.55897],[135.49792,34.55972],[135.49748,34.56012],[135.49649,34.5608],[135.49547,34.56095],[135.49689,34.56121],[135.49738,34.56162],[135.49823,34.56094]]]},"properties":{"key":"27146025004","name":"百舌鳥梅北町四丁","pref":"大阪府","prefCode":"27","municipality":"堺市北区","areaM2":86397.183,"population":1307,"toponymIds":["27-acadf73559"]}},{"type":"Feature","geometry":{"type":"Polygon","coordinates":[[[135.4953,34.55913],[135.49537,34.55892],[135.49579,34.55904],[135.49598,34.55864],[135.49576,34.55856],[135.49593,34.55815],[135.49712,34.55767],[135.49764,34.55749],[135.49805,34.55806],[135.49908,34.5577],[135.49932,34.55795],[135.49998,34.55747],[135.49918,34.55606],[135.49845,34.5552],[135.4983,34.55524],[135.49765,34.55476],[135.49749,34.55446],[135.49688,34.55455],[135.49594,34.55623],[135.4951,34.55727],[135.49469,34.55853],[135.49528,34.55867],[135.49512,34.55909],[135.4953,34.55913]]]},"properties":{"key":"27146025005","name":"百舌鳥梅北町五丁","pref":"大阪府","prefCode":"27","municipality":"堺市北区","areaM2":116604.333,"population":1564,"toponymIds":["27-616208fe7c"]}},{"type":"Feature","geometry":{"type":"Polygon","coordinates":[[[135.50053,34.55456],[135.50153,34.55414],[135.5024,34.55344],[135.49767,34.55014],[135.49402,34.55283],[135.49483,34.55297],[135.49611,34.55289],[135.49688,34.55455],[135.49749,34.55446],[135.49765,34.55476],[135.4983,34.55524],[135.50053,34.55456]]]},"properties":{"key":"27146026001","name":"百舌鳥梅町一丁","pref":"大阪府","prefCode":"27","municipality":"堺市北区","areaM2":206038.358,"population":2041,"toponymIds":["27-5c53622278"]}},{"type":"Feature","geometry":{"type":"Polygon","coordinates":[[[135.4969,34.55071],[135.49767,34.55014],[135.49655,34.54933],[135.49644,34.54955],[135.49579,34.54983],[135.49557,34.5501],[135.49516,34.5502],[135.49473,34.55058],[135.49424,34.55056],[135.49397,34.55074],[135.49359,34.55142],[135.49321,34.55167],[135.49336,34.55186],[135.49318,34.5522],[135.49329,34.55278],[135.49402,34.55283],[135.4969,34.55071]]]},"properties":{"key":"27146026002","name":"百舌鳥梅町二丁","pref":"大阪府","prefCode":"27","municipality":"堺市北区","areaM2":67096.092,"population":312,"toponymIds":["27-a39df7ae0b"]}},{"type":"Feature","geometry":{"type":"Polygon","coordinates":[[[135.50487,34.54927],[135.5014,34.54676],[135.5012,34.54719],[135.50084,34.54717],[135.50046,34.54768],[135.49743,34.54897],[135.49668,34.54902],[135.49655,34.54933],[135.5024,34.55344],[135.5061,34.55024],[135.50487,34.54927]]]},"properties":{"key":"27146026003","name":"百舌鳥梅町三丁","pref":"大阪府","prefCode":"27","municipality":"堺市北区","areaM2":312562.78,"population":4723,"toponymIds":["27-a066badb82"]}},{"type":"Feature","geometry":{"type":"Polygon","coordinates":[[[135.56097,34.53219],[135.56202,34.53267],[135.56195,34.53159],[135.5625,34.5316],[135.56256,34.53139],[135.56406,34.53149],[135.56419,34.53131],[135.56531,34.53138],[135.56537,34.53114],[135.56514,34.531],[135.56564,34.53073],[135.56544,34.53041],[135.56616,34.53052],[135.56613,34.52989],[135.56677,34.52997],[135.56657,34.52956],[135.56684,34.52976],[135.56697,34.52959],[135.56719,34.5298],[135.56752,34.52973],[135.56744,34.52919],[135.56783,34.52886],[135.56791,34.52799],[135.56811,34.52803],[135.56816,34.52785],[135.56807,34.52747],[135.56827,34.52737],[135.56833,34.52752],[135.5685,34.52689],[135.56887,34.52676],[135.56937,34.5262],[135.56914,34.52493],[135.56935,34.52459],[135.56953,34.52457],[135.56944,34.52508],[135.56972,34.52572],[135.57088,34.52534],[135.57116,34.52547],[135.57133,34.52537],[135.57166,34.52383],[135.57195,34.52363],[135.5719,34.52344],[135.57242,34.52265],[135.57229,34.5226],[135.57243,34.52234],[135.57147,34.52203],[135.57141,34.52184],[135.57234,34.52209],[135.57301,34.52145],[135.57295,34.52117],[135.57331,34.52098],[135.57291,34.52066],[135.5719,34.52027],[135.57094,34.52019],[135.57099,34.51982],[135.57064,34.51973],[135.57077,34.5185],[135.57061,34.51669],[135.57046,34.51632],[135.57014,34.51608],[135.57047,34.51524],[135.56986,34.51586],[135.56962,34.51573],[135.56984,34.51513],[135.57022,34.51467],[135.56943,34.5142],[135.5689,34.51545],[135.56896,34.51576],[135.56769,34.51698],[135.56681,34.51714],[135.56654,34.51636],[135.56593,34.5161],[135.56588,34.51643],[135.56543,34.51649],[135.56537,34.51675],[135.56365,34.51765],[135.56311,34.52006],[135.56393,34.5197],[135.56456,34.51997],[135.56412,34.52019],[135.56385,34.52056],[135.56385,34.52089],[135.56351,34.52116],[135.56269,34.52236],[135.56295,34.52251],[135.56326,34.52405],[135.56291,34.52434],[135.56201,34.5244],[135.56203,34.52506],[135.56152,34.5251],[135.56154,34.52524],[135.56139,34.52522],[135.56113,34.52471],[135.56158,34.52466],[135.56153,34.52447],[135.56084,34.52463],[135.56135,34.52525],[135.56192,34.52647],[135.56189,34.52671],[135.56139,34.52662],[135.56139,34.52678],[135.55841,34.5269],[135.55918,34.529],[135.55858,34.52932],[135.55803,34.52856],[135.55793,34.52861],[135.55809,34.52881],[135.55781,34.52894],[135.55706,34.52862],[135.55668,34.52874],[135.55697,34.52891],[135.55718,34.52936],[135.5572,34.52997],[135.5584,34.5298],[135.55892,34.53047],[135.55943,34.53172],[135.5604,34.53276],[135.56083,34.53261],[135.56072,34.53239],[135.56097,34.53219]]]},"properties":{"key":"271470130","name":"菅生","pref":"大阪府","prefCode":"27","municipality":"堺市美原区","areaM2":1305277.093,"population":1060,"toponymIds":["27-3feead64df"]}},{"type":"Feature","geometry":{"type":"Polygon","coordinates":[[[135.39566,34.48323],[135.39534,34.48242],[135.39443,34.48292],[135.39292,34.48301],[135.38889,34.48449],[135.38962,34.48516],[135.38974,34.48598],[135.39129,34.48738],[135.39306,34.48611],[135.39522,34.485],[135.39605,34.48434],[135.39566,34.48323]]]},"properties":{"key":"27202082001","name":"磯上町一丁目","pref":"大阪府","prefCode":"27","municipality":"岸和田市","areaM2":181416.011,"population":1074,"toponymIds":["27-853cfaf84e"]}},{"type":"Feature","geometry":{"type":"Polygon","coordinates":[[[135.37335,34.46139],[135.37496,34.459],[135.37398,34.45791],[135.36966,34.45616],[135.36653,34.45811],[135.36783,34.45872],[135.36793,34.45863],[135.36917,34.4594],[135.36877,34.45982],[135.37042,34.46123],[135.37076,34.461],[135.37138,34.46148],[135.37224,34.46118],[135.37238,34.46129],[135.37232,34.46153],[135.37335,34.46139]]]},"properties":{"key":"272020080","name":"岸城町","pref":"大阪府","prefCode":"27","municipality":"岸和田市","areaM2":253358.205,"population":1238,"toponymIds":["27-c738c582da"]}},{"type":"Feature","geometry":{"type":"Polygon","coordinates":[[[135.35598,34.46887],[135.35488,34.46745],[135.35475,34.46763],[135.35104,34.46563],[135.3507,34.46581],[135.349,34.46801],[135.35061,34.46886],[135.35168,34.46751],[135.3537,34.46857],[135.35133,34.47165],[135.35332,34.47265],[135.35246,34.4738],[135.35459,34.47492],[135.35226,34.47789],[135.35331,34.47926],[135.35279,34.47972],[135.35313,34.48014],[135.35992,34.47379],[135.35598,34.46887]]]},"properties":{"key":"272021300","name":"岸之浦町","pref":"大阪府","prefCode":"27","municipality":"岸和田市","areaM2":593044.051,"population":0,"toponymIds":["27-b49c51302c"]}},{"type":"Feature","geometry":{"type":"Polygon","coordinates":[[[135.43048,34.42983],[135.43039,34.42953],[135.42975,34.42959],[135.42964,34.43022],[135.43019,34.43029],[135.43053,34.43009],[135.43048,34.42983]]]},"properties":{"key":"27202135001","name":"岸の丘町一丁目","pref":"大阪府","prefCode":"27","municipality":"岸和田市","areaM2":5123.109,"population":0,"toponymIds":["27-3abe2d5e3f"]}},{"type":"Feature","geometry":{"type":"Polygon","coordinates":[[[135.37664,34.46956],[135.37633,34.46913],[135.37609,34.4692],[135.37498,34.4705],[135.37472,34.47062],[135.37554,34.47186],[135.37798,34.47092],[135.3772,34.4699],[135.37664,34.46956]]]},"properties":{"key":"272020280","name":"岸野町","pref":"大阪府","prefCode":"27","municipality":"岸和田市","areaM2":48426.418,"population":455,"toponymIds":["27-ca2e272e79"]}},{"type":"Feature","geometry":{"type":"Polygon","coordinates":[[[135.36666,34.46804],[135.36698,34.46681],[135.36456,34.46117],[135.3638,34.45954],[135.36289,34.45864],[135.36219,34.45827],[135.35393,34.46294],[135.35618,34.46418],[135.36267,34.47233],[135.36394,34.47071],[135.36494,34.47015],[135.3621,34.46657],[135.36355,34.46578],[135.36544,34.46814],[135.36666,34.46804]]]},"properties":{"key":"272020200","name":"地蔵浜町","pref":"大阪府","prefCode":"27","municipality":"岸和田市","areaM2":857509.198,"population":19,"toponymIds":["27-7592252ba6"]}},{"type":"Feature","geometry":{"type":"Polygon","coordinates":[[[135.45886,34.76527],[135.46043,34.76563],[135.46124,34.7617],[135.45751,34.76165],[135.45756,34.76324],[135.45799,34.7633],[135.45791,34.76394],[135.45768,34.76422],[135.45775,34.7657],[135.4588,34.7657],[135.45886,34.76527]]]},"properties":{"key":"27203077001","name":"利倉一丁目","pref":"大阪府","prefCode":"27","municipality":"豊中市","areaM2":125500.3,"population":472,"toponymIds":["27-927e308020"]}},{"type":"Feature","geometry":{"type":"Polygon","coordinates":[[[135.45077,34.76605],[135.45091,34.76589],[135.45155,34.76658],[135.45599,34.76178],[135.45557,34.76206],[135.45443,34.76135],[135.4541,34.76154],[135.4545,34.76113],[135.45026,34.76143],[135.45041,34.7618],[135.45035,34.76259],[135.44994,34.76445],[135.44996,34.76526],[135.45022,34.76586],[135.45011,34.76656],[135.45029,34.76663],[135.45077,34.76605]]]},"properties":{"key":"27203078001","name":"利倉西一丁目","pref":"大阪府","prefCode":"27","municipality":"豊中市","areaM2":192736.764,"population":1032,"toponymIds":["27-123bc9cbe9"]}},{"type":"Feature","geometry":{"type":"Polygon","coordinates":[[[135.46247,34.76569],[135.4671,34.7656],[135.46724,34.76552],[135.46714,34.7637],[135.46091,34.76364],[135.46043,34.76563],[135.46247,34.76569]]]},"properties":{"key":"27203076001","name":"利倉東一丁目","pref":"大阪府","prefCode":"27","municipality":"豊中市","areaM2":131124.124,"population":1998,"toponymIds":["27-ba1470291e"]}},{"type":"Feature","geometry":{"type":"Polygon","coordinates":[[[135.42664,34.82309],[135.42746,34.82322],[135.42788,34.82312],[135.42802,34.82214],[135.42796,34.81988],[135.42673,34.82072],[135.42671,34.82164],[135.4256,34.82217],[135.42608,34.82217],[135.42613,34.82334],[135.42664,34.82309]]]},"properties":{"key":"272040190","name":"菅原町","pref":"大阪府","prefCode":"27","municipality":"池田市","areaM2":45764.569,"population":893,"toponymIds":["27-4eb3fbd8ee"]}},{"type":"Feature","geometry":{"type":"Polygon","coordinates":[[[135.4289,34.84898],[135.43037,34.84854],[135.43096,34.84815],[135.43163,34.84734],[135.43246,34.84756],[135.43283,34.84751],[135.43369,34.84721],[135.43449,34.84662],[135.43315,34.84575],[135.43208,34.84479],[135.43277,34.84461],[135.43238,34.84393],[135.43219,34.844],[135.43174,34.84378],[135.43105,34.8439],[135.4314,34.84446],[135.43104,34.84462],[135.43071,34.84457],[135.43047,34.84424],[135.42861,34.84447],[135.42843,34.84392],[135.42862,34.84388],[135.42858,34.84372],[135.42842,34.84375],[135.42819,34.843],[135.42742,34.84317],[135.42745,34.8437],[135.42724,34.84407],[135.42667,34.84387],[135.42636,34.84523],[135.42686,34.84735],[135.42717,34.84737],[135.42712,34.84781],[135.42692,34.84789],[135.42753,34.84796],[135.42785,34.8489],[135.42824,34.84914],[135.4289,34.84898]]]},"properties":{"key":"272040040","name":"中川原町","pref":"大阪府","prefCode":"27","municipality":"池田市","areaM2":279902.406,"population":225,"toponymIds":["27-d67d7fac2c"]}},{"type":"Feature","geometry":{"type":"Polygon","coordinates":[[[135.51835,34.75248],[135.51852,34.75194],[135.51895,34.75193],[135.51846,34.7518],[135.51901,34.74993],[135.51684,34.74981],[135.51445,34.749],[135.51358,34.75079],[135.51342,34.75143],[135.51786,34.75409],[135.51835,34.75248]]]},"properties":{"key":"272050160","name":"川岸町","pref":"大阪府","prefCode":"27","municipality":"吹田市","areaM2":163924.31,"population":609,"toponymIds":["27-8a7a30730c"]}},{"type":"Feature","geometry":{"type":"Polygon","coordinates":[[[135.52747,34.77856],[135.52677,34.77874],[135.5268,34.77929],[135.52515,34.78078],[135.52623,34.78178],[135.5296,34.78063],[135.52925,34.77958],[135.52849,34.77901],[135.52747,34.77856]]]},"properties":{"key":"27205021001","name":"岸部北一丁目","pref":"大阪府","prefCode":"27","municipality":"吹田市","areaM2":81494.159,"population":791,"toponymIds":["27-71513014ca"]}},{"type":"Feature","geometry":{"type":"Polygon","coordinates":[[[135.5318,34.77118],[135.53097,34.77047],[135.5305,34.77094],[135.53504,34.77476],[135.53995,34.77936],[135.54199,34.7806],[135.54281,34.77956],[135.53529,34.77415],[135.5318,34.77118]]]},"properties":{"key":"272051000","name":"岸部新町","pref":"大阪府","prefCode":"27","municipality":"吹田市","areaM2":144980.398,"population":97,"toponymIds":["27-96454daf9e"]}},{"type":"Feature","geometry":{"type":"Polygon","coordinates":[[[135.53547,34.77516],[135.5305,34.77094],[135.52922,34.77235],[135.531,34.77507],[135.53112,34.77496],[135.53379,34.77534],[135.53732,34.77712],[135.53747,34.77692],[135.53547,34.77516]]]},"properties":{"key":"27205019001","name":"岸部中一丁目","pref":"大阪府","prefCode":"27","municipality":"吹田市","areaM2":146849.162,"population":1181,"toponymIds":["27-d8ba28fcb8"]}},{"type":"Feature","geometry":{"type":"Polygon","coordinates":[[[135.5448,34.77403],[135.54381,34.77283],[135.54335,34.77324],[135.54091,34.77644],[135.54366,34.77848],[135.54593,34.77561],[135.5448,34.77403]]]},"properties":{"key":"27205020001","name":"岸部南一丁目","pref":"大阪府","prefCode":"27","municipality":"吹田市","areaM2":146448.449,"population":1516,"toponymIds":["27-4acb6e5183"]}},{"type":"Feature","geometry":{"type":"Polygon","coordinates":[[[135.54914,34.80455],[135.54965,34.80455],[135.5495,34.80444],[135.54962,34.80423],[135.55031,34.80353],[135.55088,34.80367],[135.55138,34.8034],[135.5511,34.80323],[135.55118,34.80307],[135.55156,34.80293],[135.55214,34.80304],[135.55233,34.80279],[135.55214,34.8011],[135.55262,34.8013],[135.55311,34.80113],[135.55312,34.80054],[135.55281,34.79998],[135.55245,34.79836],[135.55182,34.79751],[135.55115,34.79817],[135.55104,34.79861],[135.54995,34.79908],[135.54915,34.79989],[135.54862,34.80019],[135.54877,34.80042],[135.54876,34.80087],[135.54791,34.80161],[135.54789,34.80209],[135.54834,34.80228],[135.54893,34.80382],[135.54875,34.80454],[135.54914,34.80455]]]},"properties":{"key":"272050330","name":"新芦屋上","pref":"大阪府","prefCode":"27","municipality":"吹田市","areaM2":202971.677,"population":5159,"toponymIds":["27-4dfa0cadbf"]}},{"type":"Feature","geometry":{"type":"Polygon","coordinates":[[[135.55335,34.80373],[135.55352,34.80298],[135.55465,34.80176],[135.55488,34.80061],[135.5548,34.7988],[135.5547,34.7979],[135.55402,34.79822],[135.55385,34.79799],[135.55371,34.79802],[135.55318,34.79683],[135.55296,34.79674],[135.55182,34.79751],[135.55245,34.79836],[135.55281,34.79998],[135.55312,34.80054],[135.55311,34.80113],[135.55262,34.8013],[135.55214,34.8011],[135.55233,34.80279],[135.55208,34.80308],[135.55156,34.80293],[135.5511,34.80323],[135.55338,34.80399],[135.55348,34.80392],[135.55335,34.80373]]]},"properties":{"key":"272050340","name":"新芦屋下","pref":"大阪府","prefCode":"27","municipality":"吹田市","areaM2":132411.508,"population":3054,"toponymIds":["27-e01e934495"]}},{"type":"Feature","geometry":{"type":"Polygon","coordinates":[[[135.50016,34.76716],[135.50081,34.76722],[135.50086,34.76737],[135.50122,34.76729],[135.50134,34.76768],[135.50197,34.76743],[135.503,34.76742],[135.50367,34.76781],[135.50438,34.76764],[135.5046,34.76779],[135.50489,34.76623],[135.5064,34.766],[135.5067,34.76627],[135.5077,34.7659],[135.50786,34.76628],[135.50839,34.76607],[135.50868,34.76507],[135.50973,34.76407],[135.50532,34.76399],[135.49775,34.76422],[135.49776,34.76533],[135.49749,34.76693],[135.49996,34.76929],[135.5005,34.76877],[135.49974,34.76792],[135.49975,34.7673],[135.50016,34.76716]]]},"properties":{"key":"27205058001","name":"垂水町一丁目","pref":"大阪府","prefCode":"27","municipality":"吹田市","areaM2":344958.029,"population":5778,"toponymIds":["27-670be47262"]}},{"type":"Feature","geometry":{"type":"Polygon","coordinates":[[[135.39375,34.49753],[135.39355,34.49725],[135.39284,34.49756],[135.39038,34.49888],[135.38979,34.49897],[135.38826,34.49997],[135.38917,34.50078],[135.39128,34.50182],[135.39591,34.50311],[135.39687,34.5017],[135.39375,34.49753]]]},"properties":{"key":"272060190","name":"河原町","pref":"大阪府","prefCode":"27","municipality":"泉大津市","areaM2":265434.296,"population":973,"toponymIds":["27-7d8f9570b9"]}},{"type":"Feature","geometry":{"type":"Polygon","coordinates":[[[135.40311,34.5047],[135.40299,34.50458],[135.40243,34.50639],[135.40174,34.5074],[135.40359,34.5082],[135.40543,34.50613],[135.40454,34.50541],[135.40311,34.5047]]]},"properties":{"key":"272060060","name":"菅原町","pref":"大阪府","prefCode":"27","municipality":"泉大津市","areaM2":67224.526,"population":683,"toponymIds":["27-0167575cb5"]}},{"type":"Feature","geometry":{"type":"Polygon","coordinates":[[[135.60914,34.95052],[135.61167,34.95099],[135.61356,34.94949],[135.61408,34.95028],[135.61424,34.94885],[135.6141,34.94798],[135.6137,34.94728],[135.61272,34.94674],[135.6128,34.94655],[135.61358,34.94653],[135.61379,34.94597],[135.61245,34.94533],[135.61124,34.94377],[135.61145,34.94336],[135.61296,34.94211],[135.61297,34.94184],[135.61269,34.94184],[135.61139,34.94242],[135.6108,34.9423],[135.61061,34.94205],[135.61098,34.94074],[135.61078,34.94007],[135.61028,34.93962],[135.60959,34.94004],[135.60905,34.94006],[135.60856,34.93987],[135.60808,34.9393],[135.60781,34.93823],[135.6068,34.93778],[135.60675,34.93756],[135.60739,34.93697],[135.60747,34.93651],[135.60667,34.93625],[135.60637,34.93557],[135.60594,34.93514],[135.60569,34.93526],[135.6055,34.93608],[135.60527,34.93633],[135.60443,34.93614],[135.60437,34.93646],[135.6041,34.93648],[135.60328,34.93612],[135.60315,34.93575],[135.60355,34.93558],[135.60376,34.93522],[135.60331,34.93506],[135.60295,34.93407],[135.60195,34.93346],[135.60188,34.93324],[135.60226,34.93263],[135.60054,34.93074],[135.60053,34.93055],[135.6013,34.93003],[135.6013,34.92979],[135.5995,34.92846],[135.60027,34.92829],[135.60055,34.92785],[135.59905,34.92817],[135.59863,34.9285],[135.59819,34.92852],[135.5973,34.92914],[135.59785,34.93004],[135.59776,34.93022],[135.598,34.93063],[135.59789,34.93106],[135.59819,34.93149],[135.59801,34.93243],[135.59759,34.93293],[135.59797,34.93367],[135.59735,34.93401],[135.59683,34.93479],[135.59689,34.93515],[135.59659,34.93571],[135.59641,34.93582],[135.59546,34.93562],[135.59667,34.93796],[135.59784,34.93934],[135.59853,34.94084],[135.60157,34.94322],[135.60193,34.94375],[135.60224,34.94506],[135.60221,34.94733],[135.60201,34.94827],[135.60213,34.94927],[135.60288,34.95072],[135.60392,34.95193],[135.60435,34.95384],[135.60539,34.95296],[135.60575,34.95223],[135.60727,34.95116],[135.60914,34.95052]]]},"properties":{"key":"272070190","name":"大字出灰","pref":"大阪府","prefCode":"27","municipality":"高槻市","areaM2":2040488.471,"population":46,"toponymIds":["27-9072f2bc7a"]}},{"type":"Feature","geometry":{"type":"Polygon","coordinates":[[[135.58354,34.97623],[135.58481,34.97617],[135.5847,34.97537],[135.58443,34.97515],[135.58484,34.97473],[135.58571,34.97426],[135.58557,34.97327],[135.58609,34.97293],[135.58615,34.97232],[135.5866,34.97176],[135.58715,34.97036],[135.58844,34.96915],[135.58909,34.96728],[135.58944,34.96706],[135.59034,34.96735],[135.59114,34.96722],[135.59187,34.96629],[135.58992,34.96465],[135.58859,34.96435],[135.58654,34.96235],[135.58508,34.96251],[135.58437,34.96278],[135.58309,34.96264],[135.58191,34.96188],[135.57994,34.96132],[135.57873,34.96059],[135.57796,34.9604],[135.57769,34.9609],[135.57347,34.9609],[135.57296,34.96121],[135.57142,34.9634],[135.57109,34.96433],[135.57095,34.96588],[135.57134,34.96675],[135.57138,34.96699],[135.5711,34.96743],[135.57146,34.96905],[135.57116,34.9697],[135.57237,34.96994],[135.57273,34.97126],[135.57369,34.97167],[135.57498,34.97193],[135.57558,34.97303],[135.57649,34.97373],[135.57734,34.97398],[135.57821,34.97403],[135.57915,34.97468],[135.58001,34.97434],[135.58044,34.97444],[135.58075,34.97468],[135.58109,34.97535],[135.58198,34.97586],[135.58257,34.97683],[135.58282,34.97682],[135.58354,34.97623]]]},"properties":{"key":"272070930","name":"大字杉生","pref":"大阪府","prefCode":"27","municipality":"高槻市","areaM2":2092559.135,"population":29,"toponymIds":["27-46660bc303"]}},{"type":"Feature","geometry":{"type":"Polygon","coordinates":[[[135.59662,34.96618],[135.59701,34.96505],[135.59661,34.96385],[135.59658,34.96331],[135.59677,34.96284],[135.59789,34.962],[135.59824,34.96152],[135.59862,34.95974],[135.59908,34.95957],[135.60094,34.96019],[135.60165,34.95993],[135.60264,34.96005],[135.6026,34.95866],[135.60279,34.95792],[135.60412,34.95684],[135.60435,34.95384],[135.60392,34.95193],[135.60288,34.95072],[135.60213,34.94927],[135.60201,34.94827],[135.60221,34.94733],[135.60224,34.94506],[135.60193,34.94375],[135.60157,34.94322],[135.59853,34.94084],[135.59784,34.93934],[135.59667,34.93796],[135.59596,34.93638],[135.59391,34.93308],[135.58812,34.92939],[135.58592,34.92852],[135.58529,34.92784],[135.58474,34.92774],[135.58438,34.92819],[135.58383,34.92833],[135.58282,34.92788],[135.58231,34.92792],[135.58181,34.92763],[135.58188,34.92709],[135.5815,34.92699],[135.5816,34.92766],[135.58087,34.92792],[135.58123,34.92865],[135.58098,34.9294],[135.58057,34.92982],[135.58054,34.9302],[135.58099,34.93234],[135.58124,34.93285],[135.58177,34.93569],[135.58123,34.93706],[135.58082,34.93721],[135.58241,34.94149],[135.5825,34.94218],[135.58165,34.94401],[135.58181,34.94668],[135.58101,34.94746],[135.58012,34.94896],[135.58053,34.95096],[135.5805,34.95242],[135.58084,34.95283],[135.58092,34.95336],[135.58094,34.95461],[135.58054,34.95523],[135.57979,34.95561],[135.57873,34.95576],[135.57858,34.95616],[135.57857,34.95763],[135.57898,34.95812],[135.57889,34.95894],[135.57876,34.9594],[135.57796,34.9604],[135.57873,34.96059],[135.57994,34.96132],[135.58191,34.96188],[135.58309,34.96264],[135.58437,34.96278],[135.58508,34.96251],[135.5867,34.96244],[135.58859,34.96435],[135.58992,34.96465],[135.5919,34.96636],[135.59229,34.96607],[135.59248,34.96673],[135.59298,34.96723],[135.59336,34.96851],[135.59389,34.9692],[135.59488,34.96993],[135.5952,34.96986],[135.59576,34.96904],[135.5964,34.96713],[135.59635,34.96665],[135.59662,34.96618]]]},"properties":{"key":"272071000","name":"大字田能","pref":"大阪府","prefCode":"27","municipality":"高槻市","areaM2":6739007.009,"population":243,"toponymIds":["27-0103fb8f9f"]}},{"type":"Feature","geometry":{"type":"Polygon","coordinates":[[[135.60047,34.85687],[135.60049,34.85642],[135.59914,34.85699],[135.59812,34.85751],[135.59722,34.85837],[135.60062,34.85989],[135.60047,34.85687]]]},"properties":{"key":"27207104001","name":"大蔵司一丁目","pref":"大阪府","prefCode":"27","municipality":"高槻市","areaM2":65654.338,"population":865,"toponymIds":["27-6ee54d7b5b"]}},{"type":"Feature","geometry":{"type":"Polygon","coordinates":[[[135.5906,34.86905],[135.59069,34.86891],[135.59109,34.86894],[135.59125,34.86869],[135.59186,34.86879],[135.59261,34.86827],[135.5936,34.86858],[135.5939,34.86838],[135.594,34.86841],[135.5939,34.8688],[135.59487,34.86899],[135.59457,34.86633],[135.59344,34.86489],[135.59306,34.86402],[135.59007,34.86743],[135.58971,34.86922],[135.59037,34.86952],[135.5906,34.86905]]]},"properties":{"key":"27207140001","name":"西之川原一丁目","pref":"大阪府","prefCode":"27","municipality":"高槻市","areaM2":151092.175,"population":281,"toponymIds":["27-6b65927190"]}},{"type":"Feature","geometry":{"type":"Polygon","coordinates":[[[135.61874,34.85188],[135.61797,34.85153],[135.6176,34.85199],[135.61789,34.85213],[135.61789,34.85423],[135.6234,34.85612],[135.62361,34.8555],[135.62389,34.85544],[135.62385,34.85464],[135.61874,34.85188]]]},"properties":{"key":"272071540","name":"白梅町","pref":"大阪府","prefCode":"27","municipality":"高槻市","areaM2":131003.978,"population":2910,"toponymIds":["27-eadcc6df4d"]}},{"type":"Feature","geometry":{"type":"Polygon","coordinates":[[[135.6005,34.86736],[135.60021,34.8678],[135.60023,34.8682],[135.60051,34.86983],[135.60085,34.87074],[135.60195,34.87099],[135.60182,34.87045],[135.60161,34.87026],[135.60187,34.87],[135.60141,34.86955],[135.60039,34.86789],[135.60056,34.86783],[135.6005,34.86736]]]},"properties":{"key":"27207199001","name":"宮之川原一丁目","pref":"大阪府","prefCode":"27","municipality":"高槻市","areaM2":25055.025,"population":281,"toponymIds":["27-66466b81e7"]}},{"type":"Feature","geometry":{"type":"Polygon","coordinates":[[[135.59732,34.8697],[135.60033,34.86891],[135.6002,34.8679],[135.60049,34.86729],[135.60043,34.86608],[135.59644,34.86649],[135.59628,34.86703],[135.59647,34.86709],[135.59644,34.8673],[135.59584,34.86784],[135.5956,34.86882],[135.59514,34.86919],[135.59581,34.86957],[135.59669,34.86975],[135.59732,34.8697]]]},"properties":{"key":"272072000","name":"宮之川原元町","pref":"大阪府","prefCode":"27","municipality":"高槻市","areaM2":142131.951,"population":580,"toponymIds":["27-d5ff688fcf"]}},{"type":"Feature","geometry":{"type":"Polygon","coordinates":[[[135.35548,34.43008],[135.35521,34.42976],[135.35555,34.42955],[135.35536,34.42902],[135.35629,34.42878],[135.35653,34.42844],[135.35652,34.42816],[135.35701,34.42829],[135.35697,34.42842],[135.35711,34.42845],[135.35743,34.42785],[135.35716,34.42765],[135.35731,34.42752],[135.35706,34.42729],[135.35711,34.42698],[135.35741,34.42694],[135.3571,34.42691],[135.35707,34.42663],[135.35731,34.42658],[135.35769,34.42583],[135.35739,34.42542],[135.35572,34.42672],[135.35358,34.42593],[135.35363,34.42678],[135.35247,34.42687],[135.35253,34.42702],[135.3521,34.42703],[135.35221,34.42731],[135.35179,34.42745],[135.35192,34.42782],[135.35171,34.42792],[135.35181,34.42801],[135.35161,34.42855],[135.3518,34.42861],[135.35188,34.42888],[135.35162,34.42944],[135.35389,34.43043],[135.35548,34.43008]]]},"properties":{"key":"272080310","name":"地蔵堂","pref":"大阪府","prefCode":"27","municipality":"貝塚市","areaM2":174410.368,"population":888,"toponymIds":["27-0f12255700"]}},{"type":"Feature","geometry":{"type":"Polygon","coordinates":[[[135.3893,34.39701],[135.3893,34.39644],[135.38981,34.39615],[135.39,34.39541],[135.39058,34.39473],[135.3913,34.39439],[135.3933,34.39392],[135.39375,34.39353],[135.3937,34.39293],[135.39264,34.39203],[135.39258,34.39175],[135.39277,34.39132],[135.39372,34.39081],[135.39546,34.39097],[135.38745,34.38838],[135.38535,34.3872],[135.3837,34.38572],[135.38329,34.38646],[135.38341,34.38748],[135.38383,34.38822],[135.38395,34.38899],[135.38213,34.38962],[135.38201,34.38987],[135.38178,34.38983],[135.3813,34.38893],[135.38089,34.38951],[135.38017,34.3895],[135.38031,34.39057],[135.37946,34.39106],[135.37927,34.39143],[135.37981,34.39201],[135.38064,34.39242],[135.381,34.39286],[135.38112,34.3934],[135.38221,34.39309],[135.38278,34.39271],[135.38298,34.39308],[135.38148,34.39342],[135.38101,34.39405],[135.38188,34.39417],[135.38177,34.39505],[135.38258,34.39532],[135.38342,34.39504],[135.38373,34.39455],[135.38417,34.39457],[135.38511,34.39543],[135.38567,34.39556],[135.38584,34.39583],[135.3863,34.39595],[135.38635,34.39666],[135.38663,34.39666],[135.38663,34.39685],[135.38739,34.39692],[135.38762,34.39771],[135.38754,34.39828],[135.38825,34.39812],[135.3893,34.39701]]]},"properties":{"key":"272080540","name":"馬場","pref":"大阪府","prefCode":"27","municipality":"貝塚市","areaM2":882349.46,"population":778,"toponymIds":["27-c3814922e0"]}},{"type":"Feature","geometry":{"type":"Polygon","coordinates":[[[135.56096,34.72987],[135.55899,34.72851],[135.55958,34.72797],[135.55852,34.72738],[135.55824,34.72727],[135.55813,34.72737],[135.55772,34.72804],[135.55933,34.73003],[135.5604,34.73087],[135.56147,34.73053],[135.56145,34.73034],[135.56096,34.72987]]]},"properties":{"key":"272090040","name":"梅園町","pref":"大阪府","prefCode":"27","municipality":"守口市","areaM2":46396.098,"population":1170,"toponymIds":["27-e47f1d0b61"]}},{"type":"Feature","geometry":{"type":"Polygon","coordinates":[[[135.56347,34.73995],[135.56365,34.73979],[135.56239,34.73872],[135.56217,34.73891],[135.56142,34.73833],[135.56093,34.73876],[135.56113,34.7392],[135.56103,34.73929],[135.56169,34.7398],[135.56187,34.73964],[135.56277,34.74032],[135.56347,34.73995]]]},"properties":{"key":"272090030","name":"梅町","pref":"大阪府","prefCode":"27","municipality":"守口市","areaM2":25565.93,"population":482,"toponymIds":["27-4ac156c994"]}},{"type":"Feature","geometry":{"type":"Polygon","coordinates":[[[135.59665,34.75007],[135.59654,34.74975],[135.59543,34.74997],[135.5945,34.74976],[135.59335,34.74974],[135.59364,34.75272],[135.5969,34.75295],[135.59665,34.75007]]]},"properties":{"key":"27209010001","name":"大久保町一丁目","pref":"大阪府","prefCode":"27","municipality":"守口市","areaM2":100449.705,"population":2058,"toponymIds":["27-198bfc8bf0"]}},{"type":"Feature","geometry":{"type":"Polygon","coordinates":[[[135.56609,34.73344],[135.56571,34.73344],[135.5657,34.73459],[135.56546,34.73507],[135.56552,34.73586],[135.56743,34.73712],[135.56909,34.73766],[135.57085,34.73783],[135.57072,34.73728],[135.56966,34.73698],[135.56908,34.73643],[135.56871,34.73562],[135.56847,34.73561],[135.56805,34.73504],[135.56731,34.7346],[135.56738,34.73449],[135.5667,34.73418],[135.56609,34.73344]]]},"properties":{"key":"272090150","name":"河原町","pref":"大阪府","prefCode":"27","municipality":"守口市","areaM2":97165.876,"population":635,"toponymIds":["27-ac4a0e0db8"]}},{"type":"Feature","geometry":{"type":"Polygon","coordinates":[[[135.56283,34.72978],[135.56322,34.72757],[135.56229,34.72755],[135.56069,34.72875],[135.5619,34.72963],[135.56211,34.72952],[135.56273,34.73023],[135.56283,34.72978]]]},"properties":{"key":"27209054001","name":"馬場町一丁目","pref":"大阪府","prefCode":"27","municipality":"守口市","areaM2":35627.639,"population":555,"toponymIds":["27-a1a7fbdac4"]}},{"type":"Feature","geometry":{"type":"Polygon","coordinates":[[[135.65034,34.82874],[135.65159,34.82681],[135.6495,34.82467],[135.64916,34.82516],[135.64905,34.82564],[135.64755,34.82501],[135.64663,34.8261],[135.64573,34.82555],[135.64635,34.82675],[135.64732,34.82778],[135.64793,34.82869],[135.64839,34.82856],[135.64955,34.82947],[135.64981,34.82938],[135.65034,34.82874]]]},"properties":{"key":"272101020","name":"磯島北町","pref":"大阪府","prefCode":"27","municipality":"枚方市","areaM2":148576.791,"population":134,"toponymIds":["27-ede37b2b78"]}},{"type":"Feature","geometry":{"type":"Polygon","coordinates":[[[135.65256,34.82783],[135.65275,34.82771],[135.6535,34.82778],[135.65104,34.82405],[135.65015,34.82316],[135.64884,34.82297],[135.64883,34.82362],[135.64904,34.82417],[135.65256,34.82783]]]},"properties":{"key":"272101000","name":"磯島茶屋町","pref":"大阪府","prefCode":"27","municipality":"枚方市","areaM2":76416.486,"population":1157,"toponymIds":["27-0b27921325"]}},{"type":"Feature","geometry":{"type":"Polygon","coordinates":[[[135.64889,34.82232],[135.64897,34.82056],[135.64871,34.81958],[135.64694,34.81992],[135.64478,34.81967],[135.64471,34.81998],[135.64447,34.82004],[135.6448,34.82202],[135.64533,34.82199],[135.64642,34.82247],[135.64884,34.82297],[135.64889,34.82232]]]},"properties":{"key":"272101010","name":"磯島南町","pref":"大阪府","prefCode":"27","municipality":"枚方市","areaM2":118016.136,"population":1558,"toponymIds":["27-94300784a1"]}},{"type":"Feature","geometry":{"type":"Polygon","coordinates":[[[135.64719,34.8255],[135.64755,34.82501],[135.64905,34.82564],[135.64916,34.82516],[135.6495,34.82467],[135.6489,34.82391],[135.64884,34.82297],[135.64642,34.82247],[135.64533,34.82199],[135.6448,34.82202],[135.64573,34.82555],[135.64663,34.8261],[135.64719,34.8255]]]},"properties":{"key":"272100990","name":"磯島元町","pref":"大阪府","prefCode":"27","municipality":"枚方市","areaM2":115244.368,"population":313,"toponymIds":["27-2fbf78bcf0"]}},{"type":"Feature","geometry":{"type":"Polygon","coordinates":[[[135.6648,34.83684],[135.66597,34.83673],[135.66541,34.83592],[135.66652,34.83571],[135.6662,34.83529],[135.66617,34.8345],[135.66456,34.83439],[135.66468,34.83222],[135.66495,34.83139],[135.66477,34.83138],[135.66374,34.83243],[135.66345,34.83233],[135.66272,34.83245],[135.66225,34.83286],[135.66181,34.83338],[135.66192,34.8334],[135.66194,34.83411],[135.6618,34.83469],[135.66199,34.83512],[135.66201,34.83588],[135.66185,34.83588],[135.66195,34.83605],[135.66182,34.83615],[135.66199,34.83616],[135.66198,34.83674],[135.6648,34.83684]]]},"properties":{"key":"272101140","name":"小倉町","pref":"大阪府","prefCode":"27","municipality":"枚方市","areaM2":155656.595,"population":1434,"toponymIds":["27-9e4150e0db"]}},{"type":"Feature","geometry":{"type":"Polygon","coordinates":[[[135.6688,34.83575],[135.66968,34.83586],[135.67019,34.83554],[135.67012,34.8353],[135.66984,34.8354],[135.66934,34.83496],[135.66932,34.83471],[135.66882,34.83464],[135.66864,34.83438],[135.66887,34.83442],[135.66876,34.83397],[135.6683,34.83385],[135.66821,34.8333],[135.66687,34.83421],[135.66617,34.8345],[135.6662,34.83529],[135.66652,34.83571],[135.66541,34.83592],[135.66597,34.8368],[135.66742,34.83645],[135.6688,34.83575]]]},"properties":{"key":"272101150","name":"小倉東町","pref":"大阪府","prefCode":"27","municipality":"枚方市","areaM2":78574.6,"population":1079,"toponymIds":["27-bedd5c7773"]}},{"type":"Feature","geometry":{"type":"Polygon","coordinates":[[[135.65246,34.81631],[135.6538,34.81589],[135.65463,34.8142],[135.65428,34.8141],[135.65376,34.81461],[135.6524,34.81432],[135.65167,34.8153],[135.65181,34.81544],[135.65138,34.8161],[135.65101,34.81619],[135.65082,34.81652],[135.65119,34.81695],[135.65246,34.81631]]]},"properties":{"key":"272100030","name":"川原町","pref":"大阪府","prefCode":"27","municipality":"枚方市","areaM2":47488.188,"population":968,"toponymIds":["27-8ce2788db8"]}},{"type":"Feature","geometry":{"type":"Polygon","coordinates":[[[135.56152,34.81383],[135.56179,34.81392],[135.56193,34.81205],[135.56288,34.81104],[135.56385,34.811],[135.5639,34.80914],[135.56253,34.80913],[135.56267,34.80807],[135.56247,34.80792],[135.56141,34.80791],[135.5611,34.80754],[135.56007,34.80805],[135.55878,34.80818],[135.56051,34.81301],[135.56102,34.814],[135.56152,34.81383]]]},"properties":{"key":"272110110","name":"岩倉町","pref":"大阪府","prefCode":"27","municipality":"茨木市","areaM2":175253.79,"population":491,"toponymIds":["27-a420c0df04"]}},{"type":"Feature","geometry":{"type":"Polygon","coordinates":[[[135.55769,34.80155],[135.55766,34.79658],[135.55701,34.79672],[135.55425,34.7967],[135.55461,34.79729],[135.55475,34.79835],[135.5555,34.79953],[135.55637,34.80158],[135.55769,34.80155]]]},"properties":{"key":"27211037001","name":"蔵垣内一丁目","pref":"大阪府","prefCode":"27","municipality":"茨木市","areaM2":119289.494,"population":4,"toponymIds":["27-bdc031a05a"]}},{"type":"Feature","geometry":{"type":"Polygon","coordinates":[[[135.54611,34.83537],[135.54606,34.83512],[135.54539,34.83503],[135.54508,34.83465],[135.5445,34.83476],[135.54404,34.83437],[135.5436,34.83338],[135.54364,34.83235],[135.54297,34.83159],[135.54342,34.83272],[135.54328,34.83333],[135.54354,34.83387],[135.54321,34.83369],[135.54286,34.83424],[135.54264,34.83426],[135.54257,34.83442],[135.54197,34.83426],[135.54179,34.83379],[135.54075,34.83349],[135.5404,34.83288],[135.54,34.83264],[135.53963,34.8338],[135.54062,34.83461],[135.54176,34.83499],[135.54153,34.83558],[135.54084,34.83636],[135.54432,34.83668],[135.54577,34.83662],[135.54603,34.83631],[135.54602,34.83595],[135.54591,34.83594],[135.54611,34.83537]]]},"properties":{"key":"272110560","name":"宿川原町","pref":"大阪府","prefCode":"27","municipality":"茨木市","areaM2":131293.452,"population":430,"toponymIds":["27-320a3505f7"]}},{"type":"Feature","geometry":{"type":"Polygon","coordinates":[[[135.55785,34.8393],[135.55848,34.83863],[135.55643,34.83923],[135.5563,34.83877],[135.55548,34.83877],[135.55469,34.8383],[135.55473,34.83813],[135.55306,34.83809],[135.55071,34.83744],[135.5501,34.83767],[135.551,34.83808],[135.55199,34.83916],[135.55301,34.83991],[135.5541,34.84034],[135.55495,34.84041],[135.55663,34.83995],[135.55731,34.8397],[135.55785,34.8393]]]},"properties":{"key":"272110940","name":"中河原町","pref":"大阪府","prefCode":"27","municipality":"茨木市","areaM2":105828.952,"population":783,"toponymIds":["27-e480f6bc6e"]}},{"type":"Feature","geometry":{"type":"Polygon","coordinates":[[[135.57598,34.82978],[135.57788,34.8298],[135.57861,34.82893],[135.57432,34.82637],[135.57197,34.82867],[135.57106,34.82925],[135.57114,34.82967],[135.57159,34.82946],[135.57203,34.82962],[135.57217,34.83061],[135.57272,34.83053],[135.57366,34.82996],[135.57598,34.82978]]]},"properties":{"key":"27211105001","name":"西河原一丁目","pref":"大阪府","prefCode":"27","municipality":"茨木市","areaM2":159906.11,"population":1056,"toponymIds":["27-6a57456915"]}},{"type":"Feature","geometry":{"type":"Polygon","coordinates":[[[135.56992,34.83162],[135.56977,34.83183],[135.56977,34.83556],[135.56941,34.83636],[135.56944,34.83711],[135.56981,34.83739],[135.57039,34.83711],[135.57097,34.83634],[135.57211,34.83571],[135.57251,34.83489],[135.57247,34.83261],[135.56992,34.83162]]]},"properties":{"key":"272111060","name":"西河原北町","pref":"大阪府","prefCode":"27","municipality":"茨木市","areaM2":121466.067,"population":215,"toponymIds":["27-96a34be050"]}},{"type":"Feature","geometry":{"type":"Polygon","coordinates":[[[135.29941,34.39911],[135.29914,34.39892],[135.29716,34.40139],[135.29727,34.40148],[135.29821,34.40212],[135.30107,34.40333],[135.30153,34.40299],[135.30303,34.40294],[135.30383,34.40262],[135.29941,34.39911]]]},"properties":{"key":"27213010001","name":"羽倉崎一丁目","pref":"大阪府","prefCode":"27","municipality":"泉佐野市","areaM2":140687.674,"population":695,"toponymIds":["27-2efffd9152"]}},{"type":"Feature","geometry":{"type":"Polygon","coordinates":[[[135.30299,34.39806],[135.3025,34.39753],[135.30265,34.39712],[135.29971,34.39802],[135.29913,34.39891],[135.30084,34.40027],[135.30131,34.39953],[135.3031,34.39817],[135.30299,34.39806]]]},"properties":{"key":"27213027101","name":"羽倉崎上町一丁目","pref":"大阪府","prefCode":"27","municipality":"泉佐野市","areaM2":59242.897,"population":382,"toponymIds":["27-c9aa04289d"]}},{"type":"Feature","geometry":{"type":"Polygon","coordinates":[[[135.30322,34.39826],[135.3031,34.39817],[135.30131,34.39953],[135.30084,34.40027],[135.3046,34.40327],[135.30705,34.4013],[135.30322,34.39826]]]},"properties":{"key":"272130260","name":"東羽倉崎町","pref":"大阪府","prefCode":"27","municipality":"泉佐野市","areaM2":155259.014,"population":1486,"toponymIds":["27-cf9285cd46"]}},{"type":"Feature","geometry":{"type":"Polygon","coordinates":[[[135.60018,34.5258],[135.60065,34.52571],[135.6006,34.52524],[135.60109,34.52497],[135.60129,34.52376],[135.6013,34.52362],[135.60042,34.52323],[135.6003,34.52352],[135.60079,34.52396],[135.60067,34.52447],[135.6008,34.52475],[135.60039,34.52506],[135.6002,34.52564],[135.59702,34.52574],[135.59691,34.52545],[135.59785,34.52518],[135.59833,34.52473],[135.599,34.52401],[135.59933,34.52298],[135.59867,34.52304],[135.59786,34.52356],[135.59691,34.52355],[135.59603,34.52383],[135.59502,34.52369],[135.59363,34.52466],[135.59435,34.52687],[135.60018,34.5258]]]},"properties":{"key":"27214014001","name":"梅の里一丁目","pref":"大阪府","prefCode":"27","municipality":"富田林市","areaM2":143768.268,"population":861,"toponymIds":["27-5e07bef946"]}},{"type":"Feature","geometry":{"type":"Polygon","coordinates":[[[135.65555,34.75449],[135.65616,34.75396],[135.65621,34.75366],[135.65651,34.75357],[135.65725,34.75379],[135.65748,34.75356],[135.65754,34.75296],[135.65725,34.75277],[135.65736,34.7525],[135.65718,34.75218],[135.65747,34.75213],[135.65732,34.75194],[135.65792,34.75186],[135.65792,34.75117],[135.65705,34.7512],[135.6564,34.75062],[135.65479,34.75062],[135.65444,34.75084],[135.65334,34.75098],[135.653,34.75122],[135.65292,34.75165],[135.65222,34.75196],[135.65186,34.75182],[135.65162,34.75197],[135.65263,34.75298],[135.6531,34.75275],[135.6539,34.75379],[135.65471,34.75401],[135.65485,34.75424],[135.65555,34.75449]]]},"properties":{"key":"27215070001","name":"梅が丘一丁目","pref":"大阪府","prefCode":"27","municipality":"寝屋川市","areaM2":148788.731,"population":2644,"toponymIds":["27-2689a8ae2d"]}},{"type":"Feature","geometry":{"type":"Polygon","coordinates":[[[135.64151,34.78608],[135.64206,34.78602],[135.64239,34.7858],[135.64363,34.78574],[135.64393,34.78519],[135.64404,34.78423],[135.64074,34.78421],[135.6402,34.78404],[135.63946,34.78415],[135.63932,34.78574],[135.6408,34.78608],[135.64151,34.78608]]]},"properties":{"key":"272151110","name":"菅相塚町","pref":"大阪府","prefCode":"27","municipality":"寝屋川市","areaM2":79831.312,"population":692,"toponymIds":["27-96baccf1c2"]}},{"type":"Feature","geometry":{"type":"Polygon","coordinates":[[[135.64677,34.7513],[135.64702,34.75111],[135.64731,34.75132],[135.64802,34.75126],[135.6503,34.75058],[135.64898,34.74929],[135.64855,34.74945],[135.64815,34.74939],[135.64794,34.7496],[135.64708,34.74936],[135.645,34.74926],[135.6444,34.74931],[135.64448,34.74966],[135.64432,34.74968],[135.64426,34.74943],[135.64387,34.74943],[135.64389,34.74968],[135.64342,34.74959],[135.64211,34.74972],[135.64212,34.74955],[135.64158,34.74954],[135.64157,34.74968],[135.64245,34.75044],[135.64448,34.75083],[135.64398,34.75248],[135.64455,34.75171],[135.64677,34.7513]]]},"properties":{"key":"27215320001","name":"高倉一丁目","pref":"大阪府","prefCode":"27","municipality":"寝屋川市","areaM2":130038.622,"population":884,"toponymIds":["27-fd06a3042e"]}},{"type":"Feature","geometry":{"type":"Polygon","coordinates":[[[135.44296,34.48075],[135.44332,34.48084],[135.44348,34.48146],[135.4451,34.48123],[135.44557,34.48006],[135.446,34.47979],[135.44575,34.47961],[135.44569,34.4793],[135.44624,34.47709],[135.44426,34.4753],[135.44329,34.47482],[135.44194,34.47664],[135.44167,34.47742],[135.44121,34.47789],[135.43779,34.47969],[135.43866,34.48075],[135.43925,34.48049],[135.44009,34.48045],[135.44021,34.48068],[135.44039,34.4806],[135.44174,34.48172],[135.44296,34.48075]]]},"properties":{"key":"272192040","name":"芦部町","pref":"大阪府","prefCode":"27","municipality":"和泉市","areaM2":307503.261,"population":670,"toponymIds":["27-696b4ac092"]}},{"type":"Feature","geometry":{"type":"Polygon","coordinates":[[[135.48294,34.44893],[135.48377,34.44843],[135.48421,34.4486],[135.48551,34.44863],[135.48622,34.44803],[135.48708,34.44787],[135.48727,34.44736],[135.48774,34.44687],[135.48826,34.44595],[135.48791,34.44546],[135.48791,34.44508],[135.48871,34.44435],[135.48933,34.44412],[135.48973,34.44375],[135.49094,34.44185],[135.49061,34.44139],[135.48806,34.44162],[135.48825,34.4413],[135.48778,34.44105],[135.48784,34.44074],[135.48762,34.4407],[135.48754,34.44103],[135.48731,34.44101],[135.48727,34.44079],[135.48703,34.44068],[135.48579,34.44058],[135.48586,34.44026],[135.48531,34.44037],[135.48493,34.43994],[135.48454,34.44012],[135.48414,34.43987],[135.48415,34.43962],[135.48286,34.43981],[135.48279,34.44001],[135.48307,34.44094],[135.48225,34.44169],[135.48206,34.4424],[135.48144,34.44354],[135.48023,34.44329],[135.47958,34.4434],[135.47959,34.44372],[135.48008,34.44443],[135.48025,34.44518],[135.47947,34.4454],[135.47925,34.44583],[135.47876,34.44596],[135.47912,34.44684],[135.47833,34.44847],[135.47971,34.44804],[135.48006,34.44825],[135.48055,34.44777],[135.4809,34.44802],[135.48127,34.44798],[135.48146,34.4484],[135.48213,34.44838],[135.48223,34.44874],[135.48294,34.44893]]]},"properties":{"key":"272194590","name":"黒石町","pref":"大阪府","prefCode":"27","municipality":"和泉市","areaM2":673320.206,"population":384,"toponymIds":["27-b83b555ee8"]}},{"type":"Feature","geometry":{"type":"Polygon","coordinates":[[[135.62448,34.58963],[135.62318,34.58923],[135.62062,34.59492],[135.62256,34.59551],[135.62268,34.59539],[135.62335,34.59389],[135.6241,34.59286],[135.62531,34.58992],[135.62448,34.58963]]]},"properties":{"key":"272210080","name":"河原町","pref":"大阪府","prefCode":"27","municipality":"柏原市","areaM2":140437.003,"population":788,"toponymIds":["27-fdb4f75810"]}},{"type":"Feature","geometry":{"type":"Polygon","coordinates":[[[135.63203,34.53913],[135.63247,34.5385],[135.63309,34.53805],[135.63336,34.53815],[135.63342,34.53879],[135.6344,34.53848],[135.63445,34.53829],[135.63496,34.53836],[135.63497,34.53767],[135.63541,34.53781],[135.6358,34.53754],[135.63705,34.5373],[135.63799,34.53679],[135.63886,34.53687],[135.63944,34.53711],[135.6394,34.53658],[135.6396,34.53635],[135.63967,34.53651],[135.64144,34.53685],[135.64135,34.53715],[135.6418,34.5373],[135.64171,34.5368],[135.64053,34.53617],[135.64154,34.53588],[135.64349,34.53381],[135.64354,34.53199],[135.64402,34.53146],[135.64384,34.53103],[135.64345,34.53057],[135.64289,34.53044],[135.64234,34.53104],[135.64223,34.5308],[135.64256,34.53043],[135.64208,34.5304],[135.64099,34.5309],[135.64007,34.53085],[135.63968,34.5313],[135.63924,34.53102],[135.63922,34.53063],[135.63827,34.53103],[135.63788,34.53087],[135.63781,34.53037],[135.63751,34.5305],[135.6372,34.5302],[135.63681,34.53038],[135.63698,34.53079],[135.63671,34.53086],[135.63644,34.53121],[135.63633,34.5312],[135.63637,34.53075],[135.6362,34.53067],[135.63519,34.53104],[135.63519,34.53141],[135.63497,34.53142],[135.63482,34.53106],[135.63487,34.53016],[135.63455,34.53071],[135.63441,34.53065],[135.63429,34.5302],[135.63408,34.53014],[135.63395,34.53048],[135.6344,34.53087],[135.6344,34.53114],[135.63458,34.5313],[135.63442,34.53188],[135.63365,34.53157],[135.633,34.5311],[135.63197,34.53097],[135.63208,34.53118],[135.63315,34.53157],[135.63328,34.53175],[135.63307,34.53184],[135.63312,34.53165],[135.63294,34.53153],[135.63282,34.53198],[135.63254,34.532],[135.6318,34.5336],[135.63152,34.53357],[135.6311,34.53411],[135.63065,34.53423],[135.63055,34.53457],[135.63023,34.53467],[135.6302,34.53502],[135.62979,34.53477],[135.62996,34.53421],[135.63097,34.53331],[135.63093,34.53266],[135.63037,34.53249],[135.63032,34.5328],[135.63015,34.53282],[135.63004,34.5337],[135.62956,34.53467],[135.62884,34.53456],[135.62816,34.53479],[135.62815,34.53543],[135.62777,34.53621],[135.62746,34.53636],[135.62798,34.53692],[135.62813,34.5373],[135.62859,34.53726],[135.62914,34.53749],[135.62967,34.53841],[135.63086,34.53927],[135.63113,34.53904],[135.63131,34.53922],[135.63164,34.5391],[135.63172,34.5394],[135.63203,34.53913]]]},"properties":{"key":"272220420","name":"飛鳥","pref":"大阪府","prefCode":"27","municipality":"羽曳野市","areaM2":889332.074,"population":681,"toponymIds":["27-335028c008"]}},{"type":"Feature","geometry":{"type":"Polygon","coordinates":[[[135.57987,34.55531],[135.58039,34.55534],[135.58023,34.55486],[135.57979,34.55464],[135.58014,34.55448],[135.58003,34.554],[135.58069,34.55387],[135.58037,34.55313],[135.57924,34.55205],[135.57923,34.55152],[135.5795,34.55091],[135.579,34.55004],[135.57941,34.5498],[135.57975,34.54895],[135.58059,34.54863],[135.58066,34.54834],[135.58039,34.54786],[135.58037,34.54743],[135.5806,34.54686],[135.58138,34.54594],[135.58108,34.54563],[135.5807,34.54553],[135.58081,34.54511],[135.58071,34.54396],[135.58048,34.54357],[135.58014,34.54367],[135.57987,34.54321],[135.58018,34.54321],[135.58025,34.54257],[135.5812,34.54211],[135.58103,34.54184],[135.58056,34.54203],[135.58026,34.54197],[135.58032,34.54094],[135.58094,34.54061],[135.58063,34.54029],[135.58036,34.54049],[135.57994,34.54047],[135.57964,34.54106],[135.57963,34.54163],[135.57929,34.54248],[135.57909,34.54266],[135.57871,34.54261],[135.57847,34.54329],[135.57682,34.54436],[135.57606,34.5441],[135.57601,34.54376],[135.57653,34.54383],[135.57647,34.54358],[135.57683,34.54352],[135.57671,34.54308],[135.57559,34.54326],[135.57554,34.54352],[135.57526,34.5436],[135.57479,34.54295],[135.57485,34.54315],[135.57441,34.54357],[135.57421,34.54446],[135.57467,34.54424],[135.57545,34.5443],[135.57564,34.54456],[135.57567,34.54542],[135.57388,34.54649],[135.57399,34.54667],[135.57383,34.54717],[135.573,34.54702],[135.57253,34.54627],[135.57196,34.54636],[135.57197,34.54669],[135.57177,34.54669],[135.5718,34.54721],[135.57261,34.54845],[135.57269,34.54888],[135.57306,34.54885],[135.57305,34.54977],[135.5741,34.54969],[135.57411,34.55055],[135.57476,34.55131],[135.57492,34.55192],[135.57554,34.55182],[135.5759,34.55214],[135.5775,34.55233],[135.57851,34.55226],[135.57907,34.5525],[135.57982,34.55383],[135.57963,34.5543],[135.57929,34.55434],[135.57888,34.55471],[135.57917,34.55487],[135.57896,34.5554],[135.57987,34.55531]]]},"properties":{"key":"272220720","name":"河原城","pref":"大阪府","prefCode":"27","municipality":"羽曳野市","areaM2":609844.203,"population":2561,"toponymIds":["27-7de0248d01"]}},{"type":"Feature","geometry":{"type":"Polygon","coordinates":[[[135.60201,34.54173],[135.60214,34.53563],[135.6078,34.53563],[135.60772,34.53475],[135.60801,34.53468],[135.60776,34.53436],[135.60764,34.53353],[135.60688,34.5337],[135.60572,34.53367],[135.60569,34.53413],[135.60546,34.53413],[135.60546,34.53366],[135.60454,34.53371],[135.60454,34.53461],[135.60329,34.5346],[135.60329,34.5337],[135.6003,34.53373],[135.59997,34.53401],[135.59956,34.53403],[135.59973,34.53412],[135.59976,34.53458],[135.59956,34.53473],[135.59954,34.53551],[135.59799,34.53528],[135.59819,34.53548],[135.59807,34.53562],[135.59886,34.53571],[135.5989,34.5364],[135.59875,34.53653],[135.59845,34.53652],[135.59793,34.53613],[135.59721,34.53598],[135.59709,34.53557],[135.59681,34.53557],[135.59589,34.53511],[135.5953,34.53458],[135.59403,34.53417],[135.59352,34.53415],[135.59341,34.5345],[135.59288,34.53497],[135.59277,34.53546],[135.5921,34.53626],[135.59278,34.5364],[135.59443,34.53594],[135.59566,34.53651],[135.5959,34.53684],[135.59639,34.53676],[135.59703,34.53709],[135.59801,34.53713],[135.59808,34.53739],[135.59791,34.53786],[135.59843,34.53801],[135.59846,34.53834],[135.59833,34.53837],[135.59844,34.53863],[135.5983,34.53865],[135.59831,34.53948],[135.59759,34.53982],[135.59757,34.54026],[135.59874,34.54062],[135.59883,34.54094],[135.59838,34.5412],[135.59823,34.54186],[135.5992,34.54196],[135.60201,34.54173]]]},"properties":{"key":"272220320","name":"蔵之内","pref":"大阪府","prefCode":"27","municipality":"羽曳野市","areaM2":476139.846,"population":1181,"toponymIds":["27-80a352cf54"]}},{"type":"Feature","geometry":{"type":"Polygon","coordinates":[[[135.5929,34.74665],[135.59453,34.74575],[135.59508,34.74562],[135.59438,34.74367],[135.59205,34.74332],[135.59183,34.74446],[135.5924,34.74613],[135.5929,34.74665]]]},"properties":{"key":"272230100","name":"大倉町","pref":"大阪府","prefCode":"27","municipality":"門真市","areaM2":73592.657,"population":1373,"toponymIds":["27-900e0bd9a5"]}},{"type":"Feature","geometry":{"type":"Polygon","coordinates":[[[135.61718,34.73156],[135.61698,34.73153],[135.61677,34.7326],[135.61777,34.73273],[135.62083,34.73393],[135.62157,34.734],[135.62138,34.73311],[135.62157,34.73172],[135.61718,34.73156]]]},"properties":{"key":"27223020201","name":"岸和田一丁目","pref":"大阪府","prefCode":"27","municipality":"門真市","areaM2":77464.551,"population":183,"toponymIds":["27-30b53f7e57"]}},{"type":"Feature","geometry":{"type":"Polygon","coordinates":[[[135.62002,34.73954],[135.62122,34.73928],[135.62169,34.7394],[135.62272,34.73756],[135.62098,34.73731],[135.61777,34.73752],[135.61851,34.74004],[135.62002,34.73954]]]},"properties":{"key":"27223020101","name":"北岸和田一丁目","pref":"大阪府","prefCode":"27","municipality":"門真市","areaM2":91816.801,"population":1550,"toponymIds":["27-a1a6544e04"]}},{"type":"Feature","geometry":{"type":"Polygon","coordinates":[[[135.58704,34.72725],[135.58621,34.72722],[135.58601,34.73381],[135.58931,34.73389],[135.58853,34.72734],[135.58704,34.72725]]]},"properties":{"key":"272230510","name":"深田町","pref":"大阪府","prefCode":"27","municipality":"門真市","areaM2":190019.141,"population":1308,"toponymIds":["27-933ff123ab"]}},{"type":"Feature","geometry":{"type":"Polygon","coordinates":[[[135.59815,34.7419],[135.59821,34.74136],[135.59777,34.73817],[135.59694,34.73693],[135.59634,34.73727],[135.59435,34.73766],[135.59471,34.73976],[135.59439,34.74105],[135.59811,34.74217],[135.59815,34.7419]]]},"properties":{"key":"272230500","name":"古川町","pref":"大阪府","prefCode":"27","municipality":"門真市","areaM2":147099.586,"population":919,"toponymIds":["27-8f3731566d"]}},{"type":"Feature","geometry":{"type":"Polygon","coordinates":[[[135.62282,34.57736],[135.62436,34.57714],[135.62422,34.57475],[135.62076,34.57279],[135.61998,34.57303],[135.62057,34.57425],[135.62119,34.57407],[135.6214,34.5745],[135.62191,34.57609],[135.62196,34.57731],[135.62231,34.57731],[135.62238,34.57751],[135.62282,34.57736]]]},"properties":{"key":"272260280","name":"梅が園町","pref":"大阪府","prefCode":"27","municipality":"藤井寺市","areaM2":100578.518,"population":918,"toponymIds":["27-4319b856e8"]}},{"type":"Feature","geometry":{"type":"Polygon","coordinates":[[[135.55928,34.66402],[135.56314,34.66386],[135.56307,34.66138],[135.56129,34.66148],[135.56138,34.66219],[135.56112,34.66283],[135.55904,34.66292],[135.55912,34.66336],[135.5571,34.66352],[135.5571,34.66416],[135.55928,34.66402]]]},"properties":{"key":"27227059001","name":"足代一丁目","pref":"大阪府","prefCode":"27","municipality":"東大阪市","areaM2":85019.351,"population":1262,"toponymIds":["27-0bc36bc285"]}},{"type":"Feature","geometry":{"type":"Polygon","coordinates":[[[135.55852,34.66821],[135.5585,34.66799],[135.55884,34.66797],[135.55882,34.66782],[135.55925,34.66805],[135.55966,34.6656],[135.55727,34.66578],[135.55753,34.66821],[135.55852,34.66821]]]},"properties":{"key":"27227057001","name":"足代北一丁目","pref":"大阪府","prefCode":"27","municipality":"東大阪市","areaM2":50195.822,"population":982,"toponymIds":["27-456c9c530a"]}},{"type":"Feature","geometry":{"type":"Polygon","coordinates":[[[135.56191,34.66426],[135.56186,34.66401],[135.5571,34.66416],[135.55727,34.66578],[135.5621,34.66531],[135.56191,34.66426]]]},"properties":{"key":"272270580","name":"足代新町","pref":"大阪府","prefCode":"27","municipality":"東大阪市","areaM2":74586.461,"population":1555,"toponymIds":["27-a92f0e9b5d"]}},{"type":"Feature","geometry":{"type":"Polygon","coordinates":[[[135.56134,34.66148],[135.56307,34.66138],[135.56307,34.65844],[135.56164,34.65847],[135.56149,34.66033],[135.56107,34.66118],[135.56134,34.66148]]]},"properties":{"key":"27227060001","name":"足代南一丁目","pref":"大阪府","prefCode":"27","municipality":"東大阪市","areaM2":48986.97,"population":682,"toponymIds":["27-f635ad418d"]}},{"type":"Feature","geometry":{"type":"Polygon","coordinates":[[[135.56523,34.65657],[135.56522,34.65537],[135.56292,34.65518],[135.56295,34.65657],[135.56397,34.65656],[135.56398,34.6577],[135.56473,34.6577],[135.56523,34.65657]]]},"properties":{"key":"272270630","name":"岸田堂北町","pref":"大阪府","prefCode":"27","municipality":"東大阪市","areaM2":42412.753,"population":653,"toponymIds":["27-805d1dc3de"]}},{"type":"Feature","geometry":{"type":"Polygon","coordinates":[[[135.56034,34.65574],[135.56292,34.6558],[135.56292,34.65518],[135.5584,34.65495],[135.55844,34.656],[135.55995,34.65598],[135.55995,34.65576],[135.56034,34.65574]]]},"properties":{"key":"27227062001","name":"岸田堂西一丁目","pref":"大阪府","prefCode":"27","municipality":"東大阪市","areaM2":38242.541,"population":518,"toponymIds":["27-9e7cb0ac38"]}},{"type":"Feature","geometry":{"type":"Polygon","coordinates":[[[135.56646,34.65343],[135.567,34.65274],[135.56293,34.65296],[135.56292,34.65518],[135.56522,34.65537],[135.56521,34.65503],[135.56646,34.65343]]]},"properties":{"key":"272270640","name":"岸田堂南町","pref":"大阪府","prefCode":"27","municipality":"東大阪市","areaM2":75145.244,"population":841,"toponymIds":["27-1590b49fdf"]}},{"type":"Feature","geometry":{"type":"Polygon","coordinates":[[[135.27299,34.36178],[135.27239,34.36164],[135.27211,34.36136],[135.27246,34.36103],[135.27228,34.36081],[135.27254,34.3607],[135.27205,34.36043],[135.27192,34.36008],[135.27163,34.36005],[135.2711,34.36035],[135.27135,34.36044],[135.27143,34.36067],[135.27131,34.36093],[135.27095,34.36087],[135.27087,34.36104],[135.27281,34.36211],[135.27299,34.36178]]]},"properties":{"key":"272280152","name":"馬場","pref":"大阪府","prefCode":"27","municipality":"泉南市","areaM2":16553.85,"population":8,"toponymIds":["27-c8adcbe486"]}},{"type":"Feature","geometry":{"type":"Polygon","coordinates":[[[135.7148,34.79376],[135.7148,34.793],[135.71505,34.79232],[135.71476,34.79115],[135.71433,34.79033],[135.71458,34.79002],[135.71542,34.78963],[135.71579,34.78917],[135.71632,34.78902],[135.7164,34.78872],[135.71607,34.78811],[135.71647,34.78705],[135.71631,34.78562],[135.71554,34.78473],[135.71511,34.78319],[135.71453,34.78284],[135.714,34.78277],[135.71287,34.78318],[135.71248,34.78241],[135.71208,34.78208],[135.71079,34.78243],[135.70841,34.78271],[135.70494,34.78362],[135.70373,34.78408],[135.70263,34.78496],[135.70196,34.78587],[135.70061,34.7863],[135.69982,34.78691],[135.69984,34.7873],[135.69963,34.78735],[135.7003,34.78893],[135.70048,34.78905],[135.70048,34.78959],[135.7008,34.79007],[135.70138,34.79042],[135.70151,34.79108],[135.70178,34.79108],[135.70206,34.79151],[135.7032,34.79098],[135.70379,34.79021],[135.70457,34.79029],[135.70524,34.79013],[135.70574,34.79032],[135.70492,34.79033],[135.70479,34.79169],[135.70414,34.79236],[135.7045,34.79251],[135.70438,34.79309],[135.70423,34.79319],[135.70439,34.79397],[135.70532,34.795],[135.70519,34.79518],[135.70534,34.79584],[135.7059,34.79607],[135.70603,34.7981],[135.70757,34.79833],[135.70876,34.79796],[135.70901,34.79674],[135.70897,34.79557],[135.70958,34.79583],[135.7099,34.79578],[135.71105,34.79482],[135.71253,34.79468],[135.71309,34.79402],[135.7148,34.79376]]]},"properties":{"key":"272301100","name":"大字倉治","pref":"大阪府","prefCode":"27","municipality":"交野市","areaM2":1665360.837,"population":0,"toponymIds":["27-4e78228fd1"]}},{"type":"Feature","geometry":{"type":"Polygon","coordinates":[[[135.67281,34.79004],[135.67218,34.78982],[135.67233,34.78959],[135.67222,34.78953],[135.67312,34.78811],[135.67231,34.78771],[135.67244,34.7875],[135.67212,34.78736],[135.6723,34.78716],[135.67143,34.78646],[135.67012,34.78866],[135.6696,34.78992],[135.671,34.79277],[135.673,34.79015],[135.67281,34.79004]]]},"properties":{"key":"272301040","name":"梅が枝","pref":"大阪府","prefCode":"27","municipality":"交野市","areaM2":121815.595,"population":1568,"toponymIds":["27-eb43ae59c7"]}},{"type":"Feature","geometry":{"type":"Polygon","coordinates":[[[135.69673,34.79234],[135.69157,34.79125],[135.68986,34.79123],[135.69315,34.79551],[135.6945,34.79521],[135.697,34.79416],[135.6968,34.79358],[135.69673,34.79234]]]},"properties":{"key":"27230109001","name":"倉治一丁目","pref":"大阪府","prefCode":"27","municipality":"交野市","areaM2":175605.288,"population":102,"toponymIds":["27-cdf02717eb"]}},{"type":"Feature","geometry":{"type":"Polygon","coordinates":[[[135.70138,34.79242],[135.70261,34.79158],[135.70324,34.79093],[135.70284,34.79125],[135.70134,34.7918],[135.70135,34.79216],[135.70059,34.79239],[135.69785,34.79225],[135.69663,34.79234],[135.697,34.79416],[135.70008,34.79326],[135.70138,34.79242]]]},"properties":{"key":"27230118001","name":"東倉治一丁目","pref":"大阪府","prefCode":"27","municipality":"交野市","areaM2":62115.088,"population":419,"toponymIds":["27-3d2fa381af"]}}]}
