{"type":"FeatureCollection","features":[{"type":"Feature","geometry":{"type":"Polygon","coordinates":[[[135.96689,34.65552],[135.96722,34.65424],[135.96854,34.65454],[135.96988,34.65452],[135.97037,34.65474],[135.97156,34.65431],[135.97481,34.65424],[135.97527,34.65389],[135.97539,34.65367],[135.97531,34.65286],[135.97569,34.6516],[135.97517,34.65064],[135.9755,34.64963],[135.97439,34.64772],[135.97444,34.64669],[135.97481,34.64594],[135.97467,34.64553],[135.974,34.64546],[135.97382,34.64406],[135.97415,34.64376],[135.97562,34.64318],[135.97586,34.64253],[135.97585,34.6419],[135.97475,34.64066],[135.97376,34.63922],[135.97312,34.63729],[135.97287,34.63488],[135.97193,34.63445],[135.97076,34.63366],[135.96938,34.63373],[135.96835,34.63336],[135.96458,34.63142],[135.96329,34.63052],[135.96167,34.6299],[135.96115,34.62988],[135.96151,34.63141],[135.96057,34.63297],[135.96053,34.63339],[135.96219,34.63494],[135.96323,34.63536],[135.96333,34.63598],[135.96287,34.63601],[135.96274,34.63625],[135.96157,34.63594],[135.96004,34.63476],[135.95862,34.63414],[135.95829,34.63409],[135.95719,34.63435],[135.95742,34.63551],[135.95712,34.63615],[135.9574,34.63699],[135.95716,34.63761],[135.95692,34.63793],[135.95618,34.63828],[135.95614,34.63861],[135.95538,34.63907],[135.95515,34.6394],[135.95516,34.63991],[135.95572,34.64007],[135.95581,34.64022],[135.95586,34.64099],[135.95558,34.64102],[135.9549,34.64061],[135.95391,34.64128],[135.95524,34.64207],[135.95522,34.64268],[135.95562,34.64343],[135.9565,34.64428],[135.95764,34.646],[135.95558,34.64819],[135.95547,34.6487],[135.95564,34.64916],[135.95493,34.65004],[135.95496,34.65088],[135.95618,34.65238],[135.95664,34.65399],[135.95686,34.65427],[135.95717,34.65396],[135.95761,34.65426],[135.95844,34.65444],[135.9588,34.65426],[135.95945,34.65343],[135.95978,34.65336],[135.96011,34.65376],[135.9604,34.65386],[135.96193,34.65371],[135.96231,34.65386],[135.96255,34.65445],[135.96339,34.65466],[135.96494,34.65395],[135.96566,34.65441],[135.96529,34.65452],[135.96531,34.65499],[135.96549,34.65524],[135.96602,34.65551],[135.96689,34.65552]]]},"properties":{"key":"292018850","name":"荻町","pref":"奈良県","prefCode":"29","municipality":"奈良市","areaM2":3928423.655,"population":200,"toponymIds":["29-5a8052eafb"]}},{"type":"Feature","geometry":{"type":"Polygon","coordinates":[[[135.99265,34.62823],[135.99261,34.62803],[135.99322,34.6278],[135.99271,34.62706],[135.99223,34.62702],[135.99143,34.62657],[135.99148,34.62626],[135.99263,34.62646],[135.99317,34.62633],[135.99357,34.62649],[135.99418,34.626],[135.99447,34.62621],[135.99477,34.62614],[135.99474,34.62485],[135.9951,34.62422],[135.99516,34.62372],[135.99573,34.62319],[135.99648,34.62295],[135.99751,34.62319],[135.99828,34.62309],[135.99912,34.62263],[136.00043,34.62147],[136.00114,34.62122],[136.00142,34.62046],[136.00142,34.61933],[136.00105,34.61842],[136.00069,34.61837],[136.00007,34.61795],[135.99954,34.6184],[135.99902,34.61801],[135.9984,34.61796],[135.99769,34.61758],[135.99684,34.61625],[135.99542,34.61576],[135.99551,34.61535],[135.99445,34.61416],[135.99433,34.61354],[135.99445,34.61322],[135.99415,34.61245],[135.99456,34.61152],[135.99432,34.6106],[135.99344,34.61025],[135.9927,34.60949],[135.99186,34.60983],[135.99012,34.61008],[135.98976,34.61047],[135.98886,34.61028],[135.98732,34.60935],[135.98676,34.60887],[135.9865,34.60831],[135.98487,34.60729],[135.98444,34.60746],[135.98352,34.60893],[135.98237,34.60969],[135.98149,34.60991],[135.98044,34.60946],[135.97996,34.61046],[135.97933,34.61087],[135.97751,34.61124],[135.97698,34.61107],[135.97583,34.61399],[135.97478,34.61473],[135.97349,34.61602],[135.97315,34.61909],[135.97633,34.621],[135.97783,34.6222],[135.97909,34.62259],[135.98113,34.62396],[135.98303,34.62419],[135.98328,34.62439],[135.98369,34.62531],[135.98379,34.62598],[135.98328,34.62783],[135.98352,34.62834],[135.98453,34.62806],[135.98538,34.62824],[135.98633,34.6282],[135.98849,34.6295],[135.98849,34.62978],[135.99185,34.63077],[135.992,34.63058],[135.99154,34.63046],[135.9913,34.63003],[135.99138,34.62978],[135.99189,34.62956],[135.99265,34.62823]]]},"properties":{"key":"292018820","name":"小倉町","pref":"奈良県","prefCode":"29","municipality":"奈良市","areaM2":3639404.071,"population":225,"toponymIds":["29-bcf3771111"]}},{"type":"Feature","geometry":{"type":"Polygon","coordinates":[[[135.83244,34.67287],[135.83243,34.67272],[135.83221,34.67272],[135.83221,34.67251],[135.83121,34.67248],[135.83121,34.67295],[135.83135,34.67309],[135.83187,34.67309],[135.83211,34.67303],[135.8321,34.67287],[135.83244,34.67287]]]},"properties":{"key":"292010610","name":"川之上突抜町","pref":"奈良県","prefCode":"29","municipality":"奈良市","areaM2":5788.253,"population":77,"toponymIds":["29-e00f405554"]}},{"type":"Feature","geometry":{"type":"Polygon","coordinates":[[[135.85216,34.63309],[135.85228,34.63308],[135.85241,34.63256],[135.85228,34.63183],[135.85255,34.63153],[135.85337,34.63102],[135.85417,34.63099],[135.8544,34.63047],[135.85481,34.63018],[135.85553,34.62981],[135.85611,34.62987],[135.85666,34.62931],[135.85711,34.62915],[135.85677,34.62826],[135.85669,34.62695],[135.85538,34.62586],[135.85497,34.6253],[135.85507,34.62353],[135.85367,34.62353],[135.85412,34.62436],[135.85364,34.62517],[135.85346,34.62659],[135.85275,34.62693],[135.85035,34.62642],[135.84921,34.6265],[135.84893,34.6263],[135.84776,34.62696],[135.84738,34.62685],[135.84696,34.62704],[135.84634,34.62682],[135.84585,34.62642],[135.84561,34.62672],[135.84557,34.62811],[135.84672,34.62782],[135.84674,34.62847],[135.8474,34.62873],[135.8478,34.62916],[135.84854,34.62957],[135.84861,34.62969],[135.84844,34.6298],[135.84733,34.6297],[135.8474,34.63009],[135.84825,34.63106],[135.84841,34.63149],[135.84901,34.63145],[135.84935,34.63162],[135.84923,34.63236],[135.84959,34.6326],[135.84976,34.63295],[135.85062,34.63252],[135.85101,34.63273],[135.85115,34.63339],[135.85216,34.63309]]]},"properties":{"key":"292018150","name":"虚空蔵町","pref":"奈良県","prefCode":"29","municipality":"奈良市","areaM2":518791.654,"population":33,"toponymIds":["29-f17e69b631"]}},{"type":"Feature","geometry":{"type":"Polygon","coordinates":[[[135.77186,34.70049],[135.77185,34.70025],[135.77205,34.70028],[135.77225,34.70008],[135.7729,34.7003],[135.77311,34.70017],[135.77297,34.69992],[135.77321,34.69964],[135.77395,34.69986],[135.77462,34.69845],[135.7752,34.69842],[135.77592,34.6987],[135.77643,34.69864],[135.77676,34.69824],[135.77665,34.69821],[135.77677,34.69699],[135.77429,34.69767],[135.77139,34.69778],[135.77111,34.69808],[135.77132,34.69818],[135.77135,34.69864],[135.77153,34.69887],[135.77073,34.69907],[135.76997,34.69903],[135.77009,34.69988],[135.77186,34.70049]]]},"properties":{"key":"29201532001","name":"西大寺赤田町一丁目","pref":"奈良県","prefCode":"29","municipality":"奈良市","areaM2":112710.597,"population":717,"toponymIds":["29-5b95241066"]}},{"type":"Feature","geometry":{"type":"Polygon","coordinates":[[[135.83273,34.67666],[135.83274,34.67633],[135.83259,34.67628],[135.8316,34.67634],[135.83171,34.67666],[135.8316,34.67666],[135.83159,34.67718],[135.83219,34.6772],[135.83249,34.67666],[135.83273,34.67666]]]},"properties":{"key":"292010690","name":"芝突抜町","pref":"奈良県","prefCode":"29","municipality":"奈良市","areaM2":7648.593,"population":62,"toponymIds":["29-cee17e76bc"]}},{"type":"Feature","geometry":{"type":"Polygon","coordinates":[[[135.82506,34.68727],[135.82515,34.68691],[135.82491,34.68686],[135.82494,34.68611],[135.82442,34.68611],[135.82431,34.68641],[135.82444,34.68647],[135.82406,34.6865],[135.82403,34.6867],[135.82368,34.68667],[135.82367,34.68686],[135.82398,34.68689],[135.82397,34.68705],[135.82446,34.68722],[135.82446,34.68746],[135.82497,34.68753],[135.82506,34.68727]]]},"properties":{"key":"292012650","name":"菖蒲池町","pref":"奈良県","prefCode":"29","municipality":"奈良市","areaM2":11269.795,"population":46,"toponymIds":["29-4ef9067cd2"]}},{"type":"Feature","geometry":{"type":"Polygon","coordinates":[[[135.76026,34.68006],[135.76012,34.67993],[135.76015,34.67916],[135.76098,34.67846],[135.76077,34.67831],[135.76058,34.67847],[135.76035,34.67834],[135.7605,34.67823],[135.76026,34.678],[135.76042,34.67778],[135.76052,34.67784],[135.76037,34.67768],[135.76075,34.6776],[135.76062,34.67744],[135.76122,34.67701],[135.76083,34.67662],[135.76051,34.67664],[135.76042,34.67626],[135.75978,34.67598],[135.75851,34.67742],[135.75686,34.67839],[135.75669,34.68011],[135.75762,34.68015],[135.75755,34.67985],[135.75893,34.68001],[135.7596,34.67982],[135.75962,34.68054],[135.75997,34.6812],[135.75999,34.68087],[135.76035,34.68046],[135.76026,34.68006]],[[135.75934,34.67723],[135.75986,34.67683],[135.76052,34.6774],[135.75992,34.67776],[135.75934,34.67723]]]},"properties":{"key":"292016680","name":"菅野台","pref":"奈良県","prefCode":"29","municipality":"奈良市","areaM2":107460.026,"population":858,"toponymIds":["29-d8280e57a7"]}},{"type":"Feature","geometry":{"type":"Polygon","coordinates":[[[135.75549,34.69066],[135.75595,34.68961],[135.7554,34.68939],[135.75526,34.68853],[135.75311,34.68903],[135.75311,34.68943],[135.75273,34.69012],[135.75309,34.69027],[135.75454,34.68991],[135.75534,34.69038],[135.75549,34.69066]]]},"properties":{"key":"292014930","name":"菅原町","pref":"奈良県","prefCode":"29","municipality":"奈良市","areaM2":35216.096,"population":0,"toponymIds":["29-b608f7398f"]}},{"type":"Feature","geometry":{"type":"Polygon","coordinates":[[[135.78107,34.68668],[135.78215,34.68673],[135.7821,34.68619],[135.78176,34.68564],[135.78058,34.68464],[135.78039,34.68389],[135.77868,34.68393],[135.77822,34.68453],[135.77812,34.68635],[135.77832,34.68657],[135.78028,34.68677],[135.78107,34.68668]]]},"properties":{"key":"29201887001","name":"菅原東一丁目","pref":"奈良県","prefCode":"29","municipality":"奈良市","areaM2":86235.792,"population":567,"toponymIds":["29-6c391f47f9"]}},{"type":"Feature","geometry":{"type":"Polygon","coordinates":[[[135.95391,34.64128],[135.9549,34.64061],[135.95558,34.64102],[135.95586,34.64099],[135.95581,34.64022],[135.95572,34.64007],[135.95516,34.63991],[135.95515,34.6394],[135.95538,34.63907],[135.95614,34.63861],[135.95618,34.63828],[135.95692,34.63793],[135.95716,34.63761],[135.9574,34.63699],[135.95712,34.63615],[135.95742,34.63551],[135.95719,34.63435],[135.95829,34.63409],[135.95862,34.63414],[135.96004,34.63476],[135.96157,34.63594],[135.96274,34.63625],[135.96287,34.63601],[135.96333,34.63598],[135.96323,34.63536],[135.96219,34.63494],[135.96053,34.63339],[135.96057,34.63297],[135.96151,34.63141],[135.96071,34.62791],[135.95983,34.62747],[135.95931,34.62692],[135.95837,34.62656],[135.95798,34.62662],[135.95767,34.62707],[135.95669,34.62596],[135.95609,34.62603],[135.95538,34.62589],[135.95487,34.62527],[135.95437,34.6251],[135.95402,34.62471],[135.95399,34.62437],[135.95488,34.62396],[135.95518,34.62399],[135.95562,34.6241],[135.95549,34.62451],[135.95567,34.62463],[135.95617,34.62443],[135.95657,34.62477],[135.95676,34.62458],[135.95698,34.6246],[135.95742,34.62498],[135.95801,34.62602],[135.95837,34.62624],[135.95892,34.62611],[135.95896,34.62592],[135.95857,34.62592],[135.95827,34.62544],[135.95785,34.62534],[135.95767,34.62484],[135.95777,34.62422],[135.95734,34.62414],[135.95685,34.62343],[135.95639,34.62326],[135.95593,34.62333],[135.95505,34.62299],[135.95502,34.62265],[135.95469,34.62242],[135.95466,34.62169],[135.95423,34.62149],[135.95409,34.62208],[135.9548,34.62321],[135.95473,34.62364],[135.95443,34.62379],[135.95392,34.62373],[135.95244,34.62289],[135.95194,34.62283],[135.95179,34.62319],[135.95345,34.62375],[135.95351,34.62449],[135.95311,34.62437],[135.95264,34.62373],[135.95241,34.62364],[135.95203,34.62361],[135.95105,34.62392],[135.95145,34.6245],[135.95025,34.62496],[135.95004,34.62526],[135.9496,34.62542],[135.94917,34.62596],[135.94913,34.62623],[135.94867,34.62641],[135.94852,34.62686],[135.949,34.62733],[135.94886,34.62757],[135.94893,34.62784],[135.94783,34.62866],[135.94828,34.62895],[135.9484,34.62929],[135.94777,34.63028],[135.94755,34.63129],[135.94618,34.63106],[135.94545,34.63128],[135.94472,34.63121],[135.94326,34.63179],[135.94395,34.63241],[135.94286,34.63354],[135.94319,34.63393],[135.94371,34.63577],[135.94315,34.63609],[135.94257,34.63784],[135.9408,34.63865],[135.94068,34.63878],[135.94079,34.63898],[135.94032,34.63959],[135.94014,34.63955],[135.93992,34.63976],[135.93961,34.64063],[135.93973,34.64213],[135.94003,34.64207],[135.9399,34.64035],[135.94076,34.64084],[135.94179,34.64062],[135.94234,34.64074],[135.94297,34.64064],[135.94326,34.64081],[135.94337,34.64109],[135.94412,34.64124],[135.94447,34.64148],[135.94537,34.64157],[135.94569,34.64236],[135.94709,34.64197],[135.94902,34.64194],[135.95032,34.64225],[135.95095,34.64265],[135.95165,34.64222],[135.95257,34.64233],[135.95368,34.64134],[135.95391,34.64128]]]},"properties":{"key":"292018860","name":"都祁馬場町","pref":"奈良県","prefCode":"29","municipality":"奈良市","areaM2":2452473.416,"population":137,"toponymIds":["29-616d1d7168"]}},{"type":"Feature","geometry":{"type":"Polygon","coordinates":[[[135.8319,34.68871],[135.8319,34.68842],[135.83094,34.68843],[135.83088,34.68857],[135.83088,34.68873],[135.8319,34.68871]]]},"properties":{"key":"292012420","name":"半田突抜町","pref":"奈良県","prefCode":"29","municipality":"奈良市","areaM2":2933.752,"population":20,"toponymIds":["29-ed6fe6a2a8"]}},{"type":"Feature","geometry":{"type":"Polygon","coordinates":[[[135.82595,34.67925],[135.82617,34.67924],[135.82631,34.67886],[135.82605,34.67886],[135.82602,34.67857],[135.82562,34.67856],[135.82559,34.67927],[135.82595,34.67925]]]},"properties":{"key":"292012190","name":"馬場町","pref":"奈良県","prefCode":"29","municipality":"奈良市","areaM2":3799.294,"population":5,"toponymIds":["29-ea6444fa1f"]}},{"type":"Feature","geometry":{"type":"Polygon","coordinates":[[[135.8286,34.68669],[135.82863,34.68567],[135.82805,34.6857],[135.82805,34.68599],[135.82777,34.68612],[135.82779,34.68645],[135.8286,34.68669]]]},"properties":{"key":"292012370","name":"大豆山突抜町","pref":"奈良県","prefCode":"29","municipality":"奈良市","areaM2":6454.745,"population":115,"toponymIds":["29-df3e2ce08d"]}},{"type":"Feature","geometry":{"type":"Polygon","coordinates":[[[135.88736,34.65988],[135.88697,34.65965],[135.88625,34.6604],[135.88672,34.66069],[135.88736,34.65988]]]},"properties":{"key":"292017930","name":"鹿野園町","pref":"奈良県","prefCode":"29","municipality":"奈良市","areaM2":5441.175,"population":0,"toponymIds":["29-22da325523"]}},{"type":"Feature","geometry":{"type":"Polygon","coordinates":[[[135.76509,34.48872],[135.76603,34.48868],[135.76605,34.48372],[135.76124,34.48364],[135.7612,34.4817],[135.76,34.48172],[135.76007,34.47769],[135.75881,34.47767],[135.75884,34.47673],[135.75404,34.47672],[135.75398,34.48167],[135.75436,34.48196],[135.75474,34.48198],[135.75639,34.48274],[135.75765,34.48269],[135.75766,34.48303],[135.75854,34.48303],[135.75861,34.48385],[135.75885,34.48445],[135.75885,34.48559],[135.75962,34.48672],[135.75976,34.48767],[135.75954,34.48869],[135.76509,34.48872]]]},"properties":{"key":"292020660","name":"大字根成柿","pref":"奈良県","prefCode":"29","municipality":"大和高田市","areaM2":731875.117,"population":2538,"toponymIds":["29-adf5ba1f5c"]}},{"type":"Feature","geometry":{"type":"Polygon","coordinates":[[[135.74685,34.50063],[135.75071,34.50054],[135.7507,34.50039],[135.751,34.50041],[135.75037,34.49905],[135.75015,34.49754],[135.74946,34.49753],[135.74935,34.49666],[135.74809,34.49665],[135.74802,34.4986],[135.74583,34.49865],[135.74583,34.49953],[135.74522,34.49956],[135.74516,34.50052],[135.74685,34.50063]]]},"properties":{"key":"292020450","name":"蔵之宮町","pref":"奈良県","prefCode":"29","municipality":"大和高田市","areaM2":137343.262,"population":1139,"toponymIds":["29-89fbca5753"]}},{"type":"Feature","geometry":{"type":"Polygon","coordinates":[[[135.74801,34.50382],[135.74828,34.50353],[135.74347,34.5035],[135.74483,34.50619],[135.74658,34.50515],[135.74801,34.50382]]]},"properties":{"key":"29202051001","name":"中三倉堂一丁目","pref":"奈良県","prefCode":"29","municipality":"大和高田市","areaM2":73462.033,"population":461,"toponymIds":["29-6ed80b24b1"]}},{"type":"Feature","geometry":{"type":"Polygon","coordinates":[[[135.74347,34.5035],[135.74095,34.50346],[135.74123,34.50478],[135.74176,34.5052],[135.74191,34.50555],[135.74197,34.50707],[135.74483,34.50619],[135.74347,34.5035]]]},"properties":{"key":"29202049001","name":"西三倉堂一丁目","pref":"奈良県","prefCode":"29","municipality":"大和高田市","areaM2":87909.794,"population":827,"toponymIds":["29-e50dfc3569"]}},{"type":"Feature","geometry":{"type":"Polygon","coordinates":[[[135.74621,34.50746],[135.74933,34.50752],[135.74923,34.50354],[135.74828,34.50353],[135.7468,34.50499],[135.74483,34.50619],[135.74564,34.50787],[135.74568,34.50749],[135.74621,34.50746]]]},"properties":{"key":"292020530","name":"東三倉堂町","pref":"奈良県","prefCode":"29","municipality":"大和高田市","areaM2":120517.671,"population":783,"toponymIds":["29-b4098e6a2d"]}},{"type":"Feature","geometry":{"type":"Polygon","coordinates":[[[135.78916,34.65216],[135.78914,34.65195],[135.78803,34.65207],[135.78815,34.65304],[135.78929,34.65308],[135.78916,34.65216]]]},"properties":{"key":"292030100","name":"北鍛冶町","pref":"奈良県","prefCode":"29","municipality":"大和郡山市","areaM2":11965.1,"population":57,"toponymIds":["29-12c42cfee4"]}},{"type":"Feature","geometry":{"type":"Polygon","coordinates":[[[135.78914,34.65195],[135.78903,34.65142],[135.78835,34.65146],[135.78837,34.65178],[135.7882,34.65155],[135.78716,34.65152],[135.78721,34.65219],[135.78914,34.65195]]]},"properties":{"key":"292030110","name":"中鍛冶町","pref":"奈良県","prefCode":"29","municipality":"大和郡山市","areaM2":10758.085,"population":68,"toponymIds":["29-a693dc28d2"]}},{"type":"Feature","geometry":{"type":"Polygon","coordinates":[[[135.78903,34.65142],[135.78891,34.65087],[135.78879,34.65087],[135.78872,34.65123],[135.78835,34.65122],[135.78835,34.65101],[135.78762,34.65098],[135.78745,34.65135],[135.78716,34.65135],[135.78716,34.65152],[135.7882,34.65155],[135.78837,34.65178],[135.78835,34.65146],[135.78903,34.65142]]]},"properties":{"key":"292030120","name":"南鍛冶町","pref":"奈良県","prefCode":"29","municipality":"大和郡山市","areaM2":7794.757,"population":65,"toponymIds":["29-3bc5cfc921"]}},{"type":"Feature","geometry":{"type":"Polygon","coordinates":[[[135.85918,34.59939],[135.85969,34.59914],[135.8605,34.59907],[135.86095,34.59845],[135.86227,34.59764],[135.86358,34.59726],[135.8638,34.59599],[135.86401,34.59564],[135.86535,34.59502],[135.86564,34.59454],[135.86718,34.5933],[135.86759,34.59194],[135.86752,34.59133],[135.86736,34.5908],[135.86697,34.59029],[135.86703,34.58934],[135.86677,34.58822],[135.86672,34.58698],[135.86611,34.58577],[135.86627,34.58442],[135.86566,34.5839],[135.86432,34.58395],[135.86316,34.58444],[135.86213,34.58509],[135.86012,34.58538],[135.85896,34.58628],[135.85709,34.58619],[135.8559,34.58453],[135.85522,34.58445],[135.85422,34.58459],[135.85528,34.58563],[135.85533,34.58578],[135.85497,34.58599],[135.85498,34.58616],[135.85571,34.58651],[135.85483,34.58725],[135.85458,34.58798],[135.85505,34.58889],[135.85587,34.58991],[135.85532,34.59042],[135.85527,34.59099],[135.856,34.59381],[135.85545,34.59406],[135.85559,34.59436],[135.85538,34.5949],[135.85289,34.59602],[135.85224,34.59669],[135.85235,34.59686],[135.85516,34.59772],[135.85626,34.59865],[135.85715,34.599],[135.858,34.59973],[135.85881,34.59969],[135.85918,34.59939]]]},"properties":{"key":"292040060","name":"内馬場町","pref":"奈良県","prefCode":"29","municipality":"天理市","areaM2":1531778.94,"population":44,"toponymIds":["29-f167507d9f"]}},{"type":"Feature","geometry":{"type":"Polygon","coordinates":[[[135.83127,34.60296],[135.8313,34.60282],[135.83227,34.60284],[135.83233,34.60192],[135.83693,34.60196],[135.83704,34.60001],[135.83944,34.5999],[135.83964,34.5985],[135.83919,34.59845],[135.8393,34.5977],[135.8397,34.59685],[135.83806,34.59682],[135.83796,34.59615],[135.83619,34.59607],[135.83612,34.59673],[135.83653,34.59675],[135.8365,34.59699],[135.83551,34.59704],[135.83471,34.59679],[135.8347,34.59709],[135.83358,34.59691],[135.83355,34.59745],[135.83335,34.59745],[135.83334,34.59711],[135.83313,34.597],[135.83285,34.59699],[135.8328,34.59735],[135.83235,34.5973],[135.8324,34.59707],[135.83139,34.59695],[135.8313,34.59725],[135.8303,34.59718],[135.83031,34.59705],[135.82875,34.59708],[135.82875,34.59693],[135.82835,34.59692],[135.82834,34.59748],[135.82914,34.59748],[135.82913,34.59788],[135.83029,34.59791],[135.83028,34.59942],[135.82998,34.59941],[135.82998,34.59966],[135.82811,34.59969],[135.82811,34.59995],[135.8285,34.59994],[135.82851,34.60023],[135.82967,34.60023],[135.82959,34.60092],[135.82911,34.60105],[135.82911,34.60141],[135.82956,34.60142],[135.82954,34.60234],[135.82997,34.60234],[135.82993,34.60293],[135.83127,34.60296]]]},"properties":{"key":"292040150","name":"川原城町","pref":"奈良県","prefCode":"29","municipality":"天理市","areaM2":489760.561,"population":2164,"toponymIds":["29-bfcfa4b306"]}},{"type":"Feature","geometry":{"type":"Polygon","coordinates":[[[135.82476,34.56681],[135.82486,34.5661],[135.82738,34.56633],[135.82748,34.56552],[135.83328,34.56554],[135.83318,34.56635],[135.83435,34.56644],[135.83433,34.56626],[135.83458,34.56627],[135.83535,34.56654],[135.83562,34.56641],[135.8378,34.56644],[135.83897,34.56666],[135.84086,34.56656],[135.84127,34.56668],[135.84114,34.5664],[135.8412,34.56399],[135.84145,34.56269],[135.83848,34.56274],[135.83804,34.56293],[135.83808,34.56273],[135.83693,34.56241],[135.83646,34.56254],[135.83388,34.56256],[135.83389,34.56286],[135.83328,34.56248],[135.82783,34.56243],[135.82778,34.56296],[135.82621,34.56294],[135.82604,34.5644],[135.82458,34.56439],[135.82416,34.56461],[135.82413,34.56435],[135.82365,34.56429],[135.82285,34.56642],[135.82476,34.56681]]]},"properties":{"key":"292040560","name":"岸田町","pref":"奈良県","prefCode":"29","municipality":"天理市","areaM2":600983.42,"population":500,"toponymIds":["29-b6921c75b1"]}},{"type":"Feature","geometry":{"type":"Polygon","coordinates":[[[135.82943,34.63706],[135.82961,34.63696],[135.82961,34.6352],[135.83019,34.63519],[135.83018,34.63496],[135.83042,34.63496],[135.83043,34.63513],[135.8308,34.63512],[135.83079,34.63417],[135.83006,34.63419],[135.83008,34.63314],[135.82961,34.63315],[135.8296,34.63277],[135.82927,34.63222],[135.82957,34.63131],[135.82948,34.631],[135.82931,34.63098],[135.82929,34.63039],[135.82902,34.63038],[135.829,34.63008],[135.82835,34.63005],[135.82846,34.62819],[135.82368,34.62815],[135.8237,34.63039],[135.82353,34.63175],[135.82363,34.63176],[135.82363,34.63239],[135.82283,34.63264],[135.82243,34.63302],[135.82245,34.63613],[135.82359,34.63612],[135.82363,34.63699],[135.82943,34.63706]]]},"properties":{"key":"292040710","name":"蔵之庄町","pref":"奈良県","prefCode":"29","municipality":"天理市","areaM2":565919.471,"population":492,"toponymIds":["29-7168aa8232"]}},{"type":"Feature","geometry":{"type":"Polygon","coordinates":[[[135.79506,34.60015],[135.79506,34.59661],[135.79432,34.59664],[135.79435,34.59764],[135.79245,34.59766],[135.79249,34.59821],[135.79149,34.5986],[135.79151,34.59963],[135.79121,34.59963],[135.79125,34.60155],[135.79503,34.60162],[135.79506,34.60015]]]},"properties":{"key":"292040450","name":"二階堂北菅田町","pref":"奈良県","prefCode":"29","municipality":"天理市","areaM2":147043.782,"population":156,"toponymIds":["29-1926b10199"]}},{"type":"Feature","geometry":{"type":"Polygon","coordinates":[[[135.79245,34.59788],[135.79245,34.59766],[135.79435,34.59764],[135.79432,34.59664],[135.79506,34.59661],[135.79509,34.59583],[135.79536,34.59599],[135.79632,34.59593],[135.79635,34.59506],[135.79508,34.59524],[135.79499,34.59075],[135.79029,34.59082],[135.79015,34.59127],[135.79019,34.59464],[135.78899,34.59462],[135.78893,34.59561],[135.78666,34.59559],[135.78664,34.59582],[135.78778,34.59584],[135.7878,34.59624],[135.78898,34.59623],[135.789,34.59668],[135.78958,34.59666],[135.78971,34.59959],[135.79151,34.59963],[135.79149,34.5986],[135.79249,34.59821],[135.79245,34.59788]]]},"properties":{"key":"292040440","name":"二階堂南菅田町","pref":"奈良県","prefCode":"29","municipality":"天理市","areaM2":430227.167,"population":239,"toponymIds":["29-ebb3f5f2ac"]}},{"type":"Feature","geometry":{"type":"Polygon","coordinates":[[[135.8136,34.57038],[135.81762,34.57037],[135.81779,34.56928],[135.81764,34.56734],[135.81853,34.56742],[135.81858,34.56343],[135.81776,34.56339],[135.81783,34.56043],[135.81384,34.5604],[135.81372,34.56135],[135.81385,34.56135],[135.81389,34.5618],[135.8138,34.56332],[135.81264,34.56341],[135.81265,34.56402],[135.81238,34.56456],[135.81131,34.56455],[135.81141,34.56923],[135.81272,34.56925],[135.81273,34.5711],[135.81302,34.57064],[135.8136,34.57038]]]},"properties":{"key":"292040680","name":"武蔵町","pref":"奈良県","prefCode":"29","municipality":"天理市","areaM2":579185.145,"population":127,"toponymIds":["29-7218f551ee"]}},{"type":"Feature","geometry":{"type":"Polygon","coordinates":[[[135.79593,34.49887],[135.796,34.49217],[135.79428,34.49214],[135.79427,34.49305],[135.7919,34.49302],[135.79171,34.49315],[135.7917,34.49345],[135.78983,34.49344],[135.78923,34.49372],[135.78865,34.4937],[135.7873,34.4927],[135.7863,34.49235],[135.78428,34.49275],[135.78515,34.49621],[135.78522,34.49754],[135.78498,34.49791],[135.78492,34.49875],[135.79593,34.49887]]]},"properties":{"key":"292050150","name":"大久保町","pref":"奈良県","prefCode":"29","municipality":"橿原市","areaM2":664198.652,"population":1184,"toponymIds":["29-99c8ef0002"]}},{"type":"Feature","geometry":{"type":"Polygon","coordinates":[[[135.8083,34.49614],[135.80837,34.49516],[135.80946,34.49514],[135.80962,34.49488],[135.80954,34.4942],[135.80966,34.49417],[135.80974,34.4917],[135.80964,34.49153],[135.80843,34.49141],[135.80805,34.49115],[135.80626,34.49123],[135.80628,34.49176],[135.80555,34.49179],[135.80551,34.49233],[135.80463,34.49229],[135.80465,34.49354],[135.80425,34.49388],[135.80467,34.49467],[135.8046,34.49609],[135.8083,34.49614]]]},"properties":{"key":"292050360","name":"上飛騨町","pref":"奈良県","prefCode":"29","municipality":"橿原市","areaM2":222547.419,"population":450,"toponymIds":["29-a8ffb54f4e"]}},{"type":"Feature","geometry":{"type":"Polygon","coordinates":[[[135.80603,34.48278],[135.80695,34.48272],[135.80711,34.48257],[135.80717,34.48204],[135.80743,34.48205],[135.80739,34.48111],[135.80771,34.48061],[135.80761,34.48036],[135.80777,34.47913],[135.80536,34.47901],[135.80481,34.47931],[135.80521,34.47983],[135.80503,34.48207],[135.80482,34.48206],[135.80425,34.48259],[135.80291,34.4829],[135.80601,34.48308],[135.80603,34.48278]]]},"properties":{"key":"29205082001","name":"菖蒲町一丁目","pref":"奈良県","prefCode":"29","municipality":"橿原市","areaM2":103061.574,"population":955,"toponymIds":["29-d41b82d76d"]}},{"type":"Feature","geometry":{"type":"Polygon","coordinates":[[[135.80453,34.49713],[135.80467,34.49467],[135.80425,34.49388],[135.80373,34.49415],[135.80352,34.49448],[135.80234,34.49513],[135.80222,34.49533],[135.80238,34.49547],[135.80204,34.49574],[135.80207,34.49712],[135.80344,34.49707],[135.80351,34.49765],[135.80372,34.49765],[135.80372,34.49808],[135.80455,34.49807],[135.80453,34.49713]]]},"properties":{"key":"292050350","name":"飛騨町","pref":"奈良県","prefCode":"29","municipality":"橿原市","areaM2":73867.124,"population":216,"toponymIds":["29-a2b7082f82"]}},{"type":"Feature","geometry":{"type":"Polygon","coordinates":[[[135.77419,34.49382],[135.7743,34.4898],[135.77312,34.48992],[135.77333,34.48883],[135.77309,34.48881],[135.77298,34.48685],[135.77054,34.4867],[135.76722,34.48679],[135.767,34.48713],[135.76693,34.48772],[135.76738,34.49054],[135.76736,34.49133],[135.76762,34.49171],[135.76814,34.49202],[135.76828,34.49196],[135.76836,34.49231],[135.76976,34.49229],[135.76978,34.49278],[135.77065,34.49277],[135.7707,34.49382],[135.77339,34.49382],[135.77338,34.49396],[135.77414,34.49402],[135.77419,34.49382]]]},"properties":{"key":"292050650","name":"古川町","pref":"奈良県","prefCode":"29","municipality":"橿原市","areaM2":417252.996,"population":636,"toponymIds":["29-681c276863"]}},{"type":"Feature","geometry":{"type":"Polygon","coordinates":[[[135.84801,34.52513],[135.84854,34.52425],[135.84848,34.52398],[135.84864,34.52378],[135.84848,34.52344],[135.8486,34.52279],[135.84847,34.52264],[135.84788,34.52276],[135.848,34.52309],[135.84788,34.52326],[135.84764,34.52308],[135.84727,34.52398],[135.84702,34.52398],[135.84701,34.5241],[135.84734,34.52414],[135.84729,34.52456],[135.84698,34.52455],[135.84696,34.52487],[135.84723,34.52489],[135.84723,34.52511],[135.84801,34.52513]]]},"properties":{"key":"29206063001","name":"大字三輪","pref":"奈良県","prefCode":"29","municipality":"桜井市","areaM2":25966.356,"population":128,"toponymIds":["29-b30518cfc9"]}},{"type":"Feature","geometry":{"type":"Polygon","coordinates":[[[135.87195,34.5001],[135.87299,34.50019],[135.87356,34.49974],[135.87522,34.49936],[135.87622,34.49722],[135.87671,34.49677],[135.87735,34.49655],[135.8791,34.49649],[135.87933,34.49634],[135.87779,34.4948],[135.87699,34.49352],[135.87599,34.49074],[135.87596,34.49027],[135.88089,34.48552],[135.88213,34.4846],[135.88119,34.4846],[135.88035,34.48484],[135.8793,34.48544],[135.87656,34.48768],[135.87471,34.48852],[135.87226,34.48927],[135.87071,34.48958],[135.86832,34.48966],[135.86677,34.48994],[135.86575,34.48942],[135.86535,34.4896],[135.86384,34.48911],[135.86223,34.48943],[135.86182,34.49014],[135.86101,34.48898],[135.85979,34.48802],[135.85795,34.48932],[135.85703,34.48974],[135.85705,34.49123],[135.85719,34.49144],[135.85744,34.49145],[135.85748,34.49186],[135.85809,34.49243],[135.85831,34.49295],[135.85871,34.49414],[135.85852,34.49487],[135.86096,34.49434],[135.86267,34.49454],[135.86377,34.49535],[135.86587,34.49873],[135.86908,34.50091],[135.87037,34.5008],[135.87126,34.50052],[135.87195,34.5001]]]},"properties":{"key":"292060200","name":"大字倉橋","pref":"奈良県","prefCode":"29","municipality":"桜井市","areaM2":1778275.771,"population":248,"toponymIds":["29-60706c7749"]}},{"type":"Feature","geometry":{"type":"Polygon","coordinates":[[[135.86192,34.48557],[135.86173,34.48439],[135.86209,34.48274],[135.86213,34.48138],[135.8615,34.47589],[135.86237,34.47603],[135.86207,34.47374],[135.86151,34.47249],[135.8587,34.47392],[135.85829,34.47426],[135.85682,34.47639],[135.85617,34.47675],[135.85417,34.47673],[135.85319,34.47733],[135.85288,34.47735],[135.85273,34.47714],[135.85275,34.4755],[135.85236,34.47498],[135.85211,34.47495],[135.85165,34.47592],[135.85188,34.47641],[135.85152,34.4767],[135.85153,34.47707],[135.85127,34.47736],[135.85139,34.47829],[135.85109,34.47926],[135.85086,34.47943],[135.85359,34.48181],[135.85698,34.48347],[135.85714,34.48383],[135.8571,34.48504],[135.85723,34.48537],[135.86192,34.48557]]]},"properties":{"key":"292060220","name":"大字横柿","pref":"奈良県","prefCode":"29","municipality":"桜井市","areaM2":905586.984,"population":15,"toponymIds":["29-136b21a5b4"]}},{"type":"Feature","geometry":{"type":"Polygon","coordinates":[[[135.91769,34.56678],[135.91797,34.56641],[135.91823,34.56551],[135.91866,34.56502],[135.91976,34.56477],[135.9206,34.56486],[135.92048,34.56469],[135.92034,34.56141],[135.92003,34.56066],[135.91895,34.55952],[135.91878,34.55691],[135.91867,34.55675],[135.91516,34.55599],[135.91376,34.55592],[135.91363,34.55622],[135.91378,34.55683],[135.91366,34.55755],[135.91206,34.55798],[135.91191,34.55852],[135.91159,34.55896],[135.91064,34.55911],[135.91059,34.56004],[135.91094,34.56016],[135.91117,34.5605],[135.91053,34.56182],[135.90987,34.56219],[135.90871,34.5625],[135.90849,34.56271],[135.9084,34.56316],[135.90891,34.56363],[135.9086,34.5643],[135.90874,34.56517],[135.90895,34.56552],[135.91008,34.56641],[135.91234,34.56711],[135.91327,34.56705],[135.91413,34.56611],[135.91438,34.56603],[135.91769,34.56678]]]},"properties":{"key":"292060520","name":"大字滝倉","pref":"奈良県","prefCode":"29","municipality":"桜井市","areaM2":938013.671,"population":34,"toponymIds":["29-49ac83974d"]}},{"type":"Feature","geometry":{"type":"Polygon","coordinates":[[[135.9228,34.56553],[135.92438,34.56551],[135.92664,34.56455],[135.9271,34.56468],[135.92941,34.56458],[135.92933,34.56514],[135.92963,34.56549],[135.93087,34.5657],[135.93126,34.56609],[135.93201,34.56592],[135.93276,34.5665],[135.93353,34.56607],[135.93433,34.56591],[135.94248,34.56559],[135.94248,34.56461],[135.94314,34.56405],[135.94301,34.56333],[135.94379,34.56286],[135.94403,34.56186],[135.9453,34.56085],[135.94593,34.56059],[135.94629,34.5602],[135.94149,34.56079],[135.93735,34.56187],[135.93351,34.56234],[135.93106,34.5621],[135.92887,34.56157],[135.92767,34.56101],[135.92592,34.55989],[135.92456,34.55943],[135.92467,34.55879],[135.92428,34.55859],[135.92339,34.55867],[135.92251,34.55924],[135.91895,34.55952],[135.92003,34.56066],[135.92034,34.56141],[135.92052,34.56477],[135.92242,34.56527],[135.9228,34.56553]]]},"properties":{"key":"292060510","name":"大字芹井","pref":"奈良県","prefCode":"29","municipality":"桜井市","areaM2":1087228.268,"population":27,"toponymIds":["29-9c4de5827e"]}},{"type":"Feature","geometry":{"type":"Polygon","coordinates":[[[135.88349,34.45205],[135.88247,34.45144],[135.88115,34.45108],[135.88024,34.45132],[135.87965,34.45121],[135.87859,34.44981],[135.87788,34.44963],[135.87746,34.44933],[135.87652,34.44771],[135.87592,34.44735],[135.8756,34.44695],[135.87543,34.44649],[135.87535,34.44532],[135.87474,34.44439],[135.87256,34.44403],[135.87085,34.44458],[135.86923,34.44381],[135.86769,34.44364],[135.86745,34.4437],[135.86773,34.44427],[135.8675,34.4448],[135.86752,34.44528],[135.86727,34.44548],[135.86625,34.44574],[135.86552,34.4462],[135.86516,34.44746],[135.8639,34.44885],[135.86379,34.45019],[135.86333,34.4508],[135.86238,34.45156],[135.86157,34.45285],[135.86263,34.4535],[135.86306,34.4547],[135.86299,34.45495],[135.86362,34.45613],[135.86495,34.4567],[135.8655,34.45718],[135.86701,34.45735],[135.86869,34.458],[135.86885,34.45912],[135.86943,34.45909],[135.86948,34.45923],[135.86899,34.46038],[135.86928,34.46163],[135.87076,34.46103],[135.87259,34.45938],[135.87344,34.45829],[135.87434,34.45764],[135.87809,34.45569],[135.88015,34.45415],[135.88349,34.45205]]]},"properties":{"key":"292060260","name":"大字鹿路","pref":"奈良県","prefCode":"29","municipality":"桜井市","areaM2":2030033.256,"population":31,"toponymIds":["29-d8ba09cf2a"]}},{"type":"Feature","geometry":{"type":"Polygon","coordinates":[[[135.86956,34.51469],[135.87079,34.51344],[135.86998,34.5129],[135.87024,34.51262],[135.86988,34.51237],[135.87021,34.51206],[135.86966,34.51154],[135.86912,34.51242],[135.86909,34.51287],[135.86882,34.51341],[135.86884,34.51404],[135.86856,34.51423],[135.86892,34.51458],[135.86956,34.51469]]]},"properties":{"key":"29206042001","name":"朝倉台西一丁目","pref":"奈良県","prefCode":"29","municipality":"桜井市","areaM2":35933.996,"population":140,"toponymIds":["29-68d320af45"]}},{"type":"Feature","geometry":{"type":"Polygon","coordinates":[[[135.87581,34.5158],[135.87516,34.51536],[135.87482,34.51565],[135.87397,34.51571],[135.87377,34.51713],[135.87525,34.51707],[135.87666,34.51637],[135.87581,34.5158]]]},"properties":{"key":"29206042009","name":"朝倉台東一丁目","pref":"奈良県","prefCode":"29","municipality":"桜井市","areaM2":32928.911,"population":213,"toponymIds":["29-87c3b7ea92"]}},{"type":"Feature","geometry":{"type":"Polygon","coordinates":[[[135.75238,34.16449],[135.75145,34.1649],[135.75047,34.16491],[135.74842,34.16406],[135.74789,34.16399],[135.74689,34.16422],[135.7462,34.16394],[135.74539,34.16517],[135.74473,34.16572],[135.74269,34.16668],[135.74149,34.16687],[135.73836,34.16511],[135.73557,34.163],[135.73415,34.16228],[135.73158,34.16136],[135.72911,34.16119],[135.728,34.16067],[135.72672,34.16167],[135.72604,34.16194],[135.72507,34.16172],[135.72431,34.16193],[135.72334,34.16182],[135.72004,34.16271],[135.71922,34.16276],[135.71764,34.16316],[135.71513,34.16428],[135.71566,34.1652],[135.7159,34.16794],[135.71899,34.17011],[135.71956,34.1711],[135.71997,34.17293],[135.72064,34.17437],[135.72168,34.17574],[135.72252,34.17641],[135.72352,34.17805],[135.73098,34.17099],[135.73307,34.1695],[135.737,34.16864],[135.73916,34.16872],[135.74342,34.16954],[135.74446,34.1696],[135.74634,34.16941],[135.74896,34.16887],[135.7503,34.16819],[135.751,34.16754],[135.75238,34.16449]]]},"properties":{"key":"292071390","name":"大塔町飛養曽","pref":"奈良県","prefCode":"29","municipality":"五條市","areaM2":2741092.88,"population":2,"toponymIds":["29-ea8fb8e418"]}},{"type":"Feature","geometry":{"type":"Polygon","coordinates":[[[135.68706,34.28902],[135.68767,34.28891],[135.68864,34.28816],[135.6893,34.28785],[135.6896,34.2873],[135.69075,34.28721],[135.6917,34.28686],[135.69232,34.28699],[135.69304,34.28686],[135.69344,34.28737],[135.6939,34.28749],[135.69427,34.28808],[135.6955,34.28802],[135.69663,34.2883],[135.69742,34.28914],[135.69798,34.28911],[135.69866,34.28932],[135.69984,34.29017],[135.70144,34.2901],[135.70167,34.29031],[135.702,34.29033],[135.70221,34.29059],[135.70388,34.28974],[135.70527,34.28974],[135.70532,34.28843],[135.7056,34.28734],[135.70552,34.287],[135.7052,34.28655],[135.70451,34.2863],[135.70407,34.28563],[135.70454,34.28404],[135.70454,34.28341],[135.70535,34.28199],[135.70549,34.28126],[135.7048,34.28024],[135.70429,34.27832],[135.70418,34.27709],[135.70119,34.27504],[135.70053,34.2756],[135.69873,34.27654],[135.6972,34.27656],[135.69536,34.27729],[135.69477,34.27729],[135.69333,34.27771],[135.6923,34.27837],[135.69138,34.27678],[135.69131,34.27619],[135.69068,34.27497],[135.69031,34.27363],[135.68952,34.27224],[135.68946,34.27172],[135.68921,34.27149],[135.68833,34.27133],[135.68721,34.27067],[135.68556,34.27049],[135.68476,34.27081],[135.68419,34.27084],[135.68372,34.2707],[135.68345,34.2703],[135.6829,34.27005],[135.68088,34.2706],[135.68041,34.27097],[135.6809,34.27157],[135.6796,34.2719],[135.67924,34.27219],[135.67934,34.27243],[135.67924,34.27279],[135.68023,34.27341],[135.68019,34.27353],[135.6791,34.27378],[135.67878,34.27424],[135.678,34.27439],[135.67785,34.27458],[135.67733,34.27429],[135.67705,34.27442],[135.67652,34.2758],[135.67705,34.27632],[135.67625,34.27666],[135.67668,34.27771],[135.67593,34.27785],[135.67587,34.27822],[135.67558,34.27842],[135.67541,34.27897],[135.67487,34.27909],[135.67429,34.2795],[135.67421,34.27971],[135.67463,34.2801],[135.67463,34.28027],[135.67383,34.27994],[135.67338,34.27999],[135.67349,34.28106],[135.67278,34.28124],[135.67249,34.28165],[135.67254,34.28192],[135.67304,34.28233],[135.67321,34.28362],[135.6735,34.28381],[135.67363,34.28413],[135.67354,34.2847],[135.67307,34.28512],[135.67354,34.28568],[135.67357,34.28661],[135.67421,34.28702],[135.67444,34.28765],[135.67509,34.28825],[135.67471,34.28878],[135.6745,34.28955],[135.67526,34.28985],[135.67547,34.29017],[135.67507,34.29044],[135.6744,34.29059],[135.67385,34.29123],[135.67395,34.29258],[135.67551,34.29362],[135.67841,34.29441],[135.68043,34.29446],[135.68081,34.29181],[135.68132,34.29099],[135.68629,34.28983],[135.68662,34.28927],[135.68706,34.28902]]]},"properties":{"key":"292070530","name":"大深町","pref":"奈良県","prefCode":"29","municipality":"五條市","areaM2":4926351.49,"population":55,"toponymIds":["29-2be02e5852"]}},{"type":"Feature","geometry":{"type":"Polygon","coordinates":[[[135.75849,34.29546],[135.76094,34.29461],[135.76335,34.29451],[135.76523,34.29503],[135.76575,34.29443],[135.76624,34.29334],[135.7682,34.29142],[135.76915,34.29103],[135.77106,34.29087],[135.77291,34.29033],[135.774,34.29022],[135.7747,34.28921],[135.77138,34.2874],[135.77095,34.28689],[135.77035,34.28546],[135.76945,34.2852],[135.7689,34.28522],[135.76869,34.28544],[135.76874,34.28579],[135.76935,34.28638],[135.76942,34.28667],[135.768,34.28673],[135.76752,34.28638],[135.76621,34.28626],[135.76507,34.28642],[135.76405,34.28637],[135.76292,34.28675],[135.76223,34.2874],[135.76073,34.28737],[135.75938,34.28813],[135.75859,34.28798],[135.75758,34.28749],[135.75624,34.28762],[135.75466,34.28833],[135.75411,34.28906],[135.75342,34.29065],[135.75192,34.29527],[135.75269,34.29521],[135.75425,34.29468],[135.75449,34.29596],[135.75555,34.29577],[135.75679,34.29586],[135.75849,34.29546]]]},"properties":{"key":"292071290","name":"西吉野町川岸","pref":"奈良県","prefCode":"29","municipality":"五條市","areaM2":1370388.824,"population":36,"toponymIds":["29-a632ae975d"]}},{"type":"Feature","geometry":{"type":"Polygon","coordinates":[[[135.7559,34.31068],[135.75649,34.30919],[135.75728,34.30877],[135.75809,34.30787],[135.75852,34.30709],[135.75938,34.30648],[135.75944,34.30598],[135.75999,34.30522],[135.76089,34.3046],[135.76053,34.30441],[135.7599,34.30305],[135.76024,34.30213],[135.75955,34.30186],[135.75899,34.30137],[135.75871,34.30067],[135.7587,34.29984],[135.75716,34.2985],[135.75759,34.29719],[135.75847,34.29612],[135.75849,34.29546],[135.75679,34.29586],[135.75555,34.29577],[135.75449,34.29596],[135.75425,34.29468],[135.75269,34.29521],[135.75192,34.29527],[135.75022,34.29246],[135.74904,34.29548],[135.74818,34.29638],[135.74798,34.29721],[135.7463,34.29827],[135.74578,34.29879],[135.74574,34.29947],[135.74618,34.30019],[135.74629,34.30071],[135.74575,34.30226],[135.74929,34.30345],[135.75007,34.30498],[135.75133,34.30546],[135.7514,34.30584],[135.75096,34.30712],[135.75223,34.30932],[135.75371,34.31034],[135.75475,34.31078],[135.75515,34.31085],[135.7559,34.31068]]]},"properties":{"key":"292071030","name":"西吉野町鹿場","pref":"奈良県","prefCode":"29","municipality":"五條市","areaM2":1524201.656,"population":14,"toponymIds":["29-6d81b74b3d"]}},{"type":"Feature","geometry":{"type":"Polygon","coordinates":[[[135.73035,34.3579],[135.73083,34.35723],[135.73047,34.35681],[135.73034,34.35603],[135.73049,34.3553],[135.73079,34.35478],[135.73139,34.35394],[135.73292,34.35263],[135.73536,34.35001],[135.73548,34.34964],[135.73536,34.3487],[135.73461,34.34732],[135.73405,34.34701],[135.733,34.34675],[135.73068,34.34687],[135.72964,34.34748],[135.72896,34.34873],[135.72855,34.3502],[135.72873,34.35087],[135.72912,34.35145],[135.72825,34.35379],[135.72769,34.35476],[135.72734,34.35506],[135.7283,34.35592],[135.72926,34.35945],[135.73035,34.3579]]]},"properties":{"key":"292070350","name":"六倉町","pref":"奈良県","prefCode":"29","municipality":"五條市","areaM2":493557.373,"population":64,"toponymIds":["29-c0551ab9f8"]}},{"type":"Feature","geometry":{"type":"Polygon","coordinates":[[[135.73635,34.45871],[135.73868,34.45869],[135.73871,34.45808],[135.73928,34.4581],[135.73925,34.4587],[135.73948,34.45873],[135.74379,34.45854],[135.74383,34.45763],[135.74405,34.45764],[135.74408,34.45683],[135.74234,34.4567],[135.74245,34.45574],[135.74229,34.45493],[135.74232,34.45367],[135.73764,34.45359],[135.73464,34.45173],[135.73415,34.4516],[135.73219,34.45163],[135.73067,34.44892],[135.72931,34.44493],[135.72894,34.44504],[135.72961,34.44676],[135.72947,34.44877],[135.72983,34.44963],[135.7309,34.45022],[135.73175,34.45137],[135.73277,34.4546],[135.73282,34.45604],[135.73314,34.45714],[135.73361,34.45774],[135.73451,34.45835],[135.73623,34.4589],[135.73635,34.45871]]]},"properties":{"key":"292080030","name":"大字蛇穴","pref":"奈良県","prefCode":"29","municipality":"御所市","areaM2":623347.601,"population":589,"toponymIds":["29-beac07332b"]}},{"type":"Feature","geometry":{"type":"Polygon","coordinates":[[[135.69012,34.67532],[135.69084,34.67487],[135.69142,34.67422],[135.69234,34.67376],[135.694,34.67382],[135.69475,34.67402],[135.69519,34.67382],[135.69569,34.67399],[135.69645,34.67393],[135.6982,34.67215],[135.69886,34.67206],[135.69932,34.67246],[135.69955,34.67246],[135.69975,34.67126],[135.69756,34.67139],[135.69666,34.67126],[135.69598,34.67096],[135.69398,34.67103],[135.69335,34.67077],[135.69093,34.67099],[135.68396,34.67376],[135.68344,34.67414],[135.68232,34.67555],[135.68417,34.67572],[135.68526,34.67525],[135.68531,34.67633],[135.68627,34.67682],[135.68778,34.6761],[135.68945,34.67566],[135.69012,34.67532]]]},"properties":{"key":"292090810","name":"小倉寺町","pref":"奈良県","prefCode":"29","municipality":"生駒市","areaM2":479450.675,"population":43,"toponymIds":["29-e92f9b2318"]}},{"type":"Feature","geometry":{"type":"Polygon","coordinates":[[[135.75019,34.73532],[135.74992,34.73511],[135.74808,34.73697],[135.74944,34.73817],[135.74996,34.73892],[135.75058,34.74103],[135.75149,34.74063],[135.7521,34.73977],[135.75292,34.73918],[135.75307,34.7388],[135.75198,34.73702],[135.75019,34.73532]]]},"properties":{"key":"29209234001","name":"鹿ノ台北一丁目","pref":"奈良県","prefCode":"29","municipality":"生駒市","areaM2":142527.958,"population":738,"toponymIds":["29-c62e6ae26d"]}},{"type":"Feature","geometry":{"type":"Polygon","coordinates":[[[135.74898,34.73607],[135.74992,34.73511],[135.74756,34.73395],[135.74582,34.73349],[135.74515,34.73339],[135.74395,34.7335],[135.7433,34.73329],[135.7424,34.73377],[135.74318,34.73429],[135.7426,34.73467],[135.74269,34.73525],[135.74237,34.736],[135.74287,34.736],[135.74288,34.73574],[135.74492,34.73576],[135.74692,34.73632],[135.74808,34.73697],[135.74898,34.73607]]]},"properties":{"key":"29209232001","name":"鹿ノ台西一丁目","pref":"奈良県","prefCode":"29","municipality":"生駒市","areaM2":161605.975,"population":725,"toponymIds":["29-c5357ded6a"]}},{"type":"Feature","geometry":{"type":"Polygon","coordinates":[[[135.75349,34.72996],[135.75317,34.72961],[135.7523,34.73081],[135.75228,34.73116],[135.75261,34.73213],[135.75237,34.73275],[135.75418,34.73418],[135.75537,34.73556],[135.75569,34.73541],[135.75581,34.73479],[135.75606,34.73458],[135.75571,34.73431],[135.75549,34.73377],[135.75548,34.73117],[135.75443,34.73084],[135.75349,34.72996]]]},"properties":{"key":"29209231001","name":"鹿ノ台東一丁目","pref":"奈良県","prefCode":"29","municipality":"生駒市","areaM2":115363.458,"population":467,"toponymIds":["29-3e940ac1f7"]}},{"type":"Feature","geometry":{"type":"Polygon","coordinates":[[[135.75253,34.73044],[135.75294,34.72989],[135.752,34.72995],[135.75169,34.73022],[135.75144,34.73014],[135.75086,34.72939],[135.74999,34.72922],[135.74916,34.72955],[135.74901,34.72976],[135.74862,34.7298],[135.74857,34.73023],[135.7479,34.73032],[135.74767,34.73062],[135.74985,34.73137],[135.75237,34.73275],[135.75261,34.73213],[135.75226,34.73099],[135.75253,34.73044]]]},"properties":{"key":"29209233001","name":"鹿ノ台南一丁目","pref":"奈良県","prefCode":"29","municipality":"生駒市","areaM2":87674.057,"population":630,"toponymIds":["29-4529a6bbbe"]}},{"type":"Feature","geometry":{"type":"Polygon","coordinates":[[[135.74259,34.73473],[135.74318,34.73429],[135.7424,34.73377],[135.74424,34.73291],[135.7443,34.73256],[135.74367,34.73281],[135.74361,34.73251],[135.74287,34.73237],[135.7426,34.73166],[135.7419,34.7322],[135.7416,34.73185],[135.74161,34.73157],[135.74194,34.73125],[135.74169,34.73103],[135.74139,34.73117],[135.74206,34.73063],[135.74314,34.72914],[135.74355,34.72912],[135.7436,34.72939],[135.74389,34.72944],[135.74435,34.72915],[135.7451,34.72915],[135.74548,34.72937],[135.74532,34.72955],[135.7455,34.7296],[135.74543,34.72991],[135.74589,34.73027],[135.746,34.73066],[135.74636,34.73077],[135.74624,34.73089],[135.74691,34.73131],[135.7479,34.73032],[135.74857,34.73023],[135.74862,34.7298],[135.74901,34.72976],[135.74916,34.72955],[135.74999,34.72922],[135.75086,34.72939],[135.75144,34.73014],[135.75169,34.73022],[135.752,34.72995],[135.75294,34.72989],[135.75317,34.72961],[135.75443,34.73084],[135.75548,34.73117],[135.75515,34.73036],[135.75548,34.73005],[135.75545,34.72975],[135.75474,34.72883],[135.7549,34.72803],[135.75565,34.72773],[135.75534,34.72737],[135.75519,34.7264],[135.75431,34.72612],[135.75332,34.72519],[135.75303,34.72541],[135.75315,34.72581],[135.75284,34.72643],[135.7521,34.7271],[135.75164,34.72697],[135.75161,34.72635],[135.75222,34.72623],[135.75148,34.72573],[135.75211,34.72517],[135.75215,34.72498],[135.75174,34.72477],[135.75127,34.7248],[135.75114,34.72514],[135.75081,34.72511],[135.75068,34.72536],[135.74999,34.72553],[135.7493,34.72541],[135.74922,34.72514],[135.74894,34.72507],[135.74873,34.72554],[135.74811,34.72539],[135.7463,34.72535],[135.74621,34.72562],[135.74695,34.72572],[135.74643,34.72594],[135.74616,34.72635],[135.74591,34.72788],[135.74572,34.7278],[135.74569,34.72698],[135.74546,34.72662],[135.74522,34.72677],[135.74542,34.72714],[135.74494,34.72768],[135.74479,34.72762],[135.7444,34.72598],[135.74352,34.72515],[135.74263,34.7247],[135.7422,34.72497],[135.74205,34.72558],[135.74181,34.72566],[135.74179,34.7259],[135.74296,34.72725],[135.74373,34.72728],[135.74461,34.72784],[135.74388,34.72841],[135.74297,34.72881],[135.74268,34.72838],[135.7424,34.72832],[135.74195,34.72785],[135.74163,34.72793],[135.74182,34.72834],[135.74134,34.72816],[135.74094,34.72845],[135.74074,34.72814],[135.74037,34.728],[135.74009,34.72583],[135.74027,34.7255],[135.74057,34.72544],[135.74098,34.7249],[135.74065,34.72443],[135.74087,34.72372],[135.7407,34.7234],[135.74081,34.72292],[135.74142,34.723],[135.74169,34.72275],[135.74131,34.72248],[135.74093,34.72247],[135.74082,34.72179],[135.74127,34.72125],[135.74111,34.72114],[135.74073,34.72121],[135.74066,34.72138],[135.74017,34.7214],[135.74006,34.72148],[135.74046,34.72233],[135.74024,34.72281],[135.7403,34.723],[135.73989,34.72303],[135.73968,34.72349],[135.7393,34.72353],[135.73917,34.72372],[135.73933,34.72419],[135.73917,34.72461],[135.73987,34.72469],[135.73982,34.72504],[135.73942,34.72473],[135.73902,34.72472],[135.73888,34.72492],[135.7397,34.72559],[135.73961,34.72615],[135.73859,34.72577],[135.73841,34.72585],[135.7384,34.72641],[135.73861,34.72656],[135.73918,34.72635],[135.73972,34.72659],[135.73956,34.72745],[135.73871,34.72732],[135.73857,34.72746],[135.73963,34.72782],[135.73988,34.72839],[135.73937,34.7286],[135.73849,34.7285],[135.73784,34.7296],[135.73688,34.73018],[135.73627,34.73152],[135.73615,34.73289],[135.73629,34.73312],[135.73607,34.73339],[135.73625,34.73371],[135.73692,34.73422],[135.73675,34.73464],[135.73614,34.73472],[135.73588,34.73557],[135.73635,34.73613],[135.73686,34.73635],[135.73772,34.73708],[135.73786,34.73802],[135.73745,34.73977],[135.73759,34.74139],[135.73812,34.74303],[135.73917,34.74228],[135.73994,34.74145],[135.74039,34.74021],[135.74053,34.73905],[135.74205,34.73897],[135.74207,34.73865],[135.74185,34.73849],[135.74213,34.73822],[135.74213,34.73747],[135.74238,34.73745],[135.74243,34.73728],[135.74229,34.73637],[135.74269,34.73525],[135.74259,34.73473]]]},"properties":{"key":"292092210","name":"鹿畑町","pref":"奈良県","prefCode":"29","municipality":"生駒市","areaM2":1289439.744,"population":756,"toponymIds":["29-eac9504495"]}},{"type":"Feature","geometry":{"type":"Polygon","coordinates":[[[135.74493,34.73292],[135.74516,34.73233],[135.74621,34.73206],[135.74691,34.73131],[135.74624,34.73089],[135.74636,34.73077],[135.746,34.73066],[135.74589,34.73027],[135.74543,34.72991],[135.7455,34.7296],[135.74532,34.72955],[135.74548,34.72937],[135.74469,34.72908],[135.74368,34.72942],[135.74355,34.72912],[135.74324,34.7291],[135.74266,34.72964],[135.74206,34.73063],[135.74139,34.73117],[135.74169,34.73103],[135.74194,34.73125],[135.74161,34.73157],[135.7416,34.73185],[135.7419,34.7322],[135.7426,34.73166],[135.74287,34.73237],[135.74361,34.73251],[135.74367,34.73281],[135.7443,34.73256],[135.74424,34.73291],[135.74493,34.73292]]]},"properties":{"key":"292096240","name":"美鹿の台","pref":"奈良県","prefCode":"29","municipality":"生駒市","areaM2":128573.68,"population":1240,"toponymIds":["29-0283c76445"]}},{"type":"Feature","geometry":{"type":"Polygon","coordinates":[[[135.7014,34.52825],[135.70142,34.52769],[135.70121,34.52745],[135.70142,34.5266],[135.70143,34.52535],[135.70042,34.52535],[135.6997,34.52517],[135.69911,34.52523],[135.69907,34.5254],[135.69858,34.52536],[135.69851,34.52522],[135.6981,34.52535],[135.69693,34.52511],[135.69657,34.5273],[135.69686,34.52743],[135.69702,34.52797],[135.69721,34.52808],[135.69813,34.52811],[135.69855,34.52877],[135.69857,34.52913],[135.70128,34.52932],[135.7014,34.52825]]]},"properties":{"key":"29210046000","name":"磯壁","pref":"奈良県","prefCode":"29","municipality":"香芝市","areaM2":163876.845,"population":4,"toponymIds":["29-60a99bdd05"]}},{"type":"Feature","geometry":{"type":"Polygon","coordinates":[[[135.70916,34.46963],[135.70913,34.46909],[135.7089,34.46892],[135.70836,34.4696],[135.70765,34.46949],[135.70795,34.46933],[135.70802,34.46893],[135.70828,34.46905],[135.70919,34.46859],[135.70937,34.46865],[135.70919,34.46932],[135.70977,34.46913],[135.71006,34.46886],[135.71004,34.46861],[135.70945,34.46835],[135.70921,34.46793],[135.70717,34.46735],[135.70653,34.46682],[135.70628,34.4668],[135.70617,34.46714],[135.70554,34.46702],[135.70553,34.46671],[135.70492,34.46648],[135.70474,34.46667],[135.70427,34.46674],[135.70318,34.46656],[135.70277,34.46624],[135.70237,34.46652],[135.70199,34.46786],[135.70248,34.46833],[135.70389,34.4688],[135.70394,34.46938],[135.70383,34.46953],[135.70353,34.46952],[135.70297,34.46923],[135.70302,34.47],[135.70268,34.47018],[135.70154,34.46994],[135.70146,34.47005],[135.70236,34.47088],[135.70234,34.47105],[135.70212,34.47109],[135.70272,34.47137],[135.70399,34.47086],[135.70456,34.46975],[135.7052,34.46913],[135.70596,34.47043],[135.7078,34.47016],[135.70916,34.46963]]]},"properties":{"key":"292110260","name":"梅室","pref":"奈良県","prefCode":"29","municipality":"葛城市","areaM2":220184.201,"population":70,"toponymIds":["29-b594d6f544"]}},{"type":"Feature","geometry":{"type":"Polygon","coordinates":[[[135.73166,34.49258],[135.7349,34.49262],[135.735,34.49158],[135.73729,34.49164],[135.73736,34.49064],[135.73771,34.49064],[135.73775,34.48959],[135.72956,34.48953],[135.7291,34.48927],[135.72807,34.48911],[135.72772,34.48862],[135.72567,34.48858],[135.72568,34.49163],[135.72721,34.49162],[135.72811,34.49144],[135.72831,34.4916],[135.72938,34.4917],[135.72935,34.49267],[135.73166,34.49258]]]},"properties":{"key":"292110130","name":"柿本","pref":"奈良県","prefCode":"29","municipality":"葛城市","areaM2":333421.418,"population":755,"toponymIds":["29-75ef7720ef"]}},{"type":"Feature","geometry":{"type":"Polygon","coordinates":[[[135.98089,34.45671],[135.98214,34.45703],[135.98348,34.4565],[135.98347,34.45688],[135.98411,34.4573],[135.98408,34.45795],[135.98435,34.45793],[135.98452,34.45745],[135.98452,34.45638],[135.98417,34.45499],[135.98427,34.45444],[135.98559,34.45292],[135.98599,34.45194],[135.98689,34.45129],[135.98703,34.45094],[135.98694,34.45065],[135.98804,34.44999],[135.98822,34.44844],[135.9869,34.44737],[135.98652,34.44658],[135.98685,34.44604],[135.98793,34.44517],[135.9884,34.44415],[135.98823,34.44297],[135.98891,34.44261],[135.98756,34.44228],[135.98635,34.4413],[135.98537,34.44138],[135.98471,34.44123],[135.98424,34.44091],[135.98339,34.4396],[135.98296,34.43922],[135.98193,34.43903],[135.98088,34.43936],[135.97968,34.43896],[135.97938,34.43817],[135.97928,34.43734],[135.97887,34.4368],[135.97663,34.43687],[135.9757,34.43648],[135.97518,34.43748],[135.97475,34.43777],[135.97444,34.43778],[135.97466,34.43832],[135.97441,34.43918],[135.97455,34.43978],[135.97427,34.44018],[135.97501,34.44128],[135.97515,34.4423],[135.97553,34.44277],[135.97513,34.44315],[135.97516,34.44415],[135.97557,34.44507],[135.97554,34.44556],[135.97524,34.44579],[135.97533,34.44652],[135.97488,34.44705],[135.97535,34.44815],[135.97512,34.44852],[135.97429,34.44869],[135.9739,34.44896],[135.97343,34.45022],[135.97276,34.45117],[135.97464,34.45164],[135.97553,34.45229],[135.97493,34.45529],[135.97451,34.456],[135.97458,34.45651],[135.978,34.45738],[135.97879,34.45845],[135.97922,34.45956],[135.97961,34.45992],[135.98027,34.45996],[135.98096,34.46066],[135.98113,34.45933],[135.9814,34.45889],[135.98046,34.45784],[135.98063,34.45688],[135.98089,34.45671]]]},"properties":{"key":"292120840","name":"菟田野佐倉","pref":"奈良県","prefCode":"29","municipality":"宇陀市","areaM2":2270991.692,"population":184,"toponymIds":["29-c0cff1041f"]}},{"type":"Feature","geometry":{"type":"Polygon","coordinates":[[[135.91922,34.49166],[135.91887,34.48995],[135.91823,34.48919],[135.91739,34.48864],[135.91698,34.4868],[135.91535,34.48462],[135.91452,34.48282],[135.91412,34.48261],[135.91401,34.48237],[135.91056,34.48145],[135.90876,34.48284],[135.90786,34.48324],[135.90851,34.48413],[135.90895,34.48545],[135.9093,34.48742],[135.90916,34.49156],[135.9095,34.49257],[135.90867,34.49308],[135.90844,34.4936],[135.90857,34.494],[135.9097,34.49397],[135.91101,34.49426],[135.91272,34.49418],[135.9134,34.49451],[135.91353,34.49408],[135.91307,34.49353],[135.91297,34.49309],[135.91308,34.49267],[135.91337,34.49239],[135.91541,34.49196],[135.91764,34.49238],[135.91922,34.49166]]]},"properties":{"key":"292120410","name":"大宇陀嬉河原","pref":"奈良県","prefCode":"29","municipality":"宇陀市","areaM2":905839.449,"population":22,"toponymIds":["29-28f72d8942"]}},{"type":"Feature","geometry":{"type":"Polygon","coordinates":[[[135.91626,34.49699],[135.91811,34.4972],[135.91824,34.49686],[135.91841,34.49684],[135.91836,34.49646],[135.91857,34.49617],[135.9184,34.49618],[135.91804,34.49579],[135.91691,34.49381],[135.91656,34.49368],[135.91606,34.49379],[135.91497,34.49444],[135.91413,34.49464],[135.91358,34.49458],[135.91272,34.49418],[135.91101,34.49426],[135.9097,34.49397],[135.90893,34.49404],[135.90686,34.49381],[135.906,34.49545],[135.90513,34.49651],[135.90518,34.49694],[135.90697,34.4966],[135.90795,34.49589],[135.90877,34.496],[135.90963,34.49696],[135.90997,34.49707],[135.91238,34.4965],[135.91398,34.49637],[135.91412,34.49648],[135.91422,34.49728],[135.91626,34.49699]]]},"properties":{"key":"292120440","name":"大宇陀馬取柿","pref":"奈良県","prefCode":"29","municipality":"宇陀市","areaM2":317840.146,"population":17,"toponymIds":["29-ee37540bfc"]}},{"type":"Feature","geometry":{"type":"Polygon","coordinates":[[[135.94953,34.50784],[135.94985,34.50674],[135.94983,34.50578],[135.94827,34.50646],[135.94626,34.50674],[135.94566,34.50626],[135.94562,34.50594],[135.94523,34.50609],[135.94484,34.50588],[135.94488,34.50557],[135.94476,34.50547],[135.9444,34.5058],[135.94412,34.50549],[135.9422,34.50546],[135.94146,34.50572],[135.94118,34.50563],[135.94049,34.506],[135.94044,34.50635],[135.93979,34.50686],[135.94023,34.50754],[135.94115,34.50735],[135.94225,34.50759],[135.94288,34.5079],[135.94369,34.50882],[135.94302,34.50946],[135.94392,34.51079],[135.94553,34.51137],[135.94686,34.51021],[135.94851,34.51018],[135.94855,34.50923],[135.94896,34.50924],[135.94923,34.50824],[135.94953,34.50784]]]},"properties":{"key":"292121050","name":"榛原足立","pref":"奈良県","prefCode":"29","municipality":"宇陀市","areaM2":331168.28,"population":27,"toponymIds":["29-9c5a995c8e"]}},{"type":"Feature","geometry":{"type":"Polygon","coordinates":[[[135.95508,34.52011],[135.95787,34.51999],[135.9599,34.52072],[135.96054,34.52047],[135.96122,34.52045],[135.96198,34.51967],[135.96364,34.51907],[135.96335,34.51647],[135.96322,34.51625],[135.96242,34.51597],[135.96245,34.51532],[135.96368,34.51476],[135.96444,34.51408],[135.96444,34.51329],[135.96518,34.51266],[135.96519,34.51179],[135.96571,34.51134],[135.96544,34.50993],[135.96604,34.5082],[135.96616,34.50727],[135.96681,34.50646],[135.96718,34.50628],[135.96686,34.50567],[135.96621,34.50627],[135.96548,34.50603],[135.96411,34.50609],[135.9622,34.50548],[135.96157,34.50601],[135.96049,34.50572],[135.95909,34.50704],[135.95829,34.50678],[135.9564,34.50701],[135.95531,34.50666],[135.95048,34.50662],[135.95042,34.50694],[135.94981,34.50687],[135.94896,34.50924],[135.94855,34.50923],[135.94851,34.51018],[135.94686,34.51021],[135.94553,34.51137],[135.9457,34.51203],[135.94548,34.51359],[135.94582,34.51484],[135.94574,34.51563],[135.94604,34.51636],[135.94557,34.51676],[135.94638,34.51663],[135.94724,34.51692],[135.94844,34.51689],[135.95063,34.51885],[135.95112,34.51965],[135.9523,34.51983],[135.95269,34.52035],[135.95352,34.52069],[135.95431,34.52063],[135.95508,34.52011]]]},"properties":{"key":"292121040","name":"榛原上井足","pref":"奈良県","prefCode":"29","municipality":"宇陀市","areaM2":2351757.539,"population":184,"toponymIds":["29-95761d76b8"]}},{"type":"Feature","geometry":{"type":"Polygon","coordinates":[[[135.94778,34.5298],[135.94843,34.5298],[135.94841,34.52862],[135.9492,34.52883],[135.94904,34.52906],[135.94931,34.52924],[135.9496,34.52904],[135.95,34.52907],[135.95149,34.52959],[135.95168,34.52927],[135.9542,34.52977],[135.95451,34.52913],[135.9547,34.52915],[135.95466,34.52847],[135.95507,34.5276],[135.95402,34.52718],[135.9541,34.52687],[135.95448,34.52692],[135.9546,34.52668],[135.95418,34.52669],[135.95409,34.52652],[135.95351,34.52633],[135.95375,34.52622],[135.95378,34.52601],[135.95361,34.52595],[135.9536,34.52536],[135.95329,34.52441],[135.95334,34.52375],[135.95347,34.52363],[135.95369,34.52369],[135.95372,34.52384],[135.95416,34.52388],[135.95415,34.52413],[135.95442,34.52408],[135.95428,34.52454],[135.95449,34.52496],[135.95551,34.52509],[135.95601,34.52512],[135.95648,34.52494],[135.95706,34.52383],[135.95764,34.52361],[135.95966,34.52349],[135.961,34.52399],[135.96258,34.52416],[135.96187,34.52305],[135.96124,34.52126],[135.96122,34.52045],[135.96054,34.52047],[135.9599,34.52072],[135.9582,34.52004],[135.95637,34.52004],[135.95508,34.52011],[135.95431,34.52063],[135.95378,34.52075],[135.95269,34.52035],[135.9523,34.51983],[135.95112,34.51965],[135.95063,34.51885],[135.94844,34.51689],[135.94724,34.51692],[135.94638,34.51663],[135.94557,34.51676],[135.94651,34.51843],[135.94559,34.51871],[135.94478,34.51995],[135.94518,34.52083],[135.9461,34.52132],[135.94655,34.52285],[135.94645,34.52309],[135.94655,34.52357],[135.94627,34.52456],[135.94673,34.52484],[135.94587,34.52619],[135.94604,34.52624],[135.94563,34.5268],[135.9455,34.52747],[135.94536,34.52759],[135.94487,34.52728],[135.94461,34.52732],[135.9437,34.52848],[135.94361,34.52949],[135.94424,34.53058],[135.94431,34.53172],[135.94595,34.53233],[135.94722,34.52996],[135.94778,34.5298]]]},"properties":{"key":"292120990","name":"榛原下井足","pref":"奈良県","prefCode":"29","municipality":"宇陀市","areaM2":1312086.55,"population":514,"toponymIds":["29-ed72558bde"]}}]}
