{"type":"FeatureCollection","features":[{"type":"Feature","geometry":{"type":"Polygon","coordinates":[[[135.21147,34.15218],[135.21139,34.1518],[135.20898,34.15166],[135.20896,34.15188],[135.20467,34.15161],[135.20515,34.15298],[135.20618,34.15311],[135.21129,34.15342],[135.21124,34.15297],[135.21161,34.15275],[135.21147,34.15218]]]},"properties":{"key":"302020042","name":"築地","pref":"和歌山県","prefCode":"30","municipality":"海南市","areaM2":100428.966,"population":83,"toponymIds":["30-a340e2276d"]}},{"type":"Feature","geometry":{"type":"Polygon","coordinates":[[[135.18425,34.12798],[135.18387,34.12707],[135.18412,34.12616],[135.18362,34.12599],[135.18283,34.12615],[135.18244,34.12606],[135.18344,34.12473],[135.18461,34.12442],[135.18453,34.12338],[135.18468,34.12219],[135.1842,34.1204],[135.18475,34.11941],[135.18557,34.11852],[135.18649,34.11782],[135.18659,34.11594],[135.18643,34.1153],[135.1843,34.11392],[135.1836,34.11392],[135.18153,34.11321],[135.17976,34.113],[135.17886,34.11229],[135.17793,34.11204],[135.17659,34.11252],[135.17579,34.11319],[135.17413,34.11398],[135.1752,34.11504],[135.17624,34.11703],[135.17647,34.11796],[135.1772,34.11952],[135.17722,34.12095],[135.1777,34.12241],[135.17751,34.12287],[135.17676,34.12351],[135.17678,34.12463],[135.17632,34.12467],[135.17593,34.12493],[135.17527,34.12593],[135.17403,34.12667],[135.17414,34.12701],[135.17295,34.12736],[135.1731,34.12778],[135.17535,34.12791],[135.17773,34.12784],[135.17883,34.12881],[135.18224,34.12992],[135.18444,34.13134],[135.18483,34.13061],[135.18472,34.12971],[135.18437,34.12894],[135.18453,34.12843],[135.18424,34.12822],[135.18425,34.12798]]]},"properties":{"key":"302020340","name":"下津町中","pref":"和歌山県","prefCode":"30","municipality":"海南市","areaM2":1454526.78,"population":438,"toponymIds":["30-eced212a6e"]}},{"type":"Feature","geometry":{"type":"Polygon","coordinates":[[[135.17761,33.85966],[135.17784,33.85951],[135.17889,33.85945],[135.17963,33.85894],[135.1811,33.8589],[135.18128,33.85877],[135.18145,33.85805],[135.18189,33.85782],[135.18253,33.85786],[135.18349,33.8582],[135.18405,33.85817],[135.18513,33.85777],[135.18592,33.85794],[135.18694,33.85791],[135.18831,33.85709],[135.18994,33.85703],[135.19094,33.85665],[135.19157,33.85668],[135.19165,33.85573],[135.19238,33.8554],[135.19247,33.85515],[135.19197,33.85512],[135.1917,33.85492],[135.19215,33.85393],[135.19237,33.85079],[135.19185,33.84791],[135.19098,33.84653],[135.18947,33.84534],[135.18856,33.84402],[135.18611,33.84282],[135.18328,33.84082],[135.18204,33.83933],[135.18169,33.83863],[135.18181,33.83779],[135.18157,33.83712],[135.18028,33.83564],[135.18074,33.83479],[135.18085,33.83422],[135.18051,33.83312],[135.17992,33.83271],[135.17856,33.83226],[135.1783,33.83199],[135.1759,33.83081],[135.1745,33.83223],[135.17447,33.8341],[135.1746,33.83482],[135.1743,33.83595],[135.17436,33.83652],[135.17366,33.83684],[135.1736,33.83758],[135.17379,33.83672],[135.17446,33.83653],[135.17465,33.8369],[135.17486,33.83684],[135.17502,33.83735],[135.17442,33.83742],[135.17429,33.83725],[135.17431,33.83738],[135.17502,33.83739],[135.17509,33.83758],[135.17488,33.83765],[135.17532,33.83761],[135.17541,33.83778],[135.17548,33.83824],[135.17464,33.83999],[135.17392,33.84031],[135.17318,33.84033],[135.17307,33.83993],[135.17333,33.8397],[135.173,33.8399],[135.17321,33.84062],[135.1704,33.84112],[135.16959,33.84235],[135.1685,33.84322],[135.16777,33.84341],[135.16759,33.84291],[135.16782,33.84271],[135.16754,33.8429],[135.16774,33.84343],[135.16572,33.84375],[135.16497,33.84406],[135.1648,33.84436],[135.1645,33.84426],[135.16386,33.8451],[135.1627,33.84532],[135.16318,33.84542],[135.16309,33.84552],[135.16326,33.84568],[135.1629,33.84572],[135.16333,33.84581],[135.1633,33.84608],[135.1635,33.84632],[135.16322,33.84643],[135.16373,33.84658],[135.16355,33.84665],[135.16418,33.8468],[135.16542,33.84678],[135.16594,33.84696],[135.16688,33.84693],[135.16765,33.8474],[135.16718,33.84722],[135.16729,33.84781],[135.16696,33.84864],[135.16664,33.84898],[135.16554,33.84953],[135.16495,33.85003],[135.16498,33.85028],[135.16569,33.85127],[135.16555,33.85223],[135.16509,33.85221],[135.16549,33.85235],[135.16549,33.8526],[135.16377,33.85373],[135.16317,33.85393],[135.16272,33.85494],[135.16103,33.85637],[135.16025,33.85759],[135.15965,33.85803],[135.16089,33.85833],[135.16296,33.85841],[135.16715,33.85772],[135.17049,33.85809],[135.1727,33.85811],[135.17394,33.85829],[135.17521,33.85869],[135.17692,33.85968],[135.17761,33.85966]]]},"properties":{"key":"302050160","name":"名田町野島","pref":"和歌山県","prefCode":"30","municipality":"御坊市","areaM2":5147265.166,"population":1319,"toponymIds":["30-91dd07144e"]}},{"type":"Feature","geometry":{"type":"Polygon","coordinates":[[[135.17629,34.22469],[135.17629,34.2242],[135.17572,34.22417],[135.17566,34.22437],[135.17629,34.22469]]]},"properties":{"key":"302011040","name":"芦辺丁","pref":"和歌山県","prefCode":"30","municipality":"和歌山市","areaM2":2261.691,"population":16,"toponymIds":["30-a02d703bb4"]}},{"type":"Feature","geometry":{"type":"Polygon","coordinates":[[[135.21812,34.25627],[135.21882,34.25546],[135.22861,34.25583],[135.23574,34.25555],[135.23479,34.25343],[135.23486,34.25259],[135.23339,34.25215],[135.23291,34.25208],[135.23276,34.25227],[135.23275,34.24779],[135.2276,34.24805],[135.22586,34.24828],[135.21898,34.25033],[135.21594,34.25238],[135.21708,34.25467],[135.21812,34.25627]]]},"properties":{"key":"302013450","name":"小豆島","pref":"和歌山県","prefCode":"30","municipality":"和歌山市","areaM2":1180233.803,"population":369,"toponymIds":["30-19294e7dfc"]}},{"type":"Feature","geometry":{"type":"Polygon","coordinates":[[[135.09065,34.27157],[135.09235,34.27198],[135.09305,34.27195],[135.09343,34.27124],[135.09374,34.27105],[135.09497,34.27169],[135.09602,34.26913],[135.0971,34.26847],[135.09718,34.26834],[135.09696,34.26824],[135.09767,34.26716],[135.09613,34.2665],[135.09619,34.26641],[135.09771,34.26464],[135.0989,34.26385],[135.09984,34.26359],[135.10045,34.26273],[135.09993,34.2626],[135.0993,34.26203],[135.09844,34.26205],[135.09807,34.26162],[135.09776,34.2606],[135.09763,34.25841],[135.0971,34.25749],[135.09719,34.25691],[135.09662,34.25717],[135.09627,34.25769],[135.09564,34.25818],[135.09488,34.25853],[135.09043,34.26025],[135.08875,34.26072],[135.08682,34.26102],[135.08649,34.26436],[135.09002,34.26636],[135.09014,34.26649],[135.09016,34.26741],[135.09076,34.26753],[135.09042,34.26768],[135.09022,34.268],[135.09024,34.26842],[135.08976,34.26885],[135.09066,34.26888],[135.09045,34.26913],[135.0904,34.26979],[135.09011,34.27035],[135.08993,34.27028],[135.08975,34.2706],[135.08962,34.27054],[135.08908,34.27151],[135.09028,34.27202],[135.09065,34.27157]]]},"properties":{"key":"302013890","name":"磯の浦","pref":"和歌山県","prefCode":"30","municipality":"和歌山市","areaM2":1121981.855,"population":862,"toponymIds":["30-389b6111f5"]}},{"type":"Feature","geometry":{"type":"Polygon","coordinates":[[[135.18505,34.22799],[135.18507,34.22782],[135.18436,34.22854],[135.18412,34.22962],[135.18481,34.2297],[135.18505,34.22799]]]},"properties":{"key":"302011980","name":"蔵小路","pref":"和歌山県","prefCode":"30","municipality":"和歌山市","areaM2":9532.612,"population":10,"toponymIds":["30-bda243ad25"]}},{"type":"Feature","geometry":{"type":"Polygon","coordinates":[[[135.16845,34.23661],[135.16875,34.23625],[135.16953,34.23627],[135.16954,34.23564],[135.16794,34.23566],[135.16756,34.23607],[135.16845,34.23661]]]},"properties":{"key":"30201080001","name":"杉ノ馬場一丁目","pref":"和歌山県","prefCode":"30","municipality":"和歌山市","areaM2":12764.229,"population":42,"toponymIds":["30-9dc70cfbbf"]}},{"type":"Feature","geometry":{"type":"Polygon","coordinates":[[[135.16058,34.22746],[135.16005,34.22598],[135.16062,34.22582],[135.16055,34.2256],[135.16096,34.22563],[135.161,34.22522],[135.16079,34.2252],[135.16087,34.22471],[135.15859,34.22448],[135.15888,34.22515],[135.15867,34.22582],[135.15896,34.22617],[135.15826,34.22673],[135.15819,34.22708],[135.15893,34.22795],[135.16022,34.22776],[135.16015,34.22756],[135.16058,34.22746]]]},"properties":{"key":"302011460","name":"西河岸町","pref":"和歌山県","prefCode":"30","municipality":"和歌山市","areaM2":62299.044,"population":134,"toponymIds":["30-ad9fbbdfe0"]}},{"type":"Feature","geometry":{"type":"Polygon","coordinates":[[[135.16737,34.23738],[135.16816,34.23644],[135.16756,34.23607],[135.1682,34.23533],[135.16774,34.23504],[135.16439,34.23488],[135.16393,34.23466],[135.16306,34.23512],[135.16387,34.23618],[135.1643,34.23713],[135.16491,34.237],[135.16617,34.23836],[135.16726,34.2381],[135.16725,34.23796],[135.16822,34.23794],[135.16737,34.23738]]]},"properties":{"key":"302010680","name":"西蔵前丁","pref":"和歌山県","prefCode":"30","municipality":"和歌山市","areaM2":116400.518,"population":154,"toponymIds":["30-2d3e922d8f"]}},{"type":"Feature","geometry":{"type":"Polygon","coordinates":[[[135.17288,34.23496],[135.17288,34.23475],[135.17333,34.23476],[135.17319,34.23418],[135.17163,34.23418],[135.17163,34.23495],[135.17288,34.23496]]]},"properties":{"key":"302010640","name":"東鍛冶屋町","pref":"和歌山県","prefCode":"30","municipality":"和歌山市","areaM2":12099.554,"population":63,"toponymIds":["30-bc3d14e825"]}},{"type":"Feature","geometry":{"type":"Polygon","coordinates":[[[135.18683,34.13628],[135.18716,34.1357],[135.18743,34.13555],[135.18703,34.13455],[135.18636,34.13388],[135.18612,34.13292],[135.18581,34.13258],[135.18464,34.13195],[135.18444,34.13134],[135.18375,34.13079],[135.18224,34.12992],[135.18081,34.12936],[135.17921,34.129],[135.17764,34.12781],[135.17535,34.12791],[135.17335,34.12779],[135.17312,34.12854],[135.17189,34.12835],[135.17179,34.12883],[135.17067,34.12864],[135.17038,34.13037],[135.1706,34.13083],[135.17113,34.13094],[135.17209,34.13065],[135.17314,34.13116],[135.17503,34.1315],[135.1755,34.13278],[135.17671,34.13452],[135.1774,34.13466],[135.17834,34.13436],[135.17966,34.1346],[135.1817,34.13581],[135.1828,34.13614],[135.18413,34.13609],[135.18562,34.13662],[135.18664,34.13678],[135.18683,34.13628]]]},"properties":{"key":"302020360","name":"下津町梅田","pref":"和歌山県","prefCode":"30","municipality":"海南市","areaM2":784017.968,"population":133,"toponymIds":["30-453fdc16c6","30-8db8c6a6cc"]}},{"type":"Feature","geometry":{"type":"Polygon","coordinates":[[[135.21374,34.15825],[135.21392,34.15751],[135.21336,34.1576],[135.21329,34.15828],[135.21283,34.15867],[135.2128,34.15911],[135.2132,34.15918],[135.21374,34.15825]]]},"properties":{"key":"30202003301","name":"馬場町一丁目","pref":"和歌山県","prefCode":"30","municipality":"海南市","areaM2":8615.579,"population":27,"toponymIds":["30-eaf786a080"]}},{"type":"Feature","geometry":{"type":"Polygon","coordinates":[[[135.60094,34.33769],[135.6014,34.33763],[135.60098,34.33731],[135.60079,34.33736],[135.60066,34.33695],[135.60032,34.33701],[135.60035,34.33717],[135.59964,34.3376],[135.59919,34.33733],[135.59916,34.3369],[135.59911,34.33729],[135.59938,34.33785],[135.59937,34.33817],[135.59904,34.33834],[135.59902,34.33865],[135.59797,34.33871],[135.598,34.33897],[135.59995,34.33895],[135.60023,34.33827],[135.60065,34.33807],[135.60052,34.33792],[135.60094,34.33769]]]},"properties":{"key":"30203046001","name":"柿の木坂","pref":"和歌山県","prefCode":"30","municipality":"橋本市","areaM2":25985.045,"population":185,"toponymIds":["30-ebc5d767f8"]}},{"type":"Feature","geometry":{"type":"Polygon","coordinates":[[[135.58822,34.31447],[135.58823,34.31406],[135.58869,34.31412],[135.5888,34.31388],[135.58808,34.31335],[135.58694,34.3134],[135.58695,34.31297],[135.58568,34.31309],[135.58594,34.31383],[135.58462,34.31328],[135.58456,34.3138],[135.58516,34.31411],[135.58822,34.31477],[135.58822,34.31447]]]},"properties":{"key":"30203010001","name":"岸上","pref":"和歌山県","prefCode":"30","municipality":"橋本市","areaM2":41105.553,"population":90,"toponymIds":["30-94c6865513","30-7e23aa622d"]}},{"type":"Feature","geometry":{"type":"Polygon","coordinates":[[[135.61678,34.32974],[135.61697,34.3294],[135.61689,34.32878],[135.61548,34.32622],[135.61527,34.32491],[135.61476,34.3242],[135.61388,34.32347],[135.61351,34.32325],[135.61331,34.32329],[135.61328,34.32313],[135.61228,34.32315],[135.61176,34.32292],[135.61084,34.32306],[135.61047,34.32258],[135.60996,34.32264],[135.60938,34.32248],[135.60916,34.32265],[135.60893,34.32442],[135.60766,34.32637],[135.60818,34.3278],[135.60822,34.32872],[135.60958,34.32883],[135.61022,34.32915],[135.61044,34.32958],[135.61076,34.32971],[135.61192,34.32941],[135.61268,34.32967],[135.61371,34.32976],[135.61529,34.33194],[135.6155,34.33259],[135.61563,34.33421],[135.617,34.33515],[135.61814,34.33686],[135.61871,34.33723],[135.61903,34.33723],[135.61889,34.33653],[135.61899,34.33621],[135.61944,34.33578],[135.61955,34.33458],[135.61899,34.33406],[135.61779,34.33225],[135.6176,34.33152],[135.61701,34.33063],[135.61678,34.32974]]]},"properties":{"key":"302030380","name":"北馬場","pref":"和歌山県","prefCode":"30","municipality":"橋本市","areaM2":669118.851,"population":194,"toponymIds":["30-7a46611a1f"]}},{"type":"Feature","geometry":{"type":"Polygon","coordinates":[[[135.56027,34.32352],[135.56022,34.32292],[135.56034,34.32271],[135.56074,34.32267],[135.56137,34.32116],[135.56183,34.32126],[135.56204,34.32158],[135.56285,34.32189],[135.56285,34.32168],[135.56199,34.32102],[135.56207,34.32063],[135.56249,34.32021],[135.56224,34.31945],[135.56188,34.31893],[135.5619,34.31835],[135.5616,34.31782],[135.56212,34.31708],[135.56215,34.31654],[135.56157,34.31546],[135.56194,34.31464],[135.5615,34.31402],[135.56171,34.31308],[135.56099,34.31174],[135.5607,34.31048],[135.56084,34.31045],[135.56073,34.30998],[135.56033,34.3091],[135.55941,34.30872],[135.55857,34.30743],[135.55798,34.30745],[135.55812,34.30713],[135.55777,34.30708],[135.55782,34.30683],[135.55807,34.3067],[135.55769,34.30584],[135.5579,34.30547],[135.55801,34.30451],[135.55774,34.30322],[135.55776,34.30213],[135.557,34.30229],[135.55554,34.30223],[135.55116,34.30311],[135.55102,34.30318],[135.55157,34.30348],[135.55097,34.30373],[135.55122,34.3047],[135.55222,34.3045],[135.55228,34.30492],[135.55315,34.30561],[135.55266,34.30639],[135.55284,34.30639],[135.55291,34.30685],[135.55308,34.30682],[135.55321,34.30781],[135.55367,34.30802],[135.55447,34.30795],[135.55452,34.30834],[135.55485,34.30826],[135.5549,34.30886],[135.55557,34.30899],[135.55469,34.31097],[135.5546,34.31159],[135.55433,34.3118],[135.55464,34.31224],[135.55441,34.31261],[135.55469,34.31279],[135.55457,34.31301],[135.5548,34.31314],[135.5545,34.31319],[135.55532,34.31471],[135.5558,34.31498],[135.55652,34.3151],[135.55884,34.32251],[135.55931,34.32247],[135.55937,34.32287],[135.55964,34.32285],[135.55972,34.32351],[135.56027,34.32352]]]},"properties":{"key":"302030980","name":"高野口町名倉","pref":"和歌山県","prefCode":"30","municipality":"橋本市","areaM2":1084177.976,"population":1326,"toponymIds":["30-5474a0f374","30-0a0df5b984"]}},{"type":"Feature","geometry":{"type":"Polygon","coordinates":[[[135.5909,34.36196],[135.58988,34.36053],[135.58973,34.36008],[135.58972,34.35849],[135.5894,34.35774],[135.5887,34.35685],[135.58862,34.35638],[135.58796,34.35517],[135.58774,34.3545],[135.58774,34.3532],[135.58752,34.35236],[135.58674,34.3512],[135.58663,34.35046],[135.58724,34.34949],[135.58708,34.34895],[135.58725,34.34848],[135.58772,34.34802],[135.58805,34.34811],[135.58837,34.34781],[135.58831,34.34701],[135.58788,34.34655],[135.58782,34.34586],[135.58877,34.34542],[135.58889,34.34517],[135.58949,34.34476],[135.58995,34.34473],[135.5914,34.34517],[135.59247,34.34477],[135.593,34.3439],[135.59295,34.34343],[135.59332,34.34295],[135.59388,34.34276],[135.59394,34.34208],[135.59376,34.34212],[135.59346,34.34186],[135.59324,34.34222],[135.59243,34.34248],[135.59231,34.34271],[135.59204,34.34246],[135.5921,34.34196],[135.5917,34.34176],[135.59237,34.34155],[135.59263,34.34108],[135.59288,34.34107],[135.59275,34.34077],[135.59311,34.34044],[135.59303,34.34022],[135.5932,34.33984],[135.59415,34.33913],[135.59445,34.33908],[135.59505,34.33845],[135.59639,34.33798],[135.59658,34.33783],[135.5966,34.33749],[135.59797,34.33652],[135.59917,34.33627],[135.59971,34.33597],[135.59946,34.3355],[135.59977,34.3353],[135.59987,34.33471],[135.59946,34.33368],[135.59879,34.33398],[135.59894,34.33434],[135.59863,34.33459],[135.59898,34.33526],[135.59881,34.3358],[135.5977,34.33604],[135.5975,34.33632],[135.59649,34.33614],[135.596,34.33625],[135.59597,34.3367],[135.59573,34.33709],[135.59436,34.33795],[135.59436,34.33832],[135.59388,34.33871],[135.59394,34.33916],[135.59381,34.33926],[135.59302,34.33925],[135.59246,34.33963],[135.59208,34.33969],[135.5906,34.33906],[135.59087,34.33927],[135.59088,34.33955],[135.59009,34.33967],[135.58968,34.34028],[135.58975,34.34061],[135.58998,34.34068],[135.58982,34.34133],[135.58887,34.34145],[135.58774,34.34236],[135.58641,34.34286],[135.58599,34.34181],[135.58566,34.34162],[135.58507,34.34163],[135.5847,34.34116],[135.58343,34.34038],[135.58348,34.34017],[135.58318,34.34012],[135.58284,34.34047],[135.58294,34.34129],[135.58269,34.34175],[135.58218,34.34176],[135.58202,34.34193],[135.58221,34.34302],[135.5825,34.34341],[135.5823,34.34398],[135.58262,34.34425],[135.58289,34.34543],[135.58201,34.34777],[135.58194,34.35024],[135.58243,34.35289],[135.5817,34.35563],[135.58206,34.35664],[135.58205,34.35759],[135.58194,34.35807],[135.58164,34.35841],[135.57988,34.35916],[135.57969,34.35938],[135.58167,34.36031],[135.58503,34.36143],[135.58752,34.36184],[135.58917,34.36191],[135.59017,34.36225],[135.59091,34.3622],[135.5909,34.36196]]]},"properties":{"key":"30203008101","name":"菖蒲谷","pref":"和歌山県","prefCode":"30","municipality":"橋本市","areaM2":1564983.222,"population":148,"toponymIds":["30-f096618ddf"]}},{"type":"Feature","geometry":{"type":"Polygon","coordinates":[[[135.65187,34.33368],[135.6521,34.33287],[135.65146,34.33299],[135.65069,34.33185],[135.65198,34.32994],[135.64887,34.32864],[135.6473,34.33102],[135.64681,34.33096],[135.64719,34.33226],[135.64714,34.33292],[135.64865,34.33354],[135.6495,34.33333],[135.64996,34.33384],[135.65145,34.33442],[135.65175,34.33443],[135.65187,34.33368]]]},"properties":{"key":"30203057001","name":"隅田町垂井","pref":"和歌山県","prefCode":"30","municipality":"橋本市","areaM2":185398.112,"population":194,"toponymIds":["30-86b70327c2","30-dae06135a8"]}},{"type":"Feature","geometry":{"type":"Polygon","coordinates":[[[135.58777,34.30157],[135.58736,34.30088],[135.58718,34.30092],[135.58757,34.30191],[135.58719,34.30195],[135.58718,34.30221],[135.58672,34.30224],[135.58672,34.30235],[135.58388,34.30247],[135.58421,34.30385],[135.58666,34.30753],[135.58882,34.30473],[135.58819,34.30443],[135.58765,34.30361],[135.58782,34.30342],[135.58909,34.30313],[135.58897,34.30239],[135.58777,34.30157]]]},"properties":{"key":"30203091001","name":"南馬場","pref":"和歌山県","prefCode":"30","municipality":"橋本市","areaM2":167397.661,"population":347,"toponymIds":["30-ec16993ba8"]}},{"type":"Feature","geometry":{"type":"Polygon","coordinates":[[[135.59966,34.37605],[135.59999,34.376],[135.60061,34.37642],[135.60111,34.37637],[135.6017,34.37599],[135.60155,34.37468],[135.60224,34.37169],[135.60283,34.37066],[135.60342,34.37008],[135.60347,34.36982],[135.60332,34.36962],[135.60379,34.36926],[135.6042,34.36852],[135.60389,34.36791],[135.60388,34.36753],[135.60426,34.36701],[135.60419,34.36643],[135.60477,34.36532],[135.6045,34.36501],[135.60454,34.36478],[135.60543,34.36271],[135.6058,34.36257],[135.60581,34.36175],[135.6063,34.3617],[135.6063,34.36066],[135.60597,34.36035],[135.60496,34.36045],[135.60482,34.36088],[135.60434,34.36145],[135.60485,34.36226],[135.60408,34.36227],[135.60403,34.36292],[135.6038,34.3632],[135.6025,34.36336],[135.60191,34.36417],[135.60204,34.36441],[135.60193,34.36464],[135.60111,34.36528],[135.60073,34.36686],[135.5998,34.36731],[135.59994,34.36808],[135.59941,34.36837],[135.5993,34.37028],[135.5994,34.37114],[135.59887,34.37156],[135.59599,34.37219],[135.5941,34.37296],[135.59294,34.37286],[135.5914,34.37309],[135.59059,34.37274],[135.58954,34.37274],[135.58917,34.3724],[135.58877,34.37242],[135.58795,34.37204],[135.58761,34.3723],[135.58729,34.37212],[135.58695,34.37217],[135.58616,34.37164],[135.58572,34.37099],[135.58441,34.37023],[135.58395,34.37016],[135.58325,34.36966],[135.58217,34.36944],[135.58095,34.36948],[135.58014,34.36906],[135.58016,34.36865],[135.57999,34.36852],[135.5786,34.36869],[135.57777,34.36856],[135.57608,34.36796],[135.57503,34.36694],[135.57374,34.36912],[135.57349,34.36998],[135.57251,34.37208],[135.57332,34.37344],[135.57576,34.37406],[135.57663,34.37574],[135.57824,34.37585],[135.57995,34.37649],[135.58155,34.37663],[135.5834,34.37705],[135.58432,34.37605],[135.58618,34.37542],[135.5867,34.37532],[135.58831,34.37597],[135.58979,34.37509],[135.59027,34.37562],[135.59091,34.37531],[135.59141,34.37552],[135.59207,34.37501],[135.59295,34.37494],[135.59379,34.3751],[135.59423,34.37535],[135.59472,34.37534],[135.59525,34.37588],[135.59528,34.37654],[135.59623,34.37745],[135.59696,34.37671],[135.59966,34.37605]]]},"properties":{"key":"30203033001","name":"矢倉脇","pref":"和歌山県","prefCode":"30","municipality":"橋本市","areaM2":1800599.505,"population":94,"toponymIds":["30-2f954a860d"]}},{"type":"Feature","geometry":{"type":"Polygon","coordinates":[[[135.17113,34.07844],[135.17097,34.07783],[135.17073,34.07786],[135.17034,34.07559],[135.16255,34.07721],[135.1591,34.07826],[135.15992,34.08117],[135.1596,34.08125],[135.16024,34.08359],[135.17193,34.08135],[135.17113,34.07844]]]},"properties":{"key":"302040250","name":"宮原町滝川原","pref":"和歌山県","prefCode":"30","municipality":"有田市","areaM2":697933.5,"population":1134,"toponymIds":["30-99b4f1b181","30-9a51d491df"]}},{"type":"Feature","geometry":{"type":"Polygon","coordinates":[[[135.38331,33.72373],[135.38369,33.72333],[135.38273,33.72295],[135.38356,33.72286],[135.38357,33.72264],[135.38335,33.7225],[135.38389,33.72246],[135.38403,33.72218],[135.38379,33.72197],[135.38383,33.72168],[135.38402,33.72165],[135.38436,33.72108],[135.38379,33.72083],[135.38354,33.72038],[135.38391,33.72021],[135.38217,33.71773],[135.38115,33.71828],[135.3821,33.71783],[135.38308,33.71927],[135.38233,33.71963],[135.38217,33.7194],[135.38207,33.71945],[135.38223,33.71968],[135.38133,33.71999],[135.38148,33.72021],[135.38045,33.72054],[135.38017,33.7198],[135.38067,33.71927],[135.38043,33.7191],[135.38034,33.71799],[135.38041,33.71905],[135.37987,33.71961],[135.37889,33.71973],[135.37824,33.72],[135.37812,33.72025],[135.37839,33.72025],[135.37854,33.71994],[135.37906,33.71973],[135.37967,33.72038],[135.37973,33.72086],[135.37925,33.72142],[135.37939,33.72153],[135.37932,33.72195],[135.38012,33.72214],[135.38023,33.72272],[135.37985,33.72365],[135.3811,33.72377],[135.38112,33.72352],[135.38291,33.72412],[135.38331,33.72373]]]},"properties":{"key":"302060151","name":"磯間","pref":"和歌山県","prefCode":"30","municipality":"田辺市","areaM2":169887.829,"population":701,"toponymIds":["30-3b61c2af5e"]}},{"type":"Feature","geometry":{"type":"Polygon","coordinates":[[[135.99893,33.72795],[135.99808,33.72776],[135.99613,33.72782],[135.99609,33.72919],[135.99682,33.73105],[136.00025,33.72983],[135.99893,33.72795]]]},"properties":{"key":"30207004001","name":"阿須賀一丁目","pref":"和歌山県","prefCode":"30","municipality":"新宮市","areaM2":95120.54,"population":59,"toponymIds":["30-5b664c6980"]}},{"type":"Feature","geometry":{"type":"Polygon","coordinates":[[[135.98426,33.72445],[135.98424,33.72434],[135.98549,33.72432],[135.9855,33.72446],[135.98657,33.72437],[135.98649,33.72195],[135.98457,33.72186],[135.98425,33.72149],[135.98379,33.72133],[135.98381,33.72191],[135.9833,33.722],[135.98356,33.72256],[135.98342,33.7229],[135.9838,33.72376],[135.98389,33.72465],[135.98431,33.72465],[135.98426,33.72445]]]},"properties":{"key":"30207010001","name":"神倉一丁目","pref":"和歌山県","prefCode":"30","municipality":"新宮市","areaM2":78180.936,"population":445,"toponymIds":["30-0f6691b4e7"]}},{"type":"Feature","geometry":{"type":"Polygon","coordinates":[[[135.87547,33.80263],[135.875,33.80201],[135.87445,33.80074],[135.875,33.79785],[135.87342,33.7977],[135.87221,33.79793],[135.86934,33.79887],[135.86351,33.80179],[135.86199,33.80234],[135.86158,33.80219],[135.86104,33.80283],[135.85857,33.80302],[135.85729,33.80341],[135.8594,33.80518],[135.86234,33.80819],[135.86288,33.80896],[135.86347,33.81087],[135.86401,33.81055],[135.86573,33.81001],[135.86804,33.80953],[135.87445,33.80767],[135.87829,33.80479],[135.87715,33.80446],[135.87547,33.80263]]]},"properties":{"key":"302070550","name":"熊野川町日足","pref":"和歌山県","prefCode":"30","municipality":"新宮市","areaM2":1467850.943,"population":127,"toponymIds":["30-2ea68d9b12"]}},{"type":"Feature","geometry":{"type":"Polygon","coordinates":[[[135.75621,33.8851],[135.76092,33.8877],[135.76405,33.88737],[135.76487,33.8898],[135.76541,33.89042],[135.76633,33.89093],[135.76746,33.8908],[135.76907,33.89096],[135.77046,33.89036],[135.77181,33.89002],[135.77325,33.89032],[135.77438,33.88939],[135.77563,33.88864],[135.77625,33.88845],[135.77768,33.88835],[135.77589,33.8848],[135.77583,33.88384],[135.77597,33.88295],[135.77638,33.88177],[135.77633,33.8803],[135.77585,33.87992],[135.77437,33.87929],[135.77011,33.87684],[135.76661,33.87575],[135.76532,33.8756],[135.76455,33.87596],[135.76382,33.87656],[135.76306,33.87839],[135.76194,33.88004],[135.75945,33.88264],[135.75621,33.8851]]]},"properties":{"key":"302068450","name":"本宮町土河屋","pref":"和歌山県","prefCode":"30","municipality":"田辺市","areaM2":2032010.235,"population":33,"toponymIds":["30-67b1075d19"]}},{"type":"Feature","geometry":{"type":"Polygon","coordinates":[[[135.2525,34.18096],[135.25325,34.18096],[135.25363,34.18078],[135.25415,34.18018],[135.25492,34.17867],[135.255,34.17816],[135.25562,34.17787],[135.25642,34.17775],[135.25852,34.17813],[135.25902,34.17787],[135.25949,34.17734],[135.26056,34.17711],[135.26083,34.17733],[135.26102,34.17795],[135.26176,34.17801],[135.26212,34.17767],[135.26312,34.17741],[135.26335,34.17709],[135.26461,34.17708],[135.26584,34.1758],[135.26772,34.17578],[135.26821,34.17601],[135.2689,34.17603],[135.26941,34.17638],[135.26998,34.17621],[135.27003,34.17587],[135.26979,34.17503],[135.2688,34.17284],[135.2691,34.1715],[135.26991,34.17011],[135.2704,34.16968],[135.26787,34.1689],[135.26028,34.16762],[135.25625,34.16639],[135.25444,34.16601],[135.25194,34.1639],[135.25148,34.16317],[135.25085,34.16155],[135.25012,34.16049],[135.25022,34.15907],[135.25155,34.15754],[135.24747,34.15706],[135.24638,34.1572],[135.24613,34.15705],[135.24472,34.15687],[135.24444,34.15718],[135.24431,34.15794],[135.24146,34.15769],[135.24109,34.15849],[135.24064,34.15856],[135.23992,34.15906],[135.24004,34.16195],[135.24137,34.16408],[135.24057,34.16536],[135.24099,34.16691],[135.24116,34.16832],[135.24586,34.16866],[135.24724,34.17126],[135.24817,34.17257],[135.24784,34.17323],[135.24768,34.17487],[135.24745,34.17549],[135.24891,34.17873],[135.24891,34.17897],[135.24855,34.17925],[135.24862,34.17984],[135.24929,34.18101],[135.24978,34.18082],[135.2494,34.18028],[135.24948,34.18012],[135.24987,34.18032],[135.25016,34.18071],[135.25036,34.18077],[135.25061,34.18047],[135.25126,34.18084],[135.2514,34.18102],[135.25132,34.18162],[135.25161,34.1816],[135.25201,34.18107],[135.2525,34.18096]]]},"properties":{"key":"302020071","name":"小野田","pref":"和歌山県","prefCode":"30","municipality":"海南市","areaM2":3587371.306,"population":2183,"toponymIds":["30-3cbbf9b413"]}},{"type":"Feature","geometry":{"type":"Polygon","coordinates":[[[135.25142,34.15751],[135.25229,34.15553],[135.25249,34.15553],[135.25303,34.15498],[135.25317,34.1546],[135.2536,34.15444],[135.25214,34.15405],[135.24963,34.15391],[135.24958,34.15731],[135.25142,34.15751]]]},"properties":{"key":"30202006702","name":"重根東二丁目","pref":"和歌山県","prefCode":"30","municipality":"海南市","areaM2":95910.494,"population":352,"toponymIds":["30-cbc495710f"]}},{"type":"Feature","geometry":{"type":"Polygon","coordinates":[[[135.27057,34.14429],[135.27075,34.14394],[135.27688,34.14269],[135.27887,34.14211],[135.28356,34.14013],[135.28672,34.14015],[135.28749,34.13835],[135.28833,34.13785],[135.28485,34.13768],[135.27843,34.13646],[135.27279,34.13595],[135.27347,34.1356],[135.27378,34.13465],[135.27489,34.13468],[135.27501,34.1345],[135.275,34.1336],[135.27624,34.13282],[135.27664,34.13215],[135.27664,34.13181],[135.2761,34.13178],[135.27621,34.13108],[135.27611,34.13073],[135.27573,34.13127],[135.27526,34.13133],[135.27487,34.13118],[135.27433,34.13154],[135.27408,34.13138],[135.27406,34.13114],[135.27345,34.13108],[135.27293,34.1318],[135.2726,34.13345],[135.27205,34.13415],[135.27199,34.13481],[135.27135,34.13515],[135.27182,34.13522],[135.2727,34.13482],[135.27206,34.13569],[135.27213,34.13622],[135.27107,34.13616],[135.2701,34.13713],[135.27079,34.138],[135.27058,34.13852],[135.26976,34.13882],[135.26977,34.13914],[135.27004,34.13956],[135.26949,34.142],[135.27031,34.14368],[135.27025,34.14393],[135.26989,34.14393],[135.27057,34.14429]]]},"properties":{"key":"302020104","name":"ひや水","pref":"和歌山県","prefCode":"30","municipality":"海南市","areaM2":1047310.112,"population":58,"toponymIds":["30-cc444ebdf5"]}},{"type":"Feature","geometry":{"type":"Polygon","coordinates":[[[135.30278,34.16399],[135.30285,34.1637],[135.30321,34.16373],[135.30327,34.16317],[135.30286,34.16263],[135.30253,34.16255],[135.30257,34.16112],[135.30278,34.16041],[135.30315,34.16034],[135.30264,34.15999],[135.30304,34.15969],[135.30277,34.15942],[135.30319,34.1587],[135.30271,34.15848],[135.30248,34.15748],[135.3017,34.15747],[135.30116,34.15696],[135.3017,34.15652],[135.30169,34.15615],[135.30124,34.156],[135.30157,34.15586],[135.30135,34.15564],[135.30167,34.15561],[135.30157,34.15463],[135.30133,34.15422],[135.30133,34.15311],[135.30151,34.15243],[135.3028,34.15038],[135.30276,34.14989],[135.30172,34.14784],[135.30207,34.14763],[135.3022,34.14613],[135.30137,34.14478],[135.30114,34.14464],[135.29998,34.14436],[135.299,34.14451],[135.29857,34.14428],[135.29801,34.1444],[135.29762,34.14353],[135.29806,34.14297],[135.29902,34.14237],[135.29913,34.14182],[135.29882,34.14114],[135.29732,34.13935],[135.2969,34.13764],[135.29683,34.1367],[135.29707,34.1362],[135.29703,34.13586],[135.29645,34.13554],[135.29627,34.13521],[135.29491,34.13497],[135.29471,34.13543],[135.29361,34.13625],[135.28833,34.13785],[135.28749,34.13835],[135.28672,34.14015],[135.28454,34.14165],[135.28362,34.14262],[135.28264,34.14558],[135.2845,34.14843],[135.2875,34.15146],[135.2887,34.15314],[135.28888,34.15429],[135.28866,34.1549],[135.28874,34.15523],[135.28846,34.15526],[135.28819,34.15753],[135.28843,34.15753],[135.28854,34.15809],[135.29046,34.15794],[135.29339,34.15824],[135.29411,34.1596],[135.29626,34.16238],[135.29676,34.16247],[135.298,34.1631],[135.29985,34.16456],[135.30088,34.16476],[135.30246,34.16561],[135.3027,34.16562],[135.30278,34.16399]]]},"properties":{"key":"302020101","name":"野上新","pref":"和歌山県","prefCode":"30","municipality":"海南市","areaM2":3610861.948,"population":318,"toponymIds":["30-14fbc6a3ce"]}},{"type":"Feature","geometry":{"type":"Polygon","coordinates":[[[135.18026,34.07104],[135.18292,34.06934],[135.18479,34.06868],[135.18707,34.06844],[135.19077,34.06876],[135.18992,34.0662],[135.18766,34.06523],[135.18771,34.06472],[135.18724,34.06376],[135.18748,34.06317],[135.18732,34.0622],[135.18705,34.0618],[135.18628,34.06153],[135.18531,34.06185],[135.18434,34.06168],[135.18373,34.06184],[135.18288,34.06151],[135.18301,34.06099],[135.18291,34.06052],[135.18233,34.06028],[135.18148,34.05961],[135.18154,34.05888],[135.18123,34.05787],[135.17998,34.05688],[135.17845,34.05646],[135.17758,34.05657],[135.17729,34.05636],[135.17655,34.05622],[135.17592,34.05639],[135.17501,34.05597],[135.17429,34.056],[135.17356,34.05581],[135.17305,34.05542],[135.17279,34.05541],[135.17316,34.05676],[135.1738,34.05672],[135.1737,34.05724],[135.17416,34.05801],[135.1752,34.05856],[135.17673,34.05977],[135.1764,34.06114],[135.17669,34.06159],[135.1762,34.06291],[135.17619,34.06347],[135.17578,34.06369],[135.17503,34.06375],[135.17485,34.06451],[135.17488,34.06468],[135.17506,34.0647],[135.17615,34.07056],[135.17589,34.07078],[135.17618,34.07095],[135.17758,34.0729],[135.18026,34.07104]]]},"properties":{"key":"302040260","name":"糸我町中番","pref":"和歌山県","prefCode":"30","municipality":"有田市","areaM2":1458949.851,"population":549,"toponymIds":["30-8d731635be"]}},{"type":"Feature","geometry":{"type":"Polygon","coordinates":[[[135.22082,34.17559],[135.22398,34.17466],[135.2259,34.17459],[135.22684,34.17474],[135.22686,34.17451],[135.22733,34.17439],[135.22774,34.17395],[135.22777,34.17368],[135.22799,34.17368],[135.22796,34.17264],[135.2271,34.17265],[135.22706,34.17126],[135.22677,34.17032],[135.2264,34.17],[135.22601,34.16998],[135.2261,34.16802],[135.22216,34.16607],[135.22131,34.16619],[135.22097,34.16592],[135.21927,34.16565],[135.2187,34.166],[135.21748,34.16583],[135.21687,34.16598],[135.21516,34.16542],[135.21412,34.16529],[135.21352,34.16544],[135.21312,34.16537],[135.21194,34.16482],[135.21098,34.16498],[135.21097,34.16646],[135.21073,34.16666],[135.21038,34.16759],[135.21015,34.16749],[135.20988,34.16787],[135.21036,34.16874],[135.20917,34.16902],[135.20951,34.16977],[135.20946,34.17144],[135.20899,34.17257],[135.20943,34.17321],[135.21145,34.17338],[135.21184,34.17385],[135.21298,34.17389],[135.21399,34.17356],[135.21536,34.17427],[135.21565,34.17466],[135.21733,34.17525],[135.21711,34.17554],[135.22082,34.17559]]]},"properties":{"key":"302020074","name":"岡田","pref":"和歌山県","prefCode":"30","municipality":"海南市","areaM2":1494312.211,"population":2285,"toponymIds":["30-9356f10550"]}},{"type":"Feature","geometry":{"type":"Polygon","coordinates":[[[135.55968,34.32319],[135.55964,34.32285],[135.55937,34.32287],[135.55931,34.32247],[135.55884,34.32251],[135.55652,34.3151],[135.5558,34.31498],[135.55532,34.31471],[135.5545,34.31319],[135.5548,34.31314],[135.55457,34.31301],[135.55469,34.31279],[135.55441,34.31261],[135.55464,34.31224],[135.55433,34.3118],[135.5546,34.31159],[135.55469,34.31097],[135.55557,34.30899],[135.5549,34.30886],[135.55485,34.30826],[135.55452,34.30834],[135.55447,34.30795],[135.55367,34.30802],[135.55321,34.30781],[135.55308,34.30682],[135.55291,34.30685],[135.55284,34.30639],[135.55266,34.30639],[135.55282,34.30599],[135.55313,34.30582],[135.55309,34.3055],[135.55228,34.30492],[135.55222,34.3045],[135.55122,34.3047],[135.55097,34.30373],[135.55157,34.30348],[135.54985,34.30253],[135.54761,34.30031],[135.5421,34.30393],[135.54275,34.30691],[135.54269,34.30865],[135.54299,34.30934],[135.54213,34.30986],[135.54207,34.31005],[135.54215,34.31058],[135.54256,34.31118],[135.54259,34.31147],[135.54243,34.31177],[135.54187,34.31202],[135.54197,34.31259],[135.54186,34.3132],[135.54149,34.31359],[135.54244,34.31511],[135.54235,34.31527],[135.54195,34.31515],[135.54159,34.31535],[135.54157,34.31595],[135.54105,34.31734],[135.54113,34.3176],[135.54167,34.31787],[135.54109,34.31816],[135.54197,34.31871],[135.54205,34.3192],[135.54245,34.31955],[135.54413,34.3206],[135.55085,34.32298],[135.55127,34.32386],[135.55243,34.32513],[135.55255,34.32607],[135.55848,34.32585],[135.5588,34.32408],[135.55922,34.32368],[135.55972,34.32351],[135.55968,34.32319]]]},"properties":{"key":"302030970","name":"高野口町大野","pref":"和歌山県","prefCode":"30","municipality":"橋本市","areaM2":2863681.696,"population":1688,"toponymIds":["30-770303fb89","30-ae42919580"]}},{"type":"Feature","geometry":{"type":"Polygon","coordinates":[[[135.39731,33.79067],[135.39814,33.79095],[135.40126,33.78954],[135.40368,33.79093],[135.40429,33.79095],[135.40473,33.78938],[135.4053,33.78828],[135.40636,33.78688],[135.40719,33.78638],[135.40702,33.78576],[135.40732,33.78518],[135.4065,33.78449],[135.40637,33.78345],[135.40605,33.78285],[135.40686,33.78183],[135.40706,33.78122],[135.4082,33.78162],[135.40915,33.78166],[135.41196,33.78103],[135.41319,33.78124],[135.41435,33.78122],[135.41621,33.78016],[135.41733,33.7804],[135.41853,33.78037],[135.41971,33.77987],[135.41997,33.77929],[135.42047,33.77923],[135.4209,33.77881],[135.4217,33.77846],[135.4222,33.77781],[135.42261,33.77754],[135.42324,33.77754],[135.42438,33.77705],[135.4269,33.7756],[135.4272,33.77568],[135.42727,33.77586],[135.42761,33.7755],[135.42825,33.77526],[135.42778,33.7748],[135.42804,33.77377],[135.42932,33.77325],[135.4289,33.77198],[135.42913,33.7711],[135.42982,33.77016],[135.43187,33.76855],[135.43201,33.76808],[135.4319,33.76756],[135.43231,33.76703],[135.43271,33.76604],[135.43201,33.76506],[135.43159,33.76405],[135.43182,33.76212],[135.43054,33.76072],[135.43086,33.76004],[135.43104,33.75858],[135.43145,33.7576],[135.43191,33.757],[135.4316,33.75618],[135.43173,33.75511],[135.43157,33.75406],[135.43136,33.7533],[135.43043,33.75213],[135.42956,33.7505],[135.4292,33.7503],[135.42916,33.74991],[135.42592,33.74878],[135.42497,33.74872],[135.42477,33.74856],[135.423,33.749],[135.41973,33.74869],[135.41849,33.74878],[135.41815,33.74836],[135.41746,33.74823],[135.41706,33.74762],[135.41668,33.74766],[135.41611,33.74734],[135.4149,33.74749],[135.41453,33.74734],[135.41261,33.74752],[135.41244,33.74742],[135.41233,33.74855],[135.41171,33.74901],[135.41104,33.74896],[135.41039,33.74843],[135.40928,33.7483],[135.40879,33.74863],[135.40854,33.74861],[135.40738,33.74793],[135.4066,33.7486],[135.40589,33.74892],[135.40544,33.74956],[135.40432,33.74999],[135.4036,33.75064],[135.40304,33.75044],[135.40173,33.75063],[135.40104,33.75092],[135.40043,33.7518],[135.40018,33.7528],[135.39883,33.75326],[135.39893,33.75402],[135.39779,33.75524],[135.39778,33.75566],[135.39722,33.75637],[135.39631,33.75705],[135.39486,33.75741],[135.39416,33.75821],[135.393,33.75999],[135.3931,33.76083],[135.39269,33.76138],[135.39281,33.76264],[135.39243,33.76383],[135.39207,33.76457],[135.39151,33.76506],[135.39086,33.76622],[135.39181,33.76783],[135.39155,33.76854],[135.39083,33.76933],[135.39193,33.77134],[135.3915,33.77202],[135.39155,33.77237],[135.39134,33.77287],[135.39168,33.77319],[135.39194,33.77381],[135.39195,33.77427],[135.39237,33.7748],[135.39171,33.77721],[135.39197,33.77766],[135.39191,33.77808],[135.39083,33.77896],[135.3924,33.77987],[135.3924,33.78059],[135.39295,33.78124],[135.39309,33.78205],[135.39447,33.78271],[135.39558,33.78264],[135.39783,33.78334],[135.39763,33.78416],[135.39686,33.78449],[135.39678,33.78523],[135.39596,33.78553],[135.39553,33.78619],[135.39638,33.78643],[135.39695,33.78631],[135.39701,33.78651],[135.39632,33.78742],[135.39591,33.78756],[135.39538,33.78885],[135.3942,33.78956],[135.39393,33.7904],[135.39533,33.79107],[135.39521,33.79172],[135.39531,33.79188],[135.39622,33.79121],[135.39731,33.79067]]]},"properties":{"key":"302065740","name":"上秋津","pref":"和歌山県","prefCode":"30","municipality":"田辺市","areaM2":12700419.864,"population":3069,"toponymIds":["30-2be9f3ce42"]}},{"type":"Feature","geometry":{"type":"Polygon","coordinates":[[[135.37734,33.79098],[135.37669,33.7894],[135.37753,33.78823],[135.37754,33.78674],[135.37706,33.78618],[135.37706,33.78542],[135.37649,33.78509],[135.37618,33.78439],[135.37618,33.78389],[135.3769,33.78345],[135.37793,33.78392],[135.37837,33.78331],[135.37826,33.78307],[135.37863,33.78221],[135.37817,33.78154],[135.37816,33.78075],[135.37765,33.77989],[135.37723,33.77855],[135.37756,33.77803],[135.37791,33.77779],[135.38031,33.77708],[135.38005,33.77642],[135.38022,33.77595],[135.37998,33.77562],[135.37986,33.77415],[135.3792,33.77374],[135.3792,33.77334],[135.37894,33.77298],[135.37918,33.77222],[135.3788,33.77214],[135.37865,33.77249],[135.37839,33.77253],[135.3778,33.77198],[135.37755,33.77141],[135.37699,33.77135],[135.37522,33.77163],[135.37474,33.77213],[135.37382,33.77241],[135.37344,33.77234],[135.37279,33.77183],[135.37225,33.7694],[135.37291,33.769],[135.37316,33.76842],[135.37341,33.76826],[135.37328,33.76754],[135.37282,33.76655],[135.37346,33.76621],[135.37352,33.76594],[135.37324,33.76563],[135.37308,33.76569],[135.37252,33.76484],[135.3718,33.76471],[135.37146,33.76435],[135.37176,33.76354],[135.37154,33.76275],[135.37242,33.76219],[135.37179,33.76167],[135.37133,33.76175],[135.37106,33.76117],[135.37027,33.76085],[135.37005,33.76053],[135.37022,33.76008],[135.36994,33.75915],[135.36961,33.759],[135.36952,33.75864],[135.36872,33.75794],[135.36806,33.75766],[135.36825,33.7574],[135.36793,33.75697],[135.36805,33.75614],[135.3674,33.75528],[135.36764,33.75469],[135.36789,33.75451],[135.36774,33.75356],[135.36784,33.75314],[135.36732,33.75229],[135.36641,33.75275],[135.36546,33.75277],[135.36491,33.75231],[135.36434,33.75215],[135.36302,33.7504],[135.36257,33.75033],[135.36227,33.74995],[135.36132,33.75001],[135.36075,33.74987],[135.35923,33.75035],[135.35876,33.75007],[135.35881,33.74964],[135.35806,33.74977],[135.35725,33.74956],[135.35676,33.74912],[135.3567,33.74877],[135.35622,33.74853],[135.35571,33.7488],[135.35424,33.74872],[135.35422,33.74887],[135.35328,33.74913],[135.35334,33.74945],[135.35345,33.74934],[135.35357,33.74945],[135.35338,33.7497],[135.35342,33.74996],[135.35255,33.75035],[135.35284,33.75106],[135.35327,33.75094],[135.35334,33.75114],[135.35311,33.7514],[135.35339,33.75129],[135.35412,33.75144],[135.35488,33.75173],[135.35485,33.75205],[135.3542,33.75218],[135.35425,33.75246],[135.35414,33.75248],[135.35204,33.75277],[135.35081,33.75274],[135.35019,33.75233],[135.34978,33.74991],[135.34993,33.7493],[135.35084,33.74787],[135.35087,33.74758],[135.35052,33.74677],[135.34847,33.74704],[135.34841,33.74739],[135.34833,33.74704],[135.34732,33.74696],[135.34717,33.74684],[135.34722,33.74668],[135.34679,33.74652],[135.34696,33.74635],[135.34674,33.74638],[135.34667,33.74609],[135.34624,33.74626],[135.34606,33.74614],[135.34613,33.74576],[135.34646,33.7456],[135.34609,33.74504],[135.34629,33.74479],[135.34583,33.74482],[135.34614,33.74468],[135.34623,33.74443],[135.3458,33.74441],[135.34554,33.74417],[135.34534,33.74418],[135.3453,33.74435],[135.34515,33.74413],[135.34474,33.7441],[135.34457,33.74421],[135.34476,33.74444],[135.34448,33.74452],[135.34464,33.74496],[135.34437,33.7451],[135.34413,33.74445],[135.3439,33.74446],[135.34397,33.74478],[135.34362,33.74481],[135.34415,33.74516],[135.34386,33.74529],[135.34401,33.74539],[135.34379,33.74568],[135.34383,33.74618],[135.34361,33.7458],[135.34258,33.74606],[135.34209,33.74562],[135.34158,33.74594],[135.34089,33.74596],[135.34107,33.74546],[135.34078,33.74533],[135.34092,33.74506],[135.34068,33.74501],[135.34045,33.74527],[135.34045,33.74484],[135.33984,33.74467],[135.33979,33.74477],[135.33939,33.74455],[135.33922,33.74473],[135.33951,33.74492],[135.33955,33.74527],[135.33926,33.74542],[135.33931,33.74573],[135.33903,33.74581],[135.33871,33.74584],[135.33856,33.74547],[135.33817,33.74588],[135.33822,33.74511],[135.33761,33.74592],[135.33679,33.74582],[135.33685,33.74544],[135.33723,33.74545],[135.33753,33.7446],[135.33698,33.74515],[135.33675,33.7452],[135.3358,33.74675],[135.33607,33.74717],[135.33575,33.74778],[135.3363,33.74832],[135.33712,33.74873],[135.33735,33.74917],[135.33795,33.74938],[135.33693,33.75054],[135.33638,33.7506],[135.33652,33.75135],[135.33632,33.75167],[135.33626,33.7524],[135.33646,33.753],[135.33677,33.75318],[135.3377,33.75294],[135.33799,33.75318],[135.33861,33.75326],[135.33924,33.75311],[135.34,33.7537],[135.34048,33.75454],[135.34015,33.75545],[135.34029,33.75643],[135.34157,33.7579],[135.34203,33.75802],[135.34302,33.75942],[135.34326,33.76025],[135.34291,33.76124],[135.34323,33.76176],[135.34376,33.76218],[135.34442,33.76209],[135.34501,33.7627],[135.34508,33.76377],[135.34446,33.76415],[135.3449,33.76476],[135.34459,33.7651],[135.34484,33.76577],[135.34628,33.76615],[135.34796,33.76451],[135.34864,33.76464],[135.34902,33.76405],[135.34897,33.76329],[135.34921,33.76309],[135.34927,33.76279],[135.34968,33.76254],[135.3497,33.76225],[135.35031,33.76175],[135.35047,33.76138],[135.35101,33.7614],[135.35241,33.76234],[135.35193,33.76308],[135.35183,33.76278],[135.35161,33.76286],[135.35117,33.76258],[135.35158,33.76312],[135.35142,33.76338],[135.351,33.76339],[135.3505,33.76315],[135.35062,33.76338],[135.35137,33.76373],[135.35123,33.76432],[135.35091,33.76458],[135.35106,33.76472],[135.35094,33.76491],[135.35177,33.76398],[135.35184,33.76354],[135.35271,33.76406],[135.35307,33.76391],[135.35308,33.76335],[135.35449,33.76333],[135.35548,33.76266],[135.35593,33.76256],[135.35635,33.76271],[135.3571,33.76189],[135.357,33.76141],[135.35716,33.76099],[135.35816,33.76074],[135.35847,33.76075],[135.35853,33.76112],[135.35974,33.76121],[135.36079,33.76167],[135.36101,33.76191],[135.36169,33.76186],[135.36169,33.76215],[135.36206,33.7626],[135.36355,33.7624],[135.36412,33.76252],[135.36468,33.76349],[135.36489,33.76464],[135.36525,33.76487],[135.36595,33.76469],[135.36639,33.76478],[135.36643,33.7653],[135.36698,33.76629],[135.36721,33.76709],[135.36702,33.76766],[135.368,33.76859],[135.36843,33.76872],[135.36869,33.76924],[135.36869,33.77285],[135.36817,33.77368],[135.36815,33.77459],[135.36796,33.77505],[135.36752,33.77543],[135.36643,33.77697],[135.36545,33.77724],[135.36498,33.77804],[135.36422,33.77852],[135.36409,33.77973],[135.36539,33.78131],[135.36544,33.78207],[135.36573,33.78232],[135.36609,33.78383],[135.36718,33.78522],[135.36811,33.78594],[135.36918,33.78618],[135.37075,33.78788],[135.37187,33.78858],[135.37279,33.78881],[135.37378,33.78989],[135.375,33.79084],[135.37734,33.79098]]]},"properties":{"key":"302061600","name":"芳養町","pref":"和歌山県","prefCode":"30","municipality":"田辺市","areaM2":6717771.069,"population":1539,"toponymIds":["30-f124e9fe60"]}},{"type":"Feature","geometry":{"type":"Polygon","coordinates":[[[135.40718,33.74756],[135.40554,33.74515],[135.40565,33.74425],[135.40555,33.74385],[135.40411,33.74301],[135.40313,33.74298],[135.40279,33.74198],[135.40292,33.74162],[135.40318,33.74188],[135.40341,33.74181],[135.40312,33.74144],[135.40214,33.74134],[135.40105,33.74156],[135.40035,33.74152],[135.3993,33.74119],[135.40011,33.74062],[135.39904,33.7399],[135.39873,33.73912],[135.39817,33.73891],[135.39791,33.7386],[135.39815,33.7382],[135.3986,33.73793],[135.39876,33.73688],[135.3985,33.73645],[135.39782,33.73586],[135.39784,33.73553],[135.39762,33.73522],[135.3973,33.73537],[135.39727,33.7356],[135.39691,33.73553],[135.39638,33.73592],[135.39595,33.73582],[135.39572,33.73542],[135.39535,33.73528],[135.39502,33.73565],[135.39475,33.73569],[135.39463,33.73597],[135.39347,33.73598],[135.3933,33.73604],[135.39335,33.73618],[135.39308,33.73606],[135.39293,33.73622],[135.3928,33.73588],[135.39253,33.73583],[135.39228,33.73608],[135.39229,33.73644],[135.39154,33.73626],[135.39168,33.7367],[135.39151,33.73702],[135.39123,33.7368],[135.39076,33.73706],[135.39034,33.73678],[135.38982,33.7367],[135.38939,33.73702],[135.38837,33.73689],[135.388,33.73717],[135.38796,33.73755],[135.38706,33.73748],[135.38679,33.73805],[135.38729,33.73838],[135.38802,33.73847],[135.38787,33.73872],[135.38812,33.73885],[135.38818,33.7387],[135.38879,33.73901],[135.38905,33.73926],[135.3888,33.73932],[135.38863,33.7396],[135.38913,33.73993],[135.38872,33.73995],[135.38703,33.74078],[135.38551,33.74115],[135.38548,33.74133],[135.38648,33.74123],[135.38851,33.74278],[135.39081,33.74365],[135.3918,33.74359],[135.39303,33.74311],[135.39711,33.74598],[135.39921,33.74766],[135.39954,33.74775],[135.40044,33.74753],[135.40047,33.74771],[135.40158,33.74747],[135.40398,33.7485],[135.40584,33.74898],[135.40669,33.74854],[135.40738,33.74793],[135.40718,33.74756]]]},"properties":{"key":"302060400","name":"下万呂","pref":"和歌山県","prefCode":"30","municipality":"田辺市","areaM2":1357983.844,"population":2059,"toponymIds":["30-2b634df458"]}},{"type":"Feature","geometry":{"type":"Polygon","coordinates":[[[135.16422,33.88282],[135.16604,33.8829],[135.16621,33.88306],[135.1671,33.88267],[135.1684,33.88297],[135.16846,33.88244],[135.16882,33.88244],[135.16894,33.88219],[135.16941,33.88224],[135.16979,33.88207],[135.16975,33.88156],[135.17033,33.88255],[135.17027,33.883],[135.17087,33.88306],[135.1727,33.88295],[135.17474,33.88198],[135.17747,33.88222],[135.17774,33.88141],[135.1783,33.8815],[135.17856,33.88129],[135.17886,33.88045],[135.17902,33.87834],[135.17945,33.87799],[135.18002,33.87533],[135.18034,33.87503],[135.18068,33.87521],[135.18249,33.87753],[135.18676,33.87742],[135.18805,33.87928],[135.18908,33.88017],[135.18943,33.88114],[135.18996,33.88143],[135.19057,33.88144],[135.19144,33.88081],[135.19193,33.88084],[135.19409,33.88252],[135.19648,33.88257],[135.19805,33.88297],[135.19906,33.88304],[135.19964,33.88205],[135.19939,33.8818],[135.19921,33.87985],[135.19974,33.87935],[135.19984,33.87907],[135.1998,33.87891],[135.1983,33.8785],[135.19684,33.87753],[135.19643,33.877],[135.19621,33.87612],[135.19209,33.87362],[135.19108,33.87244],[135.19059,33.87158],[135.1902,33.87006],[135.19033,33.86925],[135.19081,33.86884],[135.19085,33.86846],[135.19139,33.86778],[135.19102,33.86779],[135.19117,33.86716],[135.19145,33.86675],[135.19135,33.86612],[135.19115,33.86683],[135.19095,33.8669],[135.19046,33.86668],[135.19084,33.86728],[135.19077,33.86758],[135.1899,33.86768],[135.1891,33.86802],[135.18815,33.86982],[135.1879,33.86988],[135.18745,33.86954],[135.18718,33.86953],[135.18726,33.86999],[135.1871,33.87017],[135.18685,33.86993],[135.18592,33.86998],[135.18556,33.8698],[135.18393,33.86983],[135.1827,33.86937],[135.18188,33.8699],[135.18171,33.8702],[135.18129,33.87009],[135.1809,33.87031],[135.18047,33.87014],[135.18023,33.8703],[135.17948,33.8699],[135.17928,33.87034],[135.17808,33.87095],[135.17697,33.87056],[135.17634,33.87061],[135.17563,33.87021],[135.17516,33.86949],[135.1745,33.8692],[135.17404,33.86849],[135.17342,33.86803],[135.1729,33.86721],[135.17241,33.86691],[135.17117,33.86677],[135.16821,33.86759],[135.16627,33.86715],[135.16599,33.86724],[135.16489,33.86844],[135.16329,33.86947],[135.15855,33.86846],[135.158,33.86961],[135.15819,33.86967],[135.15807,33.86992],[135.15663,33.86943],[135.15701,33.86844],[135.15654,33.86948],[135.15728,33.8697],[135.15728,33.87002],[135.15638,33.87202],[135.15586,33.87264],[135.15372,33.87448],[135.15228,33.87548],[135.15511,33.87731],[135.16109,33.88187],[135.16208,33.88359],[135.16422,33.88282]]]},"properties":{"key":"302050140","name":"塩屋町北塩屋","pref":"和歌山県","prefCode":"30","municipality":"御坊市","areaM2":4815852.171,"population":1184,"toponymIds":["30-9585e2e33b"]}},{"type":"Feature","geometry":{"type":"Polygon","coordinates":[[[135.82132,33.76322],[135.82183,33.76307],[135.82274,33.76314],[135.82502,33.76354],[135.82573,33.76337],[135.82603,33.76244],[135.82656,33.76165],[135.82736,33.76161],[135.82775,33.76174],[135.82753,33.76257],[135.82766,33.76283],[135.82809,33.76303],[135.82854,33.76282],[135.82882,33.76291],[135.82906,33.76471],[135.82935,33.76508],[135.83011,33.76526],[135.83026,33.76629],[135.83049,33.76659],[135.83193,33.76689],[135.8323,33.76655],[135.83269,33.76577],[135.83439,33.76489],[135.83502,33.76473],[135.83618,33.76504],[135.83711,33.76572],[135.83791,33.76573],[135.83823,33.7655],[135.83825,33.76516],[135.8379,33.76447],[135.83717,33.76405],[135.8363,33.76393],[135.83598,33.76361],[135.83608,33.76327],[135.83788,33.76288],[135.83936,33.76231],[135.84017,33.7614],[135.84047,33.76083],[135.8399,33.75968],[135.83994,33.75919],[135.84022,33.75867],[135.84153,33.75766],[135.84379,33.75749],[135.84405,33.75729],[135.84382,33.75571],[135.844,33.75544],[135.84454,33.75515],[135.845,33.75379],[135.84695,33.75352],[135.84715,33.75336],[135.84699,33.75295],[135.84667,33.7526],[135.84481,33.75254],[135.84378,33.75232],[135.83995,33.7512],[135.83994,33.75105],[135.84066,33.75081],[135.84246,33.74961],[135.84307,33.74784],[135.84302,33.74694],[135.84281,33.74638],[135.84064,33.74531],[135.8402,33.7447],[135.84007,33.74323],[135.83971,33.74261],[135.83836,33.74313],[135.83683,33.74414],[135.83408,33.74639],[135.83376,33.74705],[135.83268,33.7475],[135.8314,33.74827],[135.82986,33.74962],[135.82928,33.7494],[135.82887,33.74954],[135.82902,33.75097],[135.82858,33.75149],[135.82755,33.75184],[135.82566,33.75209],[135.82473,33.75202],[135.82395,33.75179],[135.82288,33.7511],[135.82141,33.75072],[135.81984,33.75074],[135.81795,33.751],[135.81725,33.75131],[135.81503,33.75144],[135.81352,33.75193],[135.81297,33.75229],[135.81245,33.75313],[135.81069,33.75462],[135.80886,33.75711],[135.80822,33.75846],[135.80824,33.76139],[135.80853,33.76238],[135.80968,33.76422],[135.8109,33.7634],[135.81133,33.76245],[135.81209,33.7614],[135.81329,33.7614],[135.814,33.76158],[135.8148,33.76243],[135.81471,33.76276],[135.81449,33.76308],[135.81359,33.76322],[135.81308,33.7636],[135.81289,33.7641],[135.81289,33.76513],[135.81259,33.76561],[135.81169,33.76634],[135.81164,33.76656],[135.81196,33.76676],[135.8127,33.76683],[135.81343,33.76731],[135.81418,33.76812],[135.81458,33.76824],[135.81552,33.76771],[135.81682,33.76668],[135.81799,33.76614],[135.81915,33.76591],[135.81944,33.76545],[135.81916,33.76462],[135.81917,33.76359],[135.81985,33.76331],[135.82132,33.76322]]]},"properties":{"key":"302070430","name":"熊野川町西","pref":"和歌山県","prefCode":"30","municipality":"新宮市","areaM2":5091038.139,"population":70,"toponymIds":["30-3329b2f074"]}},{"type":"Feature","geometry":{"type":"Polygon","coordinates":[[[135.75245,33.83179],[135.75106,33.82975],[135.74987,33.82724],[135.74905,33.82599],[135.74767,33.82608],[135.74671,33.82653],[135.74644,33.82686],[135.74604,33.82871],[135.74617,33.82936],[135.74743,33.83097],[135.74954,33.83315],[135.75014,33.83279],[135.75144,33.83257],[135.75245,33.83179]]]},"properties":{"key":"302068600","name":"本宮町久保野","pref":"和歌山県","prefCode":"30","municipality":"田辺市","areaM2":269099.033,"population":46,"toponymIds":["30-6279ebe221"]}},{"type":"Feature","geometry":{"type":"Polygon","coordinates":[[[135.56676,34.05765],[135.5674,34.05756],[135.57005,34.05847],[135.57219,34.05853],[135.57403,34.05881],[135.57498,34.05881],[135.57719,34.05822],[135.57792,34.05816],[135.57938,34.05835],[135.58015,34.05821],[135.58035,34.05792],[135.58055,34.05684],[135.58141,34.05573],[135.58171,34.05427],[135.5838,34.05153],[135.58442,34.05017],[135.58479,34.04973],[135.58664,34.0487],[135.58749,34.04698],[135.58815,34.04672],[135.59155,34.04675],[135.59243,34.04619],[135.59458,34.04411],[135.59488,34.04341],[135.5947,34.04207],[135.59488,34.04069],[135.59464,34.03989],[135.59464,34.03931],[135.5952,34.03857],[135.59556,34.03716],[135.59586,34.03684],[135.59666,34.0366],[135.59724,34.03612],[135.5976,34.03566],[135.59781,34.03473],[135.59906,34.03349],[135.59948,34.03231],[135.59941,34.03176],[135.59739,34.03082],[135.59589,34.0299],[135.59481,34.02871],[135.59467,34.02776],[135.5948,34.02735],[135.59575,34.02613],[135.59592,34.0255],[135.59585,34.0239],[135.59559,34.02325],[135.59473,34.02218],[135.5934,34.02116],[135.59188,34.01949],[135.59185,34.01883],[135.59279,34.01688],[135.59359,34.01368],[135.59445,34.01234],[135.59556,34.01163],[135.5957,34.01169],[135.5948,34.00776],[135.59323,34.00512],[135.59308,34.00445],[135.59313,34.00346],[135.59283,34.00275],[135.59165,34.00145],[135.5915,34.00099],[135.59146,33.99942],[135.59113,33.99912],[135.59006,33.99865],[135.58978,33.99822],[135.5896,33.99695],[135.58934,33.99646],[135.58807,33.99537],[135.58699,33.99469],[135.58586,33.99336],[135.58491,33.99167],[135.58213,33.9891],[135.58095,33.98714],[135.57957,33.98389],[135.57791,33.98209],[135.5774,33.98127],[135.57723,33.97952],[135.57664,33.97915],[135.57639,33.97883],[135.57612,33.97792],[135.57513,33.97692],[135.57458,33.97504],[135.57519,33.97324],[135.5752,33.9728],[135.57508,33.97206],[135.57428,33.97028],[135.57391,33.96807],[135.57358,33.96717],[135.57361,33.96675],[135.57522,33.96428],[135.57535,33.96375],[135.57523,33.96324],[135.57474,33.96267],[135.5741,33.96225],[135.57325,33.96195],[135.57178,33.96173],[135.57124,33.96155],[135.57069,33.96112],[135.57039,33.96044],[135.57005,33.95808],[135.56919,33.95604],[135.56826,33.95476],[135.56657,33.95517],[135.56583,33.95519],[135.56501,33.95493],[135.56063,33.95233],[135.55944,33.9522],[135.55893,33.95225],[135.55767,33.95275],[135.55661,33.95365],[135.55579,33.95408],[135.55522,33.95483],[135.55506,33.9557],[135.55534,33.95685],[135.55487,33.95775],[135.55465,33.9592],[135.55362,33.95976],[135.55286,33.96046],[135.55236,33.96239],[135.54981,33.96866],[135.54981,33.96931],[135.54998,33.96979],[135.55092,33.97111],[135.55012,33.9714],[135.54883,33.97259],[135.54771,33.97288],[135.54777,33.97337],[135.54659,33.97438],[135.54544,33.97514],[135.54301,33.9762],[135.54253,33.97678],[135.54251,33.97829],[135.54305,33.97896],[135.54335,33.97997],[135.54264,33.98091],[135.5407,33.98465],[135.54069,33.98508],[135.54119,33.98559],[135.54128,33.9861],[135.53991,33.98828],[135.53934,33.98952],[135.53827,33.99083],[135.53721,33.99182],[135.53737,33.99289],[135.53719,33.99359],[135.53687,33.99409],[135.53404,33.99537],[135.53394,33.99585],[135.53303,33.99685],[135.53142,33.99717],[135.53013,33.9978],[135.5297,33.9986],[135.52962,33.99901],[135.53155,34.0014],[135.53231,34.00186],[135.53311,34.00334],[135.53496,34.0041],[135.53531,34.00449],[135.53567,34.00562],[135.53619,34.00618],[135.53639,34.00693],[135.5373,34.00792],[135.53752,34.01008],[135.5384,34.01078],[135.53821,34.01184],[135.53792,34.01221],[135.53561,34.01273],[135.53531,34.01294],[135.53478,34.01353],[135.5335,34.0158],[135.53367,34.01687],[135.53278,34.01812],[135.53146,34.0195],[135.53063,34.01984],[135.5298,34.01979],[135.52935,34.02001],[135.52874,34.0218],[135.52825,34.02244],[135.52728,34.02269],[135.52641,34.02271],[135.52597,34.02298],[135.5215,34.02343],[135.52021,34.02343],[135.51959,34.02321],[135.51612,34.02284],[135.51486,34.02297],[135.51319,34.02253],[135.51261,34.02253],[135.5115,34.02298],[135.51038,34.02315],[135.50791,34.02425],[135.50779,34.02481],[135.50834,34.02603],[135.50834,34.02661],[135.50779,34.02753],[135.50759,34.02874],[135.50772,34.03272],[135.50752,34.03392],[135.50817,34.03539],[135.50829,34.0361],[135.50813,34.03645],[135.50755,34.03702],[135.50529,34.03782],[135.50475,34.03876],[135.50475,34.03963],[135.50497,34.04203],[135.50516,34.04282],[135.50565,34.04355],[135.50571,34.04432],[135.50628,34.045],[135.5069,34.04533],[135.50789,34.04554],[135.50869,34.04597],[135.50919,34.04654],[135.51013,34.04644],[135.51098,34.04564],[135.51314,34.04588],[135.51429,34.04644],[135.51648,34.04664],[135.51716,34.04692],[135.51847,34.04792],[135.52269,34.04788],[135.52379,34.04805],[135.52629,34.04806],[135.52816,34.04769],[135.52947,34.04806],[135.53102,34.0482],[135.53237,34.04871],[135.53428,34.05036],[135.53528,34.05086],[135.53598,34.05188],[135.53609,34.05282],[135.53638,34.0532],[135.53684,34.05506],[135.53837,34.05783],[135.53824,34.05838],[135.53782,34.05887],[135.53787,34.05953],[135.54031,34.06049],[135.54197,34.06159],[135.54261,34.06182],[135.54334,34.06397],[135.54436,34.06442],[135.5456,34.06548],[135.54607,34.06565],[135.54708,34.06693],[135.54765,34.0672],[135.54805,34.0682],[135.54828,34.06833],[135.55099,34.06865],[135.5515,34.0663],[135.55179,34.06587],[135.55527,34.0644],[135.55622,34.06426],[135.55741,34.06382],[135.56235,34.06367],[135.56419,34.06325],[135.56455,34.06284],[135.56476,34.06223],[135.56509,34.05974],[135.56613,34.05866],[135.56676,34.05765]]]},"properties":{"key":"302067820","name":"龍神村龍神","pref":"和歌山県","prefCode":"30","municipality":"田辺市","areaM2":58759891.082,"population":124,"toponymIds":["30-3312c2d943"]}},{"type":"Feature","geometry":{"type":"Polygon","coordinates":[[[135.61255,33.95194],[135.614,33.95168],[135.61599,33.95185],[135.61586,33.94938],[135.61542,33.94866],[135.61543,33.94839],[135.6158,33.94743],[135.61748,33.94624],[135.61784,33.94579],[135.61835,33.94415],[135.61858,33.94165],[135.61829,33.94096],[135.61695,33.93942],[135.6167,33.93876],[135.6168,33.93817],[135.61721,33.9375],[135.61709,33.93708],[135.61666,33.93689],[135.61512,33.93681],[135.61414,33.93741],[135.61371,33.9375],[135.61282,33.93738],[135.61125,33.93682],[135.61078,33.93622],[135.61073,33.93508],[135.60975,33.93263],[135.60971,33.93208],[135.6099,33.93163],[135.61267,33.9299],[135.6131,33.92868],[135.61364,33.92777],[135.61408,33.92531],[135.61229,33.92384],[135.6123,33.92233],[135.6127,33.92149],[135.61151,33.91979],[135.61121,33.919],[135.61068,33.91839],[135.61074,33.91725],[135.61004,33.91534],[135.61051,33.91384],[135.61053,33.91325],[135.61028,33.9128],[135.60989,33.91258],[135.60776,33.91252],[135.60519,33.91063],[135.60003,33.90841],[135.60003,33.90803],[135.60158,33.90562],[135.60168,33.90476],[135.60142,33.90332],[135.60117,33.90287],[135.60082,33.9026],[135.59829,33.90197],[135.59683,33.90143],[135.59632,33.90116],[135.59472,33.89964],[135.59325,33.89901],[135.59177,33.89721],[135.59152,33.89541],[135.59065,33.8935],[135.58988,33.89007],[135.58517,33.89011],[135.58464,33.89041],[135.58359,33.89064],[135.58236,33.89051],[135.58187,33.89067],[135.58167,33.89052],[135.58168,33.88999],[135.58143,33.8894],[135.57827,33.8872],[135.5773,33.88597],[135.57511,33.88535],[135.57328,33.88429],[135.57127,33.88504],[135.56939,33.88541],[135.56871,33.88645],[135.56813,33.88786],[135.56755,33.88834],[135.5658,33.88922],[135.56428,33.89084],[135.56333,33.89128],[135.56066,33.89182],[135.55993,33.89212],[135.55816,33.8936],[135.55636,33.89478],[135.55423,33.89561],[135.54899,33.89589],[135.54807,33.89619],[135.54767,33.8965],[135.54753,33.8967],[135.5482,33.8968],[135.54855,33.89704],[135.54918,33.89814],[135.54975,33.89828],[135.55181,33.89792],[135.55256,33.89805],[135.55342,33.89931],[135.55403,33.89986],[135.55518,33.90036],[135.55731,33.90063],[135.55797,33.90089],[135.55941,33.90245],[135.56087,33.90299],[135.56285,33.90458],[135.56457,33.90569],[135.56616,33.90603],[135.56838,33.90573],[135.56983,33.90654],[135.5715,33.9068],[135.57245,33.90764],[135.57341,33.90758],[135.57392,33.90778],[135.57517,33.9095],[135.57524,33.91053],[135.57494,33.91111],[135.57478,33.91279],[135.57406,33.91432],[135.57474,33.91543],[135.57495,33.91611],[135.57519,33.91634],[135.57643,33.91676],[135.57976,33.91718],[135.58025,33.91757],[135.58061,33.91821],[135.58165,33.91884],[135.58206,33.91932],[135.58185,33.92019],[135.57984,33.92251],[135.57956,33.92437],[135.57964,33.92481],[135.58155,33.92673],[135.58171,33.92766],[135.58148,33.92875],[135.58344,33.9288],[135.58593,33.92928],[135.58774,33.93016],[135.58871,33.9303],[135.58918,33.93083],[135.58945,33.93422],[135.58989,33.93626],[135.59007,33.93651],[135.59255,33.93697],[135.59855,33.9387],[135.59995,33.93936],[135.60072,33.94019],[135.60184,33.94232],[135.60428,33.94471],[135.60518,33.94594],[135.60573,33.9475],[135.60652,33.94845],[135.60651,33.95013],[135.60756,33.95177],[135.60834,33.95244],[135.60918,33.95264],[135.61042,33.95256],[135.61255,33.95194]]]},"properties":{"key":"302067880","name":"龍神村丹生ノ川","pref":"和歌山県","prefCode":"30","municipality":"田辺市","areaM2":18019962.392,"population":36,"toponymIds":["30-b2c5294b77"]}},{"type":"Feature","geometry":{"type":"Polygon","coordinates":[[[135.71454,33.80422],[135.71532,33.80338],[135.71918,33.80199],[135.71994,33.80136],[135.72026,33.80077],[135.72082,33.79884],[135.72136,33.79794],[135.7222,33.79705],[135.72245,33.7964],[135.723,33.79609],[135.72449,33.79614],[135.72486,33.79602],[135.72369,33.79354],[135.7235,33.79266],[135.72359,33.79065],[135.7214,33.78754],[135.72005,33.78656],[135.71979,33.78612],[135.71927,33.78605],[135.71786,33.7875],[135.71724,33.78786],[135.71672,33.78781],[135.71624,33.78752],[135.71593,33.78709],[135.71571,33.78634],[135.71459,33.78419],[135.71363,33.78318],[135.71188,33.78214],[135.70948,33.78114],[135.70798,33.78001],[135.70755,33.77988],[135.70435,33.78025],[135.7037,33.78015],[135.70119,33.77916],[135.70015,33.77918],[135.6989,33.77968],[135.6984,33.78009],[135.69741,33.78139],[135.69583,33.78266],[135.69543,33.78276],[135.69407,33.78258],[135.69088,33.78298],[135.68755,33.78248],[135.68616,33.78218],[135.68355,33.7813],[135.68296,33.78089],[135.68055,33.77982],[135.67987,33.78016],[135.67813,33.7804],[135.67726,33.78095],[135.67289,33.78166],[135.6712,33.78258],[135.67029,33.78364],[135.66971,33.78403],[135.66959,33.78429],[135.66979,33.7853],[135.66918,33.78547],[135.66809,33.78686],[135.66771,33.78783],[135.66713,33.78842],[135.66589,33.78883],[135.66577,33.79143],[135.66486,33.79269],[135.66456,33.79375],[135.66458,33.79421],[135.66544,33.79481],[135.66602,33.79702],[135.66554,33.79913],[135.67024,33.80055],[135.672,33.80068],[135.67403,33.80005],[135.67447,33.8001],[135.67523,33.80062],[135.67616,33.8007],[135.67767,33.80067],[135.67883,33.80043],[135.6825,33.79801],[135.68359,33.79777],[135.68575,33.79676],[135.68603,33.79678],[135.68633,33.79705],[135.68708,33.79826],[135.68797,33.79832],[135.68998,33.79804],[135.69047,33.79811],[135.69185,33.7988],[135.69435,33.79862],[135.69573,33.79922],[135.69748,33.7988],[135.69964,33.79784],[135.70054,33.79766],[135.70362,33.79772],[135.70408,33.79782],[135.70581,33.79987],[135.70834,33.80206],[135.70947,33.80349],[135.71052,33.8053],[135.71114,33.80596],[135.71152,33.80611],[135.71178,33.80596],[135.71181,33.80564],[135.71088,33.80331],[135.71077,33.80247],[135.71094,33.80211],[135.7114,33.8022],[135.71331,33.80374],[135.71454,33.80422]]]},"properties":{"key":"302068620","name":"本宮町野竹","pref":"和歌山県","prefCode":"30","municipality":"田辺市","areaM2":10208538.696,"population":7,"toponymIds":["30-995fd3ab37"]}},{"type":"Feature","geometry":{"type":"Polygon","coordinates":[[[135.61397,33.79156],[135.61697,33.78889],[135.61683,33.78868],[135.6141,33.78775],[135.61299,33.78719],[135.61203,33.7864],[135.61076,33.78445],[135.6105,33.78356],[135.61041,33.78262],[135.61091,33.78078],[135.60872,33.78114],[135.60713,33.78078],[135.60592,33.77988],[135.60399,33.77788],[135.60322,33.77698],[135.60278,33.77612],[135.60264,33.775],[135.60327,33.77403],[135.60238,33.77187],[135.60291,33.77118],[135.60425,33.7703],[135.6046,33.76966],[135.60384,33.76818],[135.60341,33.76626],[135.60353,33.76589],[135.60384,33.76559],[135.60548,33.7644],[135.60634,33.76301],[135.60554,33.76087],[135.6045,33.75904],[135.60335,33.7588],[135.60206,33.75813],[135.6001,33.75475],[135.59747,33.75485],[135.59584,33.75474],[135.59405,33.75451],[135.59293,33.75414],[135.59222,33.75367],[135.59199,33.75334],[135.59156,33.75205],[135.5898,33.75045],[135.58953,33.75039],[135.58793,33.75071],[135.58516,33.75184],[135.58027,33.75202],[135.57681,33.75179],[135.57564,33.75224],[135.57511,33.75264],[135.57429,33.7542],[135.57299,33.75591],[135.57257,33.75699],[135.57279,33.75807],[135.57421,33.75981],[135.57453,33.76069],[135.57403,33.76206],[135.57277,33.76371],[135.573,33.76369],[135.57283,33.76438],[135.57309,33.76502],[135.57313,33.7659],[135.57476,33.76671],[135.57441,33.76799],[135.57452,33.7695],[135.57435,33.76982],[135.5749,33.77007],[135.57566,33.77088],[135.57627,33.77193],[135.5771,33.77237],[135.57803,33.77375],[135.57977,33.77371],[135.58037,33.77404],[135.58112,33.77415],[135.58182,33.77458],[135.58425,33.77471],[135.5851,33.7758],[135.58526,33.77715],[135.58444,33.7778],[135.58334,33.77912],[135.58269,33.78033],[135.58274,33.78154],[135.58243,33.7824],[135.58264,33.78292],[135.584,33.78279],[135.587,33.78316],[135.58921,33.7837],[135.58987,33.78409],[135.59087,33.7838],[135.59159,33.7838],[135.5927,33.78312],[135.59369,33.78358],[135.59445,33.78426],[135.59529,33.78465],[135.59581,33.78527],[135.59585,33.78582],[135.59659,33.78733],[135.59702,33.78899],[135.59781,33.78965],[135.59798,33.79071],[135.59733,33.79238],[135.59752,33.79326],[135.59813,33.79441],[135.59884,33.79443],[135.59978,33.79416],[135.60035,33.79428],[135.60167,33.79384],[135.60299,33.79366],[135.60463,33.79258],[135.60522,33.79196],[135.6069,33.79139],[135.60838,33.79187],[135.60914,33.7924],[135.60935,33.79272],[135.60926,33.79342],[135.61016,33.7949],[135.61147,33.79576],[135.61197,33.79582],[135.61182,33.79464],[135.61205,33.79345],[135.61299,33.79219],[135.61397,33.79156]]]},"properties":{"key":"302068180","name":"平瀬","pref":"和歌山県","prefCode":"30","municipality":"田辺市","areaM2":10247450.362,"population":123,"toponymIds":["30-220285c7c4"]}},{"type":"Feature","geometry":{"type":"Polygon","coordinates":[[[135.59018,33.70316],[135.59016,33.70231],[135.59031,33.70208],[135.59146,33.70095],[135.59359,33.69842],[135.59641,33.69631],[135.59795,33.69398],[135.59862,33.69364],[135.60193,33.69327],[135.60395,33.69287],[135.60729,33.6916],[135.6087,33.69132],[135.60679,33.68752],[135.60599,33.68471],[135.60449,33.68316],[135.60366,33.68162],[135.60328,33.68018],[135.60303,33.67636],[135.60071,33.67642],[135.59847,33.67608],[135.59757,33.67639],[135.5955,33.67788],[135.59419,33.67824],[135.59358,33.67824],[135.5915,33.67754],[135.5879,33.67552],[135.58754,33.67538],[135.58664,33.67545],[135.5858,33.67586],[135.58536,33.67635],[135.58353,33.67943],[135.58256,33.68047],[135.5818,33.68183],[135.58076,33.68289],[135.57933,33.68346],[135.57752,33.68305],[135.57714,33.68328],[135.57747,33.68502],[135.57769,33.68542],[135.58076,33.68778],[135.58142,33.68848],[135.5824,33.69002],[135.58272,33.69129],[135.58247,33.69305],[135.58314,33.6947],[135.58315,33.69517],[135.58443,33.69607],[135.58734,33.6976],[135.58862,33.70106],[135.59018,33.70316]]]},"properties":{"key":"302068270","name":"面川","pref":"和歌山県","prefCode":"30","municipality":"田辺市","areaM2":4838321.998,"population":23,"toponymIds":["30-9599f1fc57"]}},{"type":"Feature","geometry":{"type":"Polygon","coordinates":[[[135.44366,33.94619],[135.44558,33.94633],[135.44707,33.946],[135.44822,33.94625],[135.44995,33.94595],[135.45081,33.9461],[135.45258,33.94592],[135.45449,33.94642],[135.45621,33.94608],[135.45783,33.94518],[135.45826,33.94447],[135.45866,33.94254],[135.45917,33.94189],[135.45996,33.94157],[135.46098,33.94154],[135.46172,33.94104],[135.46221,33.94006],[135.46266,33.9377],[135.46109,33.93706],[135.45907,33.93595],[135.45734,33.93591],[135.45686,33.93575],[135.456,33.93478],[135.45468,33.9343],[135.45374,33.9337],[135.45331,33.93316],[135.45277,33.9319],[135.44918,33.92982],[135.44838,33.92871],[135.44751,33.92951],[135.44533,33.93031],[135.4439,33.93039],[135.44125,33.9302],[135.43994,33.93067],[135.43758,33.93106],[135.43624,33.93079],[135.43574,33.93042],[135.43519,33.9296],[135.43399,33.92936],[135.43339,33.92907],[135.4331,33.92874],[135.43181,33.92851],[135.43059,33.92803],[135.42961,33.92735],[135.42694,33.9261],[135.42511,33.92381],[135.42218,33.92158],[135.42236,33.92106],[135.42293,33.92072],[135.42269,33.91991],[135.4231,33.91911],[135.42258,33.91811],[135.42124,33.91766],[135.42097,33.91737],[135.42025,33.91468],[135.41951,33.91457],[135.41922,33.91425],[135.41925,33.9141],[135.41984,33.91376],[135.41973,33.91341],[135.41897,33.91308],[135.41813,33.91314],[135.41773,33.9128],[135.41719,33.913],[135.4166,33.91296],[135.41551,33.91267],[135.41517,33.91244],[135.41443,33.91242],[135.41417,33.91229],[135.41374,33.9115],[135.41211,33.91146],[135.41146,33.91091],[135.4106,33.91086],[135.40927,33.90948],[135.40806,33.90882],[135.40719,33.90852],[135.40592,33.90852],[135.40553,33.90837],[135.40438,33.90708],[135.40409,33.90653],[135.40247,33.90574],[135.4014,33.90455],[135.40076,33.90412],[135.39895,33.90379],[135.3967,33.90403],[135.39755,33.90506],[135.39776,33.90602],[135.39804,33.90642],[135.39789,33.90669],[135.39715,33.90688],[135.3964,33.90734],[135.39553,33.9075],[135.39481,33.90812],[135.39519,33.90882],[135.3951,33.91045],[135.39545,33.91146],[135.39563,33.91383],[135.39598,33.91491],[135.39589,33.91523],[135.3932,33.91689],[135.39382,33.91779],[135.39365,33.91926],[135.3939,33.91999],[135.3934,33.92078],[135.3936,33.92176],[135.39449,33.92264],[135.39618,33.92352],[135.39822,33.92522],[135.39829,33.92576],[135.39782,33.92767],[135.39769,33.92971],[135.39898,33.93003],[135.4001,33.93011],[135.40158,33.93063],[135.40288,33.93045],[135.4053,33.92976],[135.40692,33.92984],[135.40857,33.9297],[135.4112,33.93021],[135.41252,33.92981],[135.41532,33.93098],[135.41724,33.93288],[135.41825,33.93353],[135.41859,33.93488],[135.41844,33.93596],[135.41796,33.93702],[135.41798,33.93785],[135.41851,33.93891],[135.41967,33.93965],[135.41982,33.94013],[135.41967,33.94075],[135.4198,33.9412],[135.42137,33.94287],[135.42262,33.94464],[135.42462,33.94615],[135.42579,33.94609],[135.42608,33.94559],[135.42934,33.94423],[135.43073,33.94434],[135.43318,33.94554],[135.43349,33.94549],[135.43375,33.94528],[135.4337,33.94503],[135.43256,33.94386],[135.43066,33.9411],[135.43088,33.94067],[135.43174,33.94006],[135.433,33.93992],[135.43444,33.94038],[135.43482,33.94168],[135.43542,33.94225],[135.43852,33.94367],[135.4384,33.94446],[135.43853,33.94498],[135.43929,33.94571],[135.43951,33.94619],[135.44032,33.94669],[135.44061,33.9473],[135.44366,33.94619]]]},"properties":{"key":"302067960","name":"龍神村小家","pref":"和歌山県","prefCode":"30","municipality":"田辺市","areaM2":12055511.922,"population":112,"toponymIds":["30-f40d6ac239"]}},{"type":"Feature","geometry":{"type":"Polygon","coordinates":[[[135.44857,33.89762],[135.44936,33.8972],[135.44976,33.89682],[135.45044,33.89569],[135.45114,33.89538],[135.45142,33.89508],[135.45169,33.89371],[135.45187,33.8936],[135.45404,33.8938],[135.45513,33.89355],[135.45601,33.89361],[135.45708,33.89326],[135.4585,33.8934],[135.45969,33.89292],[135.46044,33.8929],[135.46159,33.89259],[135.46337,33.89264],[135.46429,33.89294],[135.46637,33.8932],[135.46873,33.89383],[135.46665,33.89225],[135.46594,33.8914],[135.4659,33.88868],[135.46485,33.88767],[135.46498,33.88683],[135.46485,33.88638],[135.46328,33.88225],[135.46239,33.88063],[135.4617,33.87793],[135.46117,33.87741],[135.46089,33.8774],[135.46001,33.87784],[135.4586,33.87948],[135.45777,33.88012],[135.45686,33.88049],[135.45508,33.88072],[135.45448,33.8826],[135.454,33.88345],[135.4531,33.88315],[135.45177,33.88213],[135.44779,33.88102],[135.44607,33.88031],[135.44439,33.88011],[135.44291,33.87962],[135.44064,33.87963],[135.43956,33.87993],[135.43847,33.88001],[135.4375,33.87982],[135.43705,33.87936],[135.43633,33.87784],[135.43505,33.87708],[135.43345,33.87673],[135.43105,33.87681],[135.43078,33.87753],[135.42951,33.87862],[135.42882,33.87988],[135.42817,33.88054],[135.42736,33.88082],[135.42672,33.88077],[135.42558,33.87992],[135.42522,33.87992],[135.42501,33.88057],[135.42402,33.88156],[135.42332,33.88164],[135.42256,33.88133],[135.42165,33.87997],[135.42124,33.87961],[135.4208,33.87976],[135.42036,33.88027],[135.41821,33.88026],[135.4159,33.87942],[135.41425,33.88049],[135.41357,33.88077],[135.41262,33.88071],[135.41096,33.88119],[135.40959,33.88209],[135.40745,33.88151],[135.40684,33.8815],[135.40527,33.88332],[135.40413,33.88407],[135.40317,33.88579],[135.40234,33.8865],[135.40158,33.88762],[135.40091,33.88787],[135.4009,33.88827],[135.402,33.88929],[135.40216,33.88969],[135.40357,33.88948],[135.40429,33.88882],[135.40536,33.88887],[135.40625,33.88867],[135.40705,33.88893],[135.40787,33.88861],[135.4096,33.88959],[135.41021,33.89033],[135.41063,33.89041],[135.41194,33.8895],[135.41299,33.88926],[135.41353,33.88933],[135.41626,33.89052],[135.41681,33.89106],[135.41871,33.89204],[135.42197,33.89344],[135.42423,33.89328],[135.42555,33.89385],[135.42722,33.89362],[135.42845,33.89487],[135.42915,33.89595],[135.42953,33.89628],[135.43107,33.8969],[135.43229,33.89691],[135.43371,33.89751],[135.43483,33.89752],[135.43512,33.89779],[135.43534,33.89828],[135.43513,33.89919],[135.43525,33.90094],[135.43749,33.90252],[135.43875,33.90542],[135.43952,33.90579],[135.44234,33.90537],[135.44307,33.90512],[135.44344,33.90247],[135.44382,33.90172],[135.44474,33.90079],[135.44708,33.89972],[135.44743,33.89834],[135.44777,33.89799],[135.44857,33.89762]]]},"properties":{"key":"302067940","name":"龍神村福井","pref":"和歌山県","prefCode":"30","municipality":"田辺市","areaM2":9318096.663,"population":439,"toponymIds":["30-e3bca16a0a"]}},{"type":"Feature","geometry":{"type":"Polygon","coordinates":[[[135.22296,34.1912],[135.22282,34.19089],[135.22216,34.19106],[135.22192,34.19018],[135.22116,34.19009],[135.22031,34.1905],[135.21996,34.19119],[135.22012,34.19125],[135.22,34.19189],[135.21962,34.19219],[135.22239,34.19266],[135.22262,34.19154],[135.22273,34.19129],[135.22296,34.1912]]]},"properties":{"key":"302014400","name":"朝日","pref":"和歌山県","prefCode":"30","municipality":"和歌山市","areaM2":54253.578,"population":0,"toponymIds":["30-bf8caa85ee"]}},{"type":"Feature","geometry":{"type":"Polygon","coordinates":[[[135.23497,34.19816],[135.23495,34.19804],[135.2358,34.19844],[135.23598,34.19759],[135.23544,34.19705],[135.23496,34.19682],[135.23622,34.19472],[135.23546,34.19444],[135.23502,34.19484],[135.23448,34.19473],[135.23439,34.19502],[135.23452,34.19523],[135.23381,34.19533],[135.23376,34.19471],[135.23326,34.19434],[135.23313,34.19402],[135.2303,34.19406],[135.22906,34.19431],[135.22909,34.19404],[135.22934,34.19403],[135.22937,34.19361],[135.22755,34.19385],[135.22759,34.19346],[135.22611,34.19341],[135.22613,34.19299],[135.22528,34.19288],[135.22428,34.19223],[135.22419,34.19264],[135.22324,34.19251],[135.22317,34.19276],[135.22084,34.19241],[135.2202,34.19564],[135.21893,34.19557],[135.21884,34.19602],[135.21823,34.19595],[135.21809,34.19764],[135.21967,34.1974],[135.21971,34.19728],[135.22666,34.19827],[135.22689,34.19738],[135.22748,34.19739],[135.22839,34.19774],[135.22968,34.19755],[135.22991,34.20248],[135.23122,34.20226],[135.23207,34.20106],[135.23312,34.20077],[135.23357,34.1999],[135.23479,34.19921],[135.23511,34.1987],[135.23497,34.19816]]]},"properties":{"key":"302014410","name":"井戸","pref":"和歌山県","prefCode":"30","municipality":"和歌山市","areaM2":867796.892,"population":622,"toponymIds":["30-4f610f844f"]}},{"type":"Feature","geometry":{"type":"Polygon","coordinates":[[[135.16817,34.20451],[135.1687,34.20444],[135.16895,34.20565],[135.16969,34.20558],[135.16942,34.20404],[135.16862,34.20401],[135.16864,34.20417],[135.16782,34.20425],[135.16771,34.20377],[135.16539,34.20406],[135.1655,34.20455],[135.16505,34.20462],[135.16547,34.20624],[135.16591,34.20676],[135.16592,34.20737],[135.16835,34.20706],[135.16803,34.20538],[135.16826,34.20534],[135.16817,34.20451]]]},"properties":{"key":"30201298001","name":"松ケ丘一丁目","pref":"和歌山県","prefCode":"30","municipality":"和歌山市","areaM2":105377.56,"population":700,"toponymIds":["30-17542479ec"]}},{"type":"Feature","geometry":{"type":"Polygon","coordinates":[[[135.1622,34.19184],[135.16261,34.19181],[135.16189,34.19148],[135.16185,34.19075],[135.1625,34.19045],[135.16288,34.19007],[135.1634,34.18901],[135.16404,34.18925],[135.16453,34.18925],[135.16337,34.18757],[135.16305,34.18793],[135.16284,34.18795],[135.16216,34.18755],[135.16252,34.1871],[135.16181,34.18669],[135.16116,34.18745],[135.16095,34.18734],[135.1608,34.18752],[135.16025,34.1872],[135.16043,34.18699],[135.16039,34.18645],[135.16115,34.18558],[135.16273,34.18495],[135.16301,34.18465],[135.16106,34.18552],[135.15997,34.18682],[135.15984,34.18667],[135.15872,34.18673],[135.15835,34.18636],[135.15843,34.18617],[135.15788,34.18605],[135.15766,34.1858],[135.15777,34.18534],[135.15729,34.18544],[135.15684,34.18521],[135.15677,34.18465],[135.15482,34.18457],[135.15455,34.18387],[135.15409,34.18391],[135.15403,34.1842],[135.15455,34.18596],[135.15464,34.18683],[135.15481,34.18734],[135.1554,34.18816],[135.15568,34.18839],[135.15584,34.18809],[135.1561,34.18818],[135.15756,34.18922],[135.15898,34.18977],[135.16013,34.19049],[135.16139,34.19169],[135.16127,34.19186],[135.16135,34.19202],[135.1622,34.19184]]]},"properties":{"key":"302014270","name":"新和歌浦","pref":"和歌山県","prefCode":"30","municipality":"和歌山市","areaM2":329399.669,"population":329,"toponymIds":["30-58fae2b5a9"]}},{"type":"Feature","geometry":{"type":"Polygon","coordinates":[[[135.13681,34.24356],[135.13724,34.24336],[135.1383,34.2434],[135.13823,34.24303],[135.13792,34.24265],[135.13953,34.24177],[135.14025,34.24068],[135.13882,34.2403],[135.13849,34.24069],[135.13724,34.24137],[135.13704,34.24127],[135.13661,34.2417],[135.13592,34.24206],[135.13494,34.24221],[135.13335,34.24343],[135.13349,34.24478],[135.13681,34.24356]]]},"properties":{"key":"30201354001","name":"松江東一丁目","pref":"和歌山県","prefCode":"30","municipality":"和歌山市","areaM2":124614.308,"population":183,"toponymIds":["30-aa4d98f12f"]}},{"type":"Feature","geometry":{"type":"Polygon","coordinates":[[[135.14908,34.21658],[135.14926,34.21616],[135.14962,34.21608],[135.14971,34.2159],[135.15002,34.21601],[135.15012,34.21568],[135.15069,34.21592],[135.15139,34.21514],[135.15552,34.21693],[135.15557,34.2166],[135.15946,34.21732],[135.15945,34.21406],[135.15864,34.21391],[135.15852,34.21424],[135.15692,34.21412],[135.15677,34.21349],[135.15636,34.21349],[135.15661,34.21207],[135.15559,34.21186],[135.15576,34.21016],[135.1548,34.21013],[135.15494,34.20919],[135.15445,34.20915],[135.15441,34.20929],[135.15307,34.20915],[135.15267,34.20869],[135.15172,34.20861],[135.14907,34.21128],[135.14626,34.21535],[135.14615,34.21619],[135.1463,34.21698],[135.14736,34.21731],[135.14771,34.21727],[135.14894,34.21706],[135.14908,34.21658]]]},"properties":{"key":"302012610","name":"湊","pref":"和歌山県","prefCode":"30","municipality":"和歌山市","areaM2":680903.478,"population":656,"toponymIds":["30-e04ced765e"]}},{"type":"Feature","geometry":{"type":"Polygon","coordinates":[[[135.18425,34.22201],[135.18657,34.22184],[135.18646,34.22122],[135.18599,34.22034],[135.18545,34.22069],[135.18389,34.22111],[135.18425,34.22201]]]},"properties":{"key":"30201320002","name":"汐見町二丁目","pref":"和歌山県","prefCode":"30","municipality":"和歌山市","areaM2":28821.475,"population":65,"toponymIds":["30-f03176ea59"]}},{"type":"Feature","geometry":{"type":"Polygon","coordinates":[[[135.18689,34.24453],[135.18655,34.244],[135.18703,34.24397],[135.18697,34.24358],[135.18724,34.24355],[135.18698,34.24304],[135.18704,34.24287],[135.18918,34.24303],[135.18925,34.24256],[135.18902,34.24255],[135.18903,34.2424],[135.18981,34.24239],[135.18926,34.24092],[135.18996,34.23986],[135.1894,34.23961],[135.19002,34.23832],[135.1911,34.23844],[135.19079,34.23802],[135.19066,34.23742],[135.19032,34.23719],[135.18965,34.23694],[135.18942,34.23766],[135.18876,34.2375],[135.18888,34.23712],[135.18844,34.23701],[135.18841,34.23662],[135.18822,34.23689],[135.18748,34.23679],[135.18754,34.23649],[135.18693,34.23641],[135.18706,34.23573],[135.18558,34.23553],[135.18571,34.23528],[135.18531,34.23512],[135.18532,34.23488],[135.18461,34.23486],[135.18461,34.23465],[135.1842,34.23465],[135.18415,34.23486],[135.18452,34.23477],[135.18451,34.23494],[135.18424,34.23502],[135.18424,34.23533],[135.18457,34.23538],[135.18459,34.2372],[135.18234,34.23653],[135.18156,34.23651],[135.18075,34.23676],[135.18076,34.23729],[135.18167,34.23731],[135.18168,34.23765],[135.18244,34.23766],[135.18244,34.23922],[135.18167,34.23923],[135.18166,34.23901],[135.18141,34.23901],[135.18132,34.23921],[135.18058,34.2389],[135.18057,34.23866],[135.18,34.23869],[135.17997,34.23912],[135.17971,34.23905],[135.17952,34.23938],[135.17922,34.23942],[135.17929,34.23976],[135.17898,34.23987],[135.17911,34.24039],[135.17879,34.24043],[135.17879,34.24071],[135.1786,34.24071],[135.17856,34.24148],[135.17773,34.24126],[135.17773,34.24151],[135.17734,34.24157],[135.17742,34.24179],[135.18037,34.24195],[135.18035,34.24252],[135.17955,34.24245],[135.17953,34.24279],[135.18002,34.24291],[135.18014,34.24272],[135.18013,34.2429],[135.1804,34.24292],[135.18047,34.24281],[135.18066,34.24294],[135.18063,34.24317],[135.17942,34.24304],[135.17934,34.24368],[135.17995,34.24375],[135.17992,34.24441],[135.17702,34.24348],[135.17612,34.24616],[135.17855,34.2469],[135.18006,34.24447],[135.18648,34.24683],[135.1888,34.24801],[135.18882,34.24775],[135.18689,34.24453]]]},"properties":{"key":"30201317000","name":"中之島","pref":"和歌山県","prefCode":"30","municipality":"和歌山市","areaM2":950146.857,"population":4705,"toponymIds":["30-0296160421"]}},{"type":"Feature","geometry":{"type":"Polygon","coordinates":[[[135.22705,34.24313],[135.22727,34.24149],[135.22817,34.24146],[135.22817,34.24163],[135.22829,34.24149],[135.2282,34.24103],[135.22869,34.24105],[135.22888,34.24142],[135.23171,34.23984],[135.23141,34.23795],[135.23079,34.23743],[135.22969,34.23467],[135.22706,34.23338],[135.2269,34.23374],[135.22609,34.23412],[135.22535,34.23503],[135.22558,34.23444],[135.22521,34.23382],[135.22549,34.23371],[135.22538,34.23356],[135.22499,34.23357],[135.2247,34.2332],[135.2247,34.2329],[135.22454,34.23281],[135.2248,34.23226],[135.22362,34.23171],[135.22363,34.23135],[135.22338,34.23096],[135.22414,34.23007],[135.22387,34.22903],[135.22265,34.22762],[135.22271,34.22724],[135.22223,34.22626],[135.22076,34.22423],[135.21971,34.22732],[135.21997,34.22993],[135.21929,34.23138],[135.21838,34.23266],[135.21667,34.23178],[135.21506,34.23166],[135.21424,34.23135],[135.21371,34.23298],[135.21281,34.23211],[135.21284,34.23521],[135.21251,34.23525],[135.21194,34.23884],[135.21206,34.23925],[135.21111,34.23963],[135.21243,34.2423],[135.22431,34.24228],[135.22369,34.24242],[135.22387,34.24362],[135.22705,34.24313]]]},"properties":{"key":"302013810","name":"栗栖","pref":"和歌山県","prefCode":"30","municipality":"和歌山市","areaM2":2047074.147,"population":2023,"toponymIds":["30-c17143483c"]}},{"type":"Feature","geometry":{"type":"Polygon","coordinates":[[[135.11439,34.27416],[135.11503,34.27407],[135.11452,34.27256],[135.11401,34.27219],[135.11378,34.2718],[135.11369,34.27056],[135.11386,34.27024],[135.11407,34.26834],[135.11437,34.26762],[135.11401,34.26712],[135.11371,34.26612],[135.11387,34.26534],[135.11429,34.26473],[135.11416,34.26424],[135.11388,34.26408],[135.11345,34.26234],[135.11295,34.26127],[135.11217,34.26123],[135.11166,34.26076],[135.11069,34.26035],[135.11026,34.25976],[135.10983,34.25985],[135.10923,34.25892],[135.10859,34.25932],[135.10727,34.25973],[135.10686,34.25967],[135.10676,34.25934],[135.10576,34.25971],[135.10494,34.25767],[135.10503,34.25735],[135.10474,34.25733],[135.10444,34.25646],[135.10278,34.25432],[135.09719,34.25691],[135.0971,34.25749],[135.09763,34.25841],[135.09776,34.2606],[135.09807,34.26162],[135.09844,34.26205],[135.0993,34.26203],[135.09993,34.2626],[135.10045,34.26273],[135.09998,34.26348],[135.09971,34.26466],[135.10063,34.26507],[135.10131,34.26405],[135.1039,34.26437],[135.10495,34.26552],[135.10514,34.26664],[135.10493,34.26795],[135.10503,34.26809],[135.10464,34.26964],[135.10463,34.27055],[135.10555,34.27201],[135.1059,34.27293],[135.10617,34.27306],[135.10755,34.27252],[135.1083,34.2727],[135.10942,34.27237],[135.11008,34.27292],[135.11063,34.27237],[135.11108,34.2722],[135.11136,34.27154],[135.11192,34.27225],[135.11179,34.27335],[135.11263,34.27377],[135.11302,34.27372],[135.1139,34.27447],[135.11439,34.27416]]]},"properties":{"key":"302013920","name":"本脇","pref":"和歌山県","prefCode":"30","municipality":"和歌山市","areaM2":1786657.364,"population":2290,"toponymIds":["30-fc50076417"]}},{"type":"Feature","geometry":{"type":"Polygon","coordinates":[[[135.05534,34.29921],[135.05628,34.29917],[135.05732,34.29864],[135.05995,34.29794],[135.06025,34.2977],[135.0601,34.29718],[135.0589,34.2968],[135.05724,34.29734],[135.05679,34.29733],[135.0568,34.29711],[135.05677,34.29733],[135.05541,34.29701],[135.05414,34.29619],[135.05296,34.29578],[135.05223,34.29502],[135.05179,34.29428],[135.05134,34.29402],[135.0501,34.29374],[135.04907,34.29318],[135.04871,34.29281],[135.04736,34.29244],[135.04577,34.29259],[135.04394,34.29195],[135.03906,34.29328],[135.03879,34.29315],[135.03895,34.29335],[135.03866,34.29343],[135.03874,34.29354],[135.03858,34.29342],[135.03866,34.29357],[135.03851,34.29345],[135.03865,34.29366],[135.03856,34.29389],[135.03693,34.29462],[135.03565,34.29496],[135.03534,34.29484],[135.03466,34.29496],[135.03422,34.2946],[135.03427,34.29479],[135.03393,34.29456],[135.03429,34.29489],[135.03428,34.29504],[135.03415,34.295],[135.03434,34.29515],[135.03351,34.29557],[135.03316,34.29528],[135.03291,34.29538],[135.03276,34.29507],[135.03265,34.29531],[135.03245,34.29519],[135.03268,34.29572],[135.03291,34.2957],[135.03327,34.29606],[135.03563,34.2968],[135.03596,34.29725],[135.03615,34.29801],[135.03723,34.29859],[135.03875,34.29856],[135.03964,34.29826],[135.04032,34.29854],[135.04058,34.29818],[135.04222,34.29802],[135.04384,34.29855],[135.0439,34.29843],[135.04463,34.29853],[135.04529,34.29839],[135.04575,34.29852],[135.04657,34.29765],[135.047,34.29755],[135.04771,34.29782],[135.0479,34.29874],[135.04818,34.29892],[135.04842,34.29884],[135.04887,34.29915],[135.05031,34.29883],[135.05116,34.29896],[135.05297,34.29885],[135.0536,34.29908],[135.05534,34.29921]]]},"properties":{"key":"302014940","name":"加太","pref":"和歌山県","prefCode":"30","municipality":"和歌山市","areaM2":1086708.243,"population":0,"toponymIds":["30-a7fed29c68","30-52996608aa"]}},{"type":"Feature","geometry":{"type":"Polygon","coordinates":[[[135.31036,34.24717],[135.31158,34.24747],[135.31133,34.24625],[135.31223,34.24559],[135.31243,34.2452],[135.31316,34.24595],[135.31328,34.24589],[135.31347,34.24495],[135.31332,34.24473],[135.31272,34.24444],[135.31251,34.24402],[135.31265,34.24388],[135.31329,34.2439],[135.31337,34.24374],[135.31405,34.24365],[135.31448,34.24293],[135.31403,34.24264],[135.31395,34.24186],[135.31331,34.24055],[135.31388,34.24038],[135.3141,34.24011],[135.3147,34.23997],[135.31489,34.23966],[135.31525,34.2397],[135.31528,34.23945],[135.31489,34.23928],[135.31476,34.23868],[135.31411,34.23739],[135.31313,34.23745],[135.31256,34.23773],[135.31117,34.23794],[135.31065,34.2385],[135.30903,34.239],[135.30914,34.23819],[135.30888,34.23793],[135.3084,34.23776],[135.30751,34.23797],[135.30629,34.23759],[135.30581,34.23729],[135.30538,34.23652],[135.30385,34.2363],[135.30318,34.23652],[135.30171,34.23626],[135.30098,34.23541],[135.3004,34.23357],[135.29671,34.23131],[135.29604,34.23113],[135.29535,34.23115],[135.2932,34.23187],[135.29193,34.23423],[135.29165,34.23552],[135.29159,34.23689],[135.29056,34.23699],[135.2906,34.2374],[135.29102,34.23738],[135.2911,34.23766],[135.29091,34.23805],[135.29153,34.23813],[135.29103,34.24048],[135.29077,34.24052],[135.29016,34.24163],[135.29041,34.24205],[135.29085,34.24209],[135.29041,34.24357],[135.29032,34.24664],[135.2938,34.24693],[135.29382,34.24645],[135.29408,34.24632],[135.29417,34.24585],[135.29385,34.2452],[135.29388,34.24486],[135.29391,34.24466],[135.29419,34.24453],[135.29689,34.24552],[135.29747,34.245],[135.29735,34.24437],[135.2976,34.24361],[135.29793,34.24329],[135.29781,34.24297],[135.30484,34.24392],[135.3057,34.24421],[135.3057,34.24447],[135.30499,34.24497],[135.30457,34.24588],[135.3061,34.24687],[135.30718,34.24778],[135.30786,34.24809],[135.30885,34.24814],[135.30969,34.2474],[135.31036,34.24717]]]},"properties":{"key":"302014910","name":"下三毛","pref":"和歌山県","prefCode":"30","municipality":"和歌山市","areaM2":2416157.227,"population":1206,"toponymIds":["30-3609338310"]}}]}
