{"type":"FeatureCollection","features":[{"type":"Feature","geometry":{"type":"Polygon","coordinates":[[[134.02558,35.46983],[134.0262,35.468],[134.0266,35.4656],[134.02761,35.46507],[134.02811,35.46426],[134.02807,35.46291],[134.02862,35.46276],[134.03006,35.46299],[134.03082,35.46291],[134.03208,35.46186],[134.03166,35.46112],[134.03046,35.46048],[134.02945,35.45947],[134.02988,35.45819],[134.02944,35.45769],[134.02939,35.45704],[134.02777,35.45717],[134.0272,35.45683],[134.02709,35.45704],[134.02644,35.45719],[134.02588,35.45772],[134.02547,35.45773],[134.02332,35.4566],[134.02171,35.45536],[134.02083,35.45512],[134.01984,35.45558],[134.01697,35.45832],[134.01514,35.45906],[134.01276,35.45861],[134.01133,35.45881],[134.01097,35.45851],[134.01045,35.45731],[134.00992,35.4569],[134.00893,35.45686],[134.00758,35.45749],[134.00802,35.45931],[134.01038,35.46575],[134.01049,35.4669],[134.01215,35.46714],[134.01721,35.46893],[134.01973,35.46959],[134.02192,35.46954],[134.02258,35.46999],[134.02319,35.4714],[134.02377,35.47163],[134.02459,35.47162],[134.02558,35.46983]]]},"properties":{"key":"312014460","name":"青谷町河原","pref":"鳥取県","prefCode":"31","municipality":"鳥取市","areaM2":2274784.709,"population":355,"toponymIds":["31-368d47e678"]}},{"type":"Feature","geometry":{"type":"Polygon","coordinates":[[[134.17925,35.45459],[134.17933,35.45431],[134.18009,35.45356],[134.18358,35.45191],[134.18768,35.44826],[134.18852,35.44692],[134.18416,35.44141],[134.18393,35.44047],[134.18369,35.43637],[134.18341,35.43507],[134.18037,35.43318],[134.17098,35.42781],[134.17013,35.42822],[134.1684,35.4297],[134.16794,35.43019],[134.16679,35.43212],[134.16602,35.43506],[134.16579,35.43661],[134.16587,35.43926],[134.16669,35.44085],[134.16757,35.44192],[134.17019,35.44444],[134.17184,35.44664],[134.17593,35.45423],[134.17626,35.45525],[134.17925,35.45459]]]},"properties":{"key":"312011610","name":"猪子","pref":"鳥取県","prefCode":"31","municipality":"鳥取市","areaM2":3574843.257,"population":91,"toponymIds":["31-04aa5b9c23"]}},{"type":"Feature","geometry":{"type":"Polygon","coordinates":[[[134.28386,35.49554],[134.28297,35.49398],[134.2828,35.49267],[134.28184,35.49193],[134.28126,35.49105],[134.28101,35.48998],[134.27917,35.48661],[134.27832,35.48547],[134.27754,35.48504],[134.2764,35.4849],[134.27449,35.48541],[134.27319,35.48595],[134.27298,35.48632],[134.27121,35.48691],[134.27064,35.48635],[134.27039,35.48629],[134.26983,35.48657],[134.2697,35.48733],[134.26858,35.4878],[134.26786,35.48713],[134.26713,35.48683],[134.26644,35.48683],[134.26556,35.48722],[134.26497,35.4872],[134.26409,35.48654],[134.2641,35.48629],[134.26342,35.48611],[134.26309,35.48584],[134.26316,35.48558],[134.26258,35.48533],[134.26261,35.48509],[134.26239,35.48508],[134.26231,35.48475],[134.26199,35.48471],[134.26197,35.48491],[134.26075,35.48482],[134.26076,35.48459],[134.25952,35.48451],[134.25946,35.48438],[134.25663,35.48438],[134.2565,35.48398],[134.25629,35.48399],[134.25656,35.48441],[134.25388,35.48591],[134.25424,35.48596],[134.25432,35.48637],[134.25475,35.48645],[134.25659,35.48638],[134.25639,35.48678],[134.25585,35.4872],[134.25605,35.48726],[134.25618,35.48769],[134.25598,35.4881],[134.25597,35.48871],[134.25624,35.48879],[134.25637,35.48906],[134.25671,35.4891],[134.25667,35.48966],[134.25639,35.48981],[134.25651,35.49036],[134.2574,35.49046],[134.25822,35.49008],[134.25894,35.48993],[134.25959,35.49001],[134.26039,35.48973],[134.26071,35.48987],[134.26135,35.48974],[134.26235,35.49013],[134.26317,35.49054],[134.26342,35.49084],[134.26384,35.49084],[134.26401,35.49147],[134.26448,35.49199],[134.26588,35.49221],[134.26699,35.49408],[134.26792,35.49483],[134.26892,35.49497],[134.26938,35.49473],[134.2712,35.49255],[134.2715,35.49286],[134.27199,35.49286],[134.27278,35.4935],[134.27537,35.49363],[134.27736,35.49335],[134.27927,35.49413],[134.27979,35.49399],[134.27985,35.49557],[134.27971,35.496],[134.2802,35.49554],[134.28099,35.49568],[134.28149,35.496],[134.28182,35.49661],[134.28395,35.49667],[134.28386,35.49554]]]},"properties":{"key":"312011160","name":"岩倉","pref":"鳥取県","prefCode":"31","municipality":"鳥取市","areaM2":1770262.149,"population":1650,"toponymIds":["31-b8a7656973"]}},{"type":"Feature","geometry":{"type":"Polygon","coordinates":[[[134.25082,35.45329],[134.2514,35.45332],[134.25192,35.45309],[134.25285,35.453],[134.25335,35.45249],[134.25395,35.4525],[134.25458,35.45219],[134.25383,35.45166],[134.25327,35.45079],[134.25251,35.45067],[134.25385,35.44903],[134.25327,35.449],[134.25166,35.45062],[134.25149,35.45054],[134.25188,35.45023],[134.25187,35.4497],[134.251,35.44954],[134.25061,35.44951],[134.24963,35.45016],[134.24894,35.45026],[134.24929,35.45065],[134.24929,35.45178],[134.24799,35.45176],[134.24789,35.45455],[134.24844,35.45316],[134.24882,35.45324],[134.2489,35.45303],[134.25042,35.45344],[134.25082,35.45329]]]},"properties":{"key":"312012710","name":"海蔵寺","pref":"鳥取県","prefCode":"31","municipality":"鳥取市","areaM2":167408.245,"population":50,"toponymIds":["31-c6953af360"]}},{"type":"Feature","geometry":{"type":"Polygon","coordinates":[[[134.23489,35.49985],[134.23587,35.49912],[134.23517,35.49855],[134.23407,35.49945],[134.23473,35.49998],[134.23489,35.49985]]]},"properties":{"key":"312010420","name":"鍛冶町","pref":"鳥取県","prefCode":"31","municipality":"鳥取市","areaM2":12303.149,"population":61,"toponymIds":["31-756d7b2bce"]}},{"type":"Feature","geometry":{"type":"Polygon","coordinates":[[[134.1966,35.41437],[134.19904,35.41383],[134.19814,35.41085],[134.19847,35.41064],[134.19968,35.4106],[134.19931,35.4099],[134.19921,35.40937],[134.19892,35.40938],[134.19921,35.40861],[134.19834,35.4084],[134.19813,35.40857],[134.19792,35.40896],[134.19777,35.40985],[134.19789,35.4104],[134.19759,35.41064],[134.1977,35.41126],[134.1973,35.41112],[134.19716,35.41141],[134.19667,35.41126],[134.19624,35.41432],[134.19625,35.41444],[134.1966,35.41437]]]},"properties":{"key":"312014710","name":"河原町鮎ヶ丘","pref":"鳥取県","prefCode":"31","municipality":"鳥取市","areaM2":97948.992,"population":357,"toponymIds":["31-e8e9139b8c"]}},{"type":"Feature","geometry":{"type":"Polygon","coordinates":[[[134.22455,35.42694],[134.22491,35.42557],[134.22569,35.42444],[134.22544,35.42346],[134.22739,35.42006],[134.22853,35.41897],[134.22981,35.41697],[134.22988,35.41622],[134.22979,35.4157],[134.22958,35.41544],[134.22684,35.41422],[134.22603,35.41401],[134.22438,35.41405],[134.22229,35.41368],[134.22123,35.4139],[134.21942,35.4136],[134.21852,35.41385],[134.21691,35.41313],[134.21578,35.4132],[134.21541,35.41308],[134.21437,35.41233],[134.21196,35.41238],[134.2109,35.41263],[134.20906,35.41373],[134.20735,35.41529],[134.20539,35.41787],[134.20765,35.42044],[134.20607,35.4214],[134.20746,35.42296],[134.20786,35.42439],[134.21041,35.42396],[134.21185,35.42477],[134.21326,35.42657],[134.2159,35.42668],[134.21575,35.42682],[134.21613,35.42681],[134.21639,35.42659],[134.21797,35.42712],[134.2187,35.42749],[134.21999,35.42902],[134.22037,35.43004],[134.22121,35.42986],[134.2217,35.42957],[134.22264,35.42857],[134.22414,35.42768],[134.22455,35.42694]]]},"properties":{"key":"312013450","name":"河原町稲常","pref":"鳥取県","prefCode":"31","municipality":"鳥取市","areaM2":2714305.388,"population":139,"toponymIds":["31-8ecaa0ff3b"]}},{"type":"Feature","geometry":{"type":"Polygon","coordinates":[[[134.21671,35.40304],[134.21697,35.40229],[134.21757,35.40151],[134.21731,35.40134],[134.21741,35.40046],[134.2167,35.39987],[134.21693,35.39942],[134.21651,35.39935],[134.21548,35.39957],[134.21225,35.39979],[134.21215,35.39948],[134.20895,35.39995],[134.20449,35.3997],[134.20334,35.39992],[134.20417,35.40371],[134.20933,35.40271],[134.20944,35.40348],[134.20914,35.40464],[134.20924,35.40595],[134.21045,35.40574],[134.21443,35.4044],[134.21651,35.40355],[134.21671,35.40304]]]},"properties":{"key":"312013520","name":"河原町今在家","pref":"鳥取県","prefCode":"31","municipality":"鳥取市","areaM2":596171.774,"population":208,"toponymIds":["31-53bcceaa48"]}},{"type":"Feature","geometry":{"type":"Polygon","coordinates":[[[134.16652,35.38066],[134.16541,35.3803],[134.16544,35.37921],[134.16537,35.37897],[134.16511,35.37882],[134.16383,35.37848],[134.16325,35.37784],[134.16182,35.37802],[134.16014,35.37726],[134.15924,35.37727],[134.15903,35.37744],[134.15842,35.37811],[134.15774,35.3796],[134.15703,35.3801],[134.15648,35.3801],[134.15533,35.37923],[134.15374,35.37866],[134.15256,35.37896],[134.15091,35.37869],[134.14856,35.37877],[134.15045,35.37972],[134.15149,35.38056],[134.15196,35.38149],[134.15508,35.38271],[134.15593,35.38341],[134.1573,35.38508],[134.15829,35.38659],[134.15848,35.38723],[134.15841,35.38821],[134.15809,35.38912],[134.1584,35.3893],[134.15974,35.38889],[134.16048,35.38898],[134.1611,35.38954],[134.1615,35.3892],[134.16199,35.38833],[134.16218,35.38648],[134.16407,35.38397],[134.16487,35.3822],[134.165,35.38175],[134.16489,35.38144],[134.16652,35.38066]]]},"properties":{"key":"312013640","name":"河原町牛戸","pref":"鳥取県","prefCode":"31","municipality":"鳥取市","areaM2":928139.575,"population":75,"toponymIds":["31-76b8f7a472"]}},{"type":"Feature","geometry":{"type":"Polygon","coordinates":[[[134.14914,35.3959],[134.14905,35.39505],[134.14984,35.39339],[134.14996,35.39227],[134.14938,35.38995],[134.14988,35.38835],[134.15007,35.38679],[134.14989,35.38613],[134.14935,35.38521],[134.14823,35.38521],[134.14646,35.38559],[134.14587,35.3859],[134.14357,35.38606],[134.14092,35.38662],[134.13682,35.39144],[134.1355,35.39263],[134.13671,35.39352],[134.13682,35.39385],[134.13661,35.39451],[134.13672,35.39491],[134.1373,35.39529],[134.13819,35.39542],[134.13885,35.3958],[134.13961,35.39593],[134.14055,35.39654],[134.14152,35.39687],[134.14235,35.39737],[134.14623,35.39815],[134.14679,35.39859],[134.14814,35.39836],[134.14848,35.39735],[134.14834,35.39648],[134.14878,35.39603],[134.14914,35.3959]]]},"properties":{"key":"312013620","name":"河原町小畑","pref":"鳥取県","prefCode":"31","municipality":"鳥取市","areaM2":1331326.064,"population":69,"toponymIds":["31-5a9f95ff0c"]}},{"type":"Feature","geometry":{"type":"Polygon","coordinates":[[[134.21437,35.41233],[134.21465,35.41193],[134.21557,35.41157],[134.21604,35.41063],[134.21658,35.41053],[134.21631,35.41017],[134.21661,35.40933],[134.21656,35.40828],[134.21715,35.40631],[134.2166,35.40509],[134.21646,35.40437],[134.21651,35.40355],[134.21179,35.40534],[134.20924,35.40595],[134.20914,35.40464],[134.20944,35.40348],[134.20933,35.40271],[134.20417,35.40371],[134.20364,35.40507],[134.20324,35.40557],[134.2032,35.41132],[134.20284,35.41248],[134.20381,35.41544],[134.20539,35.41787],[134.20735,35.41529],[134.20994,35.41309],[134.2109,35.41263],[134.21196,35.41238],[134.21437,35.41233]]]},"properties":{"key":"312013530","name":"河原町片山","pref":"鳥取県","prefCode":"31","municipality":"鳥取市","areaM2":1297952.175,"population":81,"toponymIds":["31-b9890b1d3b"]}},{"type":"Feature","geometry":{"type":"Polygon","coordinates":[[[134.13865,35.36238],[134.13956,35.3618],[134.13952,35.36129],[134.13977,35.36119],[134.14072,35.36129],[134.14113,35.36116],[134.1413,35.36089],[134.1418,35.35781],[134.1418,35.35673],[134.14165,35.3565],[134.1403,35.35543],[134.13781,35.35386],[134.13707,35.35299],[134.13616,35.35225],[134.13506,35.35216],[134.1339,35.35147],[134.13335,35.35172],[134.1328,35.35166],[134.1323,35.35127],[134.13189,35.35065],[134.13012,35.34997],[134.12907,35.35038],[134.12797,35.34953],[134.12541,35.3497],[134.12415,35.35036],[134.12292,35.35126],[134.1223,35.35268],[134.12144,35.35307],[134.12026,35.35422],[134.11994,35.35434],[134.11971,35.35411],[134.11976,35.3536],[134.11872,35.35315],[134.11792,35.35319],[134.11691,35.35355],[134.11545,35.35479],[134.11529,35.3551],[134.1151,35.35666],[134.11485,35.35682],[134.11721,35.35762],[134.11758,35.35792],[134.11823,35.35988],[134.11901,35.36137],[134.11932,35.36234],[134.12047,35.36379],[134.12081,35.36389],[134.12122,35.36379],[134.12131,35.362],[134.12189,35.36109],[134.12222,35.36079],[134.12263,35.36069],[134.12354,35.36119],[134.12422,35.36244],[134.12593,35.3616],[134.12668,35.36154],[134.12918,35.36178],[134.13113,35.36228],[134.13264,35.36292],[134.13483,35.36414],[134.13789,35.36306],[134.13865,35.36238]]]},"properties":{"key":"312013680","name":"河原町神馬","pref":"鳥取県","prefCode":"31","municipality":"鳥取市","areaM2":2531094.227,"population":64,"toponymIds":["31-74fe1ccd4c"]}},{"type":"Feature","geometry":{"type":"Polygon","coordinates":[[[134.22333,35.39438],[134.22238,35.39282],[134.22211,35.39174],[134.22226,35.39056],[134.223,35.38818],[134.223,35.38704],[134.22214,35.38405],[134.22164,35.38325],[134.22108,35.38275],[134.21975,35.38252],[134.21807,35.38131],[134.21723,35.38097],[134.2161,35.38085],[134.21573,35.38395],[134.21529,35.38552],[134.21556,35.38829],[134.21538,35.38962],[134.21547,35.39464],[134.21568,35.39517],[134.21601,35.39561],[134.21918,35.39671],[134.22027,35.39533],[134.22069,35.39513],[134.22151,35.3951],[134.22245,35.39448],[134.22333,35.39438]]]},"properties":{"key":"312013500","name":"河原町郷原","pref":"鳥取県","prefCode":"31","municipality":"鳥取市","areaM2":966645.378,"population":57,"toponymIds":["31-e1f1097261"]}},{"type":"Feature","geometry":{"type":"Polygon","coordinates":[[[134.19991,35.40524],[134.20044,35.40458],[134.19777,35.40302],[134.19432,35.39986],[134.18899,35.39668],[134.18422,35.39437],[134.18353,35.39551],[134.18285,35.39576],[134.181,35.39492],[134.17857,35.39457],[134.17772,35.39461],[134.17743,35.39422],[134.17577,35.3934],[134.17387,35.39312],[134.1724,35.39334],[134.1729,35.39388],[134.17309,35.39448],[134.17309,35.39511],[134.17282,35.39606],[134.17235,35.39708],[134.17138,35.39838],[134.17017,35.39952],[134.16982,35.40028],[134.16887,35.40462],[134.17266,35.40442],[134.17492,35.40328],[134.17669,35.40216],[134.17833,35.40152],[134.17991,35.40137],[134.1826,35.4015],[134.1841,35.4018],[134.19165,35.40457],[134.19825,35.40621],[134.19866,35.40518],[134.19905,35.40533],[134.19991,35.40524]]]},"properties":{"key":"312013400","name":"河原町谷一木","pref":"鳥取県","prefCode":"31","municipality":"鳥取市","areaM2":1980101.423,"population":103,"toponymIds":["31-69d3e84c34"]}},{"type":"Feature","geometry":{"type":"Polygon","coordinates":[[[134.16887,35.40462],[134.16982,35.40028],[134.17017,35.39952],[134.17138,35.39838],[134.17235,35.39708],[134.17282,35.39606],[134.17309,35.39511],[134.17309,35.39448],[134.1729,35.39388],[134.1724,35.39334],[134.17387,35.39312],[134.17577,35.3934],[134.17743,35.39422],[134.17772,35.39461],[134.1802,35.39474],[134.181,35.39492],[134.18285,35.39576],[134.18328,35.3957],[134.18422,35.39437],[134.18756,35.39113],[134.18908,35.38931],[134.18761,35.38888],[134.18721,35.38594],[134.18579,35.38526],[134.18514,35.38408],[134.18314,35.38215],[134.18218,35.38151],[134.17872,35.38029],[134.1771,35.38339],[134.17578,35.3849],[134.17548,35.38512],[134.17346,35.38536],[134.17125,35.38589],[134.17035,35.38677],[134.16893,35.38923],[134.16782,35.38997],[134.16679,35.39016],[134.1611,35.38954],[134.16042,35.39174],[134.15959,35.39248],[134.15774,35.39532],[134.15694,35.39717],[134.15687,35.39769],[134.15691,35.39853],[134.15733,35.39989],[134.15735,35.40119],[134.15761,35.40142],[134.15882,35.40233],[134.15966,35.40224],[134.16016,35.40235],[134.1621,35.40209],[134.16272,35.40248],[134.16415,35.40258],[134.16505,35.40308],[134.16573,35.40309],[134.16665,35.40335],[134.16797,35.40436],[134.16878,35.40429],[134.16887,35.40462]]]},"properties":{"key":"312013370","name":"河原町天神原","pref":"鳥取県","prefCode":"31","municipality":"鳥取市","areaM2":3493868.676,"population":129,"toponymIds":["31-412019b1e8"]}},{"type":"Feature","geometry":{"type":"Polygon","coordinates":[[[134.21088,35.39958],[134.20923,35.39541],[134.20693,35.39598],[134.20605,35.39385],[134.20191,35.39507],[134.20298,35.39832],[134.20334,35.39992],[134.20449,35.3997],[134.20895,35.39995],[134.21088,35.39958]]]},"properties":{"key":"312013480","name":"河原町徳吉","pref":"鳥取県","prefCode":"31","municipality":"鳥取市","areaM2":366002.121,"population":80,"toponymIds":["31-1a9b24e8a8"]}},{"type":"Feature","geometry":{"type":"Polygon","coordinates":[[[134.18675,35.41595],[134.18835,35.41599],[134.18935,35.41572],[134.19059,35.41581],[134.19167,35.41519],[134.19339,35.41502],[134.19396,35.41477],[134.19462,35.41481],[134.19624,35.41432],[134.19667,35.41126],[134.19716,35.41141],[134.1973,35.41112],[134.1977,35.41126],[134.19759,35.41064],[134.19789,35.4104],[134.19777,35.40985],[134.19792,35.40896],[134.19813,35.40857],[134.19871,35.40816],[134.19886,35.40775],[134.19934,35.40754],[134.19958,35.40689],[134.19902,35.40695],[134.19851,35.40627],[134.19165,35.40457],[134.1841,35.4018],[134.1826,35.4015],[134.17991,35.40137],[134.17833,35.40152],[134.17669,35.40216],[134.17492,35.40328],[134.17266,35.40442],[134.16882,35.40462],[134.16906,35.40547],[134.16984,35.40615],[134.17008,35.40698],[134.17239,35.40864],[134.17367,35.40874],[134.17421,35.40917],[134.17484,35.40918],[134.17524,35.40937],[134.17559,35.40957],[134.1763,35.41055],[134.17824,35.41143],[134.17872,35.41194],[134.17923,35.4121],[134.18002,35.41275],[134.18106,35.41273],[134.18301,35.41326],[134.1834,35.41366],[134.18604,35.41492],[134.18664,35.41552],[134.18675,35.41595]]]},"properties":{"key":"312013420","name":"河原町長瀬","pref":"鳥取県","prefCode":"31","municipality":"鳥取市","areaM2":2647556.79,"population":229,"toponymIds":["31-23e726dc6f"]}},{"type":"Feature","geometry":{"type":"Polygon","coordinates":[[[134.19555,35.42272],[134.19768,35.42274],[134.19886,35.42074],[134.19888,35.42015],[134.19869,35.41992],[134.1988,35.41987],[134.20373,35.41879],[134.20418,35.42016],[134.20522,35.41992],[134.20519,35.41902],[134.20539,35.41787],[134.20355,35.41487],[134.20317,35.41316],[134.20284,35.41248],[134.2032,35.41132],[134.20076,35.41061],[134.20027,35.41084],[134.20008,35.41059],[134.19847,35.41064],[134.19814,35.41085],[134.19816,35.41097],[134.19904,35.41383],[134.19625,35.41444],[134.19624,35.41432],[134.19543,35.41448],[134.19462,35.41481],[134.19396,35.41477],[134.19339,35.41502],[134.19167,35.41519],[134.19059,35.41581],[134.18935,35.41572],[134.18835,35.41599],[134.18675,35.41595],[134.18718,35.41642],[134.18814,35.41705],[134.19063,35.4183],[134.19157,35.41965],[134.19154,35.42027],[134.19217,35.42078],[134.19257,35.42247],[134.19324,35.42265],[134.19415,35.42259],[134.19508,35.42288],[134.19555,35.42272]]]},"properties":{"key":"312013430","name":"河原町袋河原","pref":"鳥取県","prefCode":"31","municipality":"鳥取市","areaM2":1108254.891,"population":382,"toponymIds":["31-9f4d20efc1"]}},{"type":"Feature","geometry":{"type":"Polygon","coordinates":[[[134.21228,35.4317],[134.21304,35.4303],[134.21362,35.42873],[134.21376,35.42686],[134.21575,35.42682],[134.2159,35.42668],[134.21326,35.42657],[134.21185,35.42477],[134.21041,35.42396],[134.20786,35.42439],[134.20746,35.42296],[134.20607,35.4214],[134.20765,35.42044],[134.20539,35.41787],[134.20519,35.41902],[134.20522,35.41992],[134.20418,35.42016],[134.20373,35.41879],[134.19869,35.41992],[134.19888,35.42015],[134.19886,35.42074],[134.19768,35.42274],[134.19833,35.42269],[134.19928,35.42218],[134.19989,35.42215],[134.2005,35.42229],[134.20143,35.42302],[134.20203,35.42317],[134.20267,35.42365],[134.2035,35.4236],[134.20353,35.42378],[134.20292,35.42445],[134.20327,35.42474],[134.20236,35.42641],[134.20383,35.42671],[134.2029,35.42975],[134.21228,35.4317]]]},"properties":{"key":"312013440","name":"河原町布袋","pref":"鳥取県","prefCode":"31","municipality":"鳥取市","areaM2":1019273.992,"population":306,"toponymIds":["31-bbc53b1d72"]}},{"type":"Feature","geometry":{"type":"Polygon","coordinates":[[[134.18218,35.38151],[134.18457,35.37833],[134.18696,35.3765],[134.1894,35.37525],[134.19142,35.37491],[134.19209,35.3741],[134.1926,35.37405],[134.19331,35.3736],[134.19364,35.37306],[134.19374,35.37255],[134.19362,35.37015],[134.19333,35.36897],[134.19262,35.36823],[134.19032,35.36713],[134.18921,35.36627],[134.18735,35.36383],[134.18602,35.3614],[134.18471,35.35958],[134.18304,35.36368],[134.18139,35.3669],[134.18102,35.36729],[134.18054,35.36744],[134.17878,35.36712],[134.16967,35.36343],[134.16927,35.3635],[134.16922,35.36377],[134.16985,35.36482],[134.17249,35.36755],[134.16908,35.36818],[134.16764,35.36867],[134.16693,35.36936],[134.16666,35.37014],[134.16666,35.37049],[134.16705,35.3711],[134.16783,35.37178],[134.171,35.37323],[134.17775,35.3771],[134.17891,35.37839],[134.18027,35.38077],[134.18218,35.38151]]]},"properties":{"key":"312013570","name":"河原町水根","pref":"鳥取県","prefCode":"31","municipality":"鳥取市","areaM2":2774088.996,"population":164,"toponymIds":["31-d52ed73ae8"]}},{"type":"Feature","geometry":{"type":"Polygon","coordinates":[[[134.22879,35.3914],[134.22931,35.3912],[134.23194,35.39117],[134.23226,35.39099],[134.23298,35.38964],[134.23323,35.38858],[134.23541,35.38687],[134.2358,35.38632],[134.23566,35.38581],[134.23478,35.38504],[134.23395,35.38359],[134.23249,35.38245],[134.23234,35.38134],[134.2331,35.38048],[134.23374,35.379],[134.23304,35.37645],[134.23276,35.37582],[134.23191,35.37464],[134.23186,35.37285],[134.2309,35.37188],[134.2287,35.37339],[134.22721,35.37546],[134.2251,35.37774],[134.22309,35.37929],[134.22213,35.38046],[134.22108,35.38275],[134.22164,35.38325],[134.22214,35.38405],[134.223,35.38704],[134.223,35.38818],[134.22226,35.39056],[134.22211,35.39174],[134.22238,35.39282],[134.22333,35.39438],[134.22396,35.39464],[134.22391,35.39437],[134.22405,35.39419],[134.22532,35.39404],[134.22512,35.39345],[134.22531,35.39328],[134.22682,35.3928],[134.22879,35.3914]]]},"properties":{"key":"312013510","name":"河原町三谷","pref":"鳥取県","prefCode":"31","municipality":"鳥取市","areaM2":1910858.013,"population":68,"toponymIds":["31-a1077f3621"]}},{"type":"Feature","geometry":{"type":"Polygon","coordinates":[[[134.16967,35.36343],[134.16993,35.36094],[134.16987,35.35504],[134.1702,35.35057],[134.16877,35.34999],[134.16777,35.35017],[134.16715,35.34981],[134.16541,35.34969],[134.16465,35.35052],[134.16277,35.35066],[134.16167,35.35139],[134.15912,35.35239],[134.15861,35.35293],[134.15726,35.3531],[134.15526,35.35436],[134.15492,35.35436],[134.15455,35.35406],[134.15398,35.35401],[134.15207,35.35417],[134.15086,35.35586],[134.14977,35.35634],[134.14794,35.3581],[134.14714,35.35854],[134.14681,35.35896],[134.14995,35.36395],[134.15085,35.36482],[134.1531,35.36611],[134.15476,35.36802],[134.15524,35.36887],[134.15551,35.36894],[134.16086,35.36963],[134.16534,35.36985],[134.16666,35.37014],[134.16693,35.36936],[134.16764,35.36867],[134.16908,35.36818],[134.17249,35.36755],[134.16985,35.36482],[134.16922,35.36377],[134.16927,35.3635],[134.16967,35.36343]]]},"properties":{"key":"312013590","name":"河原町山上","pref":"鳥取県","prefCode":"31","municipality":"鳥取市","areaM2":3418900.519,"population":135,"toponymIds":["31-e609c5c488"]}},{"type":"Feature","geometry":{"type":"Polygon","coordinates":[[[134.1611,35.38954],[134.16048,35.38898],[134.16002,35.38889],[134.15818,35.38925],[134.15809,35.38912],[134.15841,35.38821],[134.15848,35.38723],[134.15829,35.38659],[134.1573,35.38508],[134.15551,35.38297],[134.15196,35.38149],[134.15149,35.38056],[134.15045,35.37972],[134.14856,35.37877],[134.14768,35.37946],[134.1473,35.37964],[134.14699,35.3796],[134.14592,35.37816],[134.14453,35.37665],[134.14338,35.37579],[134.14258,35.37577],[134.14488,35.37805],[134.14614,35.37967],[134.14878,35.38166],[134.14916,35.38202],[134.14952,35.38268],[134.14952,35.38362],[134.14927,35.38471],[134.14935,35.38521],[134.14989,35.38613],[134.15007,35.38679],[134.14988,35.38835],[134.14938,35.38995],[134.14996,35.39227],[134.14984,35.39339],[134.14905,35.39505],[134.14903,35.39564],[134.14914,35.3959],[134.15082,35.39552],[134.15138,35.3957],[134.15123,35.39717],[134.15245,35.39805],[134.15257,35.39851],[134.15416,35.39892],[134.15541,35.39987],[134.15658,35.40014],[134.15735,35.40119],[134.15733,35.39989],[134.15691,35.39853],[134.15694,35.39717],[134.15774,35.39532],[134.15959,35.39248],[134.16042,35.39174],[134.1611,35.38954]]]},"properties":{"key":"312013630","name":"河原町湯谷","pref":"鳥取県","prefCode":"31","municipality":"鳥取市","areaM2":1544786.051,"population":43,"toponymIds":["31-323fdffc95"]}},{"type":"Feature","geometry":{"type":"Polygon","coordinates":[[[134.14935,35.38521],[134.1493,35.38433],[134.14954,35.38293],[134.14916,35.38202],[134.14776,35.38077],[134.14614,35.37967],[134.14488,35.37805],[134.14258,35.37577],[134.13976,35.37499],[134.1391,35.37502],[134.13654,35.37609],[134.13596,35.37601],[134.13582,35.3757],[134.13594,35.37446],[134.1357,35.37426],[134.13508,35.37426],[134.13464,35.37434],[134.13426,35.37465],[134.13346,35.37652],[134.13216,35.37722],[134.13187,35.3777],[134.13187,35.37821],[134.13249,35.37935],[134.13296,35.38119],[134.13432,35.38446],[134.13441,35.38522],[134.1342,35.38615],[134.1332,35.38847],[134.13305,35.38992],[134.13445,35.39242],[134.13467,35.39231],[134.1355,35.39263],[134.13682,35.39144],[134.14092,35.38662],[134.14357,35.38606],[134.14587,35.3859],[134.14646,35.38559],[134.14823,35.38521],[134.14935,35.38521]]]},"properties":{"key":"312013610","name":"河原町弓河内","pref":"鳥取県","prefCode":"31","municipality":"鳥取市","areaM2":1795787.591,"population":71,"toponymIds":["31-3cf46959ac"]}},{"type":"Feature","geometry":{"type":"Polygon","coordinates":[[[134.20811,35.37766],[134.21041,35.37679],[134.21176,35.3761],[134.21244,35.37605],[134.21374,35.37471],[134.21422,35.3737],[134.21404,35.37206],[134.21367,35.37151],[134.21307,35.3711],[134.21003,35.36941],[134.20898,35.36895],[134.20678,35.3687],[134.2067,35.3697],[134.20602,35.37178],[134.20587,35.37337],[134.20474,35.37507],[134.20646,35.37638],[134.20719,35.37812],[134.20811,35.37766]]]},"properties":{"key":"312013550","name":"河原町八日市","pref":"鳥取県","prefCode":"31","municipality":"鳥取市","areaM2":564042.338,"population":101,"toponymIds":["31-0e845065d8"]}},{"type":"Feature","geometry":{"type":"Polygon","coordinates":[[[134.21315,35.36304],[134.21278,35.36177],[134.21213,35.36099],[134.21076,35.36036],[134.20957,35.36024],[134.20481,35.36085],[134.20276,35.36034],[134.20168,35.35952],[134.20137,35.35909],[134.20011,35.36012],[134.20471,35.36364],[134.20538,35.36456],[134.20678,35.3687],[134.20898,35.36895],[134.21003,35.36941],[134.21367,35.37151],[134.21274,35.3697],[134.21282,35.36612],[134.21331,35.3637],[134.21315,35.36304]]]},"properties":{"key":"312013540","name":"河原町和奈見","pref":"鳥取県","prefCode":"31","municipality":"鳥取市","areaM2":743754.164,"population":74,"toponymIds":["31-e9ee7a7e0c"]}},{"type":"Feature","geometry":{"type":"Polygon","coordinates":[[[134.22404,35.46618],[134.22371,35.46555],[134.22386,35.46552],[134.22388,35.4651],[134.2231,35.46444],[134.22241,35.4643],[134.22158,35.4638],[134.22068,35.46273],[134.22077,35.46178],[134.222,35.46126],[134.22224,35.46145],[134.22309,35.46143],[134.225,35.46096],[134.22472,35.4599],[134.22493,35.45926],[134.22456,35.4587],[134.224,35.4583],[134.22352,35.45747],[134.22347,35.45705],[134.22291,35.45648],[134.22221,35.45511],[134.22075,35.45432],[134.21944,35.45518],[134.22021,35.45626],[134.22036,35.4567],[134.22029,35.45738],[134.2197,35.45744],[134.21961,35.45763],[134.2191,35.45758],[134.21918,35.4578],[134.21895,35.45821],[134.21888,35.45895],[134.21833,35.45894],[134.21833,35.4597],[134.21896,35.45966],[134.21911,35.46017],[134.21914,35.46197],[134.21955,35.46357],[134.22042,35.46448],[134.22238,35.46569],[134.22263,35.46543],[134.22306,35.46571],[134.22359,35.46558],[134.22366,35.46619],[134.22404,35.46618]]]},"properties":{"key":"312011490","name":"蔵田","pref":"鳥取県","prefCode":"31","municipality":"鳥取市","areaM2":380106.344,"population":91,"toponymIds":["31-9683e877d3"]}},{"type":"Feature","geometry":{"type":"Polygon","coordinates":[[[134.37511,35.46363],[134.37529,35.46324],[134.37605,35.46271],[134.37867,35.46181],[134.37983,35.46013],[134.38118,35.45889],[134.38284,35.45798],[134.38392,35.45766],[134.38531,35.45752],[134.38591,35.45005],[134.38022,35.45338],[134.37657,35.45508],[134.37517,35.4555],[134.37398,35.45561],[134.37282,35.45545],[134.37147,35.45496],[134.36867,35.45685],[134.36843,35.45734],[134.36845,35.46052],[134.36813,35.4618],[134.37007,35.4626],[134.37151,35.463],[134.37511,35.46363]]]},"properties":{"key":"312012880","name":"国府町菅野","pref":"鳥取県","prefCode":"31","municipality":"鳥取市","areaM2":1216660.606,"population":5,"toponymIds":["31-19793dee91"]}},{"type":"Feature","geometry":{"type":"Polygon","coordinates":[[[134.33651,35.44276],[134.33814,35.44219],[134.33851,35.44187],[134.33963,35.44011],[134.34133,35.43889],[134.34233,35.43535],[134.33862,35.43621],[134.33658,35.43773],[134.33371,35.43812],[134.33314,35.43849],[134.33209,35.44001],[134.33147,35.44046],[134.33105,35.44057],[134.32942,35.44046],[134.32868,35.44018],[134.32804,35.44026],[134.32827,35.44075],[134.32822,35.441],[134.32802,35.4412],[134.32753,35.44128],[134.32642,35.44109],[134.32569,35.44055],[134.32555,35.44062],[134.3258,35.44137],[134.32622,35.44187],[134.32854,35.44323],[134.3302,35.44466],[134.33201,35.44563],[134.33324,35.44683],[134.33387,35.44539],[134.33477,35.44416],[134.33651,35.44276]]]},"properties":{"key":"312012970","name":"国府町中河原","pref":"鳥取県","prefCode":"31","municipality":"鳥取市","areaM2":721667.198,"population":91,"toponymIds":["31-7e4d81b06f"]}},{"type":"Feature","geometry":{"type":"Polygon","coordinates":[[[134.16918,35.34231],[134.17132,35.34134],[134.17228,35.3412],[134.17429,35.34141],[134.17446,35.33629],[134.17287,35.33478],[134.17276,35.3346],[134.1729,35.33381],[134.17278,35.33342],[134.17209,35.33235],[134.17121,35.33166],[134.17108,35.33115],[134.17131,35.32953],[134.17164,35.32915],[134.17124,35.32833],[134.17136,35.3273],[134.17073,35.32636],[134.17043,35.32542],[134.16998,35.325],[134.16991,35.32397],[134.16802,35.32346],[134.16738,35.32353],[134.16662,35.32338],[134.16536,35.32382],[134.16467,35.3238],[134.16373,35.32409],[134.16297,35.32482],[134.16237,35.32493],[134.16174,35.32536],[134.16137,35.32596],[134.16142,35.32723],[134.16166,35.32807],[134.16196,35.32836],[134.1632,35.32861],[134.16367,35.32964],[134.16371,35.33075],[134.1631,35.33306],[134.16308,35.33372],[134.16394,35.33553],[134.1639,35.33655],[134.16425,35.33735],[134.16391,35.33812],[134.1641,35.33882],[134.16407,35.3396],[134.1635,35.34123],[134.16454,35.34151],[134.16561,35.34204],[134.16756,35.34208],[134.16918,35.34231]]]},"properties":{"key":"312013850","name":"佐治町刈地","pref":"鳥取県","prefCode":"31","municipality":"鳥取市","areaM2":1674820.672,"population":103,"toponymIds":["31-a467b1eeee"]}},{"type":"Feature","geometry":{"type":"Polygon","coordinates":[[[134.03645,35.45281],[134.03335,35.44964],[134.02939,35.44681],[134.02794,35.44612],[134.02713,35.44512],[134.02594,35.44565],[134.02398,35.44689],[134.02216,35.44734],[134.02089,35.448],[134.02068,35.44888],[134.02071,35.44946],[134.0213,35.45035],[134.02367,35.45294],[134.0243,35.45311],[134.02495,35.45294],[134.0254,35.45301],[134.02571,35.45336],[134.02654,35.45369],[134.02693,35.45414],[134.02787,35.45439],[134.02797,35.45499],[134.02868,35.45543],[134.02954,35.45526],[134.03021,35.45566],[134.03099,35.45577],[134.03215,35.45405],[134.03259,35.45373],[134.03287,35.45372],[134.03346,35.45424],[134.03645,35.45281]]]},"properties":{"key":"312014430","name":"鹿野町小別所","pref":"鳥取県","prefCode":"31","municipality":"鳥取市","areaM2":904860.027,"population":127,"toponymIds":["31-c763c5e3fd"]}},{"type":"Feature","geometry":{"type":"Polygon","coordinates":[[[134.05365,35.48289],[134.05378,35.47991],[134.05316,35.4799],[134.05315,35.4794],[134.05278,35.47898],[134.05274,35.47846],[134.05389,35.47845],[134.05405,35.476],[134.05128,35.47592],[134.05138,35.47411],[134.04712,35.47414],[134.04582,35.47481],[134.04531,35.47474],[134.04489,35.47557],[134.04506,35.4757],[134.04469,35.47596],[134.04455,35.4767],[134.04411,35.477],[134.04391,35.47751],[134.04414,35.47896],[134.04446,35.47939],[134.04446,35.48061],[134.04416,35.48173],[134.04767,35.48275],[134.05365,35.48289]]]},"properties":{"key":"312014370","name":"鹿野町寺内","pref":"鳥取県","prefCode":"31","municipality":"鳥取市","areaM2":738785.501,"population":86,"toponymIds":["31-0dc1667cd9"]}},{"type":"Feature","geometry":{"type":"Polygon","coordinates":[[[134.07223,35.46963],[134.07783,35.46931],[134.08107,35.46896],[134.08178,35.46874],[134.08232,35.46834],[134.08609,35.46473],[134.08816,35.46318],[134.08699,35.462],[134.08704,35.46092],[134.0869,35.46019],[134.08568,35.4589],[134.08576,35.45812],[134.07984,35.4618],[134.07715,35.4632],[134.076,35.46351],[134.07089,35.46405],[134.07054,35.46422],[134.07047,35.46455],[134.07151,35.46723],[134.07223,35.46963]]]},"properties":{"key":"312014320","name":"鹿野町閉野","pref":"鳥取県","prefCode":"31","municipality":"鳥取市","areaM2":1053165.646,"population":55,"toponymIds":["31-2988ad7da0"]}},{"type":"Feature","geometry":{"type":"Polygon","coordinates":[[[134.08908,35.47045],[134.08917,35.46958],[134.08944,35.46889],[134.08906,35.46823],[134.08881,35.46711],[134.09018,35.46593],[134.08898,35.46433],[134.08883,35.46388],[134.08816,35.46318],[134.08609,35.46473],[134.08178,35.46874],[134.08107,35.46896],[134.07783,35.46931],[134.07223,35.46963],[134.07183,35.47088],[134.07262,35.47171],[134.07522,35.4719],[134.07629,35.47243],[134.07735,35.47214],[134.07933,35.47244],[134.08032,35.47178],[134.08207,35.47131],[134.08375,35.47049],[134.08684,35.47069],[134.08746,35.47061],[134.08844,35.47015],[134.08908,35.47045]]]},"properties":{"key":"312014330","name":"鹿野町広木","pref":"鳥取県","prefCode":"31","municipality":"鳥取市","areaM2":645411.069,"population":13,"toponymIds":["31-5de3f10686"]}},{"type":"Feature","geometry":{"type":"Polygon","coordinates":[[[134.05643,35.45311],[134.05908,35.45164],[134.06179,35.44971],[134.0694,35.44668],[134.06848,35.44512],[134.06604,35.44013],[134.06549,35.4383],[134.06106,35.4395],[134.06023,35.43927],[134.0597,35.43868],[134.05945,35.43859],[134.05938,35.43911],[134.05912,35.43946],[134.05894,35.44224],[134.05867,35.44273],[134.05819,35.443],[134.05754,35.44304],[134.05688,35.4429],[134.05486,35.44126],[134.05018,35.43809],[134.0483,35.43711],[134.04544,35.4376],[134.04629,35.4384],[134.04701,35.44089],[134.04701,35.44198],[134.04677,35.4435],[134.04713,35.44372],[134.04773,35.44461],[134.04879,35.4451],[134.04931,35.4457],[134.04966,35.44653],[134.04993,35.4468],[134.05242,35.44753],[134.05311,35.44787],[134.05351,35.44842],[134.05377,35.4496],[134.05352,35.45136],[134.05427,35.45366],[134.05408,35.4544],[134.05643,35.45311]]]},"properties":{"key":"312014340","name":"鹿野町水谷","pref":"鳥取県","prefCode":"31","municipality":"鳥取市","areaM2":2016701.615,"population":69,"toponymIds":["31-b7bd94d884"]}},{"type":"Feature","geometry":{"type":"Polygon","coordinates":[[[134.05907,35.48236],[134.0591,35.48176],[134.05892,35.48107],[134.05899,35.48035],[134.05863,35.47936],[134.0585,35.47793],[134.05862,35.4766],[134.0569,35.47621],[134.05405,35.476],[134.05389,35.47845],[134.05274,35.47846],[134.05278,35.47898],[134.05315,35.4794],[134.05316,35.4799],[134.05378,35.47991],[134.05365,35.48289],[134.05628,35.48308],[134.05781,35.48247],[134.05907,35.48236]]]},"properties":{"key":"312014380","name":"鹿野町宮方","pref":"鳥取県","prefCode":"31","municipality":"鳥取市","areaM2":341715.946,"population":56,"toponymIds":["31-3aef397899"]}},{"type":"Feature","geometry":{"type":"Polygon","coordinates":[[[134.21358,35.49056],[134.2153,35.49056],[134.21548,35.48857],[134.21542,35.48551],[134.2131,35.48416],[134.21169,35.48314],[134.20943,35.48194],[134.20299,35.47949],[134.20031,35.47975],[134.20052,35.48046],[134.20066,35.48313],[134.20372,35.4849],[134.20378,35.48577],[134.20251,35.48666],[134.20261,35.48789],[134.20211,35.48898],[134.20427,35.48892],[134.20412,35.48988],[134.20873,35.48971],[134.20882,35.49065],[134.21198,35.49062],[134.21214,35.48942],[134.21359,35.4896],[134.21358,35.49056]]]},"properties":{"key":"312011700","name":"菖蒲","pref":"鳥取県","prefCode":"31","municipality":"鳥取市","areaM2":1085990.621,"population":218,"toponymIds":["31-9863bfb8f6"]}},{"type":"Feature","geometry":{"type":"Polygon","coordinates":[[[134.1179,35.4754],[134.11188,35.46605],[134.11037,35.46477],[134.10823,35.46358],[134.10751,35.4635],[134.10756,35.46598],[134.10722,35.46666],[134.10655,35.46708],[134.10524,35.46758],[134.10076,35.46808],[134.09857,35.46876],[134.0976,35.46925],[134.09935,35.47089],[134.10248,35.47268],[134.10455,35.47444],[134.10549,35.4747],[134.1058,35.47521],[134.10649,35.47581],[134.10927,35.47718],[134.11163,35.47914],[134.11376,35.47755],[134.11486,35.47694],[134.11619,35.47651],[134.11734,35.47651],[134.11713,35.47548],[134.1179,35.4754]]]},"properties":{"key":"312012100","name":"瀬田蔵","pref":"鳥取県","prefCode":"31","municipality":"鳥取市","areaM2":1462748.422,"population":30,"toponymIds":["31-c9670360a3"]}},{"type":"Feature","geometry":{"type":"Polygon","coordinates":[[[134.18786,35.51241],[134.18838,35.51219],[134.18836,35.51183],[134.18852,35.51185],[134.18814,35.51152],[134.18834,35.50886],[134.18949,35.50883],[134.18947,35.50586],[134.18228,35.50606],[134.18241,35.50868],[134.18228,35.50869],[134.18232,35.5113],[134.18346,35.51095],[134.18354,35.51127],[134.1843,35.51105],[134.18462,35.51116],[134.18561,35.51077],[134.18622,35.51085],[134.18645,35.51093],[134.18642,35.51186],[134.18673,35.51218],[134.18709,35.51248],[134.18786,35.51241]]]},"properties":{"key":"312011950","name":"足山","pref":"鳥取県","prefCode":"31","municipality":"鳥取市","areaM2":360622.16,"population":76,"toponymIds":["31-17aad4eb2d"]}},{"type":"Feature","geometry":{"type":"Polygon","coordinates":[[[134.2292,35.46628],[134.23168,35.46627],[134.23168,35.46571],[134.23273,35.46572],[134.23274,35.46477],[134.23314,35.46478],[134.23309,35.46297],[134.23297,35.46298],[134.23314,35.46183],[134.23158,35.46199],[134.22929,35.46192],[134.22918,35.46167],[134.22736,35.46149],[134.22588,35.46085],[134.22473,35.46095],[134.22309,35.46143],[134.22224,35.46145],[134.222,35.46126],[134.22077,35.46178],[134.22068,35.46273],[134.2214,35.4636],[134.22241,35.4643],[134.22328,35.46457],[134.22393,35.46516],[134.22386,35.46552],[134.22443,35.46543],[134.22464,35.46593],[134.22563,35.46578],[134.22563,35.46528],[134.22586,35.46524],[134.22617,35.46628],[134.22776,35.46621],[134.22776,35.4661],[134.22886,35.46625],[134.22894,35.46599],[134.2292,35.46628]]]},"properties":{"key":"312011470","name":"馬場","pref":"鳥取県","prefCode":"31","municipality":"鳥取市","areaM2":496415.19,"population":389,"toponymIds":["31-3e4f3dc46c"]}},{"type":"Feature","geometry":{"type":"Polygon","coordinates":[[[134.24233,35.50199],[134.24241,35.50173],[134.24269,35.50162],[134.24353,35.50215],[134.24434,35.5013],[134.24358,35.50022],[134.24222,35.49988],[134.24144,35.4995],[134.24106,35.49976],[134.24103,35.49996],[134.24014,35.49985],[134.24008,35.50008],[134.24023,35.50014],[134.23963,35.50117],[134.23926,35.50103],[134.23906,35.50137],[134.24095,35.50216],[134.24107,35.50192],[134.24203,35.5022],[134.24233,35.50199]]]},"properties":{"key":"312010020","name":"馬場町","pref":"鳥取県","prefCode":"31","municipality":"鳥取市","areaM2":88026.342,"population":188,"toponymIds":["31-6965aa76ba"]}},{"type":"Feature","geometry":{"type":"Polygon","coordinates":[[[134.32738,35.53337],[134.3268,35.53259],[134.32643,35.53241],[134.32766,35.53166],[134.32882,35.52859],[134.32888,35.52774],[134.32851,35.52736],[134.32842,35.52673],[134.32754,35.52629],[134.32709,35.52549],[134.32738,35.5245],[134.32746,35.52333],[134.32708,35.52253],[134.32534,35.52059],[134.32492,35.51977],[134.32507,35.51923],[134.3255,35.51877],[134.32512,35.51793],[134.32098,35.52017],[134.31255,35.52509],[134.31224,35.52492],[134.3117,35.52504],[134.30946,35.52637],[134.30819,35.52656],[134.30549,35.52594],[134.30414,35.5253],[134.30278,35.52852],[134.30392,35.52855],[134.30377,35.53092],[134.30435,35.53118],[134.30471,35.53154],[134.30894,35.53849],[134.3107,35.53813],[134.31244,35.53866],[134.31421,35.5383],[134.31484,35.5386],[134.31697,35.53847],[134.31783,35.53785],[134.31727,35.53721],[134.31738,35.53552],[134.31763,35.5354],[134.31929,35.53522],[134.31982,35.53538],[134.32227,35.53447],[134.3251,35.53411],[134.32633,35.53422],[134.3268,35.53398],[134.32738,35.53337]]]},"properties":{"key":"312013330","name":"福部町蔵見","pref":"鳥取県","prefCode":"31","municipality":"鳥取市","areaM2":3093778.067,"population":102,"toponymIds":["31-012144456a"]}},{"type":"Feature","geometry":{"type":"Polygon","coordinates":[[[133.36533,35.40115],[133.36524,35.40073],[133.36577,35.4007],[133.36613,35.40048],[133.36688,35.40078],[133.36732,35.40003],[133.36819,35.39997],[133.36822,35.39909],[133.36658,35.39919],[133.36603,35.3994],[133.36584,35.39917],[133.36541,35.39686],[133.36568,35.39629],[133.36613,35.39646],[133.36633,35.39626],[133.36599,35.39598],[133.36633,35.39542],[133.36678,35.39511],[133.36634,35.39481],[133.36728,35.39395],[133.3681,35.39392],[133.36807,35.39405],[133.36829,35.3941],[133.36932,35.39387],[133.37012,35.39337],[133.37091,35.39338],[133.37299,35.39246],[133.37416,35.39219],[133.37461,35.39194],[133.3737,35.39042],[133.37246,35.39079],[133.36948,35.39112],[133.36859,35.39144],[133.3673,35.39129],[133.36707,35.39213],[133.36633,35.39227],[133.36524,35.39187],[133.36555,35.3916],[133.36366,35.39175],[133.36357,35.39126],[133.36203,35.39131],[133.36198,35.39034],[133.36079,35.39042],[133.36074,35.38973],[133.35844,35.38985],[133.35864,35.39015],[133.35804,35.39042],[133.35917,35.39163],[133.36083,35.39303],[133.36192,35.39547],[133.36287,35.39701],[133.36318,35.39822],[133.36319,35.39918],[133.36351,35.39978],[133.36332,35.40028],[133.36349,35.40084],[133.36426,35.40158],[133.36407,35.40082],[133.36454,35.40084],[133.36464,35.40163],[133.36531,35.40186],[133.36551,35.40146],[133.36533,35.40115]]]},"properties":{"key":"312020640","name":"青木","pref":"鳥取県","prefCode":"31","municipality":"米子市","areaM2":637636.573,"population":331,"toponymIds":["31-9ac87b37f8"]}},{"type":"Feature","geometry":{"type":"Polygon","coordinates":[[[133.32899,35.43293],[133.32797,35.43146],[133.32628,35.43252],[133.32666,35.43284],[133.32693,35.43274],[133.32761,35.43359],[133.32854,35.43337],[133.32861,35.43312],[133.32899,35.43293]]]},"properties":{"key":"312020380","name":"岩倉町","pref":"鳥取県","prefCode":"31","municipality":"米子市","areaM2":29892.676,"population":141,"toponymIds":["31-814055fc08"]}},{"type":"Feature","geometry":{"type":"Polygon","coordinates":[[[133.3312,35.43072],[133.3311,35.4306],[133.33097,35.43069],[133.33017,35.42994],[133.32901,35.43067],[133.33007,35.43185],[133.33074,35.43169],[133.33114,35.43139],[133.33175,35.43133],[133.3312,35.43072]]]},"properties":{"key":"312020310","name":"西倉吉町","pref":"鳥取県","prefCode":"31","municipality":"米子市","areaM2":26326.956,"population":167,"toponymIds":["31-837b7479f0"]}},{"type":"Feature","geometry":{"type":"Polygon","coordinates":[[[133.33321,35.4308],[133.33129,35.42925],[133.33017,35.42994],[133.33097,35.43069],[133.3311,35.4306],[133.33214,35.43167],[133.33321,35.4308]]]},"properties":{"key":"312020340","name":"東倉吉町","pref":"鳥取県","prefCode":"31","municipality":"米子市","areaM2":32375.55,"population":31,"toponymIds":["31-f5e7ca4fea"]}},{"type":"Feature","geometry":{"type":"Polygon","coordinates":[[[133.24465,35.48785],[133.24528,35.48727],[133.24578,35.48761],[133.24766,35.48588],[133.24747,35.48573],[133.24871,35.48454],[133.24931,35.48496],[133.25356,35.48137],[133.2546,35.48218],[133.25586,35.48106],[133.25701,35.48191],[133.25865,35.4803],[133.25577,35.47812],[133.25493,35.47881],[133.25548,35.47738],[133.25606,35.47754],[133.25616,35.47726],[133.25562,35.47705],[133.2557,35.4765],[133.25472,35.47615],[133.2552,35.47537],[133.25218,35.47373],[133.24903,35.47136],[133.24779,35.47255],[133.24773,35.473],[133.24932,35.47422],[133.24971,35.47387],[133.25041,35.47438],[133.2509,35.47389],[133.25094,35.47412],[133.2484,35.47698],[133.24811,35.47699],[133.24809,35.47712],[133.24778,35.47676],[133.24875,35.47559],[133.24861,35.47466],[133.24676,35.47337],[133.24691,35.47317],[133.24494,35.47543],[133.24429,35.47549],[133.24118,35.47886],[133.24106,35.4788],[133.24067,35.4792],[133.24096,35.47897],[133.2412,35.47907],[133.24092,35.47946],[133.24035,35.47926],[133.24026,35.4791],[133.2404,35.47893],[133.24023,35.4791],[133.24062,35.47946],[133.23966,35.4806],[133.23964,35.48089],[133.23983,35.48115],[133.24226,35.48265],[133.24224,35.48287],[133.24094,35.48401],[133.24093,35.48425],[133.24047,35.4847],[133.24029,35.48476],[133.23983,35.48451],[133.23925,35.48536],[133.23884,35.48555],[133.23853,35.48591],[133.23927,35.4865],[133.24004,35.48668],[133.24116,35.48727],[133.24254,35.48631],[133.24298,35.48642],[133.24362,35.48711],[133.24465,35.48785]]]},"properties":{"key":"312020840","name":"葭津","pref":"鳥取県","prefCode":"31","municipality":"米子市","areaM2":1593088.638,"population":743,"toponymIds":["31-f4c2267eb8"]}},{"type":"Feature","geometry":{"type":"Polygon","coordinates":[[[133.8122,35.39763],[133.81618,35.39711],[133.81722,35.39493],[133.8214,35.3949],[133.82368,35.39434],[133.82629,35.39319],[133.82742,35.39225],[133.83051,35.38906],[133.83317,35.38711],[133.83346,35.38635],[133.83528,35.3846],[133.83479,35.38399],[133.83456,35.38336],[133.83481,35.38211],[133.83469,35.3818],[133.83479,35.38128],[133.8345,35.38091],[133.83457,35.3806],[133.83422,35.38019],[133.83399,35.37929],[133.83359,35.37905],[133.8323,35.37751],[133.83222,35.37681],[133.8219,35.376],[133.82036,35.37995],[133.81514,35.3776],[133.8184,35.36667],[133.81469,35.36103],[133.81338,35.36223],[133.81349,35.36323],[133.81329,35.36417],[133.81281,35.36464],[133.81058,35.36587],[133.81074,35.36686],[133.81037,35.36805],[133.80974,35.36924],[133.80823,35.37007],[133.8074,35.37101],[133.80683,35.37141],[133.8059,35.37179],[133.80341,35.3723],[133.80319,35.37264],[133.80296,35.37387],[133.80238,35.3751],[133.80182,35.37591],[133.79991,35.37795],[133.79885,35.37984],[133.79882,35.38151],[133.79827,35.38336],[133.79834,35.38401],[133.79854,35.38464],[133.79965,35.3859],[133.79986,35.38659],[133.79982,35.38741],[133.79955,35.38888],[133.79885,35.39058],[133.798,35.39129],[133.79679,35.39327],[133.79956,35.39363],[133.80094,35.39452],[133.8014,35.39526],[133.80295,35.39582],[133.80456,35.39551],[133.80565,35.39479],[133.80612,35.39484],[133.80695,35.39549],[133.80903,35.3964],[133.80948,35.39687],[133.81086,35.39636],[133.8122,35.39763]]]},"properties":{"key":"312031450","name":"岩倉","pref":"鳥取県","prefCode":"31","municipality":"倉吉市","areaM2":7414299.068,"population":96,"toponymIds":["31-257d6a933e"]}},{"type":"Feature","geometry":{"type":"Polygon","coordinates":[[[133.81599,35.43126],[133.81654,35.43123],[133.81686,35.43076],[133.81748,35.43097],[133.81794,35.4298],[133.81877,35.4286],[133.81861,35.42811],[133.81816,35.42776],[133.8158,35.42748],[133.81578,35.42784],[133.81546,35.42788],[133.81539,35.42843],[133.81456,35.42996],[133.81472,35.43001],[133.81444,35.43075],[133.81599,35.43126]]]},"properties":{"key":"31203079001","name":"鍛冶町一丁目","pref":"鳥取県","prefCode":"31","municipality":"倉吉市","areaM2":109534.59,"population":154,"toponymIds":["31-697e146128"]}},{"type":"Feature","geometry":{"type":"Polygon","coordinates":[[[133.78245,35.40772],[133.78575,35.40589],[133.78658,35.40498],[133.7886,35.40474],[133.78868,35.40489],[133.79184,35.40437],[133.79176,35.40402],[133.79105,35.40352],[133.7927,35.40301],[133.79185,35.39861],[133.79016,35.39757],[133.79098,35.3967],[133.78976,35.39587],[133.78738,35.39707],[133.78728,35.39753],[133.7875,35.39778],[133.78652,35.39794],[133.78681,35.39889],[133.78614,35.399],[133.78618,35.39915],[133.78274,35.39966],[133.78265,35.39948],[133.78133,35.39971],[133.78082,35.40015],[133.77997,35.40032],[133.77917,35.40074],[133.77814,35.40068],[133.77739,35.40113],[133.77743,35.40143],[133.77677,35.40185],[133.77572,35.40206],[133.77375,35.40325],[133.77605,35.4059],[133.77774,35.40731],[133.7782,35.40737],[133.77865,35.40767],[133.77945,35.40854],[133.78029,35.40893],[133.78245,35.40772]]]},"properties":{"key":"312031580","name":"上古川","pref":"鳥取県","prefCode":"31","municipality":"倉吉市","areaM2":1224596.856,"population":300,"toponymIds":["31-cba9972541"]}},{"type":"Feature","geometry":{"type":"Polygon","coordinates":[[[133.81166,35.43217],[133.81203,35.43182],[133.81249,35.43196],[133.81274,35.43142],[133.81264,35.43137],[133.81299,35.43092],[133.81354,35.43085],[133.81328,35.43039],[133.8134,35.43035],[133.81326,35.42928],[133.81212,35.42892],[133.81169,35.42826],[133.81136,35.42835],[133.81123,35.42811],[133.81089,35.42827],[133.81046,35.42766],[133.8107,35.42675],[133.81057,35.42643],[133.8098,35.42635],[133.80945,35.42825],[133.80942,35.43001],[133.80992,35.43152],[133.81045,35.43121],[133.81098,35.43173],[133.81128,35.43127],[133.81181,35.43166],[133.81157,35.4321],[133.81166,35.43217]]]},"properties":{"key":"312030810","name":"河原町","pref":"鳥取県","prefCode":"31","municipality":"倉吉市","areaM2":130493.41,"population":312,"toponymIds":["31-172ee88dd9"]}},{"type":"Feature","geometry":{"type":"Polygon","coordinates":[[[133.79958,35.40218],[133.79828,35.40094],[133.79802,35.40017],[133.79815,35.39927],[133.79862,35.39859],[133.79856,35.39823],[133.79787,35.39749],[133.79744,35.39669],[133.79765,35.39592],[133.79684,35.39661],[133.79737,35.39734],[133.79511,35.39932],[133.79098,35.3967],[133.79016,35.39757],[133.79185,35.39861],[133.7927,35.40301],[133.79385,35.40414],[133.79659,35.40229],[133.79772,35.40343],[133.79958,35.40218]]]},"properties":{"key":"312031570","name":"蔵内","pref":"鳥取県","prefCode":"31","municipality":"倉吉市","areaM2":343858.933,"population":46,"toponymIds":["31-4926cf2d6e"]}},{"type":"Feature","geometry":{"type":"Polygon","coordinates":[[[133.83476,35.46573],[133.83472,35.46094],[133.83566,35.45946],[133.83547,35.45914],[133.83436,35.46013],[133.83369,35.4612],[133.83211,35.46152],[133.83192,35.46087],[133.82886,35.46145],[133.82955,35.46355],[133.82865,35.46294],[133.8283,35.46297],[133.82715,35.46237],[133.82559,35.46393],[133.82532,35.46488],[133.82541,35.4653],[133.82572,35.46553],[133.82643,35.46502],[133.82695,35.46515],[133.82748,35.46504],[133.82837,35.46593],[133.82946,35.4663],[133.83008,35.4675],[133.82919,35.46887],[133.83277,35.46785],[133.83233,35.46686],[133.83486,35.4661],[133.83476,35.46573]]]},"properties":{"key":"312030060","name":"下古川","pref":"鳥取県","prefCode":"31","municipality":"倉吉市","areaM2":453325.436,"population":255,"toponymIds":["31-feadedb2c0"]}},{"type":"Feature","geometry":{"type":"Polygon","coordinates":[[[133.83222,35.37681],[133.83224,35.37662],[133.83287,35.37634],[133.83311,35.37562],[133.83285,35.37468],[133.83238,35.37425],[133.83246,35.37352],[133.83043,35.37203],[133.83148,35.37132],[133.83143,35.3708],[133.83221,35.36921],[133.83281,35.3686],[133.83432,35.36762],[133.83458,35.36678],[133.833,35.36564],[133.83183,35.36532],[133.83154,35.36475],[133.83147,35.36366],[133.83105,35.36202],[133.83035,35.36158],[133.83059,35.36032],[133.83046,35.35949],[133.83014,35.3589],[133.83031,35.35832],[133.8302,35.35704],[133.82929,35.35619],[133.82912,35.35544],[133.82832,35.35524],[133.82792,35.35448],[133.82757,35.35414],[133.8266,35.35405],[133.82634,35.35372],[133.82587,35.35354],[133.82537,35.3528],[133.82279,35.35273],[133.82215,35.35301],[133.82197,35.3529],[133.8219,35.35242],[133.8212,35.35269],[133.82027,35.35333],[133.81891,35.35534],[133.81748,35.35675],[133.81662,35.35734],[133.81637,35.35904],[133.81578,35.36007],[133.81469,35.36103],[133.8184,35.36667],[133.81514,35.3776],[133.82036,35.37995],[133.8219,35.376],[133.83222,35.37681]]]},"properties":{"key":"312031460","name":"菅原","pref":"鳥取県","prefCode":"31","municipality":"倉吉市","areaM2":3487180.23,"population":0,"toponymIds":["31-40562c18b2"]}},{"type":"Feature","geometry":{"type":"Polygon","coordinates":[[[133.74143,35.37918],[133.74242,35.37904],[133.74373,35.37936],[133.74355,35.37796],[133.74417,35.37641],[133.7448,35.37661],[133.74539,35.37445],[133.74527,35.37383],[133.74502,35.3737],[133.74352,35.37328],[133.74184,35.37305],[133.74141,35.37259],[133.74163,35.3723],[133.74305,35.37289],[133.74332,35.37191],[133.74603,35.37232],[133.74609,35.37217],[133.7462,35.37046],[133.74656,35.36904],[133.74598,35.36586],[133.7459,35.36567],[133.74524,35.36559],[133.74524,35.36434],[133.74398,35.36459],[133.74312,35.36437],[133.74255,35.36485],[133.7414,35.36531],[133.73934,35.36412],[133.73525,35.36413],[133.73391,35.36355],[133.73257,35.36412],[133.73316,35.3643],[133.73392,35.36546],[133.73409,35.36546],[133.73411,35.36757],[133.7345,35.36815],[133.73461,35.36918],[133.73443,35.36939],[133.73424,35.36928],[133.73426,35.36959],[133.73453,35.3702],[133.73499,35.37062],[133.73471,35.37078],[133.73446,35.3715],[133.73443,35.37171],[133.73467,35.37196],[133.73398,35.37215],[133.73192,35.37219],[133.73079,35.37167],[133.7285,35.37115],[133.7283,35.37152],[133.72783,35.3717],[133.72773,35.37205],[133.72843,35.37226],[133.72768,35.37249],[133.72759,35.37279],[133.72981,35.37324],[133.73112,35.37331],[133.73074,35.37391],[133.73032,35.37375],[133.73026,35.37407],[133.72562,35.37352],[133.72465,35.37458],[133.72453,35.37554],[133.72378,35.37535],[133.72294,35.37458],[133.72211,35.37421],[133.7211,35.37391],[133.71931,35.37391],[133.71904,35.37356],[133.71856,35.3733],[133.71611,35.37381],[133.71581,35.37399],[133.71561,35.37439],[133.71568,35.37477],[133.7165,35.37494],[133.71822,35.37495],[133.71983,35.37585],[133.72329,35.37711],[133.7237,35.37712],[133.72527,35.37664],[133.72856,35.3774],[133.73068,35.37769],[133.73316,35.37842],[133.73449,35.37858],[133.73647,35.37909],[133.73954,35.3793],[133.74045,35.37915],[133.74105,35.37936],[133.74143,35.37918]]]},"properties":{"key":"312031670","name":"関金町松河原","pref":"鳥取県","prefCode":"31","municipality":"倉吉市","areaM2":2260435.96,"population":304,"toponymIds":["31-1638bca8e3"]}},{"type":"Feature","geometry":{"type":"Polygon","coordinates":[[[133.80158,35.41668],[133.80438,35.41574],[133.80462,35.41633],[133.8073,35.41561],[133.80653,35.41443],[133.80876,35.41348],[133.80771,35.41182],[133.80155,35.40464],[133.80071,35.40528],[133.80076,35.40644],[133.80055,35.40627],[133.79949,35.40708],[133.79838,35.40706],[133.8,35.40871],[133.79959,35.40898],[133.80021,35.40939],[133.80052,35.40981],[133.79979,35.41005],[133.80008,35.41148],[133.79861,35.4115],[133.79722,35.41069],[133.7979,35.41384],[133.79447,35.4144],[133.7936,35.41439],[133.79355,35.4147],[133.79357,35.41549],[133.79381,35.41616],[133.79412,35.41645],[133.79404,35.41602],[133.79456,35.41633],[133.79833,35.41597],[133.8004,35.41555],[133.80108,35.41558],[133.80158,35.41668]]]},"properties":{"key":"312031500","name":"中河原","pref":"鳥取県","prefCode":"31","municipality":"倉吉市","areaM2":848891.859,"population":488,"toponymIds":["31-0b3344f2dc"]}},{"type":"Feature","geometry":{"type":"Polygon","coordinates":[[[133.81793,35.43314],[133.81805,35.43281],[133.81838,35.43292],[133.8186,35.43205],[133.81698,35.43182],[133.81656,35.43283],[133.81793,35.43314]]]},"properties":{"key":"312030750","name":"西岩倉町","pref":"鳥取県","prefCode":"31","municipality":"倉吉市","areaM2":18857.767,"population":74,"toponymIds":["31-cf55543719"]}},{"type":"Feature","geometry":{"type":"Polygon","coordinates":[[[133.80457,35.4307],[133.80534,35.43077],[133.80942,35.43001],[133.80945,35.42825],[133.80976,35.42679],[133.80685,35.42721],[133.80654,35.4265],[133.80485,35.42475],[133.80462,35.42486],[133.80456,35.42385],[133.80265,35.42459],[133.80285,35.42503],[133.80178,35.42552],[133.80157,35.42597],[133.8016,35.42622],[133.80258,35.42699],[133.80258,35.42735],[133.80283,35.42766],[133.80267,35.42768],[133.80346,35.42927],[133.80277,35.42939],[133.80069,35.43046],[133.80024,35.43033],[133.80034,35.431],[133.7998,35.43166],[133.80061,35.43275],[133.80412,35.43094],[133.80408,35.43081],[133.80457,35.4307]]]},"properties":{"key":"312031530","name":"西倉吉町","pref":"鳥取県","prefCode":"31","municipality":"倉吉市","areaM2":395202.96,"population":927,"toponymIds":["31-75c0d336e8"]}},{"type":"Feature","geometry":{"type":"Polygon","coordinates":[[[133.81892,35.44442],[133.81775,35.44282],[133.81699,35.44249],[133.81636,35.44179],[133.81535,35.44192],[133.81538,35.44213],[133.81515,35.44231],[133.81326,35.44261],[133.81366,35.44399],[133.81672,35.44434],[133.81688,35.44521],[133.81649,35.44749],[133.81728,35.44779],[133.81818,35.44841],[133.81936,35.4488],[133.82005,35.44954],[133.82123,35.45042],[133.8215,35.45118],[133.82182,35.45153],[133.82429,35.44963],[133.8246,35.44747],[133.82185,35.44626],[133.82059,35.44599],[133.81981,35.4456],[133.81892,35.44442]]]},"properties":{"key":"312031080","name":"馬場町","pref":"鳥取県","prefCode":"31","municipality":"倉吉市","areaM2":392726.41,"population":354,"toponymIds":["31-7671e97c0a"]}},{"type":"Feature","geometry":{"type":"Polygon","coordinates":[[[133.82025,35.43298],[133.82024,35.43229],[133.81858,35.43215],[133.81844,35.43249],[133.81838,35.43296],[133.81868,35.43289],[133.81897,35.43319],[133.82025,35.43298]]]},"properties":{"key":"312030740","name":"東岩倉町","pref":"鳥取県","prefCode":"31","municipality":"倉吉市","areaM2":15295.883,"population":42,"toponymIds":["31-83083500a6"]}},{"type":"Feature","geometry":{"type":"Polygon","coordinates":[[[133.82886,35.46145],[133.82807,35.45874],[133.82875,35.45859],[133.83002,35.45655],[133.82989,35.45597],[133.83036,35.45449],[133.82956,35.45364],[133.82948,35.45295],[133.82828,35.4529],[133.82778,35.45368],[133.82656,35.45313],[133.82579,35.4522],[133.82563,35.45071],[133.82545,35.45037],[133.82482,35.44974],[133.8243,35.44951],[133.8207,35.45242],[133.82219,35.45437],[133.82017,35.45592],[133.82015,35.45673],[133.81996,35.4571],[133.81898,35.45735],[133.81835,35.45788],[133.81972,35.45864],[133.81994,35.45944],[133.82045,35.45981],[133.82092,35.46042],[133.82169,35.46079],[133.82195,35.4622],[133.82164,35.46285],[133.82079,35.46349],[133.82282,35.46322],[133.8236,35.46367],[133.82413,35.46371],[133.82518,35.46349],[133.8255,35.46364],[133.82559,35.46393],[133.82715,35.46237],[133.8283,35.46297],[133.82865,35.46294],[133.82955,35.46355],[133.82886,35.46145]]]},"properties":{"key":"312030070","name":"古川沢","pref":"鳥取県","prefCode":"31","municipality":"倉吉市","areaM2":991502.327,"population":128,"toponymIds":["31-47f407f145"]}},{"type":"Feature","geometry":{"type":"Polygon","coordinates":[[[133.22494,35.54242],[133.225,35.54232],[133.2277,35.54239],[133.22923,35.53972],[133.22926,35.53846],[133.22653,35.53842],[133.22429,35.54219],[133.22494,35.54242]]]},"properties":{"key":"312040230","name":"馬場崎町","pref":"鳥取県","prefCode":"31","municipality":"境港市","areaM2":133034.619,"population":596,"toponymIds":["31-a4ae2cbeb8"]}}]}
