{"type":"FeatureCollection","features":[{"type":"Feature","geometry":{"type":"Polygon","coordinates":[[[132.90296,35.40682],[132.90308,35.40669],[132.90185,35.40547],[132.89916,35.40512],[132.8992,35.40411],[132.89768,35.40361],[132.89122,35.40251],[132.89093,35.4025],[132.89056,35.40289],[132.88919,35.40259],[132.88696,35.40263],[132.88845,35.40325],[132.88985,35.40452],[132.89084,35.40583],[132.89296,35.40924],[132.89388,35.41039],[132.89702,35.41297],[132.89764,35.4122],[132.90274,35.4072],[132.90296,35.40682]]]},"properties":{"key":"322012050","name":"宍道町昭和新田","pref":"島根県","prefCode":"32","municipality":"松江市","areaM2":782075.414,"population":0,"toponymIds":["32-42e81c1d65"]}},{"type":"Feature","geometry":{"type":"Polygon","coordinates":[[[132.95204,35.51807],[132.95259,35.51665],[132.95258,35.51508],[132.95368,35.51315],[132.95409,35.51277],[132.95457,35.51258],[132.95602,35.51243],[132.9574,35.51166],[132.95879,35.51157],[132.96176,35.51069],[132.96158,35.50816],[132.96216,35.50683],[132.96235,35.50478],[132.96292,35.50338],[132.96301,35.50264],[132.96267,35.50184],[132.96189,35.50089],[132.9595,35.49901],[132.95946,35.4986],[132.95906,35.49817],[132.95904,35.49783],[132.96073,35.49693],[132.96166,35.4955],[132.96278,35.49486],[132.96412,35.49172],[132.96426,35.49071],[132.96482,35.48968],[132.96474,35.48926],[132.96493,35.48806],[132.96406,35.48713],[132.96388,35.4859],[132.96326,35.4846],[132.96282,35.48401],[132.9622,35.48357],[132.96192,35.48276],[132.96163,35.48243],[132.96195,35.48105],[132.96317,35.47969],[132.95977,35.47833],[132.95987,35.47815],[132.95974,35.47832],[132.95848,35.47779],[132.95859,35.47755],[132.95843,35.47742],[132.95836,35.47774],[132.95807,35.47762],[132.95838,35.47737],[132.95819,35.47737],[132.95804,35.4776],[132.95747,35.47734],[132.95748,35.47721],[132.95741,35.47731],[132.95553,35.47657],[132.95455,35.47594],[132.95469,35.47564],[132.95454,35.47589],[132.95436,35.47574],[132.95465,35.4756],[132.95432,35.47575],[132.9539,35.47548],[132.95321,35.47642],[132.9525,35.47646],[132.95248,35.47678],[132.95215,35.47685],[132.95154,35.48005],[132.95108,35.48022],[132.95163,35.48115],[132.95151,35.4813],[132.9516,35.48149],[132.95111,35.48154],[132.95061,35.48236],[132.94926,35.48309],[132.94738,35.4872],[132.94754,35.48958],[132.94698,35.49088],[132.94672,35.49291],[132.94598,35.49482],[132.94588,35.49565],[132.94487,35.49701],[132.94477,35.49794],[132.94455,35.49847],[132.94335,35.49971],[132.9425,35.50023],[132.94115,35.50141],[132.93964,35.50209],[132.9387,35.50227],[132.93735,35.50226],[132.93439,35.50174],[132.93362,35.502],[132.93222,35.50401],[132.93168,35.50554],[132.92888,35.50726],[132.92831,35.50797],[132.92816,35.5086],[132.9284,35.51079],[132.92833,35.51228],[132.92848,35.5128],[132.93081,35.51514],[132.93134,35.51605],[132.93202,35.51625],[132.93193,35.51667],[132.93218,35.5167],[132.93231,35.5165],[132.93275,35.51662],[132.93244,35.51665],[132.93285,35.51673],[132.93263,35.51698],[132.93317,35.5169],[132.93332,35.51711],[132.93309,35.51655],[132.93343,35.51647],[132.93366,35.51653],[132.93349,35.51685],[132.93407,35.51661],[132.93403,35.5171],[132.93413,35.51663],[132.93461,35.51662],[132.9347,35.51646],[132.93488,35.51652],[132.93567,35.51617],[132.93559,35.51627],[132.93583,35.51639],[132.93591,35.51611],[132.93628,35.51596],[132.93673,35.51617],[132.93668,35.51603],[132.93747,35.51589],[132.93787,35.5156],[132.93914,35.51522],[132.93941,35.51495],[132.93981,35.51518],[132.93933,35.51473],[132.93964,35.51449],[132.93998,35.51477],[132.93989,35.51496],[132.94006,35.51478],[132.9407,35.51481],[132.94147,35.51513],[132.94161,35.51543],[132.94135,35.51582],[132.94158,35.516],[132.94137,35.51616],[132.94156,35.51613],[132.94143,35.51629],[132.94173,35.51662],[132.94186,35.51647],[132.9417,35.5162],[132.94202,35.51645],[132.94258,35.51645],[132.94292,35.51612],[132.94344,35.5164],[132.94372,35.51618],[132.94424,35.5163],[132.94447,35.51613],[132.94518,35.51651],[132.94585,35.51631],[132.94635,35.51642],[132.94662,35.51614],[132.94753,35.51674],[132.94748,35.51691],[132.94777,35.51695],[132.94781,35.51719],[132.94837,35.51726],[132.94837,35.51745],[132.94889,35.5177],[132.9483,35.51771],[132.94839,35.51787],[132.94898,35.51794],[132.94933,35.51782],[132.94954,35.51796],[132.94972,35.51784],[132.94962,35.51771],[132.95053,35.51756],[132.95188,35.51797],[132.95197,35.51822],[132.95204,35.51807]]]},"properties":{"key":"322010760","name":"秋鹿町","pref":"島根県","prefCode":"32","municipality":"松江市","areaM2":8018941.076,"population":1012,"toponymIds":["32-9364805afe"]}},{"type":"Feature","geometry":{"type":"Polygon","coordinates":[[[132.96762,35.53173],[132.96899,35.53112],[132.97258,35.53007],[132.97293,35.5302],[132.9742,35.53004],[132.97961,35.53002],[132.97873,35.52923],[132.97793,35.52879],[132.97769,35.5278],[132.97777,35.52716],[132.97765,35.52685],[132.97816,35.52687],[132.97789,35.52649],[132.97818,35.52653],[132.97816,35.52608],[132.97855,35.52602],[132.97871,35.52617],[132.97879,35.5258],[132.97864,35.52513],[132.97741,35.52543],[132.97499,35.52551],[132.97361,35.52536],[132.97366,35.52503],[132.97331,35.52598],[132.97359,35.52539],[132.97432,35.52543],[132.97424,35.52578],[132.97476,35.52587],[132.97457,35.52669],[132.97317,35.52647],[132.97318,35.52631],[132.97296,35.52693],[132.97448,35.52706],[132.97434,35.5277],[132.97277,35.52758],[132.97141,35.52617],[132.97146,35.52528],[132.97132,35.52529],[132.97133,35.52631],[132.97079,35.52655],[132.97159,35.52774],[132.96853,35.52914],[132.96708,35.52644],[132.96811,35.52563],[132.96706,35.5264],[132.96654,35.52539],[132.96641,35.52544],[132.96876,35.52998],[132.96855,35.5303],[132.96807,35.53029],[132.96824,35.53037],[132.96803,35.53042],[132.96822,35.53044],[132.96806,35.53054],[132.96827,35.53051],[132.9682,35.53078],[132.9679,35.53102],[132.96791,35.53137],[132.96731,35.53167],[132.96762,35.53173]]]},"properties":{"key":"322011610","name":"鹿島町恵曇","pref":"島根県","prefCode":"32","municipality":"松江市","areaM2":355359.648,"population":454,"toponymIds":["32-af2cf7f4fe"]}},{"type":"Feature","geometry":{"type":"Polygon","coordinates":[[[132.98521,35.54664],[132.98481,35.54649],[132.98494,35.54643],[132.98484,35.54635],[132.98431,35.54647],[132.9851,35.54679],[132.98521,35.54664]]]},"properties":{"key":"322011600","name":"鹿島町片句","pref":"島根県","prefCode":"32","municipality":"松江市","areaM2":1773.44,"population":0,"toponymIds":["32-1743ce02e0"]}},{"type":"Feature","geometry":{"type":"Polygon","coordinates":[[[133.04511,35.53715],[133.04684,35.53713],[133.04741,35.53679],[133.04813,35.53668],[133.0485,35.53629],[133.04934,35.53615],[133.05106,35.53496],[133.05168,35.53479],[133.05255,35.53408],[133.05395,35.53401],[133.05533,35.53433],[133.05858,35.53363],[133.06056,35.5341],[133.0629,35.53415],[133.06867,35.5329],[133.06905,35.533],[133.07082,35.52921],[133.07191,35.52772],[133.07235,35.52676],[133.07187,35.52542],[133.07177,35.52367],[133.0715,35.52286],[133.07059,35.52134],[133.06938,35.52037],[133.0689,35.51975],[133.06835,35.51846],[133.06815,35.51765],[133.06827,35.51707],[133.06889,35.51585],[133.06887,35.51551],[133.06851,35.51523],[133.06801,35.5151],[133.06657,35.51598],[133.06556,35.51606],[133.06518,35.51624],[133.06441,35.51705],[133.06338,35.51755],[133.06024,35.51726],[133.05813,35.51778],[133.05614,35.51803],[133.05488,35.51847],[133.05462,35.51843],[133.05398,35.51779],[133.0534,35.51776],[133.05291,35.5175],[133.05255,35.5171],[133.05221,35.51568],[133.05148,35.51533],[133.04892,35.51614],[133.04884,35.51754],[133.04853,35.51771],[133.04787,35.51756],[133.04743,35.51816],[133.04625,35.51803],[133.0461,35.51737],[133.04441,35.51724],[133.04396,35.51756],[133.04358,35.51752],[133.04157,35.51657],[133.04131,35.516],[133.03985,35.51595],[133.03844,35.51679],[133.03745,35.51623],[133.03669,35.51612],[133.03635,35.51703],[133.03601,35.51748],[133.03482,35.51855],[133.03569,35.51961],[133.03496,35.51992],[133.03444,35.52041],[133.03429,35.52108],[133.03457,35.52212],[133.03447,35.52251],[133.03361,35.52246],[133.0343,35.52367],[133.03454,35.52513],[133.03397,35.52588],[133.0329,35.52663],[133.03074,35.52721],[133.03134,35.52878],[133.0324,35.53085],[133.03332,35.53199],[133.03407,35.53193],[133.03455,35.53209],[133.03564,35.53333],[133.03635,35.53372],[133.03854,35.53377],[133.04062,35.53521],[133.04122,35.53663],[133.04176,35.53714],[133.04208,35.53727],[133.04511,35.53715]]]},"properties":{"key":"322011690","name":"鹿島町上講武","pref":"島根県","prefCode":"32","municipality":"松江市","areaM2":6538720.653,"population":311,"toponymIds":["32-91d907fa9e"]}},{"type":"Feature","geometry":{"type":"Polygon","coordinates":[[[133.03332,35.53199],[133.0324,35.53085],[133.03134,35.52878],[133.0302,35.52564],[133.03001,35.52536],[133.02873,35.52457],[133.029,35.52269],[133.02868,35.52219],[133.02915,35.52206],[133.02926,35.5218],[133.02671,35.52121],[133.02326,35.52147],[133.02306,35.51903],[133.01938,35.51918],[133.0192,35.51687],[133.01682,35.51699],[133.01673,35.51511],[133.01411,35.5152],[133.01416,35.51691],[133.01442,35.51736],[133.01441,35.51765],[133.01344,35.51768],[133.01269,35.51842],[133.01256,35.51886],[133.01305,35.51917],[133.01285,35.51981],[133.01344,35.52042],[133.01345,35.521],[133.01411,35.52154],[133.01392,35.52446],[133.01425,35.52533],[133.01487,35.5263],[133.01519,35.52756],[133.01772,35.53076],[133.01805,35.53096],[133.02394,35.53135],[133.02445,35.53161],[133.02517,35.53234],[133.02578,35.53245],[133.02634,35.5324],[133.02814,35.53181],[133.02904,35.53184],[133.03118,35.53244],[133.03228,35.53238],[133.03332,35.53199]]]},"properties":{"key":"322011670","name":"鹿島町北講武","pref":"島根県","prefCode":"32","municipality":"松江市","areaM2":1982375.721,"population":308,"toponymIds":["32-faafbbbce3"]}},{"type":"Feature","geometry":{"type":"Polygon","coordinates":[[[132.97513,35.5255],[132.97737,35.52544],[132.97825,35.52522],[132.9782,35.52504],[132.97857,35.52496],[132.97849,35.52476],[132.97891,35.52457],[132.9788,35.524],[132.97906,35.52283],[132.97898,35.5217],[132.98003,35.52157],[132.97998,35.52091],[132.97962,35.52059],[132.97904,35.5204],[132.97894,35.51994],[132.97854,35.51951],[132.97748,35.51938],[132.9768,35.51805],[132.97701,35.51732],[132.97761,35.51683],[132.97753,35.51587],[132.97844,35.51329],[132.97845,35.51233],[132.97816,35.5116],[132.97845,35.5098],[132.97776,35.51008],[132.97729,35.51089],[132.97647,35.51151],[132.97509,35.51208],[132.97381,35.51204],[132.97231,35.5128],[132.97114,35.5119],[132.96956,35.511],[132.96823,35.51182],[132.96754,35.51171],[132.96639,35.51237],[132.96603,35.51235],[132.96412,35.51066],[132.96346,35.51043],[132.96167,35.51023],[132.96176,35.51069],[132.95879,35.51157],[132.9574,35.51166],[132.95602,35.51243],[132.95457,35.51258],[132.95409,35.51277],[132.95368,35.51315],[132.95258,35.51508],[132.95259,35.51665],[132.95204,35.51807],[132.95236,35.51813],[132.95243,35.51832],[132.95292,35.51804],[132.95311,35.51823],[132.95367,35.51811],[132.95387,35.51819],[132.95379,35.51837],[132.95431,35.51835],[132.954,35.51861],[132.95402,35.51875],[132.95419,35.51872],[132.95414,35.51898],[132.95493,35.51884],[132.9545,35.5183],[132.95474,35.51806],[132.95558,35.518],[132.95621,35.51764],[132.9564,35.51771],[132.95648,35.51738],[132.95885,35.51662],[132.96052,35.51562],[132.96284,35.51499],[132.96444,35.51499],[132.96448,35.51484],[132.96467,35.51494],[132.96464,35.51478],[132.965,35.51467],[132.96517,35.51485],[132.96554,35.5147],[132.96603,35.51482],[132.96625,35.51466],[132.96642,35.51474],[132.96634,35.51508],[132.96651,35.51518],[132.96847,35.5152],[132.96858,35.51533],[132.9686,35.51522],[132.96913,35.51547],[132.96991,35.51552],[132.9701,35.51596],[132.9707,35.51579],[132.97141,35.51606],[132.97279,35.51702],[132.97361,35.51859],[132.9743,35.51828],[132.9734,35.51906],[132.97371,35.5188],[132.97424,35.5193],[132.97448,35.51985],[132.97442,35.521],[132.97467,35.52166],[132.97373,35.52182],[132.97542,35.52164],[132.97274,35.522],[132.97308,35.52353],[132.97157,35.52462],[132.97267,35.5239],[132.97281,35.52404],[132.97303,35.52387],[132.97299,35.52368],[132.97316,35.52383],[132.97321,35.52351],[132.97285,35.52214],[132.97445,35.5219],[132.97476,35.5232],[132.97391,35.52332],[132.97396,35.52355],[132.97534,35.52329],[132.97529,35.52359],[132.97546,35.52369],[132.97459,35.52378],[132.97464,35.52415],[132.97448,35.52416],[132.97459,35.52506],[132.97508,35.52509],[132.97499,35.52551],[132.97513,35.5255]]]},"properties":{"key":"322011620","name":"鹿島町古浦","pref":"島根県","prefCode":"32","municipality":"松江市","areaM2":1550644.953,"population":673,"toponymIds":["32-b5ee5fc9df"]}},{"type":"Feature","geometry":{"type":"Polygon","coordinates":[[[132.98592,35.53573],[132.98737,35.53637],[132.98798,35.53633],[132.98881,35.53576],[132.99058,35.53583],[132.99158,35.53489],[132.99263,35.53485],[132.99298,35.53467],[132.99382,35.53291],[132.9945,35.53234],[132.99516,35.53212],[132.99591,35.53162],[132.998,35.53134],[133.00342,35.53154],[133.00311,35.5302],[133.00238,35.52948],[133.00233,35.52795],[133.00161,35.52612],[133.00161,35.52582],[133.00215,35.52493],[133.00179,35.52393],[133.00153,35.52209],[133.0028,35.52309],[133.0033,35.52311],[133.00481,35.52256],[133.00557,35.52254],[133.00611,35.5227],[133.00635,35.5225],[133.00611,35.52207],[133.00545,35.52193],[133.00545,35.52109],[133.00505,35.52098],[133.00491,35.52113],[133.0025,35.52034],[133.00242,35.51984],[133.00178,35.51856],[132.99875,35.51635],[132.99826,35.51633],[132.9972,35.51661],[132.99543,35.51539],[132.99454,35.51515],[132.99406,35.51446],[132.99394,35.51293],[132.99289,35.51192],[132.99253,35.51132],[132.99183,35.51146],[132.99071,35.51125],[132.98947,35.51147],[132.98868,35.5123],[132.98737,35.51308],[132.98656,35.51406],[132.98576,35.51444],[132.98496,35.51447],[132.98271,35.51386],[132.98049,35.51227],[132.97906,35.51213],[132.97882,35.51108],[132.97891,35.51014],[132.9799,35.5098],[132.97994,35.50961],[132.9797,35.50938],[132.97878,35.50923],[132.97845,35.5098],[132.97816,35.5116],[132.97845,35.51233],[132.97844,35.51329],[132.97753,35.51587],[132.97761,35.51683],[132.97684,35.51761],[132.97685,35.51833],[132.97748,35.51938],[132.97854,35.51951],[132.97894,35.51994],[132.97904,35.5204],[132.97962,35.52059],[132.97998,35.52091],[132.98178,35.52134],[132.9837,35.52129],[132.9845,35.52163],[132.98556,35.52142],[132.98574,35.52276],[132.98302,35.52314],[132.98255,35.52363],[132.98294,35.52408],[132.98269,35.52482],[132.983,35.52605],[132.98274,35.52681],[132.98208,35.52731],[132.98093,35.52759],[132.98123,35.52815],[132.98072,35.52863],[132.98056,35.52927],[132.981,35.52989],[132.98202,35.53004],[132.98211,35.531],[132.98175,35.53298],[132.98209,35.53324],[132.982,35.53359],[132.98243,35.53365],[132.98275,35.5342],[132.98304,35.53425],[132.98291,35.53474],[132.98321,35.53489],[132.98332,35.53574],[132.98379,35.53593],[132.98386,35.5363],[132.98408,35.5364],[132.98448,35.53602],[132.98592,35.53573]]]},"properties":{"key":"322011640","name":"鹿島町佐陀本郷","pref":"島根県","prefCode":"32","municipality":"松江市","areaM2":4341143.36,"population":881,"toponymIds":["32-c3f1ed5f97"]}},{"type":"Feature","geometry":{"type":"Polygon","coordinates":[[[133.0047,35.51998],[133.00734,35.5189],[133.00888,35.51615],[133.00902,35.51559],[133.00884,35.51327],[133.00893,35.50986],[133.0089,35.50963],[133.00833,35.50957],[133.0083,35.50924],[133.00787,35.5085],[133.00843,35.5084],[133.00834,35.50768],[133.00965,35.50505],[133.00735,35.50545],[133.00731,35.50603],[133.00665,35.5062],[133.00587,35.50721],[133.00505,35.50783],[133.00364,35.50806],[133.00197,35.50877],[132.99939,35.50813],[132.99759,35.5083],[132.99642,35.50912],[132.99542,35.50941],[132.99413,35.51041],[132.99253,35.51132],[132.99289,35.51192],[132.99394,35.51293],[132.99406,35.51446],[132.99454,35.51515],[132.99543,35.51539],[132.9972,35.51661],[132.99826,35.51633],[132.99875,35.51635],[133.00178,35.51856],[133.00242,35.51984],[133.0025,35.52034],[133.00326,35.5205],[133.0047,35.51998]]]},"properties":{"key":"322011650","name":"鹿島町佐陀宮内","pref":"島根県","prefCode":"32","municipality":"松江市","areaM2":1486043.672,"population":686,"toponymIds":["32-837ea0436f"]}},{"type":"Feature","geometry":{"type":"Polygon","coordinates":[[[132.98338,35.53632],[132.98386,35.5363],[132.98385,35.53603],[132.98332,35.53574],[132.98321,35.53489],[132.98291,35.53474],[132.98304,35.53425],[132.98275,35.5342],[132.98243,35.53365],[132.982,35.53359],[132.98209,35.53324],[132.98175,35.53298],[132.98211,35.531],[132.98202,35.53004],[132.981,35.52989],[132.98057,35.52913],[132.98072,35.52863],[132.98123,35.52815],[132.98093,35.52759],[132.98208,35.52731],[132.98274,35.52681],[132.983,35.52605],[132.98269,35.52482],[132.98294,35.52408],[132.98255,35.52363],[132.98302,35.52314],[132.98574,35.52276],[132.98556,35.52142],[132.9845,35.52163],[132.9837,35.52129],[132.98178,35.52134],[132.97998,35.52091],[132.98003,35.52157],[132.97898,35.5217],[132.97906,35.52283],[132.9788,35.524],[132.97891,35.52457],[132.97849,35.52476],[132.97857,35.52496],[132.9782,35.52504],[132.97825,35.52522],[132.97864,35.52513],[132.97879,35.5258],[132.97871,35.52617],[132.97855,35.52602],[132.97816,35.52608],[132.97818,35.52653],[132.97789,35.52649],[132.97816,35.52687],[132.97763,35.5269],[132.97793,35.52879],[132.97873,35.52923],[132.97961,35.53002],[132.97804,35.53002],[132.97812,35.5308],[132.97782,35.53188],[132.97814,35.53243],[132.97884,35.53292],[132.97952,35.53303],[132.98083,35.53264],[132.98115,35.5328],[132.98134,35.53305],[132.98141,35.53429],[132.98198,35.53455],[132.98243,35.535],[132.98274,35.53626],[132.98303,35.5364],[132.98338,35.53632]]]},"properties":{"key":"322011630","name":"鹿島町武代","pref":"島根県","prefCode":"32","municipality":"松江市","areaM2":511590.014,"population":537,"toponymIds":["32-e8e824d1e1"]}},{"type":"Feature","geometry":{"type":"Polygon","coordinates":[[[132.97472,35.54388],[132.97433,35.54414],[132.97442,35.54445],[132.97491,35.54411],[132.97472,35.54388]]]},"properties":{"key":"322011590","name":"鹿島町手結","pref":"島根県","prefCode":"32","municipality":"松江市","areaM2":2195.986,"population":0,"toponymIds":["32-8b2280a303"]}},{"type":"Feature","geometry":{"type":"Polygon","coordinates":[[[133.01206,35.54008],[133.01174,35.5398],[133.01134,35.53998],[133.01156,35.54015],[133.01206,35.54008]]]},"properties":{"key":"322011700","name":"鹿島町御津","pref":"島根県","prefCode":"32","municipality":"松江市","areaM2":1818.205,"population":0,"toponymIds":["32-f50aadafa0"]}},{"type":"Feature","geometry":{"type":"Polygon","coordinates":[[[133.03407,35.52319],[133.03361,35.52246],[133.03447,35.52251],[133.03457,35.52212],[133.03429,35.52108],[133.03444,35.52041],[133.03496,35.51992],[133.03569,35.51961],[133.03482,35.51855],[133.03601,35.51748],[133.03635,35.51703],[133.03669,35.51612],[133.03745,35.51623],[133.03844,35.51679],[133.03985,35.51595],[133.04131,35.516],[133.04149,35.51515],[133.04138,35.51492],[133.03937,35.51372],[133.03902,35.51327],[133.03767,35.51285],[133.03645,35.51221],[133.03533,35.51197],[133.03492,35.51197],[133.03429,35.51292],[133.03388,35.51296],[133.03329,35.51281],[133.03258,35.51236],[133.03209,35.51236],[133.03107,35.51279],[133.03063,35.51271],[133.02994,35.51299],[133.02925,35.51306],[133.02682,35.51263],[133.02552,35.51198],[133.02414,35.51186],[133.02334,35.51276],[133.02269,35.51295],[133.0214,35.51288],[133.0212,35.51321],[133.02105,35.51435],[133.02088,35.51444],[133.02,35.51435],[133.01885,35.5147],[133.01599,35.51476],[133.01546,35.51417],[133.01515,35.51418],[133.01515,35.5151],[133.01673,35.51511],[133.01682,35.51699],[133.0192,35.51687],[133.01938,35.51918],[133.02306,35.51903],[133.02326,35.52147],[133.02671,35.52121],[133.02926,35.5218],[133.02915,35.52206],[133.02868,35.52219],[133.029,35.52269],[133.02873,35.52457],[133.03001,35.52536],[133.03074,35.52721],[133.0329,35.52663],[133.03434,35.5255],[133.03455,35.52484],[133.03407,35.52319]]]},"properties":{"key":"322011680","name":"鹿島町南講武","pref":"島根県","prefCode":"32","municipality":"松江市","areaM2":1811244.629,"population":285,"toponymIds":["32-6f92e33443"]}},{"type":"Feature","geometry":{"type":"Polygon","coordinates":[[[133.00943,35.53223],[133.01277,35.53178],[133.01612,35.53091],[133.01741,35.53042],[133.01519,35.52756],[133.01487,35.5263],[133.01425,35.52533],[133.01392,35.52446],[133.01389,35.52393],[133.01411,35.52154],[133.01345,35.521],[133.01344,35.52042],[133.01285,35.51981],[133.01305,35.51917],[133.01256,35.51886],[133.01269,35.51842],[133.01344,35.51768],[133.01441,35.51765],[133.01442,35.51736],[133.01416,35.51691],[133.01406,35.51525],[133.01515,35.5151],[133.01515,35.51418],[133.01546,35.51417],[133.01599,35.51476],[133.01885,35.5147],[133.02,35.51435],[133.02088,35.51444],[133.02105,35.51435],[133.0212,35.51321],[133.0214,35.51288],[133.02269,35.51295],[133.02334,35.51276],[133.02414,35.51186],[133.02324,35.51018],[133.02288,35.50975],[133.02192,35.50912],[133.02162,35.50821],[133.02079,35.50876],[133.01884,35.50816],[133.01783,35.50829],[133.01668,35.50777],[133.01423,35.50793],[133.01219,35.50786],[133.01162,35.50751],[133.01003,35.50771],[133.00921,35.50764],[133.00954,35.50723],[133.0114,35.5065],[133.01222,35.50591],[133.0132,35.50566],[133.01364,35.50532],[133.01353,35.50496],[133.01368,35.50422],[133.01338,35.50404],[133.01243,35.50531],[133.01048,35.50471],[133.01108,35.50294],[133.01058,35.5028],[133.00834,35.50768],[133.00843,35.5084],[133.00787,35.5085],[133.0083,35.50924],[133.00833,35.50957],[133.0089,35.50963],[133.00893,35.50986],[133.00884,35.51327],[133.00902,35.51559],[133.00879,35.5164],[133.00747,35.51877],[133.0071,35.5191],[133.00326,35.5205],[133.00491,35.52113],[133.00505,35.52098],[133.00545,35.52109],[133.00545,35.52193],[133.00617,35.52211],[133.00634,35.52259],[133.00611,35.5227],[133.00557,35.52254],[133.00481,35.52256],[133.0033,35.52311],[133.0028,35.52309],[133.00153,35.52209],[133.00179,35.52393],[133.00215,35.52493],[133.00161,35.52582],[133.00161,35.52612],[133.00233,35.52795],[133.00238,35.52948],[133.00311,35.5302],[133.00342,35.53154],[133.00791,35.53223],[133.00943,35.53223]]]},"properties":{"key":"322011660","name":"鹿島町名分","pref":"島根県","prefCode":"32","municipality":"松江市","areaM2":2749189.568,"population":871,"toponymIds":["32-a9f50abcf1"]}},{"type":"Feature","geometry":{"type":"Polygon","coordinates":[[[133.10055,35.50741],[133.10143,35.50697],[133.10276,35.5066],[133.1036,35.50573],[133.10384,35.50495],[133.10436,35.50454],[133.10494,35.50192],[133.10635,35.50005],[133.10633,35.49951],[133.10677,35.49902],[133.10668,35.49876],[133.107,35.49818],[133.10745,35.4977],[133.10846,35.4975],[133.10969,35.49654],[133.11065,35.49627],[133.11298,35.49505],[133.11267,35.49483],[133.11246,35.49439],[133.11189,35.49398],[133.11178,35.49298],[133.11051,35.49233],[133.10985,35.49181],[133.11014,35.49094],[133.10995,35.49048],[133.10972,35.49029],[133.1093,35.49025],[133.10849,35.48929],[133.10806,35.48903],[133.10796,35.48809],[133.10814,35.48756],[133.1078,35.48672],[133.10774,35.48606],[133.10739,35.48573],[133.1069,35.48571],[133.10638,35.48594],[133.1061,35.48636],[133.10538,35.48925],[133.10531,35.48984],[133.10562,35.49063],[133.10326,35.49139],[133.10192,35.49211],[133.10131,35.49272],[133.10115,35.49316],[133.10044,35.49371],[133.10033,35.49413],[133.09985,35.49447],[133.09855,35.4949],[133.09834,35.49569],[133.09743,35.49654],[133.09681,35.49689],[133.09625,35.49817],[133.09589,35.49831],[133.09568,35.49821],[133.09505,35.49871],[133.09442,35.4986],[133.09421,35.49923],[133.09304,35.50005],[133.09284,35.50046],[133.0919,35.50007],[133.09082,35.50013],[133.0904,35.50114],[133.09232,35.50209],[133.09254,35.5024],[133.09256,35.50344],[133.09286,35.50409],[133.09376,35.50476],[133.0941,35.50521],[133.0971,35.50565],[133.0982,35.50627],[133.09855,35.50716],[133.09966,35.5079],[133.10027,35.508],[133.10055,35.50741]]]},"properties":{"key":"322010500","name":"川原町","pref":"島根県","prefCode":"32","municipality":"松江市","areaM2":1959202.612,"population":240,"toponymIds":["32-7e5a1f5486"]}},{"type":"Feature","geometry":{"type":"Polygon","coordinates":[[[133.04604,35.56278],[133.04583,35.56279],[133.04591,35.56289],[133.04604,35.56278]]]},"properties":{"key":"322011710","name":"島根町大芦","pref":"島根県","prefCode":"32","municipality":"松江市","areaM2":215.137,"population":0,"toponymIds":["32-0304cdb61b"]}},{"type":"Feature","geometry":{"type":"Polygon","coordinates":[[[132.87455,35.39788],[132.87468,35.3984],[132.87491,35.39862],[132.8748,35.39892],[132.87699,35.39989],[132.88035,35.40072],[132.88066,35.39831],[132.87982,35.39822],[132.87878,35.39762],[132.8787,35.39728],[132.87886,35.39651],[132.87977,35.39503],[132.88101,35.39351],[132.88141,35.3924],[132.88179,35.39206],[132.88323,35.39156],[132.88378,35.39115],[132.88426,35.39063],[132.88511,35.38895],[132.88289,35.38707],[132.88241,35.38612],[132.8824,35.38521],[132.88169,35.38537],[132.88169,35.38623],[132.88089,35.38644],[132.87856,35.38654],[132.87753,35.38609],[132.87706,35.38567],[132.87671,35.38582],[132.87629,35.38636],[132.87593,35.38799],[132.87593,35.39024],[132.87665,35.39239],[132.87672,35.39309],[132.87639,35.39362],[132.87568,35.39395],[132.87562,35.39431],[132.87633,35.39489],[132.87641,35.39534],[132.87619,35.39555],[132.87625,35.39607],[132.87593,35.39682],[132.87455,35.39788]]]},"properties":{"key":"322012040","name":"宍道町伊志見","pref":"島根県","prefCode":"32","municipality":"松江市","areaM2":802709.177,"population":175,"toponymIds":["32-489f10c847"]}},{"type":"Feature","geometry":{"type":"Polygon","coordinates":[[[132.9771,35.409],[132.97878,35.4089],[132.98034,35.40858],[132.98055,35.40834],[132.98025,35.40744],[132.98107,35.40635],[132.98216,35.40634],[132.98276,35.40584],[132.98551,35.40541],[132.98619,35.40511],[132.9869,35.40439],[132.98826,35.40136],[132.98726,35.40024],[132.9902,35.39788],[132.98947,35.39622],[132.98977,35.39578],[132.98958,35.39216],[132.98762,35.39159],[132.98694,35.39147],[132.98625,35.39162],[132.98553,35.39145],[132.9838,35.38992],[132.9841,35.38852],[132.98398,35.38814],[132.98286,35.38809],[132.98067,35.38704],[132.97904,35.38726],[132.97881,35.38658],[132.97776,35.38684],[132.97728,35.38651],[132.97706,35.38625],[132.97744,35.38554],[132.97738,35.38504],[132.97672,35.38433],[132.97749,35.38373],[132.97771,35.38313],[132.97769,35.38271],[132.97739,35.38221],[132.97806,35.38152],[132.97993,35.38199],[132.98116,35.38134],[132.98304,35.38161],[132.98487,35.38151],[132.98625,35.38112],[132.98672,35.38073],[132.98792,35.3805],[132.98807,35.38038],[132.98826,35.37853],[132.98862,35.37797],[132.9893,35.3776],[132.99088,35.37618],[132.99145,35.37536],[132.99131,35.37476],[132.99235,35.37402],[132.99253,35.37355],[132.9937,35.37261],[132.99253,35.372],[132.99154,35.37189],[132.99112,35.37133],[132.98947,35.3707],[132.98832,35.37096],[132.98736,35.37055],[132.98531,35.37084],[132.9846,35.37061],[132.98398,35.3707],[132.9835,35.37057],[132.98293,35.37075],[132.98184,35.3708],[132.98013,35.36987],[132.97994,35.36994],[132.97929,35.37086],[132.9791,35.3716],[132.97825,35.37181],[132.97751,35.37156],[132.97653,35.3719],[132.97504,35.3713],[132.97469,35.37093],[132.97364,35.37074],[132.97318,35.37012],[132.9729,35.37001],[132.97141,35.37004],[132.97043,35.36984],[132.96989,35.3704],[132.96893,35.37061],[132.96684,35.36994],[132.96504,35.36999],[132.96451,35.37011],[132.96433,35.37038],[132.96419,35.37119],[132.96217,35.3716],[132.9589,35.37159],[132.95724,35.37198],[132.9562,35.37262],[132.95583,35.37329],[132.95484,35.37357],[132.95408,35.37423],[132.9514,35.37253],[132.9511,35.37268],[132.95048,35.37377],[132.94985,35.37348],[132.94933,35.3737],[132.94907,35.37443],[132.94808,35.37526],[132.94702,35.37558],[132.94529,35.3753],[132.94357,35.37616],[132.94322,35.37686],[132.94278,35.37722],[132.94232,35.37729],[132.94185,35.37715],[132.94183,35.37819],[132.94246,35.37925],[132.94258,35.38],[132.94255,35.38118],[132.94209,35.38193],[132.94131,35.38214],[132.94068,35.38213],[132.9391,35.38157],[132.93822,35.38142],[132.93791,35.38157],[132.93728,35.38264],[132.937,35.3841],[132.93704,35.3862],[132.93895,35.38669],[132.94229,35.38805],[132.94437,35.38939],[132.9477,35.39334],[132.94831,35.39445],[132.94852,35.39634],[132.94891,35.39749],[132.95243,35.39773],[132.95308,35.39958],[132.95252,35.40039],[132.95172,35.40463],[132.95188,35.40497],[132.95291,35.4059],[132.95423,35.40749],[132.95528,35.40716],[132.95692,35.40793],[132.9576,35.40796],[132.95998,35.40763],[132.96294,35.40802],[132.96468,35.40845],[132.96626,35.40784],[132.96942,35.40718],[132.9735,35.4086],[132.97407,35.40864],[132.97562,35.40836],[132.97686,35.4087],[132.9771,35.409]]]},"properties":{"key":"322012060","name":"宍道町上来待","pref":"島根県","prefCode":"32","municipality":"松江市","areaM2":14734579.538,"population":740,"toponymIds":["32-52f8c0138c"]}},{"type":"Feature","geometry":{"type":"Polygon","coordinates":[[[132.90401,35.40565],[132.90431,35.40423],[132.90453,35.40433],[132.90483,35.40209],[132.90472,35.40205],[132.90488,35.40168],[132.90536,35.40125],[132.90493,35.39974],[132.90562,35.39844],[132.90535,35.39774],[132.90536,35.39568],[132.90568,35.39422],[132.90644,35.39298],[132.90636,35.39215],[132.90678,35.39126],[132.90679,35.39029],[132.90715,35.38975],[132.90723,35.38898],[132.90759,35.3881],[132.90897,35.38734],[132.90999,35.38703],[132.91126,35.38616],[132.91165,35.38545],[132.91105,35.38496],[132.91051,35.38377],[132.91068,35.38302],[132.91133,35.38196],[132.9115,35.38094],[132.91185,35.3802],[132.91172,35.37992],[132.91058,35.37921],[132.91,35.38],[132.90856,35.38014],[132.90906,35.37836],[132.90883,35.37769],[132.90742,35.37545],[132.90648,35.37449],[132.9055,35.37424],[132.90376,35.37277],[132.90323,35.37153],[132.90102,35.37177],[132.89902,35.37164],[132.89726,35.37169],[132.89633,35.37194],[132.8953,35.37183],[132.89373,35.37301],[132.89085,35.3748],[132.88898,35.37483],[132.88536,35.37435],[132.88361,35.37462],[132.88277,35.37496],[132.88188,35.37498],[132.88212,35.37527],[132.88164,35.37644],[132.88192,35.37699],[132.88278,35.3777],[132.88216,35.37826],[132.88269,35.37853],[132.88321,35.37848],[132.88356,35.37938],[132.88438,35.37976],[132.88493,35.38082],[132.88485,35.38098],[132.88433,35.38101],[132.884,35.38222],[132.88322,35.38309],[132.88319,35.38367],[132.882,35.38451],[132.88194,35.38473],[132.88255,35.38508],[132.88234,35.38565],[132.88241,35.38612],[132.88289,35.38707],[132.88511,35.38895],[132.88426,35.39063],[132.88378,35.39115],[132.88323,35.39156],[132.88179,35.39206],[132.88141,35.3924],[132.88101,35.39351],[132.87977,35.39503],[132.87886,35.39651],[132.8787,35.39728],[132.87878,35.39762],[132.87982,35.39822],[132.88066,35.39831],[132.88035,35.40072],[132.88496,35.40187],[132.88696,35.40263],[132.88919,35.40259],[132.89056,35.40289],[132.89093,35.4025],[132.89122,35.40251],[132.89768,35.40361],[132.8992,35.40411],[132.89916,35.40512],[132.90185,35.40547],[132.90308,35.40669],[132.90401,35.40565]]]},"properties":{"key":"322012030","name":"宍道町佐々布","pref":"島根県","prefCode":"32","municipality":"松江市","areaM2":7709802.48,"population":2024,"toponymIds":["32-8e38e2aba6"]}},{"type":"Feature","geometry":{"type":"Polygon","coordinates":[[[132.90776,35.41002],[132.90599,35.40742],[132.90438,35.40632],[132.90418,35.40647],[132.90386,35.40625],[132.90409,35.40606],[132.90383,35.40588],[132.90296,35.40682],[132.90318,35.40689],[132.90287,35.40735],[132.90319,35.4069],[132.90461,35.40831],[132.90455,35.40843],[132.90554,35.40927],[132.90543,35.40936],[132.90559,35.40928],[132.90634,35.40983],[132.90625,35.40991],[132.90524,35.40942],[132.90626,35.40996],[132.90637,35.40988],[132.90792,35.41103],[132.90776,35.41002]]]},"properties":{"key":"322012010","name":"宍道町昭和","pref":"島根県","prefCode":"32","municipality":"松江市","areaM2":79944.526,"population":294,"toponymIds":["32-cf8a8246c1"]}},{"type":"Feature","geometry":{"type":"Polygon","coordinates":[[[132.91583,35.41318],[132.91662,35.41313],[132.91852,35.41251],[132.91942,35.41248],[132.91934,35.41199],[132.91952,35.41246],[132.91976,35.41208],[132.92056,35.41195],[132.92062,35.41135],[132.9205,35.41112],[132.92008,35.4107],[132.91967,35.41088],[132.91952,35.41072],[132.91974,35.41056],[132.92017,35.41072],[132.92056,35.41062],[132.92115,35.4093],[132.92099,35.40839],[132.92004,35.40638],[132.91995,35.40568],[132.91766,35.40316],[132.91609,35.40185],[132.91459,35.40171],[132.9102,35.4018],[132.9092,35.40071],[132.90771,35.40101],[132.90735,35.40092],[132.90676,35.39783],[132.90655,35.39782],[132.90637,35.39809],[132.90592,35.39831],[132.90571,35.39699],[132.90531,35.39707],[132.90537,35.39785],[132.90562,35.39844],[132.90493,35.39974],[132.90536,35.40125],[132.90488,35.40168],[132.90472,35.40205],[132.90483,35.40209],[132.90453,35.40433],[132.90431,35.40423],[132.90414,35.40524],[132.90383,35.40588],[132.90409,35.40606],[132.90386,35.40625],[132.90418,35.40647],[132.90438,35.40632],[132.90599,35.40742],[132.90765,35.40971],[132.90792,35.41103],[132.90861,35.41145],[132.91054,35.41218],[132.91176,35.41194],[132.91317,35.41201],[132.91434,35.41259],[132.9152,35.41352],[132.91583,35.41318]]]},"properties":{"key":"322012000","name":"宍道町宍道","pref":"島根県","prefCode":"32","municipality":"松江市","areaM2":1565514.895,"population":1795,"toponymIds":["32-f73733d829"]}},{"type":"Feature","geometry":{"type":"Polygon","coordinates":[[[132.94141,35.42027],[132.94168,35.41979],[132.94297,35.41924],[132.94422,35.41932],[132.94692,35.41362],[132.94678,35.41337],[132.94633,35.41328],[132.94644,35.41283],[132.94674,35.41289],[132.94765,35.40992],[132.94809,35.40926],[132.94855,35.40716],[132.9485,35.40565],[132.94878,35.40413],[132.94955,35.40337],[132.95124,35.40104],[132.95261,35.40019],[132.95308,35.39958],[132.95243,35.39773],[132.94891,35.39749],[132.94852,35.39634],[132.94831,35.39445],[132.9477,35.39334],[132.94508,35.39013],[132.94404,35.38908],[132.94229,35.38805],[132.93895,35.38669],[132.93704,35.3862],[132.93708,35.3875],[132.93683,35.38896],[132.9354,35.38954],[132.93412,35.3898],[132.93341,35.39024],[132.93304,35.39214],[132.93316,35.39327],[132.9339,35.39461],[132.93411,35.39605],[132.9349,35.39799],[132.9353,35.40336],[132.93563,35.40401],[132.93652,35.40451],[132.93666,35.40512],[132.93482,35.40651],[132.93375,35.40677],[132.93316,35.40706],[132.93272,35.40753],[132.9325,35.40877],[132.93152,35.40946],[132.93095,35.41064],[132.93096,35.41128],[132.93166,35.41254],[132.93175,35.41297],[132.9312,35.41479],[132.93022,35.41575],[132.93026,35.41591],[132.92999,35.41621],[132.92813,35.41721],[132.92876,35.41724],[132.92905,35.41756],[132.92956,35.41761],[132.93007,35.41727],[132.93104,35.41718],[132.93133,35.41733],[132.93193,35.4173],[132.93272,35.41672],[132.93357,35.41676],[132.93612,35.41848],[132.93699,35.41848],[132.93721,35.41867],[132.93795,35.41873],[132.93836,35.41862],[132.9384,35.41874],[132.9381,35.41875],[132.9384,35.41886],[132.93898,35.41897],[132.93934,35.41886],[132.9401,35.41905],[132.9403,35.41928],[132.94013,35.41968],[132.94021,35.41997],[132.94098,35.4204],[132.94121,35.42087],[132.94141,35.42027]]]},"properties":{"key":"322012080","name":"宍道町西来待","pref":"島根県","prefCode":"32","municipality":"松江市","areaM2":4506162.544,"population":683,"toponymIds":["32-14fdb38ef8"]}},{"type":"Feature","geometry":{"type":"Polygon","coordinates":[[[132.9312,35.41479],[132.93175,35.41297],[132.93166,35.41254],[132.93096,35.41128],[132.93091,35.4108],[132.93113,35.41009],[132.93152,35.40946],[132.9325,35.40877],[132.93272,35.40753],[132.93306,35.40714],[132.93396,35.40668],[132.93482,35.40651],[132.93666,35.40512],[132.93652,35.40451],[132.93563,35.40401],[132.9353,35.40336],[132.9349,35.39799],[132.93411,35.39605],[132.9339,35.39461],[132.93308,35.39291],[132.93304,35.39214],[132.93341,35.39024],[132.93412,35.3898],[132.9354,35.38954],[132.93691,35.38884],[132.93708,35.3875],[132.937,35.3841],[132.93728,35.38264],[132.93791,35.38157],[132.93822,35.38142],[132.9391,35.38157],[132.94068,35.38213],[132.94191,35.38201],[132.94226,35.38175],[132.94255,35.38118],[132.94252,35.37949],[132.94183,35.37819],[132.94185,35.37715],[132.94132,35.37692],[132.93969,35.37487],[132.93865,35.37413],[132.93686,35.37094],[132.93631,35.37093],[132.93597,35.37119],[132.93584,35.37259],[132.93469,35.37243],[132.93453,35.37287],[132.93467,35.37363],[132.93452,35.37439],[132.93408,35.37485],[132.93354,35.37598],[132.93316,35.37629],[132.93286,35.37632],[132.93208,35.37569],[132.93173,35.37614],[132.93134,35.37634],[132.93099,35.37578],[132.92967,35.37487],[132.92912,35.37484],[132.92841,35.37508],[132.92799,35.37463],[132.92797,35.37386],[132.92697,35.37276],[132.92686,35.372],[132.92723,35.37116],[132.92707,35.37076],[132.92659,35.37047],[132.92597,35.37043],[132.92632,35.36934],[132.92639,35.36873],[132.92626,35.36835],[132.92529,35.36692],[132.92447,35.36656],[132.92424,35.36681],[132.92428,35.36719],[132.92359,35.36748],[132.92343,35.36828],[132.92276,35.3699],[132.91986,35.36959],[132.91862,35.36978],[132.91814,35.37003],[132.91803,35.37044],[132.91743,35.3712],[132.91695,35.37145],[132.9155,35.37169],[132.91465,35.37227],[132.91473,35.37248],[132.91445,35.3728],[132.91421,35.37385],[132.91425,35.37525],[132.91413,35.3756],[132.91274,35.37608],[132.9123,35.37689],[132.91315,35.37773],[132.91236,35.37809],[132.91209,35.37898],[132.91135,35.3797],[132.91172,35.37992],[132.91185,35.3802],[132.9115,35.38094],[132.91124,35.3822],[132.91068,35.38302],[132.91051,35.38377],[132.91105,35.38496],[132.91165,35.38545],[132.91111,35.38629],[132.90999,35.38703],[132.90897,35.38734],[132.90751,35.38821],[132.90715,35.38975],[132.90679,35.39029],[132.90675,35.39139],[132.90636,35.39215],[132.90644,35.39298],[132.90568,35.39422],[132.90536,35.39568],[132.90531,35.39707],[132.90571,35.39699],[132.90592,35.39831],[132.90637,35.39809],[132.90655,35.39782],[132.90676,35.39783],[132.90726,35.40081],[132.90748,35.40099],[132.9092,35.40071],[132.9102,35.4018],[132.91587,35.40179],[132.91628,35.40195],[132.91766,35.40316],[132.91995,35.40568],[132.92019,35.40678],[132.92108,35.40873],[132.9211,35.40959],[132.92059,35.41058],[132.92017,35.41072],[132.91974,35.41056],[132.91952,35.41067],[132.91957,35.41085],[132.92002,35.41068],[132.9205,35.41112],[132.92062,35.41135],[132.92056,35.41195],[132.92246,35.41248],[132.92231,35.41277],[132.92376,35.41348],[132.92396,35.41276],[132.92409,35.41282],[132.92381,35.41394],[132.92433,35.41403],[132.92457,35.41363],[132.92448,35.41463],[132.92491,35.4148],[132.92512,35.41449],[132.92575,35.41473],[132.92638,35.41525],[132.92668,35.41575],[132.92749,35.41627],[132.92794,35.41714],[132.92813,35.41721],[132.92999,35.41621],[132.93026,35.41591],[132.93022,35.41575],[132.9312,35.41479]]]},"properties":{"key":"322012020","name":"宍道町白石","pref":"島根県","prefCode":"32","municipality":"松江市","areaM2":10056524.754,"population":1356,"toponymIds":["32-a2411014ce"]}},{"type":"Feature","geometry":{"type":"Polygon","coordinates":[[[132.95905,35.42422],[132.95936,35.4243],[132.95937,35.42408],[132.96197,35.42339],[132.96272,35.42357],[132.96399,35.42348],[132.96477,35.42361],[132.96642,35.42331],[132.96682,35.42342],[132.96686,35.42363],[132.96744,35.42327],[132.96867,35.42364],[132.97135,35.42382],[132.97165,35.42365],[132.97175,35.42381],[132.97335,35.42365],[132.9734,35.42334],[132.97349,35.42368],[132.97395,35.42365],[132.97438,35.42389],[132.97483,35.42283],[132.97488,35.42127],[132.97543,35.4203],[132.97598,35.42023],[132.97653,35.42059],[132.97736,35.42038],[132.9781,35.41941],[132.97783,35.41914],[132.97685,35.41896],[132.97684,35.41813],[132.97709,35.41714],[132.97703,35.41632],[132.97647,35.41564],[132.97572,35.41534],[132.9749,35.41323],[132.97544,35.41176],[132.97544,35.41091],[132.97602,35.40966],[132.97655,35.40922],[132.9771,35.409],[132.97686,35.4087],[132.97562,35.40836],[132.97407,35.40864],[132.9735,35.4086],[132.96942,35.40718],[132.96626,35.40784],[132.96468,35.40845],[132.96294,35.40802],[132.95998,35.40763],[132.9576,35.40796],[132.95692,35.40793],[132.95528,35.40716],[132.95423,35.40749],[132.95291,35.4059],[132.95188,35.40497],[132.95172,35.40463],[132.95261,35.40019],[132.95124,35.40104],[132.94955,35.40337],[132.94878,35.40413],[132.9485,35.40565],[132.94855,35.40716],[132.94809,35.40926],[132.94765,35.40992],[132.94674,35.41289],[132.94644,35.41283],[132.94633,35.41328],[132.94678,35.41337],[132.94692,35.41362],[132.94422,35.41932],[132.94297,35.41924],[132.94201,35.41959],[132.94153,35.42004],[132.94121,35.42087],[132.94208,35.42268],[132.94181,35.42319],[132.94186,35.4234],[132.94162,35.42354],[132.94171,35.42375],[132.94204,35.42364],[132.94238,35.42313],[132.94231,35.42289],[132.94262,35.42232],[132.94275,35.42215],[132.94266,35.42249],[132.94289,35.42238],[132.94318,35.42197],[132.94327,35.42201],[132.94235,35.42357],[132.94244,35.42366],[132.94387,35.42335],[132.94448,35.42298],[132.9447,35.42306],[132.94494,35.42272],[132.94526,35.42266],[132.94492,35.42254],[132.94523,35.42261],[132.94513,35.42246],[132.94527,35.42231],[132.94586,35.42211],[132.94573,35.42195],[132.94591,35.42172],[132.94663,35.42147],[132.94733,35.4216],[132.94785,35.42137],[132.94851,35.42167],[132.94956,35.42133],[132.95055,35.42175],[132.95203,35.42152],[132.95262,35.42167],[132.95264,35.422],[132.95268,35.42165],[132.95336,35.42141],[132.95396,35.4217],[132.9546,35.42154],[132.95543,35.42194],[132.95535,35.42205],[132.95558,35.42204],[132.95606,35.42247],[132.95619,35.42316],[132.95646,35.42309],[132.95625,35.42322],[132.95659,35.42314],[132.95797,35.42391],[132.95828,35.42444],[132.95871,35.42442],[132.95905,35.42422]]]},"properties":{"key":"322012070","name":"宍道町東来待","pref":"島根県","prefCode":"32","municipality":"松江市","areaM2":4889068.961,"population":1315,"toponymIds":["32-b894a2276f"]}},{"type":"Feature","geometry":{"type":"Polygon","coordinates":[[[133.06112,35.49699],[133.06128,35.49661],[133.06113,35.49644],[133.06123,35.49617],[133.06164,35.49568],[133.06187,35.49573],[133.06197,35.49499],[133.06271,35.49489],[133.0623,35.49442],[133.06237,35.49365],[133.06259,35.49343],[133.06296,35.49231],[133.06294,35.49196],[133.06324,35.4917],[133.06336,35.4912],[133.06385,35.49102],[133.06387,35.49073],[133.06413,35.49056],[133.06479,35.49058],[133.06482,35.49013],[133.0654,35.49008],[133.06547,35.48923],[133.06634,35.48798],[133.06615,35.48739],[133.06664,35.48532],[133.0664,35.4853],[133.06632,35.48423],[133.06364,35.48336],[133.06358,35.47798],[133.06093,35.47844],[133.06167,35.48013],[133.06181,35.48018],[133.06197,35.48083],[133.06242,35.48098],[133.06217,35.48142],[133.06201,35.48234],[133.06188,35.48232],[133.06173,35.48276],[133.06228,35.48322],[133.06223,35.48342],[133.06141,35.48401],[133.06137,35.48471],[133.06169,35.48503],[133.06098,35.48582],[133.06082,35.48659],[133.06095,35.48728],[133.06159,35.48827],[133.06142,35.48884],[133.06104,35.489],[133.06129,35.49283],[133.06089,35.49427],[133.06006,35.49456],[133.05946,35.49435],[133.0594,35.49652],[133.05956,35.4971],[133.06009,35.49673],[133.06047,35.49665],[133.06045,35.49711],[133.06112,35.49713],[133.06112,35.49699]]]},"properties":{"key":"322010390","name":"菅田町","pref":"島根県","prefCode":"32","municipality":"松江市","areaM2":564627.778,"population":1907,"toponymIds":["32-ab9aac7442"]}},{"type":"Feature","geometry":{"type":"Polygon","coordinates":[[[133.16869,35.56477],[133.16866,35.56476],[133.16864,35.56478],[133.16863,35.56479],[133.16861,35.56481],[133.16858,35.56482],[133.16858,35.56484],[133.16858,35.56486],[133.16861,35.56487],[133.16863,35.56486],[133.16865,35.56484],[133.16866,35.56482],[133.16868,35.56481],[133.1687,35.56479],[133.16869,35.56477]]]},"properties":{"key":"322011790","name":"美保関町菅浦","pref":"島根県","prefCode":"32","municipality":"松江市","areaM2":63.784,"population":0,"toponymIds":["32-b9c342ffbf"]}},{"type":"Feature","geometry":{"type":"Polygon","coordinates":[[[132.07335,34.86829],[132.07522,34.86589],[132.07692,34.86487],[132.07823,34.86119],[132.07592,34.86099],[132.07412,34.86024],[132.07293,34.86061],[132.07222,34.86059],[132.07145,34.86028],[132.07027,34.86073],[132.06516,34.859],[132.06434,34.85834],[132.06374,34.85604],[132.0634,34.85539],[132.06292,34.85509],[132.05992,34.85404],[132.05941,34.85488],[132.05881,34.85543],[132.05767,34.85601],[132.05702,34.85611],[132.05552,34.85574],[132.0525,34.85428],[132.0508,34.85379],[132.05001,34.85385],[132.04766,34.85468],[132.04673,34.85477],[132.04611,34.85461],[132.04553,34.8539],[132.04321,34.85601],[132.04257,34.8576],[132.04138,34.85906],[132.04091,34.85885],[132.04044,34.85722],[132.03984,34.85645],[132.03955,34.85618],[132.03787,34.85561],[132.03764,34.85828],[132.03702,34.85892],[132.03761,34.85951],[132.03861,34.85974],[132.03929,34.86045],[132.03972,34.86061],[132.03997,34.86037],[132.04035,34.86043],[132.04147,34.86077],[132.04186,34.86111],[132.04418,34.86119],[132.04445,34.86129],[132.04444,34.86167],[132.04652,34.86134],[132.05059,34.8615],[132.05071,34.86173],[132.04954,34.86208],[132.04976,34.86258],[132.04935,34.86296],[132.0498,34.86372],[132.05104,34.86321],[132.05426,34.8628],[132.05673,34.86258],[132.05788,34.8628],[132.06116,34.86453],[132.06154,34.86511],[132.06234,34.86566],[132.0635,34.86631],[132.06519,34.86666],[132.06592,34.86731],[132.06685,34.86782],[132.06821,34.86791],[132.07255,34.86931],[132.07335,34.86829]]]},"properties":{"key":"322020560","name":"内田町","pref":"島根県","prefCode":"32","municipality":"浜田市","areaM2":2898327.199,"population":482,"toponymIds":["32-e3a4700acf"]}},{"type":"Feature","geometry":{"type":"Polygon","coordinates":[[[132.00064,34.78023],[132.00127,34.78003],[132.00373,34.78083],[132.00601,34.78089],[132.0074,34.78159],[132.0109,34.78185],[132.01288,34.78185],[132.01304,34.78166],[132.01325,34.78076],[132.01331,34.77757],[132.01382,34.77411],[132.01378,34.77357],[132.01193,34.7705],[132.0119,34.7701],[132.01275,34.76628],[132.0127,34.76529],[132.01459,34.76503],[132.01433,34.76401],[132.0145,34.76286],[132.0127,34.76301],[132.01299,34.76102],[132.01369,34.75884],[132.01046,34.75914],[132.00557,34.75889],[132.00456,34.75913],[131.99754,34.76322],[131.99777,34.76378],[131.99743,34.76434],[131.99579,34.76454],[131.99545,34.76494],[131.99532,34.76551],[131.99506,34.76574],[131.99455,34.76566],[131.99208,34.76422],[131.99166,34.76445],[131.99155,34.76542],[131.99137,34.76572],[131.99107,34.76579],[131.98983,34.76527],[131.98933,34.76528],[131.98902,34.76571],[131.98903,34.7666],[131.98947,34.76725],[131.99095,34.76829],[131.9912,34.76879],[131.99103,34.76952],[131.99033,34.7683],[131.98935,34.76743],[131.989,34.76779],[131.98837,34.76809],[131.9896,34.76914],[131.99006,34.77051],[131.98748,34.77188],[131.98652,34.77284],[131.98613,34.77298],[131.98569,34.77295],[131.98451,34.77246],[131.98438,34.77223],[131.98436,34.77133],[131.98338,34.76951],[131.98138,34.76791],[131.98098,34.76697],[131.98042,34.76689],[131.97958,34.76706],[131.97902,34.76822],[131.97873,34.76951],[131.97884,34.77197],[131.97914,34.77273],[131.97975,34.77363],[131.98205,34.77585],[131.98712,34.7823],[131.98808,34.78461],[131.98873,34.78885],[131.98998,34.78993],[131.99136,34.79149],[131.99267,34.79511],[131.99796,34.80057],[131.9989,34.80134],[131.99896,34.8018],[131.99961,34.8032],[131.99988,34.80545],[132.00189,34.80479],[132.00398,34.80465],[132.005,34.80279],[132.00624,34.80161],[132.00777,34.8007],[132.006,34.79766],[132.00509,34.79673],[132.00417,34.79521],[132.00325,34.79313],[132.00295,34.79197],[132.00222,34.79062],[132.00204,34.78852],[132.00064,34.7861],[131.99922,34.78436],[131.99829,34.78264],[131.99832,34.78177],[131.99854,34.78128],[132.00064,34.78023]]]},"properties":{"key":"322021190","name":"三隅町芦谷","pref":"島根県","prefCode":"32","municipality":"浜田市","areaM2":8060608.888,"population":78,"toponymIds":["32-62e0059787"]}},{"type":"Feature","geometry":{"type":"Polygon","coordinates":[[[132.72289,35.34966],[132.72837,35.34959],[132.72866,35.34837],[132.72837,35.34826],[132.72838,35.34737],[132.728,35.34737],[132.72802,35.3467],[132.72853,35.34614],[132.72687,35.34515],[132.72735,35.34502],[132.7277,35.34463],[132.72742,35.34365],[132.72713,35.34351],[132.72677,35.34263],[132.72865,35.34196],[132.72831,35.34133],[132.72882,35.34078],[132.72887,35.34008],[132.72921,35.33952],[132.72959,35.33932],[132.72912,35.33863],[132.72861,35.3384],[132.7287,35.33824],[132.72826,35.33774],[132.72719,35.33712],[132.72914,35.33494],[132.72834,35.33443],[132.72892,35.33358],[132.72955,35.33356],[132.72997,35.33332],[132.73202,35.33095],[132.73377,35.32828],[132.73617,35.3256],[132.73712,35.32491],[132.73728,35.32423],[132.73688,35.32387],[132.73622,35.32376],[132.7342,35.32288],[132.73392,35.32255],[132.7335,35.32041],[132.73259,35.3186],[132.73212,35.31797],[132.73112,35.31726],[132.73016,35.31601],[132.7293,35.31536],[132.72934,35.31437],[132.7306,35.31246],[132.72969,35.30925],[132.73077,35.3082],[132.73114,35.30727],[132.73009,35.30706],[132.72917,35.30637],[132.72891,35.30532],[132.72902,35.3044],[132.72877,35.30363],[132.72826,35.30353],[132.72684,35.30275],[132.72577,35.30289],[132.7248,35.30232],[132.72401,35.3024],[132.72345,35.30208],[132.72244,35.30105],[132.72123,35.30048],[132.72054,35.29991],[132.71956,35.29956],[132.7183,35.29959],[132.717,35.29712],[132.71332,35.29438],[132.71222,35.296],[132.71243,35.29781],[132.71183,35.29917],[132.71246,35.29929],[132.71301,35.29982],[132.71367,35.30315],[132.71387,35.30351],[132.71422,35.30374],[132.71398,35.30529],[132.71396,35.30758],[132.71459,35.30852],[132.71545,35.30914],[132.7163,35.30943],[132.71704,35.31124],[132.71816,35.3124],[132.7179,35.31282],[132.7173,35.31312],[132.71755,35.31372],[132.71751,35.31417],[132.71671,35.31508],[132.71708,35.31568],[132.7168,35.31631],[132.71717,35.31691],[132.71721,35.31746],[132.7167,35.3196],[132.7178,35.32146],[132.71837,35.32203],[132.71847,35.32225],[132.71826,35.32277],[132.71849,35.32358],[132.71983,35.32464],[132.72159,35.3275],[132.72189,35.32871],[132.72451,35.33011],[132.72479,35.32976],[132.72691,35.33091],[132.72889,35.33109],[132.72949,35.33255],[132.72755,35.33499],[132.72555,35.33405],[132.72578,35.33377],[132.72479,35.33324],[132.72425,35.33392],[132.72602,35.33481],[132.72606,35.3356],[132.72675,35.33602],[132.72627,35.33662],[132.72656,35.33956],[132.72637,35.34149],[132.72602,35.34272],[132.72631,35.34371],[132.72593,35.34386],[132.72552,35.34432],[132.72413,35.34349],[132.72295,35.34479],[132.7224,35.34483],[132.72286,35.34613],[132.72265,35.34635],[132.72169,35.34581],[132.72136,35.34593],[132.72024,35.34566],[132.71885,35.34555],[132.71828,35.34519],[132.71752,35.34602],[132.71409,35.344],[132.71347,35.34406],[132.71312,35.34578],[132.71119,35.34528],[132.70784,35.34476],[132.70759,35.3455],[132.71163,35.34643],[132.72018,35.34976],[132.72082,35.34984],[132.72289,35.34966]]]},"properties":{"key":"322030510","name":"芦渡町","pref":"島根県","prefCode":"32","municipality":"出雲市","areaM2":5446880.219,"population":854,"toponymIds":["32-21dc01c11a"]}},{"type":"Feature","geometry":{"type":"Polygon","coordinates":[[[132.71707,35.44319],[132.71835,35.44197],[132.72254,35.43921],[132.7228,35.43888],[132.72289,35.43825],[132.72257,35.43614],[132.7226,35.43502],[132.72353,35.43113],[132.71842,35.42712],[132.71737,35.42652],[132.71215,35.42423],[132.71036,35.42309],[132.70927,35.42211],[132.70854,35.42056],[132.7084,35.41955],[132.70816,35.41606],[132.70825,35.41396],[132.70897,35.41167],[132.71062,35.40912],[132.70921,35.40903],[132.70876,35.40871],[132.70774,35.40854],[132.70576,35.40517],[132.70524,35.40482],[132.70283,35.40525],[132.70121,35.40679],[132.70078,35.40687],[132.70004,35.40741],[132.70025,35.4083],[132.70013,35.40854],[132.69803,35.40931],[132.69415,35.4114],[132.69466,35.41323],[132.69464,35.4141],[132.6936,35.41481],[132.69333,35.41518],[132.69378,35.4158],[132.69375,35.41603],[132.69283,35.41745],[132.69285,35.41807],[132.69259,35.41843],[132.6927,35.41982],[132.6924,35.4203],[132.69238,35.42132],[132.69298,35.42295],[132.69345,35.4234],[132.69499,35.424],[132.69721,35.42577],[132.69728,35.42655],[132.69766,35.42716],[132.69866,35.42778],[132.70009,35.42971],[132.70117,35.43046],[132.70133,35.43103],[132.70192,35.43174],[132.70384,35.43299],[132.70459,35.43391],[132.70499,35.43486],[132.70502,35.43627],[132.70587,35.43895],[132.70595,35.44072],[132.7062,35.44122],[132.70613,35.44276],[132.70683,35.44299],[132.70732,35.44286],[132.70724,35.44306],[132.70773,35.44296],[132.70798,35.44308],[132.70892,35.4428],[132.70913,35.44289],[132.70888,35.44245],[132.70893,35.44224],[132.70873,35.44233],[132.70859,35.44207],[132.70877,35.44211],[132.70877,35.4419],[132.70855,35.44191],[132.7089,35.44131],[132.70984,35.44119],[132.71067,35.44157],[132.71088,35.44133],[132.71073,35.44107],[132.71086,35.44101],[132.71095,35.44135],[132.71075,35.44145],[132.71063,35.44184],[132.71036,35.44194],[132.7104,35.44241],[132.71077,35.44242],[132.71065,35.44259],[132.71153,35.44249],[132.7116,35.44276],[132.7129,35.44292],[132.71335,35.44273],[132.7136,35.44308],[132.71387,35.44294],[132.71474,35.44313],[132.71568,35.44312],[132.71571,35.44346],[132.71674,35.44387],[132.71707,35.44319]]]},"properties":{"key":"322030840","name":"猪目町","pref":"島根県","prefCode":"32","municipality":"出雲市","areaM2":5941108.56,"population":51,"toponymIds":["32-fdd723fa5e"]}},{"type":"Feature","geometry":{"type":"Polygon","coordinates":[[[132.76345,35.37246],[132.76411,35.37086],[132.76104,35.37105],[132.76012,35.3724],[132.75975,35.37232],[132.75939,35.37329],[132.76283,35.37415],[132.76345,35.37246]]]},"properties":{"key":"32203149001","name":"大津朝倉一丁目","pref":"島根県","prefCode":"32","municipality":"出雲市","areaM2":93934.536,"population":521,"toponymIds":["32-865cc1834d"]}},{"type":"Feature","geometry":{"type":"Polygon","coordinates":[[[132.77338,35.38686],[132.7735,35.38602],[132.77366,35.38603],[132.77381,35.3845],[132.77367,35.38449],[132.77393,35.38259],[132.77125,35.38237],[132.77111,35.38197],[132.77127,35.38154],[132.77103,35.38136],[132.77085,35.38075],[132.7697,35.38104],[132.76973,35.38084],[132.76835,35.38096],[132.76841,35.37969],[132.76639,35.38015],[132.76606,35.37922],[132.76227,35.38007],[132.76208,35.37999],[132.76187,35.37949],[132.76079,35.37988],[132.76192,35.38306],[132.76301,35.3828],[132.76298,35.38332],[132.76418,35.38356],[132.764,35.38584],[132.76465,35.38588],[132.76461,35.38703],[132.76539,35.38716],[132.76655,35.3869],[132.7671,35.38698],[132.76827,35.38655],[132.77008,35.38758],[132.77271,35.3883],[132.77322,35.38805],[132.77338,35.38686]]]},"properties":{"key":"322030340","name":"荻杼町","pref":"島根県","prefCode":"32","municipality":"出雲市","areaM2":720438.413,"population":1445,"toponymIds":["32-cf7d0106de"]}},{"type":"Feature","geometry":{"type":"Polygon","coordinates":[[[132.81247,35.40121],[132.81207,35.40095],[132.8083,35.40594],[132.80555,35.40926],[132.80899,35.41335],[132.81258,35.41573],[132.82455,35.42037],[132.82839,35.42215],[132.83029,35.41818],[132.8258,35.41652],[132.82766,35.41235],[132.82809,35.41096],[132.82774,35.41094],[132.82845,35.40945],[132.82754,35.4094],[132.82663,35.40901],[132.82446,35.40755],[132.82256,35.40683],[132.82092,35.40524],[132.81843,35.40441],[132.8175,35.4039],[132.81497,35.40298],[132.81247,35.40121]]]},"properties":{"key":"322031700","name":"斐川町原鹿","pref":"島根県","prefCode":"32","municipality":"出雲市","areaM2":2647846.02,"population":660,"toponymIds":["32-8c1250d651"]}},{"type":"Feature","geometry":{"type":"Polygon","coordinates":[[[132.8804,35.46292],[132.88123,35.46131],[132.88048,35.46106],[132.87901,35.46128],[132.87782,35.46182],[132.87763,35.46173],[132.877,35.46053],[132.87527,35.45969],[132.87539,35.45927],[132.87462,35.45899],[132.8739,35.45894],[132.87259,35.45841],[132.87076,35.45705],[132.87031,35.45537],[132.87075,35.4549],[132.87013,35.45533],[132.86898,35.45664],[132.86862,35.45683],[132.86848,35.45727],[132.86943,35.4584],[132.86909,35.45952],[132.86931,35.45973],[132.86853,35.46168],[132.86876,35.46296],[132.8692,35.46373],[132.86908,35.46465],[132.86926,35.46899],[132.86946,35.46973],[132.8701,35.47052],[132.86969,35.47174],[132.86985,35.47204],[132.86981,35.47245],[132.86854,35.47288],[132.86776,35.47369],[132.86765,35.47419],[132.86785,35.47475],[132.86935,35.47653],[132.86974,35.47722],[132.86966,35.47758],[132.86928,35.47799],[132.86725,35.47854],[132.86605,35.47925],[132.86464,35.48839],[132.86353,35.49009],[132.86276,35.49044],[132.86405,35.49233],[132.86475,35.49473],[132.86599,35.49652],[132.86962,35.5003],[132.87261,35.50256],[132.87303,35.50014],[132.87302,35.49906],[132.87187,35.49378],[132.87285,35.49235],[132.87371,35.49028],[132.8747,35.48851],[132.87635,35.48749],[132.87779,35.4863],[132.87889,35.48454],[132.87893,35.48353],[132.87837,35.4826],[132.87806,35.48124],[132.87815,35.47964],[132.87885,35.47802],[132.87831,35.47676],[132.87807,35.47455],[132.87825,35.4739],[132.87917,35.47242],[132.87943,35.47138],[132.87972,35.47091],[132.87914,35.46992],[132.87897,35.46936],[132.87916,35.4684],[132.87895,35.46822],[132.87828,35.46627],[132.87885,35.46617],[132.8804,35.46292]]]},"properties":{"key":"322030940","name":"鹿園寺町","pref":"島根県","prefCode":"32","municipality":"出雲市","areaM2":4184238.007,"population":421,"toponymIds":["32-712cd299ce"]}},{"type":"Feature","geometry":{"type":"Polygon","coordinates":[[[131.89291,34.62213],[131.8922,34.6205],[131.89031,34.61125],[131.8915,34.60903],[131.89298,34.60867],[131.89361,34.60775],[131.8934,34.60633],[131.89388,34.60517],[131.89374,34.60393],[131.89391,34.60169],[131.89416,34.60095],[131.89303,34.60053],[131.8926,34.59999],[131.89222,34.59905],[131.89121,34.59829],[131.89016,34.59794],[131.88931,34.59791],[131.88762,34.59818],[131.88708,34.59777],[131.88618,34.5959],[131.88572,34.59567],[131.88523,34.59568],[131.88381,34.59657],[131.88247,34.59691],[131.88077,34.5976],[131.87988,34.59813],[131.8787,34.59826],[131.87808,34.59784],[131.8772,34.59639],[131.8756,34.59527],[131.8743,34.59465],[131.8706,34.59383],[131.87012,34.5941],[131.86961,34.59509],[131.86896,34.59587],[131.86714,34.59605],[131.86416,34.5969],[131.86379,34.59784],[131.86383,34.59945],[131.86396,34.59976],[131.86337,34.60033],[131.86285,34.60033],[131.86142,34.59946],[131.86001,34.59733],[131.85931,34.59714],[131.85899,34.59723],[131.85825,34.59798],[131.85787,34.59877],[131.85795,34.60182],[131.85766,34.60241],[131.85714,34.60266],[131.85538,34.60262],[131.85584,34.60382],[131.85599,34.6049],[131.85787,34.60714],[131.85838,34.6073],[131.85912,34.60718],[131.85943,34.60732],[131.86007,34.60814],[131.86103,34.60841],[131.86171,34.60901],[131.86199,34.60961],[131.862,34.61012],[131.86248,34.61044],[131.86262,34.6118],[131.86235,34.61302],[131.86315,34.6142],[131.86358,34.61523],[131.86361,34.6164],[131.8633,34.61742],[131.86379,34.61972],[131.86397,34.61991],[131.86443,34.61896],[131.86483,34.61759],[131.86544,34.61666],[131.86724,34.61524],[131.86797,34.6149],[131.87278,34.61374],[131.87341,34.61378],[131.87503,34.61434],[131.87539,34.61457],[131.87579,34.61553],[131.87556,34.61627],[131.87409,34.61718],[131.87237,34.61777],[131.87123,34.61855],[131.87092,34.61894],[131.87162,34.62048],[131.87296,34.62156],[131.87447,34.62311],[131.87549,34.62375],[131.87772,34.62586],[131.8785,34.62639],[131.88051,34.62753],[131.88376,34.62864],[131.88489,34.62848],[131.88568,34.62787],[131.88817,34.62439],[131.88951,34.62302],[131.89023,34.62251],[131.89105,34.62227],[131.89236,34.62205],[131.89291,34.62213]]]},"properties":{"key":"322040590","name":"猪木谷町","pref":"島根県","prefCode":"32","municipality":"益田市","areaM2":8166948.858,"population":20,"toponymIds":["32-696b0239f7"]}},{"type":"Feature","geometry":{"type":"Polygon","coordinates":[[[131.89334,34.64432],[131.89269,34.64359],[131.89281,34.64281],[131.89759,34.63915],[131.89861,34.63817],[131.90208,34.63618],[131.90751,34.63412],[131.90694,34.63367],[131.90675,34.63317],[131.90686,34.63186],[131.90619,34.63066],[131.90426,34.62815],[131.90258,34.62671],[131.90096,34.62612],[131.89617,34.62681],[131.89299,34.62631],[131.89264,34.62592],[131.89272,34.62521],[131.8945,34.62363],[131.89342,34.62247],[131.89291,34.62213],[131.89236,34.62205],[131.89023,34.62251],[131.88868,34.6238],[131.88767,34.62505],[131.88798,34.62658],[131.88799,34.6284],[131.88763,34.62983],[131.88802,34.63299],[131.88803,34.63454],[131.88647,34.63609],[131.88525,34.63788],[131.88471,34.63919],[131.88462,34.64002],[131.88506,34.64161],[131.88574,34.64304],[131.88681,34.64431],[131.8877,34.64508],[131.88863,34.64541],[131.89014,34.64552],[131.89223,34.6453],[131.89264,34.64522],[131.89334,34.64432]]]},"properties":{"key":"322040430","name":"岩倉町","pref":"島根県","prefCode":"32","municipality":"益田市","areaM2":2918871.928,"population":0,"toponymIds":["32-e25f9593dd"]}},{"type":"Feature","geometry":{"type":"Polygon","coordinates":[[[131.78187,34.68026],[131.78403,34.67926],[131.79529,34.67672],[131.79626,34.67948],[131.79869,34.67903],[131.79773,34.67621],[131.80191,34.67526],[131.80374,34.67415],[131.80344,34.67319],[131.80589,34.67123],[131.80541,34.66582],[131.80585,34.66359],[131.80439,34.66211],[131.80287,34.661],[131.80088,34.66017],[131.79683,34.65912],[131.79597,34.66529],[131.79625,34.66738],[131.7962,34.6685],[131.795,34.67173],[131.79444,34.67405],[131.77846,34.67753],[131.77827,34.67777],[131.77905,34.68015],[131.77931,34.68029],[131.78071,34.68003],[131.78106,34.68064],[131.78187,34.68026]]]},"properties":{"key":"322040710","name":"内田町","pref":"島根県","prefCode":"32","municipality":"益田市","areaM2":2025286.739,"population":193,"toponymIds":["32-86bfd0fd86"]}},{"type":"Feature","geometry":{"type":"Polygon","coordinates":[[[131.8378,34.63948],[131.83936,34.63659],[131.84098,34.63149],[131.84186,34.63046],[131.84287,34.62967],[131.84354,34.62871],[131.8441,34.62559],[131.84636,34.62358],[131.84988,34.62174],[131.85098,34.6203],[131.85264,34.61716],[131.84868,34.61498],[131.84627,34.61487],[131.84284,34.61445],[131.84033,34.61494],[131.83585,34.618],[131.83463,34.61813],[131.83387,34.61852],[131.83069,34.62204],[131.82832,34.62513],[131.82748,34.62601],[131.82695,34.62648],[131.82552,34.62705],[131.82473,34.6276],[131.8212,34.63095],[131.81963,34.63296],[131.81886,34.63427],[131.82091,34.63768],[131.82218,34.63939],[131.82425,34.64076],[131.82603,34.64156],[131.82948,34.64227],[131.83054,34.64397],[131.83067,34.64575],[131.83096,34.64599],[131.83145,34.64614],[131.83251,34.64581],[131.83432,34.64444],[131.83688,34.64108],[131.8378,34.63948]]]},"properties":{"key":"322040510","name":"梅月町","pref":"島根県","prefCode":"32","municipality":"益田市","areaM2":5009021.924,"population":118,"toponymIds":["32-217f863868"]}},{"type":"Feature","geometry":{"type":"Polygon","coordinates":[[[131.92703,34.68019],[131.92663,34.67778],[131.92849,34.67794],[131.92894,34.67782],[131.9294,34.67736],[131.92931,34.67603],[131.92969,34.67573],[131.93039,34.67557],[131.93124,34.67492],[131.93343,34.67429],[131.93494,34.6734],[131.93527,34.67291],[131.93655,34.67268],[131.93815,34.67095],[131.93858,34.66952],[131.93913,34.66883],[131.93981,34.66853],[131.94088,34.66649],[131.94096,34.66595],[131.94078,34.6642],[131.94106,34.66315],[131.94325,34.6599],[131.94463,34.65898],[131.94568,34.65779],[131.94534,34.65617],[131.9443,34.65504],[131.94203,34.65365],[131.94168,34.65372],[131.94048,34.65322],[131.93985,34.65326],[131.93883,34.65418],[131.93778,34.65551],[131.93756,34.65655],[131.93785,34.65813],[131.93712,34.6606],[131.9356,34.66025],[131.9345,34.66021],[131.93377,34.66051],[131.93318,34.66082],[131.93226,34.66168],[131.93159,34.66392],[131.93075,34.66437],[131.93004,34.66452],[131.92899,34.66433],[131.92857,34.66437],[131.92823,34.66461],[131.92721,34.66846],[131.92606,34.66874],[131.92556,34.66937],[131.92562,34.66975],[131.92643,34.67051],[131.92659,34.67139],[131.92486,34.6721],[131.92208,34.67249],[131.92151,34.67319],[131.92104,34.6734],[131.91984,34.67362],[131.91837,34.67357],[131.91779,34.67383],[131.91699,34.67501],[131.91657,34.67516],[131.91497,34.67494],[131.91457,34.67495],[131.91428,34.67519],[131.91383,34.67627],[131.91372,34.67743],[131.91512,34.67779],[131.9171,34.67901],[131.91855,34.67957],[131.91897,34.67955],[131.92041,34.6788],[131.92114,34.67876],[131.92177,34.67917],[131.92317,34.67931],[131.92367,34.67916],[131.92422,34.67964],[131.92703,34.68019]]]},"properties":{"key":"322040840","name":"美都町朝倉","pref":"島根県","prefCode":"32","municipality":"益田市","areaM2":2879467.633,"population":64,"toponymIds":["32-1729d01e39"]}},{"type":"Feature","geometry":{"type":"Polygon","coordinates":[[[131.90783,34.68022],[131.90958,34.6798],[131.9102,34.67916],[131.91243,34.67856],[131.91304,34.67821],[131.91372,34.67743],[131.91383,34.67627],[131.91428,34.67519],[131.91457,34.67495],[131.91657,34.67516],[131.91699,34.67501],[131.91779,34.67383],[131.91837,34.67357],[131.91984,34.67362],[131.92104,34.6734],[131.92151,34.67319],[131.92208,34.67249],[131.92486,34.6721],[131.92659,34.67139],[131.92643,34.67051],[131.92562,34.66975],[131.92556,34.66937],[131.92606,34.66874],[131.92721,34.66846],[131.92823,34.66461],[131.92857,34.66437],[131.92899,34.66433],[131.93004,34.66452],[131.93075,34.66437],[131.93159,34.66392],[131.93226,34.66168],[131.93318,34.66082],[131.93377,34.66051],[131.9345,34.66021],[131.9356,34.66025],[131.93712,34.6606],[131.93785,34.65813],[131.93756,34.65655],[131.93778,34.65551],[131.93883,34.65418],[131.93985,34.65326],[131.93939,34.65332],[131.93823,34.65295],[131.93792,34.65225],[131.93657,34.6513],[131.93545,34.65005],[131.93412,34.64983],[131.93227,34.649],[131.93073,34.64868],[131.93025,34.64833],[131.92944,34.64816],[131.92874,34.6483],[131.92718,34.64788],[131.92624,34.64784],[131.92537,34.64809],[131.92533,34.64823],[131.92578,34.64874],[131.92549,34.64907],[131.92455,34.64931],[131.9243,34.64988],[131.92248,34.6504],[131.92132,34.65142],[131.91975,34.65211],[131.91945,34.6529],[131.91757,34.65365],[131.91647,34.65453],[131.91617,34.65442],[131.91595,34.65357],[131.91612,34.65285],[131.91578,34.6529],[131.91559,34.65383],[131.91533,34.65424],[131.91376,34.65498],[131.91303,34.65614],[131.91284,34.65705],[131.91262,34.65865],[131.91275,34.65894],[131.91433,34.66037],[131.91393,34.66129],[131.9143,34.66321],[131.91322,34.66385],[131.91237,34.66399],[131.91192,34.66438],[131.91135,34.66455],[131.91112,34.66551],[131.91075,34.66584],[131.90974,34.66616],[131.90871,34.66712],[131.90844,34.66784],[131.90879,34.66883],[131.90849,34.66918],[131.90817,34.66934],[131.90619,34.66958],[131.90583,34.66983],[131.90492,34.67068],[131.90387,34.67263],[131.90608,34.67286],[131.90723,34.67334],[131.90767,34.67378],[131.90774,34.67464],[131.90816,34.67538],[131.90829,34.67617],[131.9078,34.67741],[131.90721,34.67781],[131.90734,34.67889],[131.90712,34.68015],[131.90744,34.68029],[131.90783,34.68022]]]},"properties":{"key":"322040830","name":"美都町笹倉","pref":"島根県","prefCode":"32","municipality":"益田市","areaM2":5306556.013,"population":66,"toponymIds":["32-5ca701bad1"]}},{"type":"Feature","geometry":{"type":"Polygon","coordinates":[[[132.56369,35.26751],[132.56435,35.26738],[132.56367,35.2672],[132.56472,35.26708],[132.56501,35.26681],[132.56515,35.26594],[132.5659,35.2656],[132.56598,35.26541],[132.56595,35.26496],[132.56553,35.26405],[132.56607,35.26324],[132.56604,35.26267],[132.56535,35.26195],[132.56448,35.26217],[132.56553,35.26117],[132.56622,35.25847],[132.56677,35.25806],[132.56715,35.25799],[132.56706,35.25749],[132.56738,35.25501],[132.56795,35.2525],[132.5684,35.25178],[132.56911,35.25123],[132.57143,35.25106],[132.57087,35.24907],[132.56981,35.24695],[132.56954,35.24608],[132.56885,35.24168],[132.56904,35.24033],[132.56988,35.23963],[132.57087,35.23931],[132.57307,35.23806],[132.57425,35.2369],[132.57468,35.23688],[132.57536,35.23714],[132.57573,35.23703],[132.57541,35.23656],[132.57446,35.23596],[132.5725,35.2362],[132.57185,35.23583],[132.57162,35.23467],[132.57062,35.23371],[132.57037,35.23311],[132.57038,35.23254],[132.57085,35.2308],[132.57042,35.23028],[132.56905,35.22922],[132.56789,35.22861],[132.5655,35.22781],[132.56445,35.22712],[132.56234,35.22683],[132.56159,35.22706],[132.56032,35.2283],[132.55912,35.22892],[132.55754,35.23031],[132.55764,35.231],[132.55811,35.23199],[132.55814,35.2327],[132.55935,35.23308],[132.56073,35.23475],[132.56085,35.23567],[132.56038,35.23719],[132.55967,35.23757],[132.55937,35.23799],[132.55858,35.23782],[132.55779,35.23833],[132.55607,35.23892],[132.55425,35.23894],[132.55248,35.23849],[132.5516,35.23871],[132.55152,35.23882],[132.5521,35.24058],[132.55192,35.24192],[132.54929,35.24297],[132.54885,35.24283],[132.54819,35.24219],[132.54775,35.24349],[132.54801,35.24417],[132.54903,35.24415],[132.54949,35.24535],[132.55007,35.24559],[132.55083,35.24624],[132.55205,35.24646],[132.55326,35.24731],[132.55509,35.24792],[132.55643,35.24805],[132.55672,35.24893],[132.55698,35.24923],[132.55827,35.24985],[132.55889,35.25081],[132.55949,35.25095],[132.56048,35.25173],[132.56049,35.25285],[132.55961,35.25379],[132.55929,35.25441],[132.55796,35.25413],[132.55714,35.25357],[132.55681,35.25355],[132.55648,35.25417],[132.55536,35.25468],[132.55395,35.2549],[132.55199,35.25662],[132.55111,35.25654],[132.54936,35.25562],[132.54881,35.25561],[132.54834,35.2566],[132.54852,35.25745],[132.54825,35.25981],[132.54866,35.25974],[132.54859,35.26009],[132.54881,35.25975],[132.54905,35.25978],[132.54904,35.25997],[132.54929,35.25996],[132.54902,35.26029],[132.54941,35.26021],[132.54922,35.26034],[132.54947,35.26029],[132.54977,35.26055],[132.5501,35.26059],[132.55015,35.26043],[132.5502,35.26058],[132.55018,35.2602],[132.55048,35.26057],[132.55035,35.26034],[132.55056,35.26025],[132.55086,35.26023],[132.55089,35.26048],[132.55107,35.26038],[132.55109,35.26054],[132.55132,35.26023],[132.55148,35.26024],[132.55152,35.2605],[132.55137,35.26069],[132.55164,35.26082],[132.55148,35.2609],[132.55153,35.26109],[132.55181,35.26106],[132.55174,35.26115],[132.55202,35.26136],[132.55242,35.26145],[132.55259,35.26197],[132.55287,35.262],[132.55304,35.26224],[132.55317,35.26203],[132.55345,35.26254],[132.55363,35.26241],[132.55369,35.26253],[132.55421,35.26257],[132.55398,35.26291],[132.55438,35.26274],[132.55459,35.26285],[132.5545,35.26322],[132.55475,35.26317],[132.55483,35.26354],[132.55564,35.26411],[132.55531,35.26448],[132.55572,35.26418],[132.55541,35.26471],[132.55589,35.26426],[132.55698,35.26406],[132.55711,35.26413],[132.55687,35.26434],[132.5572,35.26419],[132.55725,35.26438],[132.55793,35.26448],[132.55812,35.26506],[132.55831,35.26505],[132.55828,35.26482],[132.55878,35.26476],[132.55858,35.2653],[132.55888,35.26509],[132.55883,35.26545],[132.55912,35.26505],[132.55912,35.26543],[132.55989,35.26489],[132.55988,35.26516],[132.56013,35.26491],[132.56034,35.26492],[132.56008,35.26529],[132.56031,35.26536],[132.56052,35.26482],[132.5608,35.2649],[132.5618,35.26454],[132.56257,35.26509],[132.56232,35.26544],[132.56238,35.26577],[132.56209,35.26616],[132.56243,35.26594],[132.56266,35.2662],[132.5626,35.26637],[132.5628,35.26624],[132.56296,35.26637],[132.56276,35.2667],[132.56291,35.26657],[132.56302,35.26665],[132.56287,35.26682],[132.56305,35.26672],[132.56325,35.26687],[132.56296,35.26702],[132.56328,35.26725],[132.56292,35.26736],[132.56284,35.26757],[132.56327,35.26751],[132.56336,35.26766],[132.56369,35.26751]]]},"properties":{"key":"32205008001","name":"朝山町朝倉","pref":"島根県","prefCode":"32","municipality":"大田市","areaM2":5370963.94,"population":250,"toponymIds":["32-1246e9a648"]}},{"type":"Feature","geometry":{"type":"Polygon","coordinates":[[[132.50216,35.2292],[132.50235,35.22901],[132.5043,35.23049],[132.50445,35.23035],[132.50474,35.23083],[132.50879,35.22918],[132.50885,35.2293],[132.50929,35.22912],[132.50957,35.22964],[132.51137,35.2289],[132.51238,35.22885],[132.51257,35.22784],[132.51333,35.22713],[132.51738,35.22591],[132.51864,35.22587],[132.51986,35.22502],[132.52063,35.22388],[132.52288,35.22262],[132.52459,35.22215],[132.52726,35.22225],[132.52696,35.22356],[132.52694,35.22458],[132.52731,35.22564],[132.52897,35.22573],[132.53024,35.22674],[132.53121,35.22645],[132.53154,35.22589],[132.53255,35.22532],[132.53308,35.22558],[132.53405,35.22561],[132.53487,35.22618],[132.53658,35.22618],[132.53925,35.22544],[132.54152,35.22455],[132.54284,35.22498],[132.54352,35.22476],[132.54405,35.22404],[132.54495,35.22228],[132.54609,35.22109],[132.54699,35.22055],[132.5466,35.21851],[132.54647,35.21499],[132.54505,35.21409],[132.54487,35.2138],[132.54479,35.21305],[132.54524,35.2121],[132.54616,35.21168],[132.54848,35.21134],[132.54841,35.2111],[132.54771,35.21018],[132.54569,35.20891],[132.54572,35.20711],[132.5449,35.20651],[132.54318,35.20575],[132.54316,35.20564],[132.54466,35.20469],[132.54191,35.20263],[132.53949,35.20182],[132.53756,35.20094],[132.53598,35.20083],[132.53432,35.20157],[132.53275,35.20251],[132.53192,35.20328],[132.5293,35.20396],[132.52732,35.20315],[132.52704,35.20317],[132.52545,35.2046],[132.52316,35.20515],[132.52186,35.20522],[132.52066,35.20497],[132.51842,35.20356],[132.51733,35.20335],[132.5166,35.20344],[132.51572,35.20464],[132.51268,35.20798],[132.51176,35.20796],[132.51094,35.20753],[132.50871,35.20483],[132.50625,35.20573],[132.50484,35.20667],[132.50403,35.20691],[132.50305,35.20695],[132.5029,35.20817],[132.50181,35.20812],[132.50181,35.20833],[132.50158,35.20853],[132.50068,35.20816],[132.49873,35.2084],[132.49824,35.20797],[132.49838,35.20732],[132.49786,35.20687],[132.49748,35.20727],[132.49752,35.20888],[132.4977,35.20959],[132.49825,35.21023],[132.49899,35.21061],[132.49977,35.21165],[132.50036,35.21161],[132.50156,35.21102],[132.50223,35.21092],[132.50316,35.2118],[132.50362,35.21257],[132.50379,35.2134],[132.50268,35.21419],[132.50262,35.21575],[132.50241,35.21641],[132.50313,35.21809],[132.50171,35.2189],[132.50074,35.21922],[132.50027,35.2196],[132.49963,35.2219],[132.49878,35.22085],[132.49796,35.22026],[132.49738,35.22026],[132.49676,35.22057],[132.496,35.2199],[132.49556,35.21979],[132.49557,35.22102],[132.49427,35.22153],[132.49416,35.22224],[132.49369,35.2229],[132.4937,35.2233],[132.49249,35.22401],[132.49214,35.22439],[132.49149,35.22453],[132.4913,35.22475],[132.49133,35.22511],[132.49115,35.22517],[132.49067,35.22483],[132.4904,35.22484],[132.49,35.22553],[132.48933,35.22565],[132.48921,35.22631],[132.48952,35.22679],[132.48961,35.22771],[132.48993,35.22817],[132.48937,35.22971],[132.48924,35.23053],[132.48954,35.2305],[132.48969,35.23083],[132.48996,35.23067],[132.49012,35.23079],[132.49048,35.23039],[132.4905,35.23083],[132.49079,35.23047],[132.49121,35.23068],[132.49164,35.23043],[132.49173,35.23067],[132.49174,35.23041],[132.49197,35.23049],[132.49224,35.23029],[132.49239,35.23003],[132.49229,35.22977],[132.49266,35.22946],[132.49356,35.22999],[132.49344,35.22957],[132.49316,35.22943],[132.49341,35.22919],[132.49403,35.22921],[132.49382,35.22869],[132.49415,35.22891],[132.49434,35.22886],[132.49383,35.22821],[132.49402,35.22794],[132.49456,35.22768],[132.49546,35.22754],[132.49597,35.22769],[132.49703,35.22762],[132.49742,35.22683],[132.49742,35.22645],[132.49748,35.22664],[132.4977,35.2266],[132.4975,35.22666],[132.49745,35.22711],[132.49711,35.22746],[132.49714,35.22763],[132.49836,35.2276],[132.50046,35.22818],[132.50038,35.22792],[132.50082,35.22793],[132.50124,35.2274],[132.50134,35.22744],[132.50096,35.22792],[132.50042,35.22798],[132.50059,35.22823],[132.50111,35.22831],[132.50118,35.22871],[132.5016,35.22889],[132.50178,35.22918],[132.50181,35.22937],[132.50116,35.23004],[132.50175,35.23144],[132.50146,35.23053],[132.50242,35.2296],[132.50203,35.22933],[132.50216,35.2292]]]},"properties":{"key":"32205010002","name":"久手町刺鹿","pref":"島根県","prefCode":"32","municipality":"大田市","areaM2":10608844.463,"population":2210,"toponymIds":["32-36e4ad3887"]}},{"type":"Feature","geometry":{"type":"Polygon","coordinates":[[[132.49798,35.11632],[132.49965,35.11576],[132.4991,35.11406],[132.50183,35.11337],[132.50236,35.11295],[132.50324,35.11049],[132.50333,35.10868],[132.50396,35.10703],[132.5047,35.10643],[132.50597,35.10577],[132.509,35.10485],[132.51164,35.10461],[132.51236,35.10435],[132.51271,35.104],[132.51186,35.10136],[132.51133,35.09913],[132.51115,35.09885],[132.51056,35.09869],[132.50896,35.09781],[132.50821,35.09803],[132.50715,35.09792],[132.5052,35.09809],[132.505,35.09752],[132.50393,35.09723],[132.50271,35.09496],[132.502,35.09477],[132.50166,35.09447],[132.50022,35.09467],[132.49991,35.09517],[132.499,35.09566],[132.49865,35.09619],[132.49767,35.09686],[132.49715,35.09697],[132.49662,35.09776],[132.49557,35.09835],[132.49437,35.09844],[132.49362,35.09806],[132.49286,35.0981],[132.4919,35.09905],[132.4911,35.09869],[132.4906,35.09731],[132.48882,35.09734],[132.48837,35.09702],[132.48741,35.09684],[132.48697,35.09649],[132.48494,35.10081],[132.48344,35.10328],[132.48046,35.1069],[132.47987,35.10811],[132.47956,35.10921],[132.47938,35.10935],[132.4785,35.10942],[132.47854,35.1118],[132.47992,35.11198],[132.48259,35.1116],[132.48361,35.11171],[132.48475,35.11226],[132.48729,35.11222],[132.48855,35.11276],[132.48894,35.11325],[132.49062,35.1138],[132.49221,35.11524],[132.49322,35.11585],[132.49535,35.11585],[132.49667,35.11627],[132.49798,35.11632]]]},"properties":{"key":"32205018002","name":"水上町荻原","pref":"島根県","prefCode":"32","municipality":"大田市","areaM2":4247547.939,"population":62,"toponymIds":["32-70af3c47ff"]}},{"type":"Feature","geometry":{"type":"Polygon","coordinates":[[[132.3855,35.07048],[132.38675,35.0704],[132.38909,35.07058],[132.39038,35.07044],[132.39202,35.06936],[132.3929,35.0674],[132.39468,35.06704],[132.39858,35.0667],[132.39969,35.06674],[132.40269,35.06856],[132.4048,35.06903],[132.40589,35.0689],[132.40775,35.06815],[132.40784,35.06518],[132.40771,35.06423],[132.40546,35.06082],[132.40493,35.05962],[132.40474,35.058],[132.40493,35.05716],[132.40454,35.0564],[132.40441,35.05548],[132.40413,35.05487],[132.40254,35.05419],[132.40243,35.05164],[132.40248,35.05081],[132.40278,35.0502],[132.40239,35.04834],[132.40251,35.04745],[132.40152,35.04651],[132.40119,35.04592],[132.40047,35.04552],[132.40039,35.04437],[132.39989,35.04392],[132.39971,35.04329],[132.39934,35.04288],[132.39943,35.04226],[132.39531,35.04449],[132.39159,35.046],[132.38691,35.04885],[132.38642,35.04955],[132.38449,35.04946],[132.38378,35.0492],[132.38361,35.04877],[132.38384,35.04755],[132.3814,35.0454],[132.38023,35.04668],[132.3797,35.04791],[132.37959,35.04958],[132.38004,35.05014],[132.38167,35.05081],[132.38263,35.05153],[132.38429,35.05205],[132.38401,35.05353],[132.38437,35.05485],[132.38405,35.05569],[132.38262,35.05743],[132.38089,35.05723],[132.38034,35.05734],[132.37866,35.05939],[132.37769,35.0601],[132.37601,35.06099],[132.3757,35.06148],[132.37623,35.062],[132.37865,35.06312],[132.3796,35.06392],[132.38197,35.06825],[132.38286,35.07094],[132.3831,35.07111],[132.3855,35.07048]]]},"properties":{"key":"322050330","name":"温泉津町荻村","pref":"島根県","prefCode":"32","municipality":"大田市","areaM2":5516942.595,"population":40,"toponymIds":["32-afee252d78"]}},{"type":"Feature","geometry":{"type":"Polygon","coordinates":[[[133.23572,35.38403],[133.23636,35.3822],[133.23743,35.38187],[133.23926,35.38176],[133.24013,35.38188],[133.2417,35.383],[133.2424,35.38296],[133.24321,35.3832],[133.24409,35.38391],[133.24497,35.38422],[133.24536,35.38421],[133.24582,35.38375],[133.24736,35.38398],[133.24727,35.38285],[133.24805,35.38248],[133.24832,35.38256],[133.24947,35.3818],[133.25048,35.38284],[133.25108,35.38253],[133.25054,35.381],[133.24777,35.37805],[133.2466,35.37566],[133.24454,35.3725],[133.24289,35.37361],[133.24251,35.37473],[133.24143,35.37467],[133.23858,35.3749],[133.23776,35.37458],[133.23735,35.37391],[133.23713,35.37383],[133.23603,35.37375],[133.23405,35.3733],[133.23221,35.3736],[133.23125,35.37448],[133.23083,35.37466],[133.22883,35.37451],[133.22738,35.37497],[133.22341,35.37462],[133.22444,35.37547],[133.22647,35.37864],[133.22788,35.38013],[133.22969,35.38132],[133.23202,35.38238],[133.23234,35.38275],[133.23425,35.38366],[133.23572,35.38403]]]},"properties":{"key":"322060230","name":"柿谷町","pref":"島根県","prefCode":"32","municipality":"安来市","areaM2":1874660.777,"population":101,"toponymIds":["32-fae77bcfc9"]}},{"type":"Feature","geometry":{"type":"Polygon","coordinates":[[[133.26155,35.42046],[133.26187,35.41995],[133.26228,35.41973],[133.26285,35.41966],[133.2657,35.42012],[133.26747,35.41945],[133.26899,35.41805],[133.26999,35.41658],[133.27028,35.41586],[133.26909,35.4157],[133.26806,35.41529],[133.26566,35.41496],[133.26492,35.41444],[133.2647,35.41408],[133.26409,35.41397],[133.26373,35.41195],[133.26251,35.41018],[133.26062,35.40974],[133.25943,35.40867],[133.25885,35.40909],[133.25855,35.40817],[133.25819,35.4076],[133.258,35.40787],[133.25667,35.40872],[133.25786,35.41004],[133.25641,35.41174],[133.25538,35.41062],[133.2551,35.40971],[133.2533,35.41067],[133.2533,35.41155],[133.25215,35.41293],[133.25125,35.4137],[133.25074,35.41462],[133.25098,35.41509],[133.25082,35.4156],[133.25173,35.41613],[133.25134,35.41658],[133.2515,35.41669],[133.25115,35.41727],[133.25212,35.41825],[133.25256,35.41844],[133.25261,35.41891],[133.2524,35.41931],[133.25233,35.42042],[133.25285,35.42064],[133.25314,35.42098],[133.25495,35.42134],[133.25554,35.42172],[133.25603,35.42233],[133.2586,35.42293],[133.25906,35.42314],[133.25928,35.42346],[133.26155,35.42046]]]},"properties":{"key":"322060130","name":"佐久保町","pref":"島根県","prefCode":"32","municipality":"安来市","areaM2":1633083.432,"population":203,"toponymIds":["32-4158280c24"]}},{"type":"Feature","geometry":{"type":"Polygon","coordinates":[[[133.16775,35.35628],[133.16796,35.3557],[133.16926,35.35611],[133.16899,35.3566],[133.16956,35.35649],[133.17045,35.35602],[133.17126,35.35514],[133.17161,35.35352],[133.1715,35.35273],[133.17193,35.35193],[133.17193,35.35152],[133.17078,35.35038],[133.17018,35.34913],[133.17043,35.34705],[133.1707,35.34612],[133.17098,35.34589],[133.17728,35.34733],[133.1797,35.34744],[133.18064,35.347],[133.18191,35.34539],[133.18297,35.34462],[133.18597,35.34316],[133.18679,35.34307],[133.18868,35.34357],[133.18967,35.34356],[133.19201,35.34297],[133.19603,35.34229],[133.19677,35.34189],[133.19744,35.34115],[133.19904,35.34009],[133.20012,35.33868],[133.20129,35.33777],[133.20292,35.33712],[133.20347,35.33714],[133.20464,35.33766],[133.20487,35.33753],[133.20638,35.33748],[133.20676,35.33648],[133.20761,35.33584],[133.2077,35.3353],[133.20845,35.33542],[133.20733,35.33472],[133.20643,35.33446],[133.20556,35.33392],[133.20266,35.33129],[133.20186,35.32974],[133.20132,35.32913],[133.20106,35.32827],[133.20003,35.32691],[133.19939,35.32533],[133.19828,35.32457],[133.19692,35.32269],[133.19608,35.32258],[133.19477,35.32214],[133.19258,35.3202],[133.18936,35.32033],[133.18774,35.3196],[133.18567,35.31838],[133.18434,35.31848],[133.18414,35.31883],[133.18315,35.31957],[133.17767,35.32223],[133.17703,35.32276],[133.17549,35.32295],[133.17405,35.32258],[133.17382,35.32218],[133.17413,35.32109],[133.17411,35.32056],[133.17379,35.32034],[133.17351,35.32035],[133.17205,35.32065],[133.17121,35.32111],[133.16951,35.32162],[133.16642,35.32389],[133.16116,35.32463],[133.15736,35.32675],[133.1559,35.32709],[133.15457,35.32715],[133.15396,35.32791],[133.1525,35.32876],[133.15241,35.32898],[133.15314,35.33033],[133.15316,35.33074],[133.15274,35.33133],[133.15233,35.33158],[133.15428,35.33544],[133.15613,35.33639],[133.15684,35.33711],[133.15926,35.33855],[133.1626,35.33906],[133.16321,35.33949],[133.16543,35.34213],[133.16611,35.34269],[133.16642,35.34341],[133.16622,35.34383],[133.16554,35.34416],[133.16435,35.34383],[133.1632,35.34481],[133.16276,35.34542],[133.16264,35.34625],[133.16312,35.3475],[133.16338,35.34877],[133.16235,35.3498],[133.16107,35.35146],[133.16046,35.35283],[133.16064,35.35358],[133.16138,35.35436],[133.16471,35.35615],[133.16752,35.35699],[133.16775,35.35628]]]},"properties":{"key":"322060640","name":"広瀬町菅原","pref":"島根県","prefCode":"32","municipality":"安来市","areaM2":10991509.061,"population":230,"toponymIds":["32-950f174911"]}},{"type":"Feature","geometry":{"type":"Polygon","coordinates":[[[133.20416,35.38036],[133.204,35.37954],[133.20514,35.37792],[133.20477,35.37249],[133.20407,35.37249],[133.20282,35.37184],[133.20078,35.37165],[133.19965,35.37096],[133.19809,35.37137],[133.19668,35.37125],[133.19616,35.37104],[133.19497,35.37008],[133.19452,35.36999],[133.19327,35.37049],[133.19187,35.37045],[133.19107,35.37009],[133.19015,35.37029],[133.19028,35.37124],[133.19002,35.37136],[133.19011,35.37183],[133.18976,35.37216],[133.1897,35.37336],[133.19174,35.37597],[133.18975,35.37861],[133.19191,35.37972],[133.19369,35.38021],[133.19436,35.38058],[133.1942,35.38086],[133.20004,35.38413],[133.20067,35.38341],[133.20224,35.38264],[133.20327,35.38233],[133.20387,35.38127],[133.20416,35.38036]]]},"properties":{"key":"322060420","name":"古川町","pref":"島根県","prefCode":"32","municipality":"安来市","areaM2":1541113.312,"population":229,"toponymIds":["32-9c2a4697cd"]}},{"type":"Feature","geometry":{"type":"Polygon","coordinates":[[[132.46078,34.95796],[132.46154,34.95688],[132.46157,34.95657],[132.4613,34.9561],[132.4617,34.95593],[132.46167,34.95507],[132.46217,34.95408],[132.46199,34.9535],[132.46215,34.95201],[132.46193,34.95063],[132.46232,34.95052],[132.46254,34.95126],[132.46349,34.95092],[132.46505,34.94977],[132.46489,34.94761],[132.46349,34.94711],[132.46234,34.9472],[132.45934,34.9488],[132.45861,34.94946],[132.45307,34.94629],[132.45208,34.94704],[132.45114,34.94752],[132.45029,34.94772],[132.4495,34.94758],[132.449,34.94717],[132.44845,34.94699],[132.44728,34.94765],[132.44705,34.94666],[132.44664,34.94666],[132.44624,34.94753],[132.44587,34.94791],[132.44573,34.94786],[132.44572,34.9493],[132.44518,34.94982],[132.444,34.94967],[132.43972,34.948],[132.43959,34.94867],[132.43878,34.95007],[132.43811,34.95068],[132.43599,34.95207],[132.43517,34.95459],[132.43382,34.95601],[132.43347,34.95676],[132.43354,34.95766],[132.4346,34.95724],[132.43634,34.95694],[132.43703,34.957],[132.439,34.95762],[132.43995,34.95896],[132.44048,34.96144],[132.44084,34.96236],[132.44236,34.96438],[132.44348,34.96523],[132.44781,34.96553],[132.45057,34.96519],[132.4527,34.96458],[132.45346,34.9642],[132.45699,34.96099],[132.45804,34.96031],[132.46,34.95961],[132.46025,34.95839],[132.46078,34.95796]]]},"properties":{"key":"322070300","name":"桜江町鹿賀","pref":"島根県","prefCode":"32","municipality":"江津市","areaM2":3792967.99,"population":84,"toponymIds":["32-3e5c0454be"]}},{"type":"Feature","geometry":{"type":"Polygon","coordinates":[[[132.90357,35.37236],[132.90364,35.37151],[132.90331,35.36864],[132.90306,35.36786],[132.90198,35.36674],[132.90169,35.36658],[132.90103,35.36738],[132.9004,35.36782],[132.89929,35.36804],[132.8978,35.3679],[132.89729,35.36846],[132.89705,35.3691],[132.89703,35.36972],[132.8964,35.37057],[132.89653,35.3719],[132.89767,35.37167],[132.90102,35.37177],[132.90323,35.37153],[132.90357,35.37236]]]},"properties":{"key":"322090590","name":"加茂町猪尾","pref":"島根県","prefCode":"32","municipality":"雲南市","areaM2":267861.524,"population":462,"toponymIds":["32-aaa00943f6"]}},{"type":"Feature","geometry":{"type":"Polygon","coordinates":[[[132.8846,35.37444],[132.88632,35.37442],[132.88898,35.37483],[132.89085,35.3748],[132.89373,35.37301],[132.8953,35.37183],[132.89653,35.3719],[132.8964,35.37057],[132.89703,35.36972],[132.89715,35.36881],[132.89765,35.36793],[132.89929,35.36804],[132.90013,35.36792],[132.90103,35.36738],[132.90168,35.36664],[132.9008,35.36692],[132.90016,35.36671],[132.89997,35.36636],[132.90042,35.36567],[132.90011,35.36538],[132.90007,35.36434],[132.90039,35.3635],[132.90089,35.3629],[132.90266,35.3614],[132.90235,35.36119],[132.90053,35.36172],[132.89944,35.36235],[132.8985,35.36234],[132.89758,35.36209],[132.89705,35.36133],[132.89555,35.3604],[132.89531,35.35996],[132.89402,35.36041],[132.89259,35.36038],[132.89168,35.35988],[132.89146,35.36],[132.89118,35.3606],[132.89028,35.36091],[132.88903,35.36073],[132.88839,35.36023],[132.8872,35.35988],[132.88591,35.35884],[132.88433,35.3591],[132.88356,35.3586],[132.88213,35.35954],[132.88185,35.36122],[132.88089,35.36163],[132.88042,35.36278],[132.87977,35.36366],[132.87929,35.3647],[132.88139,35.3652],[132.88261,35.36601],[132.88427,35.3662],[132.88587,35.36673],[132.88584,35.36727],[132.88549,35.36784],[132.88464,35.36822],[132.88389,35.36793],[132.88311,35.36845],[132.88215,35.36823],[132.88123,35.36908],[132.87972,35.36954],[132.87903,35.37062],[132.87913,35.37083],[132.87973,35.37094],[132.88031,35.37132],[132.88089,35.37183],[132.88141,35.37269],[132.88252,35.37333],[132.88286,35.37388],[132.88291,35.37459],[132.88277,35.37496],[132.8846,35.37444]]]},"properties":{"key":"322090600","name":"加茂町岩倉","pref":"島根県","prefCode":"32","municipality":"雲南市","areaM2":2381223.122,"population":175,"toponymIds":["32-51092577e6"]}},{"type":"Feature","geometry":{"type":"Polygon","coordinates":[[[133.02749,35.32855],[133.02917,35.32852],[133.03028,35.32749],[133.03294,35.32818],[133.03457,35.32821],[133.03636,35.32789],[133.03815,35.32819],[133.03902,35.32814],[133.04029,35.32728],[133.04088,35.32645],[133.04455,35.32585],[133.04649,35.32528],[133.04693,35.32526],[133.04795,35.32563],[133.04984,35.32684],[133.05099,35.32708],[133.0544,35.32705],[133.05671,35.32759],[133.05893,35.32742],[133.06057,35.327],[133.06167,35.32651],[133.06253,35.32585],[133.06308,35.32575],[133.06343,35.32547],[133.06338,35.32486],[133.06359,35.32437],[133.06349,35.32341],[133.06412,35.32133],[133.06437,35.32094],[133.06494,35.32069],[133.06498,35.32026],[133.06559,35.3194],[133.06432,35.31836],[133.06521,35.3171],[133.06507,35.31563],[133.06479,35.31504],[133.06514,35.31459],[133.06514,35.31188],[133.06563,35.31097],[133.06619,35.31035],[133.06572,35.30984],[133.06533,35.30998],[133.06467,35.3097],[133.06423,35.30974],[133.06398,35.30953],[133.06398,35.309],[133.06328,35.30847],[133.06271,35.30841],[133.06259,35.30772],[133.06185,35.30718],[133.0614,35.30587],[133.06145,35.30536],[133.06085,35.3035],[133.06127,35.30332],[133.05866,35.30285],[133.05534,35.30252],[133.05429,35.30189],[133.05306,35.30081],[133.05275,35.30074],[133.05135,35.30088],[133.04772,35.30205],[133.04657,35.30183],[133.04577,35.30187],[133.0447,35.30286],[133.04407,35.3032],[133.04039,35.30419],[133.03824,35.30451],[133.03632,35.30426],[133.03522,35.30433],[133.03291,35.30505],[133.03184,35.30509],[133.03134,35.30527],[133.03074,35.30611],[133.03066,35.30956],[133.02988,35.31135],[133.02892,35.31219],[133.02663,35.31312],[133.02616,35.31354],[133.02595,35.31434],[133.02587,35.31608],[133.02528,35.31734],[133.02379,35.31901],[133.02139,35.32079],[133.02125,35.32152],[133.02114,35.3244],[133.02124,35.32513],[133.02181,35.32671],[133.02303,35.32832],[133.02321,35.3299],[133.0234,35.3302],[133.02485,35.33102],[133.02573,35.33132],[133.0266,35.3292],[133.02685,35.32886],[133.02749,35.32855]]]},"properties":{"key":"322090450","name":"大東町刈畑","pref":"島根県","prefCode":"32","municipality":"雲南市","areaM2":9288644.297,"population":97,"toponymIds":["32-5a03ed15cd"]}}]}
