{"type":"FeatureCollection","features":[{"type":"Feature","geometry":{"type":"Polygon","coordinates":[[[132.49481,34.48619],[132.49554,34.48566],[132.496,34.48599],[132.49633,34.48571],[132.49526,34.48502],[132.49551,34.4848],[132.49604,34.48327],[132.4963,34.48293],[132.49633,34.48197],[132.48932,34.47791],[132.48934,34.47869],[132.48865,34.47919],[132.48888,34.47933],[132.48841,34.47982],[132.48789,34.47956],[132.48691,34.48058],[132.48695,34.48072],[132.48726,34.4808],[132.48763,34.48071],[132.48759,34.48142],[132.48735,34.48178],[132.4878,34.48196],[132.48819,34.48112],[132.48843,34.48128],[132.4882,34.48161],[132.48846,34.48175],[132.48928,34.48164],[132.4889,34.48252],[132.4893,34.48308],[132.48972,34.48309],[132.49,34.4829],[132.49032,34.4835],[132.49109,34.4835],[132.49149,34.48316],[132.49228,34.48335],[132.49245,34.48379],[132.49263,34.48388],[132.49236,34.48458],[132.49265,34.4847],[132.49314,34.4842],[132.49374,34.48432],[132.49383,34.48418],[132.49422,34.48452],[132.49393,34.48511],[132.49353,34.48544],[132.49481,34.48619]]]},"properties":{"key":"34105848003","name":"八木三丁目","pref":"広島県","prefCode":"34","municipality":"広島市安佐南区","areaM2":349196.488,"population":1844,"toponymIds":["34-f3520d1c55"]}},{"type":"Feature","geometry":{"type":"Polygon","coordinates":[[[132.44728,34.38847],[132.44678,34.38779],[132.44671,34.38738],[132.44438,34.38824],[132.44562,34.39062],[132.44602,34.39213],[132.44919,34.39151],[132.44728,34.38847]]]},"properties":{"key":"341013130","name":"河原町","pref":"広島県","prefCode":"34","municipality":"広島市中区","areaM2":119955.994,"population":2197,"toponymIds":["34-a02995a045"]}},{"type":"Feature","geometry":{"type":"Polygon","coordinates":[[[132.48242,34.43541],[132.48035,34.43529],[132.47936,34.43484],[132.47894,34.43505],[132.47818,34.43442],[132.47785,34.43451],[132.47595,34.43619],[132.47738,34.43721],[132.47916,34.43818],[132.48201,34.43943],[132.48353,34.43977],[132.48457,34.43769],[132.48538,34.43686],[132.48267,34.4359],[132.48242,34.43541]]]},"properties":{"key":"34102142001","name":"戸坂千足一丁目","pref":"広島県","prefCode":"34","municipality":"広島市東区","areaM2":263589.943,"population":1850,"toponymIds":["34-3156907f5d"]}},{"type":"Feature","geometry":{"type":"Polygon","coordinates":[[[132.45813,34.35526],[132.4584,34.35577],[132.4602,34.35565],[132.45981,34.35188],[132.45908,34.35224],[132.45826,34.3523],[132.45796,34.35215],[132.45778,34.35141],[132.45243,34.35283],[132.45231,34.35379],[132.45631,34.35617],[132.45813,34.35526]]]},"properties":{"key":"34103239001","name":"宇品海岸一丁目","pref":"広島県","prefCode":"34","municipality":"広島市南区","areaM2":249214.238,"population":1767,"toponymIds":["34-f1ca1232a9"]}},{"type":"Feature","geometry":{"type":"Polygon","coordinates":[[[132.47906,34.39533],[132.47612,34.39466],[132.47626,34.3939],[132.47564,34.3936],[132.47445,34.3951],[132.47494,34.39522],[132.47524,34.39489],[132.47601,34.39506],[132.47589,34.39544],[132.47634,34.39554],[132.47682,34.39523],[132.47846,34.39563],[132.47906,34.39533]]]},"properties":{"key":"341030190","name":"猿猴橋町","pref":"広島県","prefCode":"34","municipality":"広島市南区","areaM2":29355.251,"population":189,"toponymIds":["34-4928db77af"]}},{"type":"Feature","geometry":{"type":"Polygon","coordinates":[[[132.50462,34.37411],[132.50499,34.37407],[132.50519,34.37324],[132.50493,34.3732],[132.50535,34.37132],[132.50489,34.37125],[132.505,34.3699],[132.50473,34.36648],[132.5014,34.36426],[132.50192,34.36603],[132.50224,34.36756],[132.50209,34.36761],[132.50258,34.36963],[132.50126,34.36974],[132.5013,34.3726],[132.50097,34.37428],[132.5004,34.37612],[132.50471,34.37568],[132.50473,34.37555],[132.50432,34.37551],[132.50462,34.37411]]]},"properties":{"key":"341031230","name":"小磯町","pref":"広島県","prefCode":"34","municipality":"広島市南区","areaM2":360519.731,"population":403,"toponymIds":["34-2618d1741f"]}},{"type":"Feature","geometry":{"type":"Polygon","coordinates":[[[132.39977,34.37965],[132.40013,34.37968],[132.40005,34.37946],[132.39903,34.37886],[132.39587,34.3781],[132.39411,34.37738],[132.39321,34.37682],[132.39227,34.37587],[132.39198,34.37642],[132.39238,34.37674],[132.39207,34.3772],[132.3927,34.37765],[132.39243,34.37798],[132.39376,34.37887],[132.39399,34.37882],[132.3945,34.37911],[132.39484,34.37897],[132.39511,34.37906],[132.39588,34.38031],[132.39602,34.38037],[132.39627,34.3801],[132.39671,34.37997],[132.39794,34.37905],[132.39849,34.37992],[132.39819,34.38042],[132.3985,34.38063],[132.39825,34.38084],[132.39883,34.38096],[132.39878,34.38127],[132.39895,34.3816],[132.39926,34.38155],[132.39944,34.38031],[132.39977,34.37965]]]},"properties":{"key":"341044260","name":"草津梅が台","pref":"広島県","prefCode":"34","municipality":"広島市西区","areaM2":124863.438,"population":827,"toponymIds":["34-ac5fffa9fa"]}},{"type":"Feature","geometry":{"type":"Polygon","coordinates":[[[132.57755,34.47124],[132.57798,34.47075],[132.57803,34.47032],[132.57913,34.46973],[132.58255,34.4684],[132.58409,34.46759],[132.58319,34.46742],[132.58317,34.46529],[132.58377,34.46432],[132.58391,34.46348],[132.58269,34.46065],[132.58209,34.45996],[132.5815,34.45972],[132.58082,34.45915],[132.58133,34.45907],[132.58198,34.45687],[132.58243,34.45611],[132.58386,34.45452],[132.58445,34.4534],[132.58457,34.45261],[132.58432,34.45109],[132.58488,34.44944],[132.58482,34.44872],[132.58445,34.44799],[132.58177,34.44597],[132.5812,34.44579],[132.58029,34.44444],[132.57777,34.44288],[132.57642,34.44228],[132.57623,34.44168],[132.57494,34.43993],[132.57455,34.43902],[132.57368,34.43858],[132.57304,34.43804],[132.57216,34.4367],[132.57178,34.43673],[132.57097,34.43745],[132.56982,34.43762],[132.56909,34.43794],[132.56682,34.4394],[132.56653,34.44058],[132.56516,34.44232],[132.56438,34.44467],[132.5636,34.44582],[132.56364,34.44657],[132.56444,34.44775],[132.56454,34.44815],[132.56389,34.4489],[132.56421,34.44884],[132.56424,34.44907],[132.56305,34.45034],[132.56272,34.45154],[132.56283,34.45187],[132.56119,34.45264],[132.561,34.45293],[132.55953,34.45329],[132.5578,34.45475],[132.55428,34.45605],[132.55315,34.45732],[132.55315,34.45764],[132.55282,34.45782],[132.55273,34.45807],[132.55297,34.45889],[132.55365,34.45934],[132.55314,34.46021],[132.55269,34.46052],[132.55074,34.46326],[132.55135,34.46362],[132.55396,34.46449],[132.55554,34.46536],[132.55846,34.47085],[132.55875,34.47189],[132.56026,34.47179],[132.56116,34.47153],[132.56174,34.47114],[132.56557,34.47214],[132.56867,34.47319],[132.56975,34.47371],[132.57057,34.47459],[132.57104,34.47561],[132.57351,34.4745],[132.57517,34.47393],[132.57538,34.4737],[132.57692,34.47329],[132.57709,34.472],[132.57755,34.47124]]]},"properties":{"key":"341067290","name":"小河原町","pref":"広島県","prefCode":"34","municipality":"広島市安佐北区","areaM2":7870315.457,"population":1799,"toponymIds":["34-c93fb5ef32"]}},{"type":"Feature","geometry":{"type":"Polygon","coordinates":[[[132.52705,34.47784],[132.52959,34.475],[132.52918,34.47471],[132.52912,34.47443],[132.5297,34.47264],[132.52933,34.47135],[132.52891,34.47089],[132.52752,34.47047],[132.52512,34.47077],[132.5251,34.47099],[132.52511,34.47126],[132.52581,34.47181],[132.5257,34.47196],[132.52601,34.47221],[132.52619,34.47303],[132.52637,34.47302],[132.52639,34.47399],[132.52688,34.47382],[132.5275,34.47435],[132.52718,34.47478],[132.52613,34.47551],[132.52579,34.47609],[132.52589,34.47622],[132.52665,34.47626],[132.52693,34.47606],[132.5275,34.47641],[132.52647,34.47723],[132.52649,34.47739],[132.52636,34.47728],[132.52619,34.47737],[132.5269,34.47802],[132.52705,34.47784]]]},"properties":{"key":"34106725001","name":"倉掛一丁目","pref":"広島県","prefCode":"34","municipality":"広島市安佐北区","areaM2":192462.496,"population":876,"toponymIds":["34-b3c0e81eee"]}},{"type":"Feature","geometry":{"type":"Polygon","coordinates":[[[132.34262,34.39624],[132.34056,34.39429],[132.33767,34.3912],[132.33762,34.39102],[132.33803,34.39083],[132.33838,34.39034],[132.33851,34.38956],[132.33852,34.38915],[132.33807,34.3888],[132.33819,34.38826],[132.33806,34.38794],[132.33872,34.38753],[132.33868,34.38727],[132.3393,34.38653],[132.33937,34.38624],[132.3392,34.38583],[132.33962,34.38575],[132.33954,34.38538],[132.33878,34.38559],[132.33861,34.38584],[132.33568,34.38763],[132.32542,34.39255],[132.32065,34.39653],[132.32089,34.3975],[132.322,34.39888],[132.32179,34.39922],[132.32224,34.39983],[132.32235,34.40093],[132.32289,34.40173],[132.32344,34.40175],[132.3265,34.40138],[132.32738,34.40044],[132.32963,34.40045],[132.33045,34.40011],[132.33415,34.40003],[132.33579,34.39969],[132.3365,34.39936],[132.33718,34.39833],[132.3391,34.39734],[132.3392,34.39693],[132.34011,34.39608],[132.34148,34.39567],[132.34232,34.39649],[132.34262,34.39624]]]},"properties":{"key":"341089850","name":"倉重町","pref":"広島県","prefCode":"34","municipality":"広島市佐伯区","areaM2":1799518.823,"population":0,"toponymIds":["34-a5e624c697"]}},{"type":"Feature","geometry":{"type":"Polygon","coordinates":[[[132.2639,34.51774],[132.26437,34.5169],[132.2658,34.51221],[132.26622,34.5102],[132.267,34.50839],[132.26735,34.50677],[132.26708,34.50516],[132.26845,34.50105],[132.26849,34.49886],[132.26818,34.49721],[132.2683,34.49627],[132.26895,34.49487],[132.26937,34.49342],[132.26932,34.49074],[132.26901,34.48844],[132.26913,34.48802],[132.26955,34.48752],[132.26884,34.48693],[132.26872,34.48636],[132.26899,34.48588],[132.26991,34.48563],[132.26964,34.48362],[132.2691,34.48247],[132.26855,34.48077],[132.26758,34.47964],[132.26677,34.47918],[132.26628,34.47911],[132.26737,34.47863],[132.26855,34.47835],[132.27105,34.47802],[132.27134,34.4768],[132.27127,34.47503],[132.27196,34.4724],[132.27192,34.47202],[132.27165,34.47165],[132.27046,34.47071],[132.26997,34.46717],[132.2689,34.46282],[132.26844,34.46182],[132.2681,34.4615],[132.2651,34.46021],[132.26408,34.45953],[132.26339,34.45779],[132.26297,34.4575],[132.2617,34.45705],[132.25985,34.45544],[132.25895,34.4561],[132.25706,34.45705],[132.25622,34.45719],[132.25551,34.45711],[132.25474,34.4568],[132.25398,34.4581],[132.25332,34.45884],[132.2513,34.45999],[132.24868,34.46021],[132.24699,34.46063],[132.2459,34.46112],[132.24389,34.46275],[132.24351,34.46354],[132.24256,34.46444],[132.24174,34.46582],[132.24068,34.4663],[132.24033,34.46759],[132.24062,34.46822],[132.24157,34.46885],[132.2427,34.46917],[132.24545,34.47127],[132.2452,34.46934],[132.24541,34.46851],[132.24593,34.4681],[132.24715,34.46792],[132.2477,34.46807],[132.24872,34.46885],[132.25066,34.47183],[132.25364,34.47261],[132.25446,34.47255],[132.25472,34.47348],[132.25583,34.47504],[132.25591,34.47586],[132.25572,34.47643],[132.25597,34.47783],[132.25585,34.47799],[132.25504,34.47881],[132.25403,34.47938],[132.25352,34.48071],[132.25297,34.48108],[132.25203,34.48131],[132.25164,34.4818],[132.2504,34.48244],[132.25009,34.48306],[132.25028,34.48422],[132.2507,34.48513],[132.2514,34.48597],[132.2514,34.48715],[132.25103,34.48898],[132.25086,34.48944],[132.25009,34.49036],[132.24984,34.49127],[132.24869,34.49339],[132.24804,34.49405],[132.24715,34.49621],[132.24734,34.49686],[132.24897,34.49837],[132.25067,34.50217],[132.25129,34.5027],[132.25249,34.50426],[132.25333,34.50625],[132.25356,34.50829],[132.25333,34.51134],[132.25202,34.51556],[132.25099,34.51785],[132.25088,34.51861],[132.251,34.51922],[132.25141,34.51981],[132.25207,34.52003],[132.25439,34.51991],[132.25527,34.51965],[132.2577,34.51818],[132.25827,34.51715],[132.25851,34.51703],[132.25924,34.51814],[132.26183,34.52071],[132.2639,34.51774]]]},"properties":{"key":"341084410","name":"湯来町大字菅沢","pref":"広島県","prefCode":"34","municipality":"広島市佐伯区","areaM2":11256089.389,"population":142,"toponymIds":["34-7cb1c1e17d"]}},{"type":"Feature","geometry":{"type":"Polygon","coordinates":[[[132.3498,34.38873],[132.34956,34.38841],[132.34918,34.38834],[132.34909,34.38845],[132.34852,34.3882],[132.3486,34.38795],[132.34925,34.38793],[132.34935,34.38768],[132.34966,34.38788],[132.35012,34.3879],[132.3504,34.38761],[132.35083,34.38762],[132.35092,34.38736],[132.35112,34.38733],[132.35116,34.38659],[132.35226,34.38676],[132.3524,34.38633],[132.35263,34.38623],[132.35262,34.38596],[132.35319,34.38559],[132.3531,34.38541],[132.35336,34.38537],[132.35324,34.38511],[132.35357,34.38488],[132.35365,34.38393],[132.35317,34.38328],[132.35337,34.38286],[132.3534,34.38219],[132.35218,34.3822],[132.35079,34.38184],[132.35017,34.38197],[132.34844,34.38267],[132.34735,34.38263],[132.34657,34.38338],[132.34631,34.38329],[132.34572,34.38356],[132.345,34.38364],[132.34415,34.38414],[132.34439,34.38501],[132.34467,34.38505],[132.34501,34.38483],[132.34591,34.38466],[132.34629,34.38421],[132.34796,34.38326],[132.3482,34.38315],[132.34856,34.38325],[132.34878,34.38347],[132.34872,34.3838],[132.34622,34.38563],[132.3455,34.38665],[132.34685,34.38711],[132.34811,34.38864],[132.34864,34.38883],[132.34908,34.38866],[132.34931,34.38875],[132.34957,34.38953],[132.34993,34.38947],[132.34972,34.389],[132.3498,34.38873]]]},"properties":{"key":"34108978001","name":"倉重一丁目","pref":"広島県","prefCode":"34","municipality":"広島市佐伯区","areaM2":370317.791,"population":301,"toponymIds":["34-d43d02ca5c"]}},{"type":"Feature","geometry":{"type":"Polygon","coordinates":[[[132.37321,34.36207],[132.37103,34.36645],[132.37114,34.36675],[132.37089,34.36745],[132.37334,34.36808],[132.37395,34.3675],[132.37341,34.36732],[132.37396,34.36675],[132.37472,34.36555],[132.37579,34.36331],[132.37473,34.3624],[132.37321,34.36207]]]},"properties":{"key":"341089440","name":"藤垂園","pref":"広島県","prefCode":"34","municipality":"広島市佐伯区","areaM2":169492.538,"population":1392,"toponymIds":["34-e8bb7ef0fb"]}},{"type":"Feature","geometry":{"type":"Polygon","coordinates":[[[132.51825,34.27901],[132.51999,34.27846],[132.52095,34.27774],[132.52133,34.27708],[132.52203,34.27646],[132.52213,34.27576],[132.52186,34.27571],[132.52165,34.27613],[132.5212,34.27622],[132.52063,34.27575],[132.52002,34.27668],[132.51941,34.27696],[132.51818,34.27584],[132.51779,34.27579],[132.51713,34.27613],[132.51682,34.27554],[132.5166,34.27558],[132.51663,34.2758],[132.51614,34.27613],[132.51772,34.27796],[132.51794,34.27806],[132.51825,34.27901]]]},"properties":{"key":"342020970","name":"梅木町","pref":"広島県","prefCode":"34","municipality":"呉市","areaM2":99971.972,"population":271,"toponymIds":["34-e13a29332d"]}},{"type":"Feature","geometry":{"type":"Polygon","coordinates":[[[132.54842,34.24605],[132.54861,34.24616],[132.54884,34.24596],[132.54867,34.24545],[132.55133,34.24347],[132.55109,34.24324],[132.55043,34.2435],[132.54912,34.24326],[132.54716,34.24458],[132.54683,34.24504],[132.54772,34.24596],[132.54777,34.24624],[132.54842,34.24605]]]},"properties":{"key":"34202065001","name":"海岸一丁目","pref":"広島県","prefCode":"34","municipality":"呉市","areaM2":59133.819,"population":655,"toponymIds":["34-c388e63fe2"]}},{"type":"Feature","geometry":{"type":"Polygon","coordinates":[[[132.76378,34.18541],[132.76335,34.1854],[132.76361,34.18559],[132.76378,34.18541]]]},"properties":{"key":"342022080","name":"蒲刈町大浦","pref":"広島県","prefCode":"34","municipality":"呉市","areaM2":718.832,"population":0,"toponymIds":["34-09b4ca5217"]}},{"type":"Feature","geometry":{"type":"Polygon","coordinates":[[[132.71015,34.20437],[132.71103,34.20431],[132.71194,34.20389],[132.7152,34.20135],[132.71645,34.20059],[132.71688,34.20055],[132.71715,34.20028],[132.71757,34.20018],[132.71852,34.19911],[132.71891,34.19842],[132.71998,34.19773],[132.7203,34.19761],[132.72043,34.19786],[132.7208,34.19769],[132.72142,34.19778],[132.72119,34.19764],[132.72135,34.19752],[132.72089,34.19753],[132.72116,34.19765],[132.72082,34.19765],[132.72062,34.19748],[132.72104,34.19711],[132.72168,34.19727],[132.72166,34.19764],[132.72199,34.19757],[132.72175,34.19726],[132.72212,34.19722],[132.72187,34.19702],[132.72202,34.19651],[132.72198,34.19703],[132.72377,34.19754],[132.72335,34.19889],[132.7225,34.19893],[132.72306,34.19896],[132.72341,34.19963],[132.72482,34.20021],[132.72547,34.19999],[132.72649,34.19897],[132.72839,34.19803],[132.73058,34.19762],[132.73036,34.19691],[132.73078,34.19684],[132.73057,34.1954],[132.73095,34.19432],[132.7309,34.19377],[132.72985,34.19257],[132.72955,34.19179],[132.72848,34.19156],[132.72724,34.19091],[132.72694,34.19096],[132.72646,34.19021],[132.7265,34.18956],[132.72628,34.18878],[132.72673,34.18821],[132.72769,34.18637],[132.72776,34.18527],[132.72743,34.18442],[132.72806,34.18265],[132.7282,34.18157],[132.72694,34.18147],[132.72634,34.18106],[132.72309,34.17992],[132.72245,34.17858],[132.72146,34.17737],[132.72131,34.17581],[132.71979,34.17387],[132.71925,34.17225],[132.71886,34.17164],[132.71753,34.17245],[132.71701,34.17309],[132.71673,34.17262],[132.71654,34.17259],[132.71664,34.173],[132.7164,34.17333],[132.71671,34.17342],[132.71614,34.17435],[132.71573,34.17824],[132.71545,34.17941],[132.71505,34.17993],[132.7139,34.18078],[132.71288,34.18111],[132.71142,34.1807],[132.70976,34.18087],[132.70838,34.18056],[132.70914,34.18308],[132.70927,34.185],[132.70901,34.18547],[132.70788,34.18619],[132.70819,34.18725],[132.70862,34.18773],[132.7079,34.1884],[132.70825,34.18891],[132.70921,34.18967],[132.70958,34.19029],[132.70952,34.19135],[132.7097,34.19186],[132.70934,34.19317],[132.70883,34.19399],[132.70617,34.19591],[132.70499,34.1963],[132.7039,34.19598],[132.7025,34.19654],[132.70174,34.19866],[132.70083,34.20004],[132.69978,34.20256],[132.69854,34.20331],[132.69838,34.20371],[132.69871,34.20409],[132.70053,34.20446],[132.70171,34.20407],[132.70346,34.20434],[132.70667,34.20374],[132.70709,34.20375],[132.70933,34.20448],[132.71015,34.20437]]]},"properties":{"key":"342022090","name":"蒲刈町田戸","pref":"広島県","prefCode":"34","municipality":"呉市","areaM2":5096278.049,"population":220,"toponymIds":["34-a290962490"]}},{"type":"Feature","geometry":{"type":"Polygon","coordinates":[[[132.74176,34.202],[132.74215,34.20166],[132.74162,34.20102],[132.74116,34.20079],[132.74065,34.20098],[132.74064,34.20118],[132.74101,34.2014],[132.74145,34.20206],[132.74176,34.202]]]},"properties":{"key":"342022070","name":"蒲刈町宮盛","pref":"広島県","prefCode":"34","municipality":"呉市","areaM2":10915.408,"population":0,"toponymIds":["34-88cddf98ad"]}},{"type":"Feature","geometry":{"type":"Polygon","coordinates":[[[132.68584,34.17769],[132.68584,34.17743],[132.68605,34.17705],[132.68614,34.1771],[132.68608,34.17682],[132.6857,34.17759],[132.68551,34.17765],[132.68552,34.17791],[132.68569,34.17802],[132.68584,34.17769]]]},"properties":{"key":"342022100","name":"蒲刈町向","pref":"広島県","prefCode":"34","municipality":"呉市","areaM2":1980.206,"population":0,"toponymIds":["34-0ed3770901"]}},{"type":"Feature","geometry":{"type":"Polygon","coordinates":[[[132.51072,34.10555],[132.51093,34.10521],[132.51214,34.10528],[132.51276,34.10512],[132.51342,34.10409],[132.51371,34.10277],[132.51417,34.10333],[132.51494,34.10344],[132.51718,34.10159],[132.51592,34.10047],[132.51512,34.09892],[132.51334,34.09645],[132.51311,34.09526],[132.51321,34.09445],[132.5131,34.09321],[132.51258,34.09175],[132.51258,34.09103],[132.51208,34.09112],[132.51193,34.09148],[132.51267,34.09423],[132.51189,34.09548],[132.51256,34.09595],[132.51236,34.09703],[132.51255,34.09756],[132.5134,34.09807],[132.51373,34.09848],[132.5137,34.09954],[132.51187,34.10084],[132.511,34.10128],[132.50992,34.10158],[132.50981,34.10184],[132.50925,34.10204],[132.50996,34.1019],[132.51025,34.10232],[132.51004,34.10239],[132.50999,34.10282],[132.50979,34.10301],[132.50959,34.10309],[132.5094,34.10292],[132.50961,34.10329],[132.5093,34.1031],[132.50865,34.10335],[132.50855,34.10309],[132.50855,34.10339],[132.50812,34.10339],[132.50819,34.10365],[132.50742,34.1038],[132.5076,34.10508],[132.50866,34.1051],[132.51028,34.1055],[132.51058,34.10572],[132.51072,34.10555]]]},"properties":{"key":"34202206001","name":"倉橋町","pref":"広島県","prefCode":"34","municipality":"呉市","areaM2":386909.237,"population":246,"toponymIds":["34-dc3d0e830b"]}},{"type":"Feature","geometry":{"type":"Polygon","coordinates":[[[132.68286,34.1918],[132.68307,34.19174],[132.68309,34.19141],[132.68382,34.19138],[132.68391,34.19096],[132.68377,34.19134],[132.68316,34.19137],[132.68313,34.19114],[132.68346,34.19104],[132.68325,34.19095],[132.68327,34.1908],[132.68345,34.19086],[132.68344,34.19069],[132.68326,34.19077],[132.683,34.19062],[132.68338,34.19024],[132.68376,34.19037],[132.68356,34.1902],[132.68388,34.18992],[132.68411,34.1901],[132.68404,34.19076],[132.68416,34.19009],[132.68402,34.18997],[132.68422,34.18952],[132.68408,34.18895],[132.68416,34.18868],[132.68437,34.18859],[132.68438,34.18813],[132.68332,34.1881],[132.68146,34.18771],[132.68072,34.1878],[132.67905,34.18763],[132.67941,34.18868],[132.67928,34.1896],[132.67985,34.19074],[132.68221,34.19199],[132.6826,34.19239],[132.68252,34.19272],[132.6829,34.19242],[132.68286,34.1918]]]},"properties":{"key":"342021780","name":"下蒲刈町三之瀬","pref":"広島県","prefCode":"34","municipality":"呉市","areaM2":165158.54,"population":214,"toponymIds":["34-2eb3db22fe"]}},{"type":"Feature","geometry":{"type":"Polygon","coordinates":[[[132.68257,34.19395],[132.68255,34.1923],[132.68155,34.19157],[132.67998,34.19086],[132.67928,34.1896],[132.67825,34.19046],[132.67763,34.19048],[132.67722,34.19076],[132.67686,34.1912],[132.67635,34.19245],[132.67775,34.19419],[132.67825,34.19416],[132.67969,34.19294],[132.67986,34.19297],[132.67966,34.19324],[132.67997,34.1933],[132.67993,34.19299],[132.68016,34.19271],[132.68074,34.19272],[132.68102,34.19282],[132.68105,34.19303],[132.68069,34.19307],[132.68015,34.19363],[132.68057,34.19324],[132.68227,34.19317],[132.68227,34.19296],[132.68245,34.19296],[132.68248,34.19393],[132.68186,34.19453],[132.68257,34.19395]]]},"properties":{"key":"34202179001","name":"下蒲刈町下島","pref":"広島県","prefCode":"34","municipality":"呉市","areaM2":151672.362,"population":0,"toponymIds":["34-8916423f10"]}},{"type":"Feature","geometry":{"type":"Polygon","coordinates":[[[132.54708,34.25276],[132.54756,34.24978],[132.54615,34.24896],[132.54589,34.24859],[132.5452,34.24811],[132.54475,34.24805],[132.54462,34.24782],[132.5437,34.24812],[132.54337,34.24874],[132.54331,34.24927],[132.54361,34.25002],[132.54356,34.25069],[132.54377,34.25103],[132.54362,34.25125],[132.54333,34.25128],[132.54321,34.25236],[132.54429,34.25258],[132.54436,34.25247],[132.54508,34.25313],[132.54545,34.25325],[132.54572,34.25397],[132.54691,34.25341],[132.54708,34.25276]]]},"properties":{"key":"342020580","name":"西川原石町","pref":"広島県","prefCode":"34","municipality":"呉市","areaM2":179391.847,"population":341,"toponymIds":["34-4a5d35090e"]}},{"type":"Feature","geometry":{"type":"Polygon","coordinates":[[[132.57927,34.24922],[132.58067,34.24747],[132.58133,34.24712],[132.58247,34.2459],[132.58188,34.24464],[132.5812,34.24457],[132.58097,34.2447],[132.58,34.2471],[132.57871,34.24846],[132.57847,34.24912],[132.57804,34.24906],[132.57848,34.24943],[132.57856,34.24978],[132.57901,34.25007],[132.57927,34.24922]]]},"properties":{"key":"34202019001","name":"西鹿田一丁目","pref":"広島県","prefCode":"34","municipality":"呉市","areaM2":67198.729,"population":212,"toponymIds":["34-18f8c9e07e"]}},{"type":"Feature","geometry":{"type":"Polygon","coordinates":[[[132.54855,34.24815],[132.54874,34.24798],[132.54864,34.24765],[132.54876,34.24727],[132.54857,34.24694],[132.54826,34.24694],[132.54817,34.24669],[132.54846,34.2466],[132.54861,34.24616],[132.54849,34.24598],[132.54462,34.24782],[132.54475,34.24805],[132.5452,34.24811],[132.54589,34.24859],[132.54615,34.24896],[132.54756,34.24978],[132.54855,34.24815]]]},"properties":{"key":"342020570","name":"東川原石町","pref":"広島県","prefCode":"34","municipality":"呉市","areaM2":81228.739,"population":258,"toponymIds":["34-8c93bb4c2a"]}},{"type":"Feature","geometry":{"type":"Polygon","coordinates":[[[132.58298,34.25131],[132.58367,34.25119],[132.5847,34.25138],[132.58485,34.25114],[132.58529,34.251],[132.58619,34.24989],[132.58649,34.24976],[132.58612,34.24943],[132.58678,34.24881],[132.58603,34.24793],[132.58597,34.24766],[132.58616,34.24741],[132.58586,34.24725],[132.58547,34.24657],[132.58461,34.24637],[132.58438,34.24707],[132.5833,34.24684],[132.58301,34.24705],[132.58214,34.24843],[132.58219,34.24859],[132.582,34.24859],[132.58144,34.24944],[132.58056,34.25017],[132.58075,34.25048],[132.58131,34.25016],[132.5815,34.25031],[132.58168,34.25018],[132.58204,34.25033],[132.58215,34.25045],[132.58196,34.25077],[132.58208,34.25103],[132.58246,34.25125],[132.58247,34.25145],[132.58298,34.25131]]]},"properties":{"key":"342020200","name":"東鹿田町","pref":"広島県","prefCode":"34","municipality":"呉市","areaM2":185935.033,"population":483,"toponymIds":["34-246478d597"]}},{"type":"Feature","geometry":{"type":"Polygon","coordinates":[[[132.63247,34.24607],[132.63226,34.24573],[132.63249,34.24525],[132.63302,34.24514],[132.63329,34.24469],[132.63368,34.24455],[132.63349,34.244],[132.63278,34.2435],[132.6311,34.24367],[132.63072,34.2439],[132.63037,34.24375],[132.6295,34.24377],[132.62928,34.24399],[132.62895,34.24387],[132.6287,34.24415],[132.6282,34.24409],[132.62865,34.24495],[132.62833,34.24479],[132.62864,34.24615],[132.62926,34.24625],[132.63015,34.24602],[132.63043,34.2467],[132.63132,34.24723],[132.63145,34.2468],[132.63192,34.2463],[132.63247,34.24607]]]},"properties":{"key":"34202140001","name":"広三芦一丁目","pref":"広島県","prefCode":"34","municipality":"呉市","areaM2":122222.266,"population":712,"toponymIds":["34-e437de3b82"]}},{"type":"Feature","geometry":{"type":"Polygon","coordinates":[[[132.99666,34.52492],[132.9997,34.52315],[133.00177,34.52454],[133.00394,34.52484],[133.00519,34.52481],[133.00759,34.52462],[133.01044,34.52359],[133.01161,34.52291],[133.0121,34.5224],[133.01276,34.52123],[133.01259,34.52062],[133.01314,34.51976],[133.01305,34.51902],[133.01461,34.5168],[133.01483,34.5155],[133.01544,34.51495],[133.01571,34.51445],[133.01616,34.51429],[133.01601,34.51381],[133.01605,34.51289],[133.01638,34.51137],[133.01622,34.51054],[133.01782,34.50993],[133.01956,34.50863],[133.02025,34.50786],[133.01948,34.50736],[133.02039,34.50656],[133.02193,34.50579],[133.0232,34.50553],[133.02284,34.50386],[133.02251,34.50308],[133.02253,34.50112],[133.02224,34.50013],[133.02217,34.49922],[133.02245,34.49788],[133.02167,34.49599],[133.02163,34.49399],[133.02084,34.49295],[133.02085,34.4915],[133.02038,34.48996],[133.02081,34.48804],[133.02042,34.48694],[133.01697,34.48963],[133.01348,34.49112],[133.01228,34.49207],[133.01116,34.49228],[133.01033,34.49269],[133.00951,34.49391],[133.00894,34.49402],[133.00713,34.49392],[133.00703,34.49437],[133.00732,34.49562],[133.00826,34.49622],[133.00869,34.49728],[133.00976,34.49792],[133.00963,34.49834],[133.00731,34.49745],[133.00719,34.49788],[133.0066,34.49842],[133.00521,34.49881],[133.00528,34.49944],[133.00444,34.49947],[133.00448,34.50008],[133.00343,34.501],[133.00218,34.50256],[133.00019,34.50317],[132.99921,34.50438],[132.99821,34.50472],[132.99779,34.50541],[132.99742,34.50661],[132.99564,34.50749],[132.9958,34.50848],[132.99416,34.50879],[132.99378,34.50874],[132.99236,34.50913],[132.99222,34.50963],[132.99189,34.50997],[132.99182,34.5104],[132.99147,34.51066],[132.99089,34.51176],[132.98971,34.51249],[132.98899,34.51335],[132.98747,34.51375],[132.98735,34.51414],[132.98767,34.51482],[132.98743,34.51587],[132.98768,34.51695],[132.98809,34.51719],[132.98864,34.51725],[132.98947,34.51791],[132.98965,34.51876],[132.99003,34.51918],[132.9907,34.51925],[132.99094,34.51897],[132.99214,34.51922],[132.99241,34.51977],[132.99292,34.51998],[132.99274,34.52028],[132.9917,34.52074],[132.99106,34.522],[132.99135,34.52294],[132.99272,34.52299],[132.99316,34.52261],[132.99393,34.52249],[132.99432,34.52297],[132.99482,34.52316],[132.99545,34.52402],[132.99633,34.52435],[132.99666,34.52492]]]},"properties":{"key":"342040670","name":"久井町羽倉","pref":"広島県","prefCode":"34","municipality":"三原市","areaM2":7120507.798,"population":562,"toponymIds":["34-38f7e12bb2"]}},{"type":"Feature","geometry":{"type":"Polygon","coordinates":[[[133.05235,34.39766],[133.05275,34.39746],[133.05337,34.39741],[133.05344,34.3972],[133.05311,34.39658],[133.05354,34.39469],[133.05398,34.39441],[133.05432,34.39479],[133.05453,34.39439],[133.05495,34.39483],[133.05548,34.39478],[133.05561,34.39497],[133.05623,34.39477],[133.05599,34.39447],[133.05684,34.39376],[133.05649,34.39319],[133.05576,34.39285],[133.05587,34.39276],[133.0556,34.39277],[133.05578,34.39187],[133.05552,34.39124],[133.05581,34.391],[133.05557,34.39103],[133.0555,34.39077],[133.05578,34.39014],[133.05614,34.38974],[133.05633,34.38982],[133.05631,34.38874],[133.05432,34.389],[133.05333,34.38933],[133.05278,34.38971],[133.05345,34.3903],[133.05308,34.39051],[133.05339,34.39077],[133.05331,34.39088],[133.05396,34.39074],[133.05404,34.39096],[133.05376,34.39129],[133.05417,34.39146],[133.05422,34.3918],[133.05451,34.39196],[133.05475,34.39248],[133.05471,34.39295],[133.05444,34.39346],[133.05398,34.39349],[133.05428,34.39386],[133.05333,34.39438],[133.05274,34.39434],[133.05313,34.39465],[133.05319,34.39519],[133.05306,34.39585],[133.05248,34.39616],[133.05262,34.39686],[133.05223,34.3974],[133.05217,34.39757],[133.05235,34.39766]]]},"properties":{"key":"34204088001","name":"新倉一丁目","pref":"広島県","prefCode":"34","municipality":"三原市","areaM2":141623.005,"population":376,"toponymIds":["34-b3dc053ada"]}},{"type":"Feature","geometry":{"type":"Polygon","coordinates":[[[133.05204,34.39924],[133.05494,34.39631],[133.0552,34.39491],[133.05549,34.39482],[133.05495,34.39483],[133.05453,34.39439],[133.05432,34.39479],[133.05398,34.39441],[133.05354,34.39469],[133.05311,34.39658],[133.05344,34.3972],[133.05337,34.39741],[133.05275,34.39746],[133.05235,34.39766],[133.05217,34.39757],[133.0526,34.39703],[133.05248,34.39616],[133.05306,34.39585],[133.05319,34.39519],[133.05313,34.39465],[133.05274,34.39434],[133.05333,34.39438],[133.05428,34.39386],[133.05398,34.39349],[133.05433,34.39356],[133.05471,34.39295],[133.05475,34.39248],[133.05459,34.39208],[133.05422,34.3918],[133.05417,34.39146],[133.05376,34.39129],[133.05404,34.39096],[133.05396,34.39074],[133.05331,34.39088],[133.05339,34.39077],[133.05308,34.39051],[133.05201,34.39164],[133.05087,34.39381],[133.04994,34.39469],[133.04994,34.39517],[133.04877,34.39645],[133.04867,34.39676],[133.04791,34.39694],[133.04782,34.3968],[133.04752,34.39686],[133.04655,34.39736],[133.0456,34.39717],[133.04546,34.39751],[133.0456,34.39817],[133.04488,34.39795],[133.04419,34.39821],[133.04404,34.39808],[133.04456,34.39734],[133.0443,34.39655],[133.04373,34.39582],[133.04303,34.39558],[133.04305,34.39536],[133.04261,34.39521],[133.04253,34.39489],[133.04153,34.39595],[133.04061,34.39634],[133.04061,34.39649],[133.04256,34.39687],[133.04489,34.4003],[133.04529,34.4006],[133.04746,34.40171],[133.04928,34.40238],[133.05204,34.39924]]]},"properties":{"key":"342040450","name":"新倉町","pref":"広島県","prefCode":"34","municipality":"三原市","areaM2":624072.511,"population":0,"toponymIds":["34-e010655c6f"]}},{"type":"Feature","geometry":{"type":"Polygon","coordinates":[[[132.89754,34.58102],[132.90117,34.58129],[132.90114,34.57887],[132.90093,34.57835],[132.90435,34.5764],[132.90516,34.57609],[132.91167,34.57506],[132.91286,34.57446],[132.91337,34.57383],[132.91367,34.57253],[132.91414,34.57192],[132.91505,34.57153],[132.91646,34.57144],[132.91984,34.56422],[132.92148,34.56395],[132.92279,34.56344],[132.92392,34.56256],[132.92335,34.56212],[132.92317,34.56168],[132.92423,34.55968],[132.92532,34.55817],[132.92588,34.55764],[132.92563,34.55764],[132.92369,34.55615],[132.92232,34.55557],[132.92051,34.55547],[132.91937,34.55562],[132.91629,34.55478],[132.9106,34.55395],[132.90715,34.55249],[132.90343,34.55033],[132.90141,34.55031],[132.89153,34.55137],[132.88888,34.55223],[132.88621,34.55536],[132.88563,34.55627],[132.88482,34.55711],[132.88371,34.55791],[132.88426,34.55859],[132.88433,34.55894],[132.88362,34.5611],[132.88258,34.56193],[132.88265,34.56263],[132.88181,34.56304],[132.88079,34.56494],[132.88054,34.56605],[132.88057,34.56841],[132.87971,34.57011],[132.8797,34.57192],[132.87927,34.57405],[132.87828,34.57596],[132.87844,34.57623],[132.88005,34.57667],[132.88135,34.57626],[132.88377,34.57629],[132.88419,34.57604],[132.88445,34.57547],[132.88626,34.57522],[132.88685,34.57377],[132.88824,34.57492],[132.88869,34.57601],[132.89025,34.577],[132.8904,34.57777],[132.89009,34.57807],[132.89008,34.57835],[132.89037,34.57924],[132.89072,34.57969],[132.89292,34.58128],[132.89409,34.58252],[132.89544,34.58318],[132.89596,34.58184],[132.89754,34.58102]]]},"properties":{"key":"342040750","name":"大和町蔵宗","pref":"広島県","prefCode":"34","municipality":"三原市","areaM2":9537868.95,"population":110,"toponymIds":["34-e0bf3e641b"]}},{"type":"Feature","geometry":{"type":"Polygon","coordinates":[[[133.12499,34.46009],[133.12559,34.4592],[133.12621,34.45872],[133.12948,34.45769],[133.13127,34.45682],[133.13186,34.45678],[133.13238,34.45622],[133.13362,34.4561],[133.13399,34.45587],[133.13462,34.45477],[133.13517,34.45324],[133.13522,34.45198],[133.13464,34.4511],[133.13458,34.45076],[133.13475,34.44998],[133.13456,34.44921],[133.13467,34.44854],[133.13456,34.44789],[133.13502,34.44701],[133.13601,34.44588],[133.13649,34.44569],[133.13747,34.44632],[133.13905,34.44673],[133.13975,34.44622],[133.1418,34.44631],[133.14388,34.44588],[133.14595,34.44634],[133.14605,34.44555],[133.14678,34.44511],[133.1485,34.44542],[133.15053,34.44521],[133.15091,34.44495],[133.15112,34.4444],[133.15106,34.44347],[133.15161,34.44351],[133.15163,34.44324],[133.15186,34.4432],[133.15185,34.44286],[133.15212,34.44287],[133.15218,34.44201],[133.1532,34.44138],[133.15322,34.44083],[133.15404,34.43957],[133.15527,34.43858],[133.15622,34.43745],[133.15746,34.43725],[133.15881,34.4379],[133.15927,34.43791],[133.15941,34.43771],[133.15947,34.43737],[133.1593,34.43684],[133.15949,34.43623],[133.15946,34.43539],[133.15443,34.43496],[133.15379,34.43502],[133.15203,34.43353],[133.15084,34.43295],[133.1505,34.43247],[133.14973,34.43231],[133.1497,34.43217],[133.15027,34.43168],[133.1502,34.4302],[133.15166,34.42915],[133.15307,34.42843],[133.15333,34.42811],[133.15349,34.42731],[133.15302,34.42676],[133.15243,34.42644],[133.14948,34.42595],[133.14911,34.42554],[133.14859,34.42442],[133.14802,34.42381],[133.14699,34.42363],[133.14508,34.42392],[133.14451,34.42367],[133.14379,34.42264],[133.14264,34.42148],[133.14231,34.41965],[133.14187,34.41898],[133.14129,34.41614],[133.14054,34.4154],[133.13796,34.41402],[133.13784,34.41339],[133.13825,34.41286],[133.13647,34.41257],[133.13607,34.41272],[133.13526,34.41363],[133.13412,34.41445],[133.13259,34.41488],[133.13158,34.41583],[133.13159,34.4174],[133.1314,34.41813],[133.1303,34.41968],[133.12892,34.42043],[133.12749,34.42084],[133.1264,34.42151],[133.12599,34.42194],[133.12482,34.42408],[133.12456,34.42524],[133.12415,34.42598],[133.12467,34.42623],[133.12447,34.42638],[133.12422,34.42712],[133.1245,34.42718],[133.12453,34.42771],[133.12415,34.42813],[133.12395,34.42809],[133.12368,34.42877],[133.1234,34.42908],[133.12314,34.42891],[133.12192,34.42989],[133.12191,34.43064],[133.12277,34.43165],[133.12295,34.43254],[133.12233,34.43342],[133.12113,34.43455],[133.1209,34.43499],[133.12116,34.43597],[133.12094,34.43635],[133.12031,34.43662],[133.11938,34.43663],[133.117,34.43707],[133.11553,34.43779],[133.11481,34.43837],[133.11421,34.43922],[133.11319,34.44188],[133.11197,34.4469],[133.11173,34.44841],[133.11183,34.44928],[133.11361,34.45198],[133.11624,34.45441],[133.11667,34.45563],[133.11641,34.45703],[133.11516,34.45926],[133.11501,34.46025],[133.11523,34.46057],[133.116,34.46064],[133.11695,34.46043],[133.11805,34.45992],[133.11918,34.45997],[133.12099,34.46097],[133.12189,34.46242],[133.12323,34.46295],[133.12361,34.46278],[133.12384,34.46243],[133.12392,34.46085],[133.12499,34.46009]]]},"properties":{"key":"342040410","name":"深町","pref":"広島県","prefCode":"34","municipality":"三原市","areaM2":11618116.564,"population":1167,"toponymIds":["34-fa61dd20f2"]}},{"type":"Feature","geometry":{"type":"Polygon","coordinates":[[[133.21202,34.44295],[133.21241,34.44289],[133.21281,34.44252],[133.21292,34.4411],[133.21281,34.44007],[133.21333,34.43887],[133.21359,34.43743],[133.21305,34.43634],[133.21271,34.43612],[133.21205,34.43602],[133.21163,34.43629],[133.21142,34.43663],[133.21143,34.43748],[133.21026,34.43713],[133.20969,34.43718],[133.20977,34.43836],[133.20887,34.43797],[133.20864,34.43847],[133.20867,34.43884],[133.20839,34.43921],[133.20751,34.43996],[133.20729,34.44041],[133.20674,34.4407],[133.21158,34.44326],[133.21202,34.44295]]]},"properties":{"key":"34205046001","name":"長者原一丁目","pref":"広島県","prefCode":"34","municipality":"尾道市","areaM2":278770.253,"population":0,"toponymIds":["34-741d473db5"]}},{"type":"Feature","geometry":{"type":"Polygon","coordinates":[[[133.18974,34.53134],[133.19032,34.53123],[133.19233,34.53141],[133.19245,34.53109],[133.19333,34.53062],[133.19336,34.52994],[133.19428,34.52944],[133.1949,34.52937],[133.19508,34.52912],[133.19522,34.52687],[133.196,34.52578],[133.19599,34.52556],[133.1958,34.52532],[133.19572,34.52396],[133.19555,34.52364],[133.19565,34.52302],[133.19475,34.52213],[133.19679,34.52109],[133.19613,34.52027],[133.19572,34.52009],[133.19493,34.51924],[133.19492,34.51817],[133.19448,34.51796],[133.19319,34.51794],[133.19285,34.51773],[133.19222,34.51768],[133.19178,34.51735],[133.19144,34.51662],[133.19092,34.51628],[133.18955,34.51611],[133.18895,34.5156],[133.18983,34.51483],[133.19015,34.51428],[133.19018,34.51373],[133.19047,34.51305],[133.19098,34.5128],[133.19214,34.51077],[133.19431,34.51002],[133.19403,34.5095],[133.19433,34.50811],[133.19404,34.50743],[133.19335,34.50656],[133.19241,34.50605],[133.1922,34.50567],[133.19215,34.50489],[133.19147,34.50366],[133.19046,34.50421],[133.18936,34.50272],[133.18975,34.50174],[133.1905,34.50151],[133.19051,34.50076],[133.19074,34.50038],[133.19047,34.49994],[133.19134,34.49877],[133.19127,34.49759],[133.18972,34.49741],[133.18921,34.49681],[133.18788,34.49644],[133.18708,34.49593],[133.18614,34.49607],[133.18559,34.49587],[133.18342,34.49464],[133.18236,34.49424],[133.1813,34.4935],[133.18066,34.49361],[133.17928,34.49424],[133.17573,34.49473],[133.17437,34.49512],[133.17349,34.49489],[133.17254,34.49502],[133.1726,34.49713],[133.17313,34.49892],[133.17322,34.49977],[133.17368,34.50035],[133.17366,34.50098],[133.17439,34.50179],[133.17435,34.50286],[133.17471,34.50306],[133.17601,34.50471],[133.17573,34.50572],[133.17569,34.50666],[133.17484,34.50696],[133.17432,34.50752],[133.17341,34.50794],[133.17063,34.51002],[133.17019,34.51052],[133.1713,34.5112],[133.17121,34.51183],[133.17101,34.51203],[133.17041,34.51218],[133.17021,34.51268],[133.16916,34.51259],[133.1684,34.51297],[133.168,34.51355],[133.16758,34.51353],[133.16746,34.51375],[133.16671,34.51416],[133.16662,34.51432],[133.16675,34.5147],[133.16648,34.51522],[133.16663,34.51547],[133.16651,34.51624],[133.16763,34.5163],[133.16783,34.51647],[133.17007,34.51568],[133.1714,34.51579],[133.17177,34.51599],[133.17341,34.5178],[133.17394,34.51806],[133.17392,34.51835],[133.17429,34.51894],[133.17574,34.51987],[133.17609,34.52062],[133.17686,34.52133],[133.17866,34.5216],[133.17987,34.52206],[133.18119,34.52216],[133.18254,34.52202],[133.18277,34.52271],[133.18266,34.52338],[133.18283,34.52362],[133.18281,34.52444],[133.18317,34.52487],[133.18323,34.52596],[133.1844,34.5279],[133.18565,34.52805],[133.18726,34.52853],[133.18775,34.52998],[133.18835,34.53059],[133.18865,34.53126],[133.18908,34.5316],[133.18974,34.53134]]]},"properties":{"key":"342050560","name":"御調町菅","pref":"広島県","prefCode":"34","municipality":"尾道市","areaM2":6216844.85,"population":92,"toponymIds":["34-da0edd1b19"]}},{"type":"Feature","geometry":{"type":"Polygon","coordinates":[[[133.18756,34.53874],[133.188,34.53848],[133.18846,34.53745],[133.18861,34.5361],[133.18822,34.53426],[133.18779,34.53348],[133.18871,34.53255],[133.18908,34.5316],[133.18865,34.53126],[133.18835,34.53059],[133.18775,34.52998],[133.18726,34.52853],[133.18565,34.52805],[133.1844,34.5279],[133.18135,34.52795],[133.18014,34.5284],[133.17867,34.5293],[133.17776,34.52911],[133.17625,34.53227],[133.17501,34.53394],[133.17578,34.5345],[133.17618,34.53458],[133.17795,34.53487],[133.18038,34.53495],[133.18091,34.53546],[133.18195,34.53773],[133.18269,34.53822],[133.18396,34.53855],[133.18627,34.53872],[133.18742,34.53897],[133.18756,34.53874]]]},"properties":{"key":"342050570","name":"御調町大蔵","pref":"広島県","prefCode":"34","municipality":"尾道市","areaM2":1034691.189,"population":158,"toponymIds":["34-07c52cb310"]}},{"type":"Feature","geometry":{"type":"Polygon","coordinates":[[[133.2155,34.40906],[133.21612,34.40861],[133.21664,34.40845],[133.21672,34.40819],[133.21715,34.40804],[133.21731,34.40818],[133.21881,34.40729],[133.21939,34.40718],[133.21929,34.40738],[133.21969,34.40731],[133.21956,34.40714],[133.22073,34.40705],[133.22061,34.40699],[133.22109,34.40691],[133.22112,34.40675],[133.22123,34.40688],[133.22156,34.40682],[133.22155,34.40696],[133.22162,34.40652],[133.22297,34.40668],[133.22289,34.40697],[133.22311,34.40687],[133.2233,34.40716],[133.22386,34.4073],[133.22382,34.40748],[133.22405,34.4072],[133.22454,34.40737],[133.22619,34.40729],[133.22616,34.40752],[133.22632,34.40752],[133.22639,34.40679],[133.22744,34.40677],[133.22752,34.40725],[133.22752,34.40676],[133.22899,34.40671],[133.22892,34.40689],[133.2291,34.40689],[133.22908,34.40671],[133.23052,34.40666],[133.23033,34.40703],[133.2341,34.40642],[133.23526,34.40658],[133.23665,34.40591],[133.23777,34.40499],[133.23709,34.40556],[133.23661,34.40486],[133.23695,34.4045],[133.23712,34.40322],[133.23698,34.40402],[133.23675,34.40402],[133.2367,34.40444],[133.236,34.40438],[133.23595,34.40364],[133.23619,34.40364],[133.23598,34.40361],[133.23605,34.40337],[133.2357,34.40349],[133.23499,34.40275],[133.23519,34.40265],[133.23586,34.4033],[133.23659,34.40219],[133.23677,34.40223],[133.23656,34.40213],[133.23664,34.40198],[133.23653,34.40209],[133.23497,34.40124],[133.23242,34.40109],[133.23028,34.40125],[133.22932,34.4024],[133.22559,34.40259],[133.22268,34.40082],[133.2211,34.39944],[133.21771,34.39804],[133.21174,34.3979],[133.20811,34.39952],[133.20645,34.3996],[133.2057,34.39942],[133.20399,34.40463],[133.20495,34.40481],[133.20501,34.40522],[133.20513,34.4049],[133.20528,34.40492],[133.20524,34.40518],[133.20601,34.40526],[133.2062,34.40544],[133.20596,34.4056],[133.20621,34.40545],[133.20651,34.40572],[133.2063,34.40601],[133.20665,34.40585],[133.20661,34.406],[133.20688,34.40572],[133.20745,34.40632],[133.20769,34.40666],[133.20759,34.40673],[133.20791,34.40675],[133.20872,34.40758],[133.20951,34.40799],[133.20935,34.40811],[133.20949,34.40815],[133.20954,34.40799],[133.20977,34.40807],[133.20983,34.40789],[133.21004,34.40786],[133.21023,34.40797],[133.21007,34.4082],[133.21018,34.40834],[133.21082,34.40839],[133.21128,34.40867],[133.21304,34.40915],[133.21494,34.40936],[133.2155,34.40906]]]},"properties":{"key":"34205050001","name":"向東町","pref":"広島県","prefCode":"34","municipality":"尾道市","areaM2":2333936.899,"population":4483,"toponymIds":["34-a13bab8847"]}},{"type":"Feature","geometry":{"type":"Polygon","coordinates":[[[133.26186,34.53258],[133.26205,34.53237],[133.26281,34.53229],[133.26439,34.53238],[133.26593,34.53196],[133.27021,34.53283],[133.2699,34.5324],[133.27024,34.5318],[133.27172,34.53125],[133.27257,34.53008],[133.27203,34.52964],[133.27235,34.52908],[133.2719,34.52882],[133.27155,34.52838],[133.27208,34.52773],[133.27243,34.5265],[133.2711,34.52617],[133.27061,34.52623],[133.27074,34.52583],[133.27024,34.5254],[133.26871,34.52555],[133.26769,34.52496],[133.26758,34.52387],[133.26715,34.5227],[133.26667,34.52217],[133.26644,34.5215],[133.26595,34.52124],[133.26545,34.52045],[133.26512,34.52036],[133.26442,34.51963],[133.26502,34.5186],[133.26142,34.51768],[133.26074,34.51603],[133.26103,34.51507],[133.26262,34.51375],[133.26327,34.51353],[133.26292,34.51322],[133.2627,34.51259],[133.26166,34.51199],[133.26251,34.50975],[133.2643,34.51026],[133.26445,34.51023],[133.26463,34.50975],[133.26502,34.50964],[133.2663,34.50979],[133.26753,34.50972],[133.26809,34.50987],[133.26913,34.50979],[133.26943,34.50991],[133.27068,34.50979],[133.2709,34.50868],[133.27146,34.50733],[133.27259,34.50605],[133.27423,34.50592],[133.27506,34.50389],[133.27514,34.50332],[133.27373,34.50272],[133.27324,34.50268],[133.27221,34.502],[133.27374,34.50146],[133.27384,34.50123],[133.27368,34.50062],[133.27269,34.50035],[133.27101,34.49926],[133.27028,34.49983],[133.26896,34.49971],[133.26843,34.49939],[133.26824,34.49879],[133.26623,34.49737],[133.26481,34.49766],[133.26422,34.4973],[133.26322,34.49725],[133.26259,34.49693],[133.26211,34.49705],[133.26121,34.49792],[133.26099,34.49845],[133.26022,34.4987],[133.25913,34.50004],[133.25873,34.50006],[133.25726,34.49959],[133.25686,34.50046],[133.25692,34.50113],[133.25634,34.50194],[133.25403,34.50212],[133.25353,34.5024],[133.25326,34.50304],[133.25196,34.50309],[133.25159,34.50358],[133.25131,34.50467],[133.25072,34.50545],[133.25036,34.5056],[133.2497,34.50552],[133.24718,34.50443],[133.24699,34.50382],[133.24666,34.50363],[133.24335,34.50296],[133.24325,34.50246],[133.24295,34.50226],[133.24156,34.50211],[133.24031,34.50229],[133.24012,34.50316],[133.2393,34.50375],[133.23885,34.50445],[133.23877,34.50517],[133.23767,34.50601],[133.23765,34.50693],[133.2379,34.50741],[133.23927,34.50756],[133.23981,34.50776],[133.24136,34.50742],[133.24178,34.50704],[133.24198,34.50709],[133.24398,34.50791],[133.24415,34.50866],[133.24473,34.50892],[133.24517,34.50948],[133.24502,34.5098],[133.24446,34.51005],[133.24416,34.51057],[133.24338,34.5107],[133.24317,34.51089],[133.24287,34.51149],[133.24323,34.51201],[133.24355,34.51331],[133.24283,34.51353],[133.24267,34.51373],[133.24252,34.5148],[133.24159,34.51516],[133.24161,34.51533],[133.24129,34.51555],[133.24156,34.51658],[133.24133,34.5171],[133.24168,34.51731],[133.24135,34.5178],[133.24146,34.51819],[133.24221,34.51846],[133.24229,34.51885],[133.24514,34.51923],[133.24548,34.51996],[133.247,34.51993],[133.24792,34.52138],[133.24801,34.52205],[133.24785,34.52217],[133.24835,34.52289],[133.24982,34.52348],[133.24992,34.52521],[133.25088,34.5266],[133.2494,34.52786],[133.24758,34.52828],[133.24673,34.52799],[133.24567,34.52803],[133.24432,34.5339],[133.25119,34.53261],[133.25199,34.5334],[133.25919,34.53382],[133.26063,34.53573],[133.26155,34.53579],[133.26158,34.53324],[133.26186,34.53258]]]},"properties":{"key":"34207121002","name":"芦田町大字上有地","pref":"広島県","prefCode":"34","municipality":"福山市","areaM2":7889974.2,"population":1102,"toponymIds":["34-fd2cd8e319"]}},{"type":"Feature","geometry":{"type":"Polygon","coordinates":[[[133.25934,34.54635],[133.25938,34.54604],[133.25969,34.54658],[133.26007,34.54638],[133.26204,34.54624],[133.26222,34.54635],[133.26229,34.54666],[133.26369,34.54632],[133.26385,34.54597],[133.26451,34.54559],[133.26471,34.54571],[133.26477,34.54611],[133.265,34.5462],[133.26491,34.54642],[133.26527,34.54663],[133.26581,34.54543],[133.26546,34.54338],[133.26567,34.54276],[133.26616,34.54211],[133.26556,34.54185],[133.26617,34.54199],[133.26627,34.54158],[133.26651,34.5419],[133.26678,34.54185],[133.26752,34.54148],[133.2676,34.54132],[133.26729,34.54097],[133.26738,34.54087],[133.26812,34.5412],[133.26947,34.53998],[133.27025,34.54002],[133.27151,34.53969],[133.27219,34.53996],[133.27284,34.53975],[133.2735,34.53975],[133.27399,34.53952],[133.27436,34.53965],[133.27513,34.53944],[133.27536,34.53865],[133.27572,34.53837],[133.27738,34.53841],[133.27758,34.53868],[133.27739,34.53903],[133.27865,34.53946],[133.27922,34.53949],[133.27978,34.53927],[133.27917,34.53851],[133.27983,34.5385],[133.27954,34.53771],[133.27966,34.53692],[133.27923,34.53531],[133.2793,34.53338],[133.2795,34.53253],[133.28006,34.53254],[133.28011,34.53237],[133.27991,34.53227],[133.27996,34.53127],[133.28046,34.53129],[133.28063,34.53081],[133.28106,34.53055],[133.28106,34.53037],[133.27971,34.52974],[133.27933,34.52836],[133.27834,34.52758],[133.27779,34.52648],[133.2777,34.5257],[133.2773,34.52491],[133.27736,34.52421],[133.27768,34.52379],[133.27751,34.52298],[133.27834,34.52268],[133.27886,34.52271],[133.27879,34.52202],[133.27933,34.52145],[133.27697,34.52108],[133.27729,34.51924],[133.27753,34.51905],[133.2766,34.51888],[133.27594,34.51839],[133.27569,34.51747],[133.27457,34.51611],[133.27473,34.51458],[133.27416,34.51411],[133.2743,34.51356],[133.27298,34.51297],[133.27193,34.51189],[133.27144,34.51106],[133.27112,34.51009],[133.27083,34.50981],[133.27006,34.50977],[133.26943,34.50991],[133.26913,34.50979],[133.26809,34.50987],[133.26753,34.50972],[133.2663,34.50979],[133.26502,34.50964],[133.26463,34.50975],[133.26445,34.51023],[133.2643,34.51026],[133.26251,34.50975],[133.26166,34.51199],[133.2627,34.51259],[133.26292,34.51322],[133.26327,34.51353],[133.26262,34.51375],[133.26103,34.51507],[133.26074,34.51603],[133.26142,34.51768],[133.26502,34.5186],[133.26442,34.51963],[133.26512,34.52036],[133.26545,34.52045],[133.26595,34.52124],[133.26644,34.5215],[133.26667,34.52217],[133.26715,34.5227],[133.26758,34.52387],[133.26769,34.52496],[133.26871,34.52555],[133.27024,34.5254],[133.27074,34.52583],[133.27061,34.52623],[133.2711,34.52617],[133.27243,34.5265],[133.27208,34.52773],[133.27155,34.52838],[133.2719,34.52882],[133.27235,34.52908],[133.27203,34.52964],[133.27257,34.53008],[133.27172,34.53125],[133.27024,34.5318],[133.2699,34.5324],[133.27021,34.53283],[133.26593,34.53196],[133.26439,34.53238],[133.26319,34.53226],[133.26205,34.53237],[133.26174,34.53272],[133.26158,34.53324],[133.26155,34.53579],[133.26063,34.53573],[133.25919,34.53382],[133.25199,34.5334],[133.25119,34.53261],[133.24432,34.5339],[133.24365,34.53673],[133.2442,34.53678],[133.24475,34.53714],[133.24495,34.53732],[133.24498,34.53774],[133.24545,34.53806],[133.24637,34.53816],[133.24642,34.53875],[133.24689,34.53931],[133.24685,34.53969],[133.24704,34.54005],[133.24702,34.54021],[133.24665,34.5404],[133.2502,34.54465],[133.25008,34.5451],[133.25103,34.54592],[133.25201,34.54518],[133.25255,34.54508],[133.25276,34.54565],[133.25437,34.5462],[133.2553,34.54616],[133.25638,34.54703],[133.25731,34.54715],[133.25752,34.5478],[133.25828,34.54796],[133.25934,34.54764],[133.2595,34.54709],[133.25934,34.54635]]]},"properties":{"key":"34207121001","name":"芦田町大字下有地","pref":"広島県","prefCode":"34","municipality":"福山市","areaM2":5913399.233,"population":1026,"toponymIds":["34-3556734108"]}},{"type":"Feature","geometry":{"type":"Polygon","coordinates":[[[133.29368,34.52544],[133.2936,34.52521],[133.2917,34.52466],[133.29164,34.5241],[133.29196,34.5234],[133.29106,34.52364],[133.28959,34.52307],[133.2885,34.52414],[133.28853,34.52449],[133.28819,34.52457],[133.28798,34.52508],[133.28896,34.52539],[133.29057,34.52548],[133.2919,34.52625],[133.2924,34.52635],[133.29301,34.5263],[133.29368,34.52544]]]},"properties":{"key":"34207121004","name":"芦田町大字向陽台","pref":"広島県","prefCode":"34","municipality":"福山市","areaM2":93360.543,"population":325,"toponymIds":["34-8869138f81"]}},{"type":"Feature","geometry":{"type":"Polygon","coordinates":[[[133.24388,34.53559],[133.24567,34.52803],[133.24673,34.52799],[133.24758,34.52828],[133.2494,34.52786],[133.25088,34.5266],[133.24992,34.52521],[133.24982,34.52348],[133.24835,34.52289],[133.24785,34.52217],[133.24801,34.52205],[133.24792,34.52138],[133.247,34.51993],[133.24548,34.51996],[133.24514,34.51923],[133.24229,34.51885],[133.24221,34.51846],[133.24146,34.51819],[133.24135,34.5178],[133.24168,34.51731],[133.24133,34.5171],[133.24156,34.51658],[133.24129,34.51555],[133.24161,34.51533],[133.24159,34.51516],[133.24252,34.5148],[133.24267,34.51373],[133.24283,34.51353],[133.24355,34.51331],[133.24323,34.51201],[133.24287,34.51149],[133.24317,34.51089],[133.24338,34.5107],[133.24416,34.51057],[133.24446,34.51005],[133.24502,34.5098],[133.24517,34.50948],[133.24473,34.50892],[133.24415,34.50866],[133.24398,34.50791],[133.24321,34.50749],[133.24178,34.50704],[133.24136,34.50742],[133.2399,34.50768],[133.23899,34.50863],[133.23913,34.50895],[133.23962,34.50925],[133.23931,34.51048],[133.23947,34.51104],[133.23909,34.51128],[133.23763,34.51153],[133.23724,34.51181],[133.2361,34.51352],[133.23557,34.51378],[133.23472,34.51454],[133.23435,34.51456],[133.23395,34.51428],[133.23287,34.5143],[133.23248,34.51449],[133.23146,34.51434],[133.23121,34.51448],[133.23,34.51442],[133.22917,34.51382],[133.22805,34.51455],[133.22766,34.51413],[133.22708,34.51401],[133.22668,34.51368],[133.22653,34.51276],[133.22572,34.5119],[133.22493,34.51158],[133.22416,34.51084],[133.22254,34.50998],[133.22087,34.50977],[133.22018,34.50912],[133.21935,34.50914],[133.21878,34.5085],[133.21782,34.50887],[133.21714,34.5085],[133.216,34.50832],[133.21471,34.50849],[133.21413,34.50879],[133.21386,34.50912],[133.21397,34.50981],[133.21475,34.51041],[133.21447,34.51095],[133.2138,34.51147],[133.21329,34.51254],[133.21174,34.51365],[133.21168,34.51387],[133.21207,34.51467],[133.21166,34.51519],[133.21213,34.51596],[133.21206,34.51621],[133.21182,34.51633],[133.21193,34.51703],[133.21183,34.51746],[133.21142,34.51771],[133.21167,34.51815],[133.21105,34.51875],[133.21139,34.51916],[133.2113,34.51973],[133.2125,34.51997],[133.21311,34.5199],[133.21403,34.52153],[133.2156,34.52173],[133.21777,34.52301],[133.21833,34.52374],[133.21889,34.52375],[133.21909,34.52422],[133.21902,34.52521],[133.21966,34.52554],[133.22029,34.52699],[133.22002,34.5274],[133.22048,34.52794],[133.2209,34.5288],[133.22102,34.52946],[133.22152,34.53005],[133.2213,34.53162],[133.22176,34.53148],[133.22265,34.53152],[133.22323,34.53091],[133.2239,34.5307],[133.22399,34.53023],[133.22447,34.52994],[133.22518,34.52915],[133.22523,34.52872],[133.22677,34.52741],[133.22722,34.52726],[133.22878,34.52775],[133.2296,34.5274],[133.23006,34.52738],[133.23122,34.52818],[133.23252,34.52808],[133.23331,34.5289],[133.23454,34.52896],[133.23497,34.52944],[133.23478,34.52987],[133.23595,34.53092],[133.23621,34.53146],[133.23586,34.53166],[133.23538,34.53256],[133.23644,34.53306],[133.23736,34.53449],[133.23942,34.53471],[133.23946,34.53494],[133.23995,34.53537],[133.23953,34.53589],[133.23983,34.53634],[133.24052,34.53631],[133.24137,34.53571],[133.24182,34.5356],[133.24326,34.5361],[133.24365,34.53673],[133.24388,34.53559]]]},"properties":{"key":"34207121003","name":"芦田町大字柞磨","pref":"広島県","prefCode":"34","municipality":"福山市","areaM2":6151759.642,"population":309,"toponymIds":["34-0bf27825dd"]}},{"type":"Feature","geometry":{"type":"Polygon","coordinates":[[[133.30451,34.5401],[133.30518,34.53992],[133.30481,34.54045],[133.30574,34.53995],[133.30556,34.53953],[133.30625,34.53892],[133.30646,34.5381],[133.3052,34.53738],[133.30396,34.53692],[133.30184,34.53656],[133.29949,34.5356],[133.2982,34.53582],[133.29738,34.53509],[133.29742,34.53487],[133.2968,34.53484],[133.29647,34.53416],[133.29721,34.53405],[133.29716,34.53351],[133.29624,34.53344],[133.29518,34.53018],[133.29553,34.53011],[133.29531,34.52978],[133.29543,34.52932],[133.29597,34.52909],[133.29595,34.52834],[133.2955,34.52737],[133.29394,34.52596],[133.29368,34.52544],[133.29301,34.5263],[133.2924,34.52635],[133.2919,34.52625],[133.29057,34.52548],[133.28896,34.52539],[133.28798,34.52508],[133.28819,34.52457],[133.28853,34.52449],[133.2885,34.52414],[133.28954,34.52308],[133.29106,34.52364],[133.29196,34.5234],[133.29108,34.52298],[133.29103,34.52219],[133.29159,34.52106],[133.29162,34.52037],[133.29209,34.5195],[133.29197,34.5175],[133.29225,34.517],[133.29229,34.51643],[133.2932,34.51527],[133.29269,34.51361],[133.29185,34.5127],[133.29207,34.51219],[133.29214,34.51125],[133.29171,34.51055],[133.29156,34.50944],[133.28945,34.50896],[133.28778,34.5094],[133.28738,34.50923],[133.28661,34.50836],[133.28629,34.50858],[133.28598,34.50914],[133.28595,34.50995],[133.28618,34.51062],[133.2845,34.51096],[133.28339,34.5109],[133.28282,34.51111],[133.28239,34.51048],[133.28267,34.50992],[133.28247,34.50956],[133.2825,34.50912],[133.28347,34.50903],[133.28385,34.50868],[133.28447,34.50857],[133.28505,34.50777],[133.28589,34.50483],[133.28641,34.50441],[133.28635,34.50293],[133.2861,34.50269],[133.28568,34.50285],[133.2844,34.50249],[133.28294,34.50274],[133.28301,34.50179],[133.28273,34.50173],[133.28272,34.50134],[133.2826,34.50133],[133.28237,34.50177],[133.28205,34.50165],[133.28183,34.50187],[133.28165,34.5016],[133.282,34.50097],[133.28175,34.50075],[133.28126,34.50128],[133.28087,34.50096],[133.28011,34.50102],[133.28167,34.49992],[133.28077,34.4988],[133.27947,34.49941],[133.27903,34.49904],[133.27982,34.49853],[133.27887,34.49873],[133.27893,34.49821],[133.27918,34.49809],[133.27884,34.49765],[133.27842,34.4981],[133.27742,34.49863],[133.27632,34.49968],[133.27562,34.50004],[133.27545,34.50056],[133.27447,34.50072],[133.27368,34.50062],[133.27384,34.50123],[133.27374,34.50146],[133.27221,34.502],[133.27324,34.50268],[133.27373,34.50272],[133.27514,34.50332],[133.27506,34.50389],[133.27423,34.50592],[133.27259,34.50605],[133.27146,34.50733],[133.2709,34.50868],[133.27068,34.50979],[133.27112,34.51009],[133.27144,34.51106],[133.27193,34.51189],[133.27298,34.51297],[133.2743,34.51356],[133.27416,34.51411],[133.27473,34.51458],[133.27457,34.51611],[133.27569,34.51747],[133.27594,34.51839],[133.2766,34.51888],[133.27753,34.51905],[133.27729,34.51924],[133.27697,34.52108],[133.27933,34.52145],[133.27879,34.52202],[133.27886,34.52271],[133.27834,34.52268],[133.27751,34.52298],[133.27768,34.52379],[133.27736,34.52421],[133.2773,34.52491],[133.2777,34.5257],[133.27779,34.52648],[133.27834,34.52758],[133.27933,34.52836],[133.27971,34.52974],[133.28106,34.53037],[133.28106,34.53055],[133.28063,34.53081],[133.28046,34.53129],[133.27996,34.53127],[133.27991,34.53227],[133.28011,34.53237],[133.28006,34.53254],[133.2795,34.53253],[133.2793,34.53338],[133.27923,34.53531],[133.27966,34.53692],[133.27954,34.53771],[133.27983,34.5385],[133.28151,34.53852],[133.28184,34.53816],[133.28197,34.5382],[133.28298,34.53854],[133.28327,34.53885],[133.28453,34.53935],[133.28481,34.53971],[133.2847,34.54],[133.28642,34.54036],[133.28645,34.54053],[133.28677,34.54064],[133.28675,34.54102],[133.2873,34.54155],[133.28991,34.54211],[133.29311,34.54321],[133.29628,34.54388],[133.29597,34.54495],[133.2969,34.54591],[133.29807,34.54605],[133.29918,34.54588],[133.3005,34.5454],[133.30066,34.54459],[133.30266,34.54163],[133.3032,34.54131],[133.30286,34.54071],[133.30451,34.5401]]]},"properties":{"key":"34207121000","name":"芦田町大字福田","pref":"広島県","prefCode":"34","municipality":"福山市","areaM2":7083018.757,"population":3280,"toponymIds":["34-f0ebbbe72f"]}},{"type":"Feature","geometry":{"type":"Polygon","coordinates":[[[133.33883,34.55519],[133.33963,34.55526],[133.33967,34.55409],[133.33999,34.55248],[133.34236,34.54354],[133.34237,34.54234],[133.34255,34.5415],[133.33824,34.54075],[133.33832,34.54038],[133.3316,34.53947],[133.3315,34.53996],[133.33109,34.54017],[133.33109,34.54065],[133.3305,34.5424],[133.32939,34.54223],[133.32728,34.54991],[133.325,34.54945],[133.3246,34.55081],[133.32463,34.55125],[133.32357,34.55263],[133.32411,34.55307],[133.32524,34.55328],[133.32588,34.5532],[133.32606,34.5528],[133.33228,34.5539],[133.33255,34.55291],[133.33499,34.55334],[133.3346,34.55431],[133.3339,34.55476],[133.33399,34.55517],[133.33472,34.55596],[133.33431,34.55634],[133.33444,34.55691],[133.33543,34.55783],[133.33536,34.5581],[133.33485,34.55823],[133.33478,34.5586],[133.33547,34.55992],[133.33709,34.5594],[133.33722,34.5591],[133.33701,34.55793],[133.33713,34.55753],[133.33763,34.55674],[133.3378,34.55616],[133.33837,34.55581],[133.33883,34.55519]]]},"properties":{"key":"34207122010","name":"駅家町大字万能倉","pref":"広島県","prefCode":"34","municipality":"福山市","areaM2":2040561.141,"population":8075,"toponymIds":["34-ff7fd97888"]}},{"type":"Feature","geometry":{"type":"Polygon","coordinates":[[[133.3275,34.5492],[133.32939,34.54223],[133.32858,34.54202],[133.32845,34.54085],[133.32882,34.54053],[133.32758,34.53974],[133.3267,34.53955],[133.3253,34.53884],[133.32481,34.54024],[133.32433,34.5433],[133.32317,34.54312],[133.32274,34.54342],[133.32201,34.54359],[133.32138,34.54343],[133.32042,34.54357],[133.32,34.54515],[133.32074,34.54612],[133.32081,34.54753],[133.32112,34.54818],[133.32081,34.54872],[133.3211,34.54905],[133.32216,34.54921],[133.32309,34.54899],[133.32728,34.54991],[133.3275,34.5492]]]},"properties":{"key":"34207122008","name":"駅家町大字倉光","pref":"広島県","prefCode":"34","municipality":"福山市","areaM2":629565.204,"population":2231,"toponymIds":["34-9bb2fbf6d4"]}},{"type":"Feature","geometry":{"type":"Polygon","coordinates":[[[133.34968,34.55904],[133.35132,34.55829],[133.35066,34.55732],[133.35027,34.55585],[133.34972,34.55499],[133.34933,34.55466],[133.34897,34.55512],[133.34882,34.55731],[133.34899,34.55769],[133.34951,34.55818],[133.34928,34.55894],[133.34947,34.55887],[133.34968,34.55904]]]},"properties":{"key":"342071231","name":"加茂町","pref":"広島県","prefCode":"34","municipality":"福山市","areaM2":60624.433,"population":301,"toponymIds":["34-6c98d5d874"]}},{"type":"Feature","geometry":{"type":"Polygon","coordinates":[[[133.37029,34.49455],[133.36996,34.4944],[133.3688,34.4944],[133.36736,34.494],[133.36707,34.49502],[133.36784,34.4954],[133.36949,34.49662],[133.37087,34.49679],[133.3712,34.49474],[133.37029,34.49455]]]},"properties":{"key":"342070300","name":"桜馬場町","pref":"広島県","prefCode":"34","municipality":"福山市","areaM2":70429.869,"population":441,"toponymIds":["34-17b1c7d98c"]}},{"type":"Feature","geometry":{"type":"Polygon","coordinates":[[[133.40203,34.52087],[133.40387,34.52058],[133.40522,34.52073],[133.40528,34.52104],[133.40581,34.5212],[133.4065,34.52101],[133.40658,34.52082],[133.40637,34.52037],[133.40728,34.51892],[133.40738,34.51819],[133.4071,34.51754],[133.40644,34.5175],[133.4058,34.517],[133.40564,34.51653],[133.4059,34.51623],[133.40598,34.51569],[133.4058,34.51565],[133.4054,34.51606],[133.40487,34.51569],[133.40448,34.5158],[133.40417,34.51622],[133.40397,34.51619],[133.40405,34.5169],[133.40355,34.51731],[133.40319,34.51673],[133.40329,34.51633],[133.40178,34.5146],[133.4015,34.51463],[133.40067,34.51422],[133.39975,34.51425],[133.39909,34.51392],[133.39855,34.51406],[133.39803,34.51371],[133.39715,34.51371],[133.39687,34.51384],[133.39678,34.51446],[133.39651,34.51486],[133.39582,34.51501],[133.39446,34.51446],[133.39375,34.51441],[133.39344,34.51418],[133.39342,34.51385],[133.39404,34.51358],[133.39399,34.51342],[133.39325,34.51337],[133.39266,34.51355],[133.39205,34.51309],[133.39213,34.51278],[133.39259,34.51238],[133.39241,34.51214],[133.39253,34.51169],[133.39178,34.51139],[133.3918,34.51102],[133.39139,34.51086],[133.39078,34.51137],[133.39032,34.51154],[133.38975,34.51135],[133.3896,34.51162],[133.38895,34.51154],[133.38825,34.51005],[133.38787,34.50958],[133.38762,34.50958],[133.38765,34.5091],[133.38799,34.50866],[133.38786,34.50834],[133.38661,34.50668],[133.38626,34.50654],[133.38587,34.5067],[133.38559,34.50656],[133.38568,34.5064],[133.38507,34.50611],[133.38507,34.50581],[133.38415,34.50593],[133.38431,34.50557],[133.38319,34.50589],[133.38232,34.50689],[133.38187,34.50668],[133.38193,34.50708],[133.38165,34.50769],[133.38183,34.50999],[133.38115,34.51145],[133.38135,34.51223],[133.38214,34.51234],[133.38338,34.51297],[133.38394,34.51296],[133.38716,34.51559],[133.38748,34.51601],[133.3881,34.51639],[133.38836,34.5172],[133.3888,34.5173],[133.38987,34.51834],[133.39095,34.51988],[133.39204,34.52077],[133.39335,34.52136],[133.39369,34.52217],[133.39436,34.52293],[133.39511,34.52322],[133.39598,34.52325],[133.39706,34.52283],[133.39812,34.52268],[133.40017,34.52179],[133.40096,34.52114],[133.40203,34.52087]]]},"properties":{"key":"342070332","name":"蔵王町","pref":"広島県","prefCode":"34","municipality":"福山市","areaM2":1831998.3,"population":1530,"toponymIds":["34-a1b4eec614"]}},{"type":"Feature","geometry":{"type":"Polygon","coordinates":[[[133.35232,34.49088],[133.35149,34.49076],[133.35134,34.49142],[133.35355,34.49188],[133.35384,34.49113],[133.35232,34.49088]]]},"properties":{"key":"342070480","name":"長者町","pref":"広島県","prefCode":"34","municipality":"福山市","areaM2":17231.537,"population":133,"toponymIds":["34-5341095393"]}},{"type":"Feature","geometry":{"type":"Polygon","coordinates":[[[133.39009,34.50465],[133.39059,34.50467],[133.39093,34.50166],[133.38995,34.50157],[133.3902,34.50113],[133.3869,34.49997],[133.38626,34.5003],[133.38653,34.50133],[133.38695,34.50155],[133.38663,34.50168],[133.38607,34.50147],[133.38573,34.5019],[133.38528,34.50197],[133.38548,34.50236],[133.38513,34.50304],[133.38748,34.5041],[133.38804,34.5045],[133.38947,34.50474],[133.39009,34.50465]]]},"properties":{"key":"34207085001","name":"南蔵王町一丁目","pref":"広島県","prefCode":"34","municipality":"福山市","areaM2":183816.596,"population":342,"toponymIds":["34-e692e87bf3"]}},{"type":"Feature","geometry":{"type":"Polygon","coordinates":[[[133.15207,34.672],[133.15217,34.67091],[133.15259,34.66978],[133.15323,34.66889],[133.15535,34.66741],[133.1556,34.66707],[133.15557,34.66602],[133.15476,34.66503],[133.15277,34.6639],[133.15134,34.66364],[133.14995,34.6636],[133.14996,34.66248],[133.14944,34.66151],[133.14839,34.66043],[133.14685,34.65917],[133.14304,34.6621],[133.14031,34.66455],[133.13967,34.66533],[133.13919,34.66701],[133.13922,34.66795],[133.1395,34.66879],[133.14024,34.66991],[133.14215,34.67196],[133.14365,34.67322],[133.14443,34.67355],[133.14535,34.67367],[133.14826,34.67383],[133.14985,34.67374],[133.15146,34.67304],[133.15191,34.67256],[133.15207,34.672]]]},"properties":{"key":"342080370","name":"上下町佐倉","pref":"広島県","prefCode":"34","municipality":"府中市","areaM2":1536002.492,"population":28,"toponymIds":["34-d0a9cd8640"]}},{"type":"Feature","geometry":{"type":"Polygon","coordinates":[[[133.08491,34.75804],[133.08817,34.75579],[133.09198,34.75628],[133.0955,34.75467],[133.09625,34.75463],[133.09685,34.7548],[133.09796,34.75577],[133.099,34.75701],[133.09935,34.75715],[133.10047,34.75697],[133.10222,34.75628],[133.10268,34.75576],[133.1047,34.75474],[133.10313,34.7535],[133.09923,34.75241],[133.09787,34.7517],[133.09719,34.75126],[133.09634,34.74999],[133.09573,34.74937],[133.09434,34.74855],[133.09236,34.74864],[133.08944,34.74964],[133.0891,34.74958],[133.0885,34.74934],[133.08778,34.74803],[133.08708,34.74754],[133.0862,34.7472],[133.08476,34.74841],[133.08327,34.74904],[133.08193,34.74911],[133.0814,34.74899],[133.07811,34.74785],[133.07744,34.74809],[133.07544,34.7494],[133.07487,34.74801],[133.07505,34.74493],[133.07453,34.74407],[133.07334,34.74309],[133.07223,34.74296],[133.07105,34.74417],[133.07024,34.74469],[133.06838,34.74458],[133.06768,34.74425],[133.06615,34.74389],[133.06595,34.74467],[133.06592,34.74621],[133.06652,34.74652],[133.06565,34.74674],[133.06478,34.74776],[133.06459,34.74825],[133.06461,34.74849],[133.0655,34.74895],[133.06576,34.74925],[133.06623,34.75075],[133.06608,34.75173],[133.06775,34.75313],[133.06792,34.75367],[133.06765,34.75471],[133.06625,34.75649],[133.06657,34.75777],[133.06762,34.75816],[133.0734,34.75909],[133.07708,34.75938],[133.08016,34.76021],[133.08154,34.76018],[133.08491,34.75804]]]},"properties":{"key":"342091050","name":"甲奴町抜湯","pref":"広島県","prefCode":"34","municipality":"三次市","areaM2":3518834.054,"population":47,"toponymIds":["34-7319e70f55"]}},{"type":"Feature","geometry":{"type":"Polygon","coordinates":[[[133.06282,34.8542],[133.0638,34.85344],[133.06512,34.85198],[133.06559,34.85212],[133.06642,34.85164],[133.06733,34.85149],[133.06876,34.85042],[133.06592,34.84635],[133.06275,34.84448],[133.06227,34.84429],[133.06053,34.84412],[133.05703,34.84246],[133.05473,34.84083],[133.05384,34.84045],[133.05282,34.84008],[133.052,34.84018],[133.05011,34.84153],[133.04881,34.84211],[133.04852,34.84202],[133.0482,34.84163],[133.048,34.84085],[133.04742,34.84059],[133.04702,34.84059],[133.04661,34.84087],[133.04552,34.84253],[133.04486,34.84227],[133.04425,34.84239],[133.04393,34.84269],[133.04354,34.84366],[133.04286,34.84447],[133.04179,34.84521],[133.04183,34.84541],[133.04338,34.84685],[133.0454,34.847],[133.04658,34.84748],[133.04784,34.84843],[133.04899,34.84951],[133.04943,34.85027],[133.05053,34.85113],[133.051,34.85173],[133.05123,34.85247],[133.05322,34.85394],[133.05395,34.85425],[133.05469,34.85454],[133.05639,34.85413],[133.05748,34.85428],[133.0577,34.8541],[133.0582,34.8541],[133.05963,34.85461],[133.0614,34.85478],[133.06282,34.8542]]]},"properties":{"key":"342100080","name":"大久保町","pref":"広島県","prefCode":"34","municipality":"庄原市","areaM2":2285656.184,"population":128,"toponymIds":["34-f165d5918d"]}},{"type":"Feature","geometry":{"type":"Polygon","coordinates":[[[133.23906,34.94379],[133.2361,34.94335],[133.23572,34.94314],[133.23442,34.94081],[133.23347,34.93778],[133.23316,34.93725],[133.23113,34.93597],[133.23031,34.93511],[133.23028,34.93427],[133.23095,34.93373],[133.23324,34.93335],[133.23374,34.93313],[133.23384,34.93246],[133.23327,34.93095],[133.22562,34.92985],[133.21961,34.92805],[133.21933,34.92842],[133.21921,34.92926],[133.21956,34.92979],[133.22119,34.93079],[133.22436,34.93215],[133.22304,34.93433],[133.21822,34.93972],[133.22113,34.94139],[133.22139,34.94172],[133.22163,34.9426],[133.22162,34.94325],[133.22136,34.94405],[133.22074,34.94466],[133.22035,34.94538],[133.22029,34.9459],[133.22051,34.94675],[133.22106,34.9473],[133.22252,34.94765],[133.22374,34.94775],[133.22539,34.94748],[133.22584,34.9472],[133.22653,34.94492],[133.22697,34.94423],[133.22748,34.94388],[133.22859,34.94397],[133.22862,34.94428],[133.22923,34.94509],[133.22983,34.94554],[133.23058,34.94584],[133.22912,34.94618],[133.22829,34.94677],[133.22761,34.94774],[133.22648,34.95016],[133.22613,34.9506],[133.2239,34.95177],[133.21976,34.95292],[133.21967,34.95386],[133.22011,34.95445],[133.22235,34.9561],[133.22495,34.95756],[133.22615,34.95868],[133.22771,34.95941],[133.22952,34.95817],[133.23161,34.95764],[133.23195,34.95729],[133.23306,34.9543],[133.23443,34.95127],[133.23593,34.95003],[133.23892,34.94831],[133.23873,34.94758],[133.23917,34.94651],[133.24053,34.94463],[133.23987,34.94404],[133.23906,34.94379]]]},"properties":{"key":"342100640","name":"東城町菅","pref":"広島県","prefCode":"34","municipality":"庄原市","areaM2":3501239.156,"population":67,"toponymIds":["34-1b53658195"]}},{"type":"Feature","geometry":{"type":"Polygon","coordinates":[[[132.203,34.22884],[132.20246,34.22832],[132.20206,34.22717],[132.20178,34.22681],[132.20057,34.22547],[132.20022,34.22531],[132.19926,34.22524],[132.19746,34.22624],[132.1968,34.22715],[132.19683,34.22781],[132.1972,34.22822],[132.19862,34.22914],[132.19916,34.22879],[132.19895,34.2285],[132.19888,34.22743],[132.19942,34.22696],[132.19977,34.22688],[132.20177,34.22893],[132.20278,34.22928],[132.203,34.22884]]]},"properties":{"key":"342110200","name":"防鹿","pref":"広島県","prefCode":"34","municipality":"大竹市","areaM2":127889.437,"population":95,"toponymIds":["34-ef0673a411"]}},{"type":"Feature","geometry":{"type":"Polygon","coordinates":[[[132.27639,34.28424],[132.27817,34.2825],[132.27808,34.28212],[132.27676,34.28111],[132.27542,34.28075],[132.27458,34.28199],[132.2741,34.28381],[132.27378,34.2836],[132.27266,34.28401],[132.27253,34.28441],[132.27036,34.28626],[132.27132,34.28663],[132.27343,34.28699],[132.27639,34.28424]]]},"properties":{"key":"34213061001","name":"梅原一丁目","pref":"広島県","prefCode":"34","municipality":"廿日市市","areaM2":200153.574,"population":186,"toponymIds":["34-facd52d43e"]}},{"type":"Feature","geometry":{"type":"Polygon","coordinates":[[[132.47796,34.17563],[132.47815,34.17568],[132.47933,34.17517],[132.47941,34.17491],[132.47964,34.1749],[132.47954,34.1748],[132.47992,34.17446],[132.47987,34.17396],[132.48038,34.17399],[132.47987,34.17392],[132.47948,34.17262],[132.4796,34.17258],[132.47924,34.17216],[132.47989,34.17089],[132.48042,34.1704],[132.47993,34.17018],[132.48094,34.17051],[132.48324,34.16983],[132.4817,34.17024],[132.48122,34.16892],[132.48072,34.16895],[132.48265,34.16842],[132.48331,34.1681],[132.48352,34.16831],[132.48416,34.16801],[132.48392,34.1667],[132.48409,34.16666],[132.48392,34.16667],[132.48378,34.16588],[132.48411,34.16418],[132.48498,34.16345],[132.48528,34.1635],[132.48543,34.16287],[132.4851,34.16281],[132.48631,34.16101],[132.48795,34.16051],[132.48809,34.16035],[132.48853,34.1584],[132.48904,34.15808],[132.48886,34.1574],[132.48938,34.15694],[132.48924,34.15599],[132.4895,34.15536],[132.49001,34.15484],[132.49166,34.15514],[132.49008,34.15478],[132.49017,34.15435],[132.48952,34.15335],[132.48976,34.15312],[132.48967,34.15263],[132.48926,34.15215],[132.48956,34.15196],[132.48924,34.152],[132.48919,34.15182],[132.48923,34.15134],[132.4895,34.15077],[132.48993,34.15063],[132.49012,34.1511],[132.49073,34.15067],[132.49041,34.14995],[132.49061,34.1494],[132.49016,34.14898],[132.48993,34.14908],[132.48967,34.14886],[132.4893,34.14891],[132.4888,34.14855],[132.48837,34.14888],[132.48748,34.14825],[132.48735,34.14837],[132.48713,34.14788],[132.48717,34.14735],[132.48697,34.14728],[132.48712,34.14661],[132.48804,34.14676],[132.48839,34.14716],[132.48893,34.14651],[132.48948,34.14664],[132.48955,34.14618],[132.4892,34.14602],[132.48866,34.14639],[132.48815,34.14627],[132.48742,34.1458],[132.48742,34.14537],[132.48757,34.1451],[132.48767,34.14517],[132.48745,34.14486],[132.48685,34.1451],[132.48627,34.14482],[132.48662,34.1448],[132.4864,34.14448],[132.4862,34.14469],[132.4862,34.14382],[132.48653,34.14347],[132.48638,34.14314],[132.48699,34.14241],[132.48777,34.1425],[132.48834,34.14285],[132.48864,34.14284],[132.48931,34.14341],[132.48985,34.14233],[132.48921,34.142],[132.48899,34.14136],[132.48861,34.14156],[132.48725,34.14176],[132.48702,34.14195],[132.48629,34.14162],[132.48596,34.14178],[132.48541,34.14164],[132.48566,34.14183],[132.48512,34.14248],[132.48462,34.14274],[132.4841,34.14261],[132.48464,34.14301],[132.48349,34.1441],[132.48265,34.14476],[132.48212,34.14489],[132.48167,34.14485],[132.48166,34.14408],[132.48156,34.1449],[132.48106,34.14455],[132.48085,34.14404],[132.48008,34.14407],[132.47937,34.14329],[132.47806,34.14351],[132.47762,34.14329],[132.47732,34.14239],[132.47657,34.142],[132.47637,34.14147],[132.47579,34.14137],[132.4752,34.14073],[132.47448,34.14081],[132.47427,34.14125],[132.47403,34.14289],[132.47446,34.14568],[132.47577,34.14773],[132.47635,34.15023],[132.47606,34.151],[132.47555,34.15169],[132.47362,34.15341],[132.47252,34.15507],[132.47237,34.1557],[132.47242,34.15656],[132.47315,34.15799],[132.47195,34.15868],[132.47251,34.16065],[132.47256,34.16146],[132.47296,34.1626],[132.47251,34.16413],[132.47302,34.16536],[132.47232,34.16631],[132.47201,34.16778],[132.47221,34.16824],[132.47292,34.16831],[132.47359,34.16931],[132.47373,34.16983],[132.47335,34.17032],[132.47456,34.17189],[132.47426,34.17236],[132.47422,34.17278],[132.47504,34.1743],[132.47488,34.17461],[132.47697,34.17552],[132.47754,34.17606],[132.47796,34.17563]]]},"properties":{"key":"342150260","name":"大柿町大君","pref":"広島県","prefCode":"34","municipality":"江田島市","areaM2":4057660.507,"population":720,"toponymIds":["34-b7c302317a"]}},{"type":"Feature","geometry":{"type":"Polygon","coordinates":[[[132.46498,34.18024],[132.46483,34.1799],[132.4652,34.17929],[132.46534,34.17866],[132.46609,34.17854],[132.4668,34.17814],[132.46734,34.17827],[132.46794,34.17776],[132.46859,34.17662],[132.46874,34.1759],[132.46859,34.17467],[132.46884,34.17416],[132.46943,34.17405],[132.47154,34.17488],[132.4725,34.17443],[132.47408,34.17443],[132.47488,34.17461],[132.47504,34.1743],[132.47422,34.17278],[132.47426,34.17236],[132.47456,34.17189],[132.47335,34.17032],[132.47373,34.16983],[132.47359,34.16931],[132.47292,34.16831],[132.47221,34.16824],[132.47201,34.16778],[132.47232,34.16631],[132.47302,34.16536],[132.47251,34.16413],[132.47296,34.1626],[132.47256,34.16146],[132.47251,34.16065],[132.47195,34.15868],[132.47315,34.15799],[132.47242,34.15656],[132.47237,34.1557],[132.47252,34.15507],[132.47362,34.15341],[132.47555,34.15169],[132.47606,34.151],[132.47635,34.15023],[132.47577,34.14773],[132.47446,34.14568],[132.47421,34.1446],[132.47403,34.14289],[132.47415,34.14171],[132.47448,34.14081],[132.47392,34.14068],[132.47363,34.14016],[132.47311,34.14044],[132.47307,34.14016],[132.472,34.14007],[132.47148,34.13964],[132.47106,34.13888],[132.47058,34.13854],[132.47035,34.13797],[132.47008,34.13799],[132.4703,34.13891],[132.46991,34.13922],[132.46903,34.1395],[132.4682,34.13942],[132.46804,34.13873],[132.46774,34.13862],[132.46739,34.1382],[132.46621,34.13825],[132.46575,34.13766],[132.46568,34.137],[132.46543,34.13725],[132.46499,34.1372],[132.46465,34.1374],[132.4641,34.13721],[132.46372,34.13758],[132.46349,34.13726],[132.46354,34.13703],[132.46273,34.13583],[132.46282,34.13572],[132.4627,34.13576],[132.46202,34.13498],[132.46119,34.13496],[132.46111,34.1348],[132.46117,34.13496],[132.46054,34.13507],[132.46037,34.13497],[132.46048,34.13484],[132.46033,34.13493],[132.4607,34.13428],[132.46068,34.1341],[132.46035,34.1339],[132.45928,34.13424],[132.4587,34.13509],[132.45808,34.13525],[132.45681,34.13436],[132.45581,34.13394],[132.45555,34.13434],[132.4539,34.13396],[132.45314,34.13444],[132.45319,34.13489],[132.45256,34.13514],[132.45212,34.13551],[132.45212,34.1357],[132.45121,34.13557],[132.45054,34.13506],[132.45057,34.13522],[132.44966,34.13572],[132.44954,34.1363],[132.4492,34.13647],[132.44856,34.13572],[132.4487,34.13563],[132.44849,34.13569],[132.44865,34.13558],[132.44846,34.13565],[132.44863,34.13555],[132.44838,34.13521],[132.44801,34.13517],[132.44697,34.13457],[132.44655,34.13404],[132.44603,34.13314],[132.446,34.13274],[132.44619,34.13275],[132.44628,34.13256],[132.44601,34.13232],[132.44595,34.13261],[132.44562,34.1325],[132.445,34.13277],[132.44529,34.13305],[132.44527,34.13459],[132.44583,34.1364],[132.44582,34.13716],[132.44606,34.13772],[132.44602,34.13789],[132.44583,34.13761],[132.44569,34.1377],[132.44597,34.13794],[132.44592,34.1383],[132.44623,34.13842],[132.44593,34.13854],[132.446,34.13863],[132.44627,34.13845],[132.44676,34.13917],[132.44646,34.13935],[132.44682,34.13925],[132.44667,34.13928],[132.44678,34.13956],[132.44664,34.1396],[132.44668,34.13978],[132.44592,34.14008],[132.4463,34.1412],[132.44626,34.14226],[132.44643,34.14272],[132.44738,34.14344],[132.44929,34.14392],[132.4504,34.14446],[132.45141,34.14625],[132.45122,34.14695],[132.45132,34.14775],[132.45177,34.14819],[132.45375,34.14926],[132.455,34.15021],[132.45613,34.15394],[132.45637,34.15676],[132.45436,34.16144],[132.45601,34.16281],[132.45633,34.16368],[132.45625,34.16484],[132.45594,34.16526],[132.45532,34.16562],[132.4553,34.16745],[132.45565,34.16812],[132.45527,34.16909],[132.45547,34.17081],[132.45487,34.1717],[132.45421,34.17151],[132.45359,34.17206],[132.45386,34.17318],[132.45429,34.17401],[132.45402,34.17457],[132.45287,34.1753],[132.4517,34.17634],[132.45136,34.177],[132.45148,34.17737],[132.45198,34.17793],[132.45239,34.1777],[132.45292,34.17767],[132.45301,34.17784],[132.45253,34.17797],[132.45325,34.17794],[132.45316,34.17833],[132.45328,34.17834],[132.4533,34.17795],[132.45363,34.17772],[132.45436,34.17789],[132.45501,34.17836],[132.45535,34.17797],[132.45535,34.1777],[132.45547,34.17773],[132.45543,34.1775],[132.45574,34.17747],[132.45554,34.1774],[132.4559,34.17582],[132.45615,34.1755],[132.45715,34.17617],[132.45728,34.17767],[132.45669,34.17891],[132.45781,34.1788],[132.4586,34.17899],[132.46003,34.17874],[132.46035,34.17888],[132.46164,34.17888],[132.46153,34.17979],[132.46185,34.18015],[132.46295,34.18025],[132.46329,34.18068],[132.46375,34.18072],[132.46407,34.18125],[132.46552,34.18168],[132.46563,34.18111],[132.4655,34.18067],[132.46498,34.18024]]]},"properties":{"key":"342150270","name":"大柿町大原","pref":"広島県","prefCode":"34","municipality":"江田島市","areaM2":8806012.666,"population":1974,"toponymIds":["34-b332a5d170"]}},{"type":"Feature","geometry":{"type":"Polygon","coordinates":[[[132.46072,34.19448],[132.46124,34.19343],[132.46253,34.19313],[132.46186,34.1926],[132.46185,34.1923],[132.46274,34.18893],[132.46349,34.185],[132.46367,34.18369],[132.46357,34.18351],[132.46407,34.18125],[132.46375,34.18072],[132.46329,34.18068],[132.46295,34.18025],[132.46185,34.18015],[132.46153,34.17979],[132.46164,34.17888],[132.46035,34.17888],[132.46003,34.17874],[132.45927,34.17895],[132.45849,34.17899],[132.45757,34.1788],[132.45649,34.17897],[132.45586,34.17873],[132.45617,34.17896],[132.45593,34.1793],[132.45612,34.1794],[132.45556,34.18023],[132.45452,34.18059],[132.45432,34.18209],[132.45408,34.18207],[132.45386,34.18229],[132.45363,34.18207],[132.45383,34.18231],[132.45296,34.18288],[132.45114,34.18364],[132.45109,34.18384],[132.4514,34.18425],[132.45088,34.18371],[132.45068,34.18399],[132.44982,34.18409],[132.44935,34.18384],[132.44923,34.18403],[132.44875,34.18394],[132.44762,34.18447],[132.44741,34.1844],[132.44731,34.1851],[132.44753,34.18531],[132.44761,34.18588],[132.44781,34.18612],[132.44909,34.18649],[132.44962,34.18707],[132.4491,34.18862],[132.44915,34.18971],[132.45055,34.19107],[132.45037,34.19268],[132.45122,34.19292],[132.45299,34.19291],[132.4535,34.19362],[132.45454,34.19403],[132.45593,34.19365],[132.45717,34.1943],[132.45751,34.19413],[132.45944,34.1939],[132.45974,34.19429],[132.46072,34.19448]]]},"properties":{"key":"342150280","name":"大柿町小古江","pref":"広島県","prefCode":"34","municipality":"江田島市","areaM2":1799611.326,"population":439,"toponymIds":["34-b2575b3cd8"]}},{"type":"Feature","geometry":{"type":"Polygon","coordinates":[[[132.47127,34.19369],[132.47195,34.19383],[132.47229,34.19367],[132.47263,34.19386],[132.47321,34.19368],[132.47338,34.19269],[132.4728,34.19248],[132.47316,34.19253],[132.47329,34.19176],[132.47285,34.19161],[132.47377,34.19181],[132.47418,34.19109],[132.47435,34.19117],[132.47465,34.19072],[132.47447,34.19065],[132.47454,34.19009],[132.47489,34.19001],[132.47431,34.18978],[132.4733,34.19005],[132.47423,34.18971],[132.47449,34.18955],[132.47439,34.18937],[132.47457,34.18928],[132.47446,34.18918],[132.47412,34.1893],[132.47353,34.1886],[132.47301,34.18838],[132.47315,34.18834],[132.47307,34.18826],[132.47343,34.18824],[132.47338,34.18784],[132.47316,34.18785],[132.47316,34.18746],[132.47306,34.18747],[132.47306,34.18708],[132.47335,34.18708],[132.47325,34.18689],[132.47341,34.18683],[132.47237,34.18691],[132.47297,34.18671],[132.47296,34.18655],[132.47255,34.18606],[132.47235,34.18506],[132.47223,34.18367],[132.47236,34.18271],[132.47206,34.18312],[132.4719,34.18279],[132.47215,34.18269],[132.47203,34.18243],[132.47169,34.18252],[132.47221,34.18233],[132.47213,34.18206],[132.47334,34.18193],[132.47254,34.18201],[132.47259,34.1801],[132.47205,34.17959],[132.47279,34.17911],[132.47305,34.17929],[132.47282,34.17909],[132.47335,34.17876],[132.47463,34.1791],[132.47335,34.17871],[132.47203,34.17957],[132.47132,34.1789],[132.47191,34.17845],[132.47221,34.17868],[132.47337,34.1777],[132.47485,34.17767],[132.47526,34.17805],[132.47549,34.17788],[132.47569,34.17807],[132.47494,34.17863],[132.47484,34.17888],[132.47538,34.17836],[132.47609,34.17896],[132.47681,34.17906],[132.47662,34.17881],[132.47676,34.17829],[132.47774,34.17849],[132.47734,34.17815],[132.47753,34.17804],[132.47731,34.17807],[132.47719,34.17781],[132.47729,34.17771],[132.47712,34.1776],[132.47725,34.17757],[132.4772,34.17738],[132.47735,34.17742],[132.4774,34.17717],[132.47724,34.17706],[132.47754,34.17688],[132.47749,34.17668],[132.47776,34.17668],[132.4774,34.17661],[132.47741,34.17636],[132.47725,34.17632],[132.47756,34.17607],[132.47697,34.17552],[132.47488,34.17461],[132.47408,34.17443],[132.4727,34.17441],[132.47154,34.17488],[132.46943,34.17405],[132.46884,34.17416],[132.46862,34.17449],[132.46874,34.1759],[132.46859,34.17662],[132.4677,34.17807],[132.46734,34.17827],[132.46668,34.17816],[132.46609,34.17854],[132.4654,34.17862],[132.46524,34.17884],[132.4652,34.17929],[132.46484,34.18007],[132.4655,34.18067],[132.46563,34.18111],[132.46552,34.18168],[132.46407,34.18125],[132.46357,34.18351],[132.46367,34.18369],[132.46349,34.185],[132.46274,34.18893],[132.46186,34.1926],[132.46253,34.19313],[132.46453,34.19331],[132.46464,34.19357],[132.46542,34.19374],[132.46638,34.19469],[132.46677,34.19487],[132.46717,34.1949],[132.46824,34.19439],[132.47045,34.19412],[132.47127,34.19369]]]},"properties":{"key":"342150250","name":"大柿町柿浦","pref":"広島県","prefCode":"34","municipality":"江田島市","areaM2":1858063.202,"population":1134,"toponymIds":["34-0becd90beb"]}},{"type":"Feature","geometry":{"type":"Polygon","coordinates":[[[132.45903,34.2229],[132.4593,34.22273],[132.45989,34.22309],[132.46004,34.22223],[132.46062,34.22216],[132.46107,34.2225],[132.46186,34.22266],[132.462,34.22212],[132.46182,34.22202],[132.46257,34.22084],[132.46331,34.22098],[132.46295,34.22086],[132.46302,34.22042],[132.46227,34.22019],[132.46241,34.21987],[132.46285,34.21922],[132.46317,34.21913],[132.46367,34.21845],[132.46365,34.21821],[132.4644,34.21734],[132.46468,34.21636],[132.46606,34.21522],[132.46632,34.21545],[132.46659,34.21537],[132.4667,34.21563],[132.4666,34.21536],[132.46808,34.21489],[132.46765,34.21438],[132.46829,34.2148],[132.46935,34.21419],[132.46897,34.21365],[132.4695,34.21402],[132.46987,34.21374],[132.47019,34.21282],[132.47033,34.21135],[132.4711,34.2113],[132.47033,34.21117],[132.47029,34.21004],[132.47057,34.2099],[132.47126,34.21],[132.47028,34.2099],[132.47002,34.20943],[132.47092,34.2088],[132.47281,34.20853],[132.47421,34.20574],[132.47387,34.20292],[132.4733,34.20341],[132.47308,34.20315],[132.4731,34.20295],[132.47345,34.20234],[132.47407,34.20267],[132.47424,34.20227],[132.47429,34.20126],[132.47398,34.20121],[132.47447,34.19985],[132.47447,34.19895],[132.47486,34.19777],[132.47484,34.19692],[132.4754,34.19555],[132.47415,34.19552],[132.47336,34.19461],[132.47361,34.19448],[132.47403,34.19453],[132.47332,34.19455],[132.47356,34.19438],[132.47341,34.1939],[132.47368,34.19379],[132.47339,34.19387],[132.47332,34.19368],[132.47263,34.19386],[132.47223,34.19367],[132.47195,34.19383],[132.47127,34.19369],[132.47045,34.19412],[132.46802,34.19444],[132.46717,34.1949],[132.46657,34.19482],[132.46542,34.19374],[132.46464,34.19357],[132.46453,34.19331],[132.46253,34.19313],[132.46124,34.19343],[132.46072,34.19448],[132.46114,34.19476],[132.46126,34.19589],[132.46077,34.19677],[132.46074,34.19747],[132.46032,34.19911],[132.45939,34.20149],[132.45851,34.2022],[132.45789,34.20239],[132.45731,34.20279],[132.45684,34.20377],[132.45549,34.20374],[132.45514,34.20401],[132.45374,34.20703],[132.45383,34.20768],[132.45314,34.20914],[132.45468,34.20975],[132.45496,34.21001],[132.45537,34.2144],[132.45606,34.21515],[132.45619,34.21555],[132.45592,34.21727],[132.45529,34.21815],[132.45561,34.21869],[132.4555,34.21951],[132.45487,34.22061],[132.45465,34.22185],[132.45566,34.223],[132.45687,34.22286],[132.45815,34.22337],[132.45903,34.2229]]]},"properties":{"key":"342150240","name":"大柿町飛渡瀬","pref":"広島県","prefCode":"34","municipality":"江田島市","areaM2":4054160.271,"population":1253,"toponymIds":["34-05c8a44e66"]}},{"type":"Feature","geometry":{"type":"Polygon","coordinates":[[[132.4216,34.13371],[132.41983,34.1315],[132.41961,34.13091],[132.4186,34.13033],[132.41854,34.12989],[132.4188,34.12953],[132.4187,34.12934],[132.41819,34.12927],[132.41645,34.13052],[132.41599,34.13051],[132.41596,34.13069],[132.41647,34.13108],[132.41654,34.1322],[132.41675,34.13272],[132.41722,34.13311],[132.41793,34.13339],[132.41811,34.13339],[132.41812,34.13321],[132.41854,34.13331],[132.41905,34.13377],[132.41888,34.13414],[132.41912,34.1338],[132.42052,34.13375],[132.42209,34.13504],[132.42237,34.13485],[132.42234,34.13468],[132.4216,34.13371]]]},"properties":{"key":"342150290","name":"大柿町深江","pref":"広島県","prefCode":"34","municipality":"江田島市","areaM2":141750.232,"population":0,"toponymIds":["34-6beff91768"]}},{"type":"Feature","geometry":{"type":"Polygon","coordinates":[[[132.44445,34.21258],[132.44489,34.21165],[132.44779,34.20953],[132.44825,34.20867],[132.44886,34.20857],[132.44962,34.20811],[132.45074,34.2068],[132.45195,34.20672],[132.45374,34.20711],[132.45522,34.20388],[132.45549,34.20374],[132.45684,34.20377],[132.45731,34.20279],[132.45925,34.20168],[132.46032,34.19911],[132.46074,34.19747],[132.46077,34.19677],[132.46126,34.19589],[132.46114,34.19476],[132.46048,34.19437],[132.45974,34.19429],[132.45944,34.1939],[132.45751,34.19413],[132.45717,34.1943],[132.45593,34.19365],[132.45454,34.19403],[132.4535,34.19362],[132.45299,34.19291],[132.45122,34.19292],[132.45037,34.19268],[132.45055,34.19107],[132.44915,34.18971],[132.4491,34.18862],[132.44962,34.18707],[132.44909,34.18649],[132.44781,34.18612],[132.44761,34.18588],[132.44753,34.18531],[132.44731,34.1851],[132.44696,34.18692],[132.44635,34.18775],[132.44627,34.18833],[132.44445,34.18943],[132.44398,34.19003],[132.44228,34.1898],[132.44122,34.19188],[132.44232,34.18985],[132.44318,34.18997],[132.44311,34.19007],[132.44397,34.19008],[132.44388,34.19049],[132.44344,34.19042],[132.44308,34.19056],[132.44387,34.19053],[132.44376,34.19094],[132.44311,34.19084],[132.44292,34.19091],[132.44308,34.19095],[132.44305,34.19109],[132.44277,34.19103],[132.44304,34.1911],[132.44297,34.19137],[132.44279,34.1913],[132.44277,34.1914],[132.44297,34.19138],[132.44268,34.19249],[132.44311,34.19257],[132.44305,34.19283],[132.44254,34.19285],[132.44221,34.19309],[132.44297,34.19287],[132.44285,34.19305],[132.44304,34.19307],[132.44301,34.19287],[132.44316,34.19287],[132.44301,34.19325],[132.44291,34.19307],[132.44283,34.19326],[132.443,34.19326],[132.44292,34.19346],[132.44282,34.19329],[132.44272,34.19351],[132.44291,34.19347],[132.44284,34.19365],[132.44262,34.19357],[132.44284,34.19367],[132.44277,34.19384],[132.44255,34.19396],[132.44218,34.19379],[132.44253,34.19398],[132.44219,34.19416],[132.44268,34.19386],[132.4433,34.19404],[132.44321,34.19451],[132.44287,34.19444],[132.44319,34.19453],[132.44277,34.19467],[132.44301,34.19467],[132.44269,34.19493],[132.44226,34.1944],[132.44242,34.19474],[132.4423,34.19482],[132.4427,34.19513],[132.44279,34.19538],[132.4429,34.19574],[132.44277,34.19588],[132.44264,34.19548],[132.44061,34.19555],[132.44044,34.19518],[132.44045,34.19556],[132.43999,34.19559],[132.43997,34.19541],[132.4399,34.19559],[132.43971,34.19561],[132.43968,34.19545],[132.4396,34.19561],[132.43923,34.1955],[132.43897,34.19581],[132.43801,34.19543],[132.43793,34.19554],[132.43789,34.19539],[132.43619,34.19509],[132.43574,34.19456],[132.4357,34.19374],[132.43707,34.19381],[132.43657,34.19364],[132.43548,34.19367],[132.43565,34.19353],[132.43547,34.19353],[132.43544,34.19314],[132.43568,34.19312],[132.43543,34.19307],[132.43532,34.19168],[132.43573,34.19139],[132.43581,34.19113],[132.43512,34.1888],[132.43545,34.18791],[132.43573,34.18794],[132.4355,34.18783],[132.43549,34.1875],[132.43589,34.18744],[132.43586,34.18765],[132.43605,34.18763],[132.43591,34.18744],[132.4361,34.18756],[132.43662,34.1875],[132.43607,34.18741],[132.4366,34.18733],[132.43547,34.18747],[132.43487,34.18709],[132.43474,34.18715],[132.43456,34.18683],[132.43408,34.18496],[132.43417,34.18419],[132.43461,34.18433],[132.43464,34.18419],[132.43417,34.18417],[132.43411,34.18331],[132.43414,34.18316],[132.43441,34.18311],[132.43473,34.1836],[132.43446,34.18274],[132.43438,34.18295],[132.43298,34.17856],[132.43363,34.17831],[132.43388,34.17884],[132.43402,34.17879],[132.43333,34.17746],[132.43331,34.17776],[132.43359,34.17825],[132.43296,34.17849],[132.43249,34.17734],[132.43273,34.17733],[132.43268,34.17724],[132.43248,34.17733],[132.4322,34.17686],[132.43232,34.17682],[132.4322,34.17685],[132.43178,34.17625],[132.43202,34.17613],[132.43226,34.17627],[132.43198,34.17588],[132.432,34.1761],[132.43175,34.1762],[132.43141,34.17571],[132.4315,34.17565],[132.43056,34.17554],[132.43028,34.17461],[132.42971,34.17444],[132.42895,34.17328],[132.4296,34.17576],[132.42966,34.17688],[132.43013,34.17821],[132.42959,34.17922],[132.42919,34.18189],[132.4296,34.18342],[132.42938,34.18459],[132.42974,34.18623],[132.42975,34.18731],[132.43034,34.18981],[132.43011,34.19131],[132.43046,34.19228],[132.43048,34.1946],[132.42989,34.19598],[132.43005,34.19648],[132.42987,34.1971],[132.42934,34.19807],[132.42826,34.1982],[132.42762,34.20018],[132.42746,34.20115],[132.42667,34.20257],[132.42666,34.20294],[132.427,34.2032],[132.42726,34.20435],[132.42712,34.20488],[132.42564,34.20636],[132.42564,34.20771],[132.42608,34.20834],[132.4261,34.20868],[132.42509,34.20991],[132.42459,34.21013],[132.42568,34.21053],[132.42727,34.21142],[132.42844,34.21124],[132.42994,34.21152],[132.43097,34.21124],[132.4316,34.21138],[132.4328,34.21125],[132.43334,34.2114],[132.43447,34.2111],[132.43521,34.21108],[132.43658,34.21149],[132.43704,34.21191],[132.43924,34.21246],[132.44002,34.21292],[132.44198,34.21283],[132.44194,34.21261],[132.44221,34.2124],[132.44334,34.21297],[132.44422,34.21283],[132.44445,34.21258]]]},"properties":{"key":"342150030","name":"能美町鹿川","pref":"広島県","prefCode":"34","municipality":"江田島市","areaM2":6355137.8,"population":1711,"toponymIds":["34-5466316b4c"]}}]}
