{"type":"FeatureCollection","features":[{"type":"Feature","geometry":{"type":"Polygon","coordinates":[[[130.94307,34.00417],[130.94321,34.00396],[130.9444,34.00404],[130.94568,34.00342],[130.94633,34.00272],[130.94625,34.00203],[130.94645,34.00171],[130.94677,34.00164],[130.94613,34.00122],[130.94451,33.99927],[130.94415,33.99863],[130.94327,33.99873],[130.94211,33.99823],[130.94148,33.99857],[130.94073,33.99859],[130.94018,33.99906],[130.93876,33.99894],[130.93814,33.99959],[130.93821,34.00001],[130.93807,34.0002],[130.93693,34.00049],[130.93655,34.00021],[130.93604,34.00038],[130.93611,34.00058],[130.93575,34.00058],[130.93647,34.00182],[130.93777,34.00288],[130.93994,34.00383],[130.94064,34.00354],[130.94111,34.00375],[130.94097,34.00426],[130.94136,34.00439],[130.94255,34.00462],[130.94307,34.00417]]]},"properties":{"key":"352012810","name":"大字伊倉","pref":"山口県","prefCode":"35","municipality":"下関市","areaM2":441217.776,"population":439,"toponymIds":["35-4c301a72fd"]}},{"type":"Feature","geometry":{"type":"Polygon","coordinates":[[[130.97691,34.03124],[130.97704,34.03115],[130.97744,34.03134],[130.9786,34.03147],[130.97925,34.03119],[130.98039,34.03142],[130.98099,34.03138],[130.9816,34.03097],[130.98152,34.0304],[130.98203,34.03013],[130.98263,34.02906],[130.98189,34.02833],[130.98179,34.02753],[130.98062,34.02762],[130.98108,34.02531],[130.98008,34.02501],[130.97963,34.02467],[130.979,34.02378],[130.97868,34.02365],[130.97764,34.02193],[130.97612,34.02037],[130.97598,34.01947],[130.97541,34.01905],[130.975,34.01845],[130.97334,34.01825],[130.97303,34.01718],[130.97246,34.0167],[130.97263,34.01626],[130.9729,34.01631],[130.97316,34.01587],[130.9734,34.01603],[130.97357,34.01591],[130.97328,34.01519],[130.97362,34.01494],[130.97337,34.01463],[130.97355,34.01427],[130.9736,34.01352],[130.97329,34.01329],[130.97412,34.01272],[130.97302,34.01246],[130.97092,34.01151],[130.96852,34.0124],[130.96783,34.01289],[130.96718,34.01244],[130.9651,34.0126],[130.96517,34.01301],[130.9646,34.01296],[130.96367,34.01263],[130.96326,34.01192],[130.96277,34.01173],[130.96244,34.01094],[130.96297,34.01457],[130.96389,34.01423],[130.96454,34.01436],[130.96441,34.01454],[130.96435,34.0159],[130.96405,34.01731],[130.96406,34.01866],[130.96479,34.01999],[130.9658,34.02095],[130.96625,34.02169],[130.96635,34.02215],[130.96622,34.02282],[130.96743,34.02476],[130.96725,34.02539],[130.9675,34.02596],[130.96869,34.02736],[130.9703,34.02865],[130.97064,34.0291],[130.97101,34.03053],[130.97103,34.03207],[130.97303,34.03289],[130.97435,34.03368],[130.97515,34.03225],[130.9758,34.03165],[130.97691,34.03124]]]},"properties":{"key":"352012480","name":"大字田倉","pref":"山口県","prefCode":"35","municipality":"下関市","areaM2":2226800.787,"population":1895,"toponymIds":["35-f4aac06f35"]}},{"type":"Feature","geometry":{"type":"Polygon","coordinates":[[[130.94464,34.02664],[130.94401,34.02319],[130.94353,34.02164],[130.94135,34.02013],[130.94066,34.02057],[130.93879,34.01895],[130.93585,34.02007],[130.93491,34.02072],[130.93373,34.02207],[130.93264,34.02233],[130.9303,34.02378],[130.92742,34.02464],[130.92299,34.02528],[130.92363,34.02577],[130.92532,34.02558],[130.92628,34.02611],[130.92968,34.02682],[130.93055,34.0274],[130.93203,34.02787],[130.93223,34.02902],[130.93298,34.02961],[130.93358,34.03044],[130.93424,34.03084],[130.93471,34.03171],[130.93466,34.03284],[130.93544,34.03418],[130.93544,34.03505],[130.93595,34.03614],[130.93216,34.03891],[130.93207,34.0392],[130.93296,34.04],[130.93312,34.04062],[130.93292,34.04173],[130.93321,34.0429],[130.93336,34.04547],[130.93306,34.04617],[130.9338,34.04668],[130.93461,34.04782],[130.93418,34.04996],[130.93509,34.05041],[130.93534,34.05074],[130.93556,34.0522],[130.93586,34.05255],[130.93584,34.05281],[130.93632,34.05308],[130.936,34.05378],[130.93639,34.05439],[130.93625,34.05509],[130.93643,34.05571],[130.93672,34.05595],[130.93657,34.05613],[130.93687,34.05627],[130.93658,34.05649],[130.93678,34.05673],[130.93659,34.05693],[130.93682,34.05841],[130.93716,34.05869],[130.93716,34.05898],[130.93635,34.06041],[130.93645,34.06119],[130.93531,34.06219],[130.93487,34.06309],[130.93536,34.06491],[130.93534,34.06614],[130.93586,34.06641],[130.9364,34.06643],[130.93709,34.06623],[130.93782,34.06552],[130.94013,34.06461],[130.94258,34.06334],[130.94297,34.06309],[130.94445,34.06141],[130.94647,34.0602],[130.94765,34.05882],[130.94848,34.05551],[130.949,34.05459],[130.95132,34.05315],[130.95238,34.05204],[130.95256,34.05075],[130.95137,34.04876],[130.95134,34.04823],[130.95169,34.04773],[130.95141,34.04735],[130.95126,34.04675],[130.9515,34.04569],[130.9493,34.04348],[130.94879,34.04268],[130.94925,34.04077],[130.94927,34.03924],[130.9491,34.0386],[130.94826,34.03712],[130.94926,34.03494],[130.94923,34.03319],[130.94915,34.03297],[130.94796,34.03219],[130.94735,34.0311],[130.94524,34.02984],[130.94464,34.02664]],[[130.92802,34.02457],[130.92806,34.02488],[130.92774,34.0249],[130.92776,34.02464],[130.92802,34.02457]]]},"properties":{"key":"352012930","name":"大字蒲生野","pref":"山口県","prefCode":"35","municipality":"下関市","areaM2":6346666.646,"population":509,"toponymIds":["35-b7c93fd06b"]}},{"type":"Feature","geometry":{"type":"Polygon","coordinates":[[[130.94224,34.00607],[130.94222,34.00587],[130.94091,34.00595],[130.9386,34.00573],[130.93795,34.00607],[130.93791,34.00644],[130.93958,34.00658],[130.94209,34.00717],[130.94224,34.00607]]]},"properties":{"key":"35201426001","name":"伊倉新町一丁目","pref":"山口県","prefCode":"35","municipality":"下関市","areaM2":37208.801,"population":123,"toponymIds":["35-52663bad47"]}},{"type":"Feature","geometry":{"type":"Polygon","coordinates":[[[130.9311,34.00263],[130.93104,34.00232],[130.93073,34.00236],[130.93045,34.00186],[130.93021,34.00178],[130.93014,34.00132],[130.92948,34.00155],[130.92996,34.00228],[130.92945,34.00248],[130.92889,34.00239],[130.92863,34.00182],[130.92807,34.00185],[130.92765,34.00219],[130.92768,34.00259],[130.92748,34.00265],[130.92728,34.00319],[130.92724,34.00389],[130.92744,34.00412],[130.92956,34.00337],[130.93135,34.00311],[130.9311,34.00263]]]},"properties":{"key":"35201276001","name":"伊倉町一丁目","pref":"山口県","prefCode":"35","municipality":"下関市","areaM2":56406.25,"population":370,"toponymIds":["35-4f2d194fdf"]}},{"type":"Feature","geometry":{"type":"Polygon","coordinates":[[[130.94385,34.00675],[130.94423,34.00675],[130.94466,34.00423],[130.94321,34.00396],[130.94255,34.00462],[130.94339,34.00478],[130.94352,34.00502],[130.94222,34.00587],[130.94209,34.00717],[130.94385,34.00675]]]},"properties":{"key":"352012780","name":"伊倉東町","pref":"山口県","prefCode":"35","municipality":"下関市","areaM2":51221.919,"population":538,"toponymIds":["35-2b86a6dd54"]}},{"type":"Feature","geometry":{"type":"Polygon","coordinates":[[[130.9386,34.00573],[130.94091,34.00595],[130.94222,34.00587],[130.94352,34.00502],[130.94339,34.00478],[130.94112,34.00432],[130.94097,34.00426],[130.94111,34.00375],[130.94064,34.00354],[130.93994,34.00383],[130.93749,34.00273],[130.93647,34.00182],[130.93575,34.00058],[130.93544,34.0009],[130.93553,34.00116],[130.93537,34.0014],[130.93452,34.00174],[130.93409,34.00319],[130.93255,34.0031],[130.93255,34.00408],[130.93498,34.00428],[130.93493,34.00463],[130.93547,34.00538],[130.93674,34.00522],[130.93725,34.00585],[130.93782,34.00609],[130.9386,34.00573]]]},"properties":{"key":"352012770","name":"伊倉本町","pref":"山口県","prefCode":"35","municipality":"下関市","areaM2":246534.67,"population":1010,"toponymIds":["35-2eb8bc3442"]}},{"type":"Feature","geometry":{"type":"Polygon","coordinates":[[[131.02439,34.06407],[131.02588,34.06368],[131.02535,34.06269],[131.02517,34.06192],[131.02571,34.06021],[131.02531,34.06025],[131.02257,34.06198],[131.02261,34.0636],[131.02244,34.06391],[131.0236,34.06366],[131.02439,34.06407]]]},"properties":{"key":"35201186001","name":"清末鞍馬一丁目","pref":"山口県","prefCode":"35","municipality":"下関市","areaM2":80672.288,"population":465,"toponymIds":["35-0628d33c22"]}},{"type":"Feature","geometry":{"type":"Polygon","coordinates":[[[130.97443,34.01834],[130.97417,34.01733],[130.97496,34.0172],[130.97401,34.01336],[130.97364,34.01301],[130.97329,34.01329],[130.9736,34.01352],[130.97355,34.01427],[130.97337,34.01463],[130.97362,34.01494],[130.97328,34.01519],[130.97357,34.01591],[130.9734,34.01603],[130.97316,34.01587],[130.9729,34.01631],[130.97263,34.01626],[130.97246,34.0167],[130.97303,34.01718],[130.97334,34.01825],[130.97443,34.01834]]]},"properties":{"key":"35201237001","name":"田倉御殿町一丁目","pref":"山口県","prefCode":"35","municipality":"下関市","areaM2":62425.651,"population":371,"toponymIds":["35-629ca87683"]}},{"type":"Feature","geometry":{"type":"Polygon","coordinates":[[[130.91503,33.92545],[130.91486,33.92512],[130.9133,33.92835],[130.91498,33.92907],[130.91595,33.92761],[130.91629,33.92637],[130.91546,33.9261],[130.91503,33.92545]]]},"properties":{"key":"35201097001","name":"彦島角倉町一丁目","pref":"山口県","prefCode":"35","municipality":"下関市","areaM2":60499.852,"population":405,"toponymIds":["35-8ca261b1ef"]}},{"type":"Feature","geometry":{"type":"Polygon","coordinates":[[[131.24266,34.1278],[131.24256,34.1265],[131.24275,34.12631],[131.24267,34.12466],[131.24241,34.12399],[131.24192,34.12336],[131.2423,34.12225],[131.24344,34.12123],[131.24391,34.1205],[131.24368,34.11999],[131.24396,34.1197],[131.24465,34.11976],[131.24417,34.11882],[131.24412,34.11824],[131.24466,34.11769],[131.24501,34.11676],[131.24477,34.11459],[131.24355,34.11299],[131.24384,34.11152],[131.24351,34.10982],[131.24394,34.10949],[131.24526,34.10962],[131.246,34.10952],[131.24654,34.10925],[131.24697,34.10859],[131.24713,34.10683],[131.24706,34.10636],[131.24676,34.10594],[131.24672,34.10509],[131.24618,34.10394],[131.24562,34.10293],[131.24391,34.10059],[131.24353,34.09974],[131.24346,34.09912],[131.24389,34.09871],[131.24485,34.09853],[131.24581,34.09804],[131.24595,34.0976],[131.24748,34.09543],[131.24834,34.09453],[131.2504,34.09297],[131.25278,34.0919],[131.25386,34.09117],[131.2539,34.09069],[131.25356,34.08938],[131.25329,34.08895],[131.25389,34.08736],[131.25382,34.08657],[131.25257,34.08642],[131.25201,34.08592],[131.25138,34.08286],[131.25103,34.08198],[131.24904,34.08173],[131.24878,34.08076],[131.24775,34.08027],[131.246,34.07864],[131.24554,34.07799],[131.2446,34.07818],[131.24403,34.07809],[131.24365,34.07786],[131.24136,34.07435],[131.2409,34.07441],[131.23968,34.07391],[131.23925,34.07419],[131.23786,34.07646],[131.23868,34.07828],[131.23956,34.07902],[131.23842,34.07998],[131.23642,34.08038],[131.23571,34.0809],[131.23451,34.08274],[131.23377,34.08517],[131.23657,34.0881],[131.23713,34.09057],[131.23763,34.09164],[131.23898,34.09308],[131.23865,34.0949],[131.23908,34.09614],[131.23521,34.09671],[131.23364,34.09716],[131.23199,34.09809],[131.23028,34.10015],[131.22788,34.10238],[131.22744,34.10325],[131.22746,34.10423],[131.22796,34.1054],[131.22931,34.10723],[131.23128,34.10943],[131.23158,34.11005],[131.23126,34.11073],[131.22945,34.11201],[131.22943,34.11265],[131.22881,34.1122],[131.22828,34.11207],[131.2246,34.11175],[131.22261,34.11128],[131.22067,34.11075],[131.21826,34.1097],[131.21761,34.11058],[131.21698,34.1111],[131.21629,34.11133],[131.21569,34.11186],[131.21529,34.11319],[131.21452,34.11345],[131.21368,34.11353],[131.21062,34.11357],[131.21128,34.11435],[131.21217,34.1146],[131.21282,34.11515],[131.2136,34.11535],[131.21376,34.11625],[131.21435,34.11668],[131.21427,34.1176],[131.21498,34.11927],[131.21504,34.11955],[131.21487,34.11986],[131.21905,34.11942],[131.21926,34.11968],[131.2193,34.12019],[131.22104,34.12044],[131.22129,34.1206],[131.22153,34.12108],[131.22344,34.12276],[131.22456,34.12274],[131.2262,34.12211],[131.22721,34.12226],[131.22914,34.12307],[131.23058,34.12338],[131.23133,34.12483],[131.23228,34.1254],[131.23329,34.12573],[131.23392,34.12666],[131.23624,34.12682],[131.23754,34.12727],[131.23706,34.12834],[131.23708,34.12979],[131.23674,34.13086],[131.23749,34.13282],[131.23733,34.13345],[131.2378,34.13488],[131.23746,34.13602],[131.23774,34.13663],[131.23872,34.13697],[131.24043,34.13704],[131.2411,34.1369],[131.24168,34.13654],[131.24232,34.13571],[131.24249,34.13513],[131.24237,34.13389],[131.24243,34.13082],[131.24266,34.1278]]]},"properties":{"key":"352020960","name":"大字奥万倉","pref":"山口県","prefCode":"35","municipality":"宇部市","areaM2":9392803.236,"population":151,"toponymIds":["35-62449900c0"]}},{"type":"Feature","geometry":{"type":"Polygon","coordinates":[[[131.24827,34.05845],[131.24935,34.05808],[131.25001,34.05705],[131.24978,34.05659],[131.24949,34.05648],[131.24939,34.05593],[131.24902,34.0557],[131.24892,34.05531],[131.24844,34.05492],[131.24847,34.05449],[131.24898,34.05377],[131.24895,34.05321],[131.24976,34.05253],[131.25008,34.05191],[131.24931,34.05145],[131.24862,34.05171],[131.2478,34.05172],[131.24677,34.05081],[131.24607,34.0507],[131.24492,34.05005],[131.24415,34.04913],[131.24322,34.04875],[131.2425,34.04871],[131.24191,34.04823],[131.2407,34.0479],[131.24064,34.04738],[131.24097,34.04579],[131.24059,34.04493],[131.24018,34.04482],[131.2396,34.04501],[131.2389,34.04498],[131.23825,34.04432],[131.23778,34.04412],[131.23754,34.04444],[131.23684,34.04446],[131.23633,34.04525],[131.23333,34.04692],[131.23155,34.04768],[131.22976,34.048],[131.22984,34.05056],[131.23057,34.0513],[131.23166,34.05457],[131.23239,34.05554],[131.23295,34.056],[131.23379,34.05607],[131.2357,34.05572],[131.2364,34.05616],[131.23676,34.0566],[131.23778,34.05865],[131.23767,34.06072],[131.2384,34.06365],[131.23954,34.06541],[131.24074,34.06611],[131.24197,34.06756],[131.24305,34.06815],[131.24631,34.06719],[131.24617,34.06673],[131.24742,34.06569],[131.24744,34.06375],[131.24631,34.06293],[131.2463,34.06199],[131.2461,34.06136],[131.24534,34.06107],[131.24606,34.06031],[131.24612,34.06],[131.24592,34.05959],[131.246,34.05923],[131.24627,34.05903],[131.24705,34.05902],[131.2478,34.05877],[131.24827,34.05845]]]},"properties":{"key":"352020950","name":"大字東万倉","pref":"山口県","prefCode":"35","municipality":"宇部市","areaM2":2604475.692,"population":370,"toponymIds":["35-b4cb2f954b"]}},{"type":"Feature","geometry":{"type":"Polygon","coordinates":[[[131.27236,34.10342],[131.27355,34.10327],[131.27891,34.10373],[131.27979,34.10355],[131.28119,34.10294],[131.28163,34.1026],[131.28108,34.10143],[131.28178,34.10073],[131.28223,34.09934],[131.28181,34.09803],[131.28125,34.09716],[131.28168,34.09511],[131.28167,34.09429],[131.28191,34.09369],[131.28298,34.09417],[131.2843,34.09526],[131.28477,34.09469],[131.28527,34.0946],[131.28593,34.09481],[131.2863,34.09461],[131.28614,34.09432],[131.28649,34.09365],[131.28713,34.09305],[131.28693,34.0925],[131.28734,34.09164],[131.28919,34.09178],[131.28962,34.09165],[131.2905,34.0918],[131.29105,34.09156],[131.29332,34.09159],[131.29307,34.09034],[131.29317,34.08999],[131.29353,34.08964],[131.29383,34.08894],[131.29482,34.08827],[131.29527,34.08721],[131.29404,34.08544],[131.29349,34.08501],[131.29246,34.08333],[131.29123,34.08418],[131.29109,34.08447],[131.29008,34.08459],[131.28886,34.08523],[131.2884,34.08477],[131.288,34.08482],[131.28793,34.0852],[131.28759,34.08568],[131.28752,34.08624],[131.28647,34.0868],[131.28608,34.08786],[131.28412,34.08716],[131.28305,34.08696],[131.28184,34.08767],[131.28162,34.08763],[131.28144,34.08707],[131.28161,34.08652],[131.28129,34.08604],[131.2812,34.08449],[131.28088,34.08336],[131.28136,34.0829],[131.27961,34.08072],[131.28027,34.08056],[131.2806,34.0803],[131.28135,34.08021],[131.28168,34.07998],[131.28183,34.07949],[131.28145,34.07914],[131.28145,34.07893],[131.28214,34.07836],[131.28211,34.0764],[131.28136,34.07545],[131.28093,34.0753],[131.28064,34.07497],[131.28,34.075],[131.27966,34.07466],[131.27873,34.0735],[131.27833,34.07271],[131.27834,34.07196],[131.27748,34.07196],[131.27675,34.07167],[131.27651,34.07174],[131.27617,34.07218],[131.27474,34.07216],[131.27434,34.07139],[131.27372,34.07141],[131.27333,34.0711],[131.27186,34.07114],[131.27097,34.07031],[131.26994,34.06989],[131.26891,34.07099],[131.26906,34.07138],[131.26896,34.07189],[131.26859,34.07203],[131.26811,34.07252],[131.26727,34.07248],[131.26635,34.07209],[131.26464,34.07212],[131.26406,34.07229],[131.26241,34.07203],[131.26154,34.07228],[131.26011,34.07306],[131.25922,34.07276],[131.25862,34.07223],[131.25791,34.0722],[131.25669,34.07112],[131.25663,34.07286],[131.257,34.07675],[131.25669,34.07778],[131.2555,34.07864],[131.25579,34.07987],[131.25566,34.08064],[131.25588,34.08195],[131.25706,34.08373],[131.2578,34.08307],[131.25874,34.08252],[131.26003,34.08201],[131.26245,34.08224],[131.26325,34.0827],[131.26403,34.08346],[131.26519,34.08548],[131.26011,34.09037],[131.25912,34.09138],[131.25884,34.09186],[131.2589,34.09243],[131.25977,34.09436],[131.2607,34.09555],[131.26107,34.09635],[131.26012,34.09928],[131.26267,34.0982],[131.26637,34.09709],[131.26702,34.09711],[131.26814,34.09748],[131.26912,34.09862],[131.2703,34.1007],[131.27127,34.10376],[131.27236,34.10342]]]},"properties":{"key":"352020980","name":"大字芦河内","pref":"山口県","prefCode":"35","municipality":"宇部市","areaM2":7326957.743,"population":96,"toponymIds":["35-b83a3cfd78"]}},{"type":"Feature","geometry":{"type":"Polygon","coordinates":[[[131.23868,34.07828],[131.23787,34.07627],[131.23925,34.07419],[131.23968,34.07391],[131.2409,34.07441],[131.24136,34.07435],[131.24365,34.07786],[131.24403,34.07809],[131.2446,34.07818],[131.24575,34.07792],[131.24605,34.07753],[131.24633,34.07648],[131.24641,34.07514],[131.24622,34.07464],[131.24559,34.07382],[131.24639,34.07325],[131.24699,34.0731],[131.24625,34.07268],[131.2461,34.0723],[131.24638,34.07201],[131.24636,34.07159],[131.24559,34.07074],[131.24448,34.06906],[131.24197,34.06756],[131.24074,34.06611],[131.23954,34.06541],[131.23912,34.06487],[131.2384,34.06365],[131.23767,34.06072],[131.23778,34.05865],[131.23707,34.05707],[131.2364,34.05616],[131.2357,34.05572],[131.23379,34.05607],[131.23295,34.056],[131.23236,34.05551],[131.23245,34.05606],[131.23288,34.05657],[131.23431,34.05675],[131.23452,34.05761],[131.23445,34.0583],[131.23473,34.06024],[131.23427,34.06025],[131.23362,34.06053],[131.23243,34.06149],[131.23188,34.06292],[131.23058,34.06358],[131.22787,34.0691],[131.22715,34.06921],[131.22611,34.06979],[131.22578,34.07024],[131.22554,34.07104],[131.22575,34.07261],[131.22604,34.0732],[131.22723,34.07435],[131.22527,34.07385],[131.22419,34.0755],[131.22281,34.07726],[131.22253,34.07739],[131.22151,34.0776],[131.22011,34.07763],[131.21652,34.07733],[131.21541,34.07701],[131.21436,34.07804],[131.21335,34.07833],[131.21257,34.07886],[131.21067,34.08252],[131.21093,34.08343],[131.21205,34.08416],[131.2119,34.08458],[131.21198,34.08549],[131.21313,34.09006],[131.2136,34.09058],[131.21473,34.09093],[131.215,34.09177],[131.21481,34.09274],[131.21499,34.09317],[131.21633,34.09357],[131.21638,34.09432],[131.21607,34.09653],[131.21581,34.09742],[131.21494,34.09842],[131.21503,34.09977],[131.21445,34.10019],[131.21431,34.10053],[131.21437,34.10091],[131.21513,34.1016],[131.21536,34.10209],[131.21551,34.10293],[131.2165,34.10494],[131.21659,34.10612],[131.2182,34.10754],[131.21845,34.10849],[131.21826,34.1097],[131.22067,34.11075],[131.22261,34.11128],[131.2246,34.11175],[131.22828,34.11207],[131.22881,34.1122],[131.22943,34.11265],[131.22945,34.11201],[131.23126,34.11073],[131.23158,34.11005],[131.23128,34.10943],[131.22931,34.10723],[131.22796,34.1054],[131.22746,34.10423],[131.22744,34.10325],[131.22788,34.10238],[131.23028,34.10015],[131.23199,34.09809],[131.23364,34.09716],[131.23521,34.09671],[131.23908,34.09614],[131.23865,34.0949],[131.23898,34.09308],[131.23763,34.09164],[131.23713,34.09057],[131.23657,34.0881],[131.23377,34.08517],[131.23451,34.08274],[131.23571,34.0809],[131.23642,34.08038],[131.23842,34.07998],[131.23956,34.07902],[131.23868,34.07828]]]},"properties":{"key":"352020940","name":"大字西万倉","pref":"山口県","prefCode":"35","municipality":"宇部市","areaM2":9310830.709,"population":416,"toponymIds":["35-12dca13540"]}},{"type":"Feature","geometry":{"type":"Polygon","coordinates":[[[131.21518,33.98827],[131.2122,33.98982],[131.21322,33.99028],[131.2156,33.99077],[131.21623,33.99037],[131.21518,33.98827]]]},"properties":{"key":"35202108001","name":"黒石北一丁目","pref":"山口県","prefCode":"35","municipality":"宇部市","areaM2":54592.993,"population":89,"toponymIds":["35-193d64ccc6"]}},{"type":"Feature","geometry":{"type":"Polygon","coordinates":[[[131.23433,33.96772],[131.23427,33.96738],[131.23453,33.96706],[131.23433,33.9664],[131.23405,33.96615],[131.2333,33.96585],[131.23281,33.96617],[131.23253,33.96591],[131.23192,33.96642],[131.23179,33.96994],[131.23436,33.96807],[131.23433,33.96772]]]},"properties":{"key":"352020580","name":"鍋倉町","pref":"山口県","prefCode":"35","municipality":"宇部市","areaM2":74245.795,"population":171,"toponymIds":["35-71eee4f66c"]}},{"type":"Feature","geometry":{"type":"Polygon","coordinates":[[[131.4497,34.181],[131.4505,34.18001],[131.45054,34.17958],[131.45093,34.17917],[131.4516,34.17919],[131.45218,34.17855],[131.4528,34.17884],[131.45326,34.17885],[131.45348,34.17807],[131.45465,34.17831],[131.45516,34.17808],[131.45574,34.17716],[131.45654,34.17645],[131.45693,34.17587],[131.45695,34.17547],[131.45645,34.17529],[131.45636,34.17552],[131.45606,34.17567],[131.45474,34.1756],[131.45399,34.1753],[131.45227,34.17398],[131.44968,34.17651],[131.449,34.1779],[131.44877,34.1779],[131.44863,34.17824],[131.44842,34.17824],[131.44831,34.17796],[131.44779,34.17775],[131.44772,34.17828],[131.44667,34.17935],[131.44678,34.18001],[131.44641,34.18053],[131.44655,34.18106],[131.44703,34.18118],[131.44752,34.18096],[131.44871,34.18172],[131.44871,34.18212],[131.44848,34.18257],[131.44845,34.18401],[131.44765,34.18586],[131.44726,34.18612],[131.44831,34.18597],[131.44971,34.18524],[131.4499,34.18498],[131.44959,34.18383],[131.45082,34.18328],[131.45079,34.18294],[131.44971,34.18165],[131.44958,34.18128],[131.4497,34.181]]]},"properties":{"key":"352030390","name":"朝倉町","pref":"山口県","prefCode":"35","municipality":"山口市","areaM2":411890.276,"population":1134,"toponymIds":["35-39afc455ed"]}},{"type":"Feature","geometry":{"type":"Polygon","coordinates":[[[131.45645,34.17538],[131.45776,34.17564],[131.45945,34.17524],[131.45874,34.17469],[131.45933,34.17408],[131.45936,34.17288],[131.46056,34.17172],[131.46176,34.17137],[131.46171,34.17095],[131.46071,34.17082],[131.46038,34.17059],[131.46012,34.17119],[131.45949,34.17187],[131.45757,34.17345],[131.45713,34.17406],[131.45639,34.17414],[131.45591,34.174],[131.45468,34.17558],[131.45559,34.17573],[131.45614,34.17565],[131.45645,34.17538]]]},"properties":{"key":"352030360","name":"荻町","pref":"山口県","prefCode":"35","municipality":"山口市","areaM2":104205.886,"population":235,"toponymIds":["35-55ed534a25"]}},{"type":"Feature","geometry":{"type":"Polygon","coordinates":[[[131.40574,34.09064],[131.40567,34.09],[131.40392,34.09025],[131.40455,34.09371],[131.40334,34.09464],[131.40353,34.09534],[131.40643,34.0952],[131.40574,34.09064]]]},"properties":{"key":"352031210","name":"小郡船倉町","pref":"山口県","prefCode":"35","municipality":"山口市","areaM2":100848.414,"population":304,"toponymIds":["35-2d83d70410"]}},{"type":"Feature","geometry":{"type":"Polygon","coordinates":[[[131.4782,34.18005],[131.47781,34.18026],[131.47789,34.18099],[131.47844,34.18109],[131.47864,34.18079],[131.47834,34.18037],[131.47845,34.18023],[131.4782,34.18005]]]},"properties":{"key":"352030710","name":"新馬場","pref":"山口県","prefCode":"35","municipality":"山口市","areaM2":5884.463,"population":106,"toponymIds":["35-79cc507cf2"]}},{"type":"Feature","geometry":{"type":"Polygon","coordinates":[[[131.47781,34.18026],[131.47833,34.17994],[131.47815,34.17977],[131.47847,34.17949],[131.47739,34.17874],[131.47781,34.18026]]]},"properties":{"key":"352030720","name":"中河原","pref":"山口県","prefCode":"35","municipality":"山口市","areaM2":7363.257,"population":19,"toponymIds":["35-4c61667b07"]}},{"type":"Feature","geometry":{"type":"Polygon","coordinates":[[[131.4761,34.17785],[131.47541,34.17739],[131.47512,34.17773],[131.47521,34.17932],[131.47507,34.18025],[131.47793,34.18076],[131.47739,34.17874],[131.4761,34.17785]]]},"properties":{"key":"352030180","name":"中河原町","pref":"山口県","prefCode":"35","municipality":"山口市","areaM2":62337.287,"population":63,"toponymIds":["35-a6062c3ec6"]}},{"type":"Feature","geometry":{"type":"Polygon","coordinates":[[[131.4833,34.18652],[131.48372,34.18626],[131.48358,34.18616],[131.48373,34.18586],[131.48306,34.18558],[131.48404,34.18456],[131.48186,34.18361],[131.48083,34.18522],[131.48128,34.18536],[131.48119,34.18555],[131.4821,34.18608],[131.48248,34.1854],[131.48301,34.18563],[131.48197,34.18671],[131.48265,34.18705],[131.4833,34.18652]]]},"properties":{"key":"352030660","name":"八幡馬場","pref":"山口県","prefCode":"35","municipality":"山口市","areaM2":54513.302,"population":45,"toponymIds":["35-7923e658b1"]}},{"type":"Feature","geometry":{"type":"Polygon","coordinates":[[[131.4286,34.17475],[131.42925,34.17419],[131.42991,34.17405],[131.43012,34.17349],[131.43106,34.17359],[131.43122,34.17306],[131.43165,34.17308],[131.43214,34.17159],[131.43267,34.17088],[131.43285,34.17025],[131.43038,34.16983],[131.4302,34.16937],[131.42954,34.16901],[131.42942,34.16918],[131.42883,34.16902],[131.42862,34.16879],[131.42833,34.16899],[131.42794,34.16896],[131.42805,34.16901],[131.42784,34.1694],[131.42689,34.16974],[131.42619,34.16975],[131.42683,34.16998],[131.42732,34.16989],[131.42724,34.1702],[131.42735,34.17023],[131.42755,34.17007],[131.42855,34.17015],[131.42891,34.16995],[131.42872,34.17065],[131.42855,34.17043],[131.42803,34.17047],[131.42805,34.17103],[131.42834,34.17119],[131.42785,34.17121],[131.4281,34.17164],[131.4288,34.17157],[131.42843,34.1722],[131.42837,34.17282],[131.42742,34.17288],[131.42741,34.17307],[131.42651,34.17321],[131.42681,34.17373],[131.42674,34.17387],[131.42704,34.17395],[131.42726,34.17433],[131.4279,34.17432],[131.42801,34.17451],[131.42863,34.17464],[131.4286,34.17475]]]},"properties":{"key":"35203084101","name":"吉敷赤田一丁目","pref":"山口県","prefCode":"35","municipality":"山口市","areaM2":200703.796,"population":662,"toponymIds":["35-3eb656f35b"]}},{"type":"Feature","geometry":{"type":"Polygon","coordinates":[[[131.4067,34.39919],[131.40821,34.39662],[131.4102,34.39487],[131.41113,34.39431],[131.41194,34.39412],[131.41441,34.3931],[131.4174,34.39229],[131.41975,34.39137],[131.42191,34.39031],[131.42449,34.38848],[131.42837,34.38457],[131.42957,34.38369],[131.4312,34.38281],[131.43916,34.38024],[131.43973,34.37977],[131.43987,34.3792],[131.43914,34.37754],[131.43699,34.37745],[131.43584,34.37705],[131.4355,34.37679],[131.43379,34.37435],[131.4334,34.37407],[131.4318,34.37348],[131.43014,34.37352],[131.42883,34.37319],[131.42697,34.37299],[131.42541,34.37252],[131.42406,34.37249],[131.42228,34.37154],[131.42188,34.37089],[131.42208,34.36954],[131.42183,34.36859],[131.42049,34.36891],[131.41926,34.36839],[131.41855,34.36858],[131.41815,34.36852],[131.41723,34.36791],[131.41604,34.36776],[131.41573,34.36735],[131.4155,34.36528],[131.41536,34.36521],[131.41465,34.36553],[131.41375,34.36529],[131.41354,34.36462],[131.41318,34.36441],[131.41266,34.36373],[131.41257,34.36322],[131.41181,34.36253],[131.41162,34.36197],[131.41119,34.36223],[131.41067,34.36296],[131.40912,34.36306],[131.4087,34.36296],[131.4084,34.36328],[131.40781,34.36351],[131.40722,34.36322],[131.40584,34.36336],[131.40441,34.3643],[131.40425,34.36274],[131.40365,34.36207],[131.40302,34.36086],[131.40382,34.36015],[131.40373,34.35966],[131.40333,34.35901],[131.40333,34.35865],[131.40479,34.35722],[131.40477,34.35662],[131.40426,34.35658],[131.40258,34.35568],[131.40201,34.35567],[131.40157,34.3552],[131.40121,34.35518],[131.40054,34.35476],[131.4001,34.35476],[131.39973,34.3554],[131.39971,34.35582],[131.39932,34.35587],[131.39997,34.3546],[131.39885,34.35471],[131.3987,34.35458],[131.39898,34.35437],[131.39886,34.35419],[131.39924,34.35381],[131.39939,34.35312],[131.39976,34.35277],[131.39985,34.35168],[131.39962,34.35125],[131.39942,34.35118],[131.3982,34.35124],[131.39811,34.35075],[131.39825,34.34986],[131.39813,34.34974],[131.39625,34.34933],[131.39494,34.3498],[131.39345,34.3491],[131.3929,34.34921],[131.39215,34.34899],[131.39117,34.34953],[131.39009,34.34912],[131.38963,34.34974],[131.38989,34.35004],[131.39038,34.35023],[131.39069,34.35143],[131.39129,34.35214],[131.39132,34.35279],[131.3916,34.35345],[131.39158,34.35433],[131.39212,34.35479],[131.39407,34.3554],[131.39438,34.356],[131.39434,34.35692],[131.39395,34.35723],[131.3938,34.35791],[131.39318,34.35814],[131.39278,34.35883],[131.3921,34.35898],[131.39097,34.35886],[131.3906,34.35909],[131.3905,34.3593],[131.39087,34.35998],[131.39095,34.36141],[131.39079,34.3619],[131.39002,34.3621],[131.38985,34.36291],[131.38946,34.36294],[131.3883,34.36237],[131.38771,34.36248],[131.38735,34.36278],[131.38673,34.36284],[131.38574,34.3626],[131.38511,34.36208],[131.3843,34.36201],[131.38377,34.36172],[131.38317,34.36162],[131.3826,34.36176],[131.38199,34.36224],[131.38194,34.37446],[131.38134,34.37486],[131.38098,34.37478],[131.38006,34.37505],[131.38013,34.37538],[131.37974,34.37549],[131.37958,34.37574],[131.37767,34.37618],[131.37737,34.37672],[131.37955,34.37653],[131.37851,34.377],[131.37822,34.3773],[131.37836,34.37755],[131.37958,34.37781],[131.37842,34.37815],[131.37885,34.37838],[131.37863,34.37879],[131.3794,34.37898],[131.37937,34.37918],[131.37875,34.37955],[131.37872,34.37971],[131.37908,34.37978],[131.38015,34.37925],[131.38102,34.37901],[131.38106,34.37958],[131.38043,34.37989],[131.38065,34.38035],[131.38048,34.38091],[131.37976,34.38112],[131.37999,34.38139],[131.38098,34.38144],[131.38111,34.38067],[131.38134,34.38039],[131.38162,34.38042],[131.38186,34.38109],[131.38208,34.38116],[131.38231,34.38098],[131.38239,34.38063],[131.38297,34.38067],[131.38301,34.38034],[131.38468,34.38013],[131.38456,34.38053],[131.38474,34.38072],[131.38383,34.38102],[131.3839,34.38132],[131.38363,34.3815],[131.3834,34.38202],[131.38389,34.38255],[131.38302,34.38284],[131.38402,34.38363],[131.38429,34.38408],[131.38364,34.38388],[131.38336,34.38421],[131.38289,34.38388],[131.3825,34.38453],[131.38225,34.38421],[131.38218,34.38379],[131.38158,34.38339],[131.38113,34.38335],[131.38086,34.38357],[131.38117,34.38389],[131.38104,34.38446],[131.38173,34.38519],[131.38193,34.38718],[131.38154,34.3869],[131.38122,34.38709],[131.38103,34.387],[131.3807,34.38598],[131.38051,34.38581],[131.37984,34.38613],[131.37961,34.38561],[131.37916,34.38563],[131.37915,34.38511],[131.37888,34.38484],[131.37913,34.38458],[131.37865,34.38446],[131.37869,34.38394],[131.37819,34.38402],[131.37818,34.38442],[131.37798,34.3847],[131.37826,34.3851],[131.3782,34.38671],[131.37769,34.38656],[131.37685,34.38592],[131.37632,34.38587],[131.37536,34.38642],[131.37595,34.38729],[131.37589,34.38748],[131.37545,34.38762],[131.37539,34.388],[131.37464,34.38815],[131.37443,34.38837],[131.37435,34.3887],[131.37453,34.38913],[131.37418,34.38946],[131.37411,34.38999],[131.37539,34.38995],[131.37562,34.39023],[131.37612,34.39043],[131.37572,34.39134],[131.37465,34.39182],[131.37488,34.39207],[131.37585,34.39207],[131.37618,34.39257],[131.37661,34.3924],[131.37708,34.39163],[131.37694,34.39098],[131.3773,34.39065],[131.37717,34.39035],[131.37759,34.38996],[131.37763,34.38946],[131.37797,34.38969],[131.37822,34.38965],[131.37891,34.38892],[131.37983,34.38836],[131.38006,34.3884],[131.37975,34.38916],[131.38037,34.38939],[131.37978,34.38975],[131.37989,34.39004],[131.37962,34.39052],[131.37979,34.39073],[131.37951,34.39096],[131.3794,34.39194],[131.37999,34.39226],[131.37986,34.39258],[131.37995,34.39286],[131.38029,34.39299],[131.38093,34.39294],[131.38099,34.39317],[131.38154,34.39325],[131.38173,34.39347],[131.38174,34.3936],[131.38151,34.39359],[131.38104,34.39407],[131.38055,34.39432],[131.38081,34.39462],[131.38107,34.39548],[131.38079,34.39598],[131.38074,34.39657],[131.38162,34.39787],[131.38155,34.39815],[131.38181,34.39864],[131.38229,34.39916],[131.38344,34.39974],[131.38412,34.39939],[131.38468,34.39945],[131.38498,34.39882],[131.38519,34.39868],[131.38555,34.39887],[131.38854,34.40169],[131.39028,34.39952],[131.39112,34.39884],[131.39193,34.39851],[131.3927,34.39848],[131.39385,34.3991],[131.397,34.40223],[131.39952,34.40234],[131.40493,34.40143],[131.4067,34.39919]]]},"properties":{"key":"352040400","name":"大字椿","pref":"山口県","prefCode":"35","municipality":"萩市","areaM2":17561655.698,"population":3886,"toponymIds":["35-0b0c2f9bc3"]}},{"type":"Feature","geometry":{"type":"Polygon","coordinates":[[[131.59519,34.05601],[131.59636,34.05593],[131.59621,34.054],[131.59697,34.05386],[131.59693,34.05335],[131.59706,34.05328],[131.59673,34.05275],[131.59547,34.05225],[131.59468,34.05218],[131.59308,34.05247],[131.59137,34.05256],[131.59155,34.05276],[131.59201,34.05276],[131.5924,34.05334],[131.59261,34.05603],[131.59519,34.05601]]]},"properties":{"key":"35206088001","name":"岸津一丁目","pref":"山口県","prefCode":"35","municipality":"防府市","areaM2":153743.751,"population":589,"toponymIds":["35-49681141a0"]}},{"type":"Feature","geometry":{"type":"Polygon","coordinates":[[[131.55934,34.05469],[131.55907,34.05452],[131.55557,34.05475],[131.55525,34.05511],[131.55525,34.05673],[131.55571,34.05763],[131.55662,34.05873],[131.55699,34.05882],[131.55772,34.05852],[131.56097,34.05591],[131.55934,34.05469]]]},"properties":{"key":"35206024001","name":"高倉一丁目","pref":"山口県","prefCode":"35","municipality":"防府市","areaM2":164108.266,"population":934,"toponymIds":["35-e539f9be18"]}},{"type":"Feature","geometry":{"type":"Polygon","coordinates":[[[131.91299,34.06235],[131.914,34.06242],[131.91498,34.06225],[131.9152,34.05998],[131.91466,34.05944],[131.91463,34.05863],[131.91414,34.05799],[131.91404,34.05758],[131.91465,34.05711],[131.91605,34.05451],[131.91541,34.0536],[131.91449,34.05303],[131.91402,34.05246],[131.91525,34.05121],[131.91522,34.04956],[131.91557,34.04936],[131.91552,34.04878],[131.91601,34.04827],[131.91629,34.04767],[131.91589,34.04681],[131.91538,34.04655],[131.91545,34.04643],[131.91497,34.04569],[131.915,34.04471],[131.91474,34.04416],[131.91465,34.04339],[131.91443,34.0438],[131.91376,34.04368],[131.91358,34.04337],[131.91358,34.04283],[131.9137,34.04275],[131.91309,34.04152],[131.91269,34.04163],[131.91264,34.04152],[131.91263,34.04097],[131.91236,34.04076],[131.91239,34.04039],[131.91219,34.04005],[131.91254,34.03971],[131.91272,34.03879],[131.91268,34.03794],[131.91031,34.03795],[131.90924,34.03744],[131.90819,34.03732],[131.90773,34.03632],[131.9078,34.03517],[131.90758,34.03475],[131.90796,34.03445],[131.90664,34.03313],[131.90644,34.03267],[131.90686,34.03173],[131.90299,34.03143],[131.90093,34.03171],[131.89991,34.03202],[131.89948,34.03109],[131.89887,34.03123],[131.89809,34.0318],[131.89767,34.03133],[131.89699,34.03108],[131.8966,34.0304],[131.89461,34.03076],[131.89315,34.03028],[131.89239,34.03025],[131.89139,34.03165],[131.89144,34.03231],[131.89174,34.03245],[131.89305,34.03423],[131.89351,34.03436],[131.89345,34.03414],[131.89379,34.03389],[131.89453,34.03406],[131.89507,34.03465],[131.89513,34.03568],[131.89544,34.03627],[131.89529,34.03678],[131.89425,34.03715],[131.89397,34.0375],[131.8937,34.03736],[131.89319,34.03742],[131.89305,34.03774],[131.89289,34.0375],[131.89256,34.03757],[131.89157,34.03723],[131.89106,34.03682],[131.89047,34.03711],[131.8905,34.03729],[131.8913,34.03786],[131.89097,34.03825],[131.89119,34.03865],[131.89128,34.03959],[131.89167,34.04033],[131.8928,34.04018],[131.89263,34.04061],[131.89227,34.0408],[131.89263,34.04097],[131.89295,34.04073],[131.89316,34.0409],[131.89289,34.04126],[131.89222,34.04082],[131.89247,34.04135],[131.89248,34.04186],[131.89271,34.04151],[131.89291,34.04171],[131.89291,34.04134],[131.89329,34.0414],[131.89347,34.04235],[131.89372,34.04258],[131.89326,34.04313],[131.89243,34.04473],[131.89384,34.05048],[131.89428,34.05044],[131.89445,34.05062],[131.89591,34.05275],[131.89942,34.05504],[131.9005,34.05611],[131.9037,34.05841],[131.90742,34.06068],[131.91192,34.06315],[131.91256,34.06293],[131.91268,34.06253],[131.91299,34.06235]]]},"properties":{"key":"352070060","name":"大字山田","pref":"山口県","prefCode":"35","municipality":"下松市","areaM2":5413332.415,"population":513,"toponymIds":["35-a6774fb7c6"]}},{"type":"Feature","geometry":{"type":"Polygon","coordinates":[[[131.86953,34.00904],[131.8707,34.00744],[131.86961,34.00687],[131.86837,34.00871],[131.86856,34.00879],[131.86869,34.00861],[131.86953,34.00904]]]},"properties":{"key":"35207019001","name":"古川町一丁目","pref":"山口県","prefCode":"35","municipality":"下松市","areaM2":24204.265,"population":136,"toponymIds":["35-08dd4f2d45"]}},{"type":"Feature","geometry":{"type":"Polygon","coordinates":[[[132.20385,34.10342],[132.20319,34.10329],[132.2034,34.10246],[132.20255,34.10224],[132.20299,34.10216],[132.2029,34.10168],[132.20318,34.10074],[132.20313,34.10034],[132.20358,34.09926],[132.20405,34.09935],[132.20377,34.09924],[132.20432,34.09805],[132.20446,34.09809],[132.20458,34.09784],[132.20514,34.09808],[132.20465,34.0998],[132.20519,34.09808],[132.20482,34.0978],[132.20481,34.0975],[132.20449,34.09731],[132.20496,34.0975],[132.20481,34.09673],[132.2051,34.09584],[132.2048,34.09599],[132.20415,34.09716],[132.2027,34.09919],[132.20143,34.10249],[132.20267,34.10285],[132.20276,34.10235],[132.20334,34.1025],[132.20306,34.10364],[132.20321,34.10335],[132.20378,34.10346],[132.20356,34.10432],[132.20385,34.10342]]]},"properties":{"key":"35208035001","name":"青木町一丁目","pref":"山口県","prefCode":"35","municipality":"岩国市","areaM2":68243.921,"population":196,"toponymIds":["35-8c56541765"]}},{"type":"Feature","geometry":{"type":"Polygon","coordinates":[[[132.20198,34.10381],[132.20308,34.10391],[132.202,34.10375],[132.20205,34.1036],[132.20229,34.10366],[132.20267,34.10285],[132.20143,34.10249],[132.20075,34.10436],[132.20037,34.10675],[132.19954,34.10838],[132.19997,34.10867],[132.20079,34.10753],[132.20144,34.10692],[132.20198,34.10381]]]},"properties":{"key":"35208034001","name":"黒磯町一丁目","pref":"山口県","prefCode":"35","municipality":"岩国市","areaM2":62937.646,"population":159,"toponymIds":["35-2b252625ff"]}},{"type":"Feature","geometry":{"type":"Polygon","coordinates":[[[132.03488,34.17746],[132.03744,34.17617],[132.0387,34.17594],[132.0393,34.17512],[132.04076,34.17395],[132.0415,34.17121],[132.0427,34.16961],[132.04351,34.16934],[132.04539,34.1693],[132.04597,34.16816],[132.04604,34.16674],[132.04628,34.16649],[132.04737,34.16624],[132.04807,34.16578],[132.049,34.16553],[132.04936,34.16499],[132.0501,34.16465],[132.05134,34.16471],[132.05191,34.16303],[132.0525,34.16213],[132.05357,34.16194],[132.05402,34.16161],[132.0542,34.16053],[132.05518,34.1593],[132.05692,34.15877],[132.05757,34.15836],[132.0588,34.15888],[132.05946,34.15947],[132.05986,34.15951],[132.06152,34.15842],[132.06317,34.1576],[132.06383,34.1575],[132.0649,34.15651],[132.06515,34.15649],[132.06594,34.15686],[132.0667,34.15681],[132.06896,34.15528],[132.07074,34.15513],[132.07175,34.15495],[132.07231,34.15468],[132.07289,34.15469],[132.07376,34.15395],[132.07378,34.15347],[132.0734,34.15288],[132.07427,34.15216],[132.07444,34.15183],[132.07438,34.15155],[132.07336,34.15081],[132.07072,34.14993],[132.07003,34.14953],[132.06988,34.14922],[132.06986,34.14849],[132.0702,34.14735],[132.06996,34.14638],[132.06955,34.14533],[132.06862,34.14371],[132.06753,34.1425],[132.06723,34.14108],[132.06737,34.14079],[132.06687,34.14029],[132.06653,34.14023],[132.06615,34.13985],[132.06585,34.14106],[132.06566,34.14119],[132.06401,34.14087],[132.06388,34.14112],[132.06151,34.14015],[132.06087,34.13931],[132.06059,34.1393],[132.05955,34.13985],[132.05896,34.13989],[132.05821,34.13945],[132.05665,34.1389],[132.05403,34.13827],[132.0532,34.13729],[132.05219,34.13674],[132.04967,34.1375],[132.04754,34.13923],[132.04707,34.13903],[132.04648,34.13836],[132.04515,34.13837],[132.04418,34.13886],[132.04265,34.1404],[132.04014,34.14084],[132.03854,34.14069],[132.03797,34.14115],[132.03738,34.14218],[132.03683,34.14257],[132.03659,34.14329],[132.03678,34.14393],[132.03751,34.1447],[132.03804,34.14494],[132.03855,34.14563],[132.03838,34.14631],[132.03795,34.14635],[132.03749,34.14666],[132.0371,34.14759],[132.03663,34.14816],[132.03583,34.1483],[132.03555,34.14868],[132.03436,34.14918],[132.03438,34.14998],[132.034,34.15115],[132.03332,34.15144],[132.03189,34.15158],[132.03006,34.15232],[132.02967,34.15258],[132.02945,34.15314],[132.02949,34.1541],[132.02934,34.15435],[132.0267,34.15557],[132.02622,34.15787],[132.02534,34.15976],[132.0254,34.16099],[132.02498,34.16187],[132.02512,34.16266],[132.02416,34.16417],[132.02504,34.16466],[132.02544,34.16511],[132.02559,34.16596],[132.02548,34.16634],[132.02403,34.16907],[132.02281,34.1709],[132.02152,34.17164],[132.02139,34.1739],[132.02123,34.17443],[132.02009,34.17503],[132.01997,34.176],[132.01952,34.17667],[132.01969,34.17703],[132.02043,34.17768],[132.02264,34.17793],[132.02353,34.17838],[132.02436,34.17914],[132.02476,34.17917],[132.02912,34.17731],[132.02953,34.17811],[132.03029,34.17845],[132.03073,34.1795],[132.03072,34.17986],[132.03166,34.18046],[132.03185,34.18258],[132.03141,34.18311],[132.03122,34.18364],[132.03175,34.18536],[132.03077,34.18619],[132.03082,34.18633],[132.03136,34.18646],[132.03161,34.18684],[132.03149,34.18727],[132.03086,34.18786],[132.03099,34.18862],[132.03114,34.18887],[132.0324,34.18932],[132.03321,34.1902],[132.03386,34.19059],[132.03388,34.18775],[132.03425,34.18515],[132.03471,34.1836],[132.03526,34.18252],[132.03622,34.18145],[132.03801,34.18042],[132.03779,34.18017],[132.03622,34.17943],[132.03488,34.17794],[132.03488,34.17746]]]},"properties":{"key":"352080520","name":"二鹿","pref":"山口県","prefCode":"35","municipality":"岩国市","areaM2":12005476.119,"population":68,"toponymIds":["35-c542cf54ae"]}},{"type":"Feature","geometry":{"type":"Polygon","coordinates":[[[132.14591,34.25736],[132.14684,34.25392],[132.1469,34.25063],[132.1466,34.24957],[132.14541,34.24812],[132.1456,34.24715],[132.14543,34.24596],[132.14611,34.24436],[132.1461,34.24372],[132.14571,34.24287],[132.14409,34.24091],[132.14393,34.24044],[132.14396,34.23836],[132.14187,34.23881],[132.14033,34.23855],[132.13932,34.23813],[132.13868,34.23767],[132.13814,34.23682],[132.13716,34.23604],[132.1351,34.23555],[132.13203,34.23832],[132.13173,34.23943],[132.13049,34.24165],[132.12865,34.24377],[132.12792,34.2444],[132.12637,34.24534],[132.12515,34.24585],[132.12359,34.24615],[132.12187,34.24987],[132.12159,34.25127],[132.12159,34.2534],[132.1204,34.25596],[132.12069,34.25579],[132.12355,34.25556],[132.12563,34.25573],[132.12628,34.25594],[132.12647,34.25606],[132.12657,34.25665],[132.12677,34.25879],[132.12747,34.25915],[132.12904,34.25934],[132.13186,34.25893],[132.13371,34.25751],[132.13501,34.25715],[132.13571,34.25712],[132.13762,34.25741],[132.14324,34.25966],[132.14388,34.25961],[132.14438,34.25944],[132.14478,34.25906],[132.14591,34.25736]]]},"properties":{"key":"352081510","name":"美和町岸根","pref":"山口県","prefCode":"35","municipality":"岩国市","areaM2":4288575.658,"population":70,"toponymIds":["35-1b9d080f4a"]}},{"type":"Feature","geometry":{"type":"Polygon","coordinates":[[[132.20746,34.04391],[132.2085,34.04351],[132.20846,34.04326],[132.20871,34.043],[132.20835,34.04244],[132.20897,34.04203],[132.20867,34.04161],[132.20759,34.04148],[132.20597,34.04207],[132.20629,34.0424],[132.20674,34.04245],[132.20728,34.04282],[132.20716,34.04311],[132.20676,34.04328],[132.20683,34.04354],[132.2065,34.04368],[132.20746,34.04391]]]},"properties":{"key":"352080726","name":"由宇町","pref":"山口県","prefCode":"35","municipality":"岩国市","areaM2":41377.533,"population":0,"toponymIds":["35-70d8cc436b"]}},{"type":"Feature","geometry":{"type":"Polygon","coordinates":[[[131.16737,34.43156],[131.16764,34.43142],[131.16797,34.43177],[131.16845,34.4319],[131.16813,34.4311],[131.16865,34.43119],[131.16864,34.43083],[131.16897,34.43098],[131.16865,34.43046],[131.16898,34.43037],[131.16825,34.42889],[131.1683,34.42876],[131.16865,34.42929],[131.16842,34.42871],[131.16865,34.42902],[131.16893,34.42893],[131.16943,34.42983],[131.16941,34.42957],[131.16989,34.4299],[131.16965,34.42931],[131.16992,34.42926],[131.17023,34.42954],[131.17024,34.42983],[131.17042,34.42987],[131.17044,34.42966],[131.17088,34.43032],[131.17138,34.43023],[131.17147,34.43059],[131.17179,34.43048],[131.17158,34.43088],[131.17164,34.43115],[131.17248,34.43172],[131.17272,34.43083],[131.17227,34.43056],[131.17218,34.43016],[131.17202,34.43011],[131.17213,34.43003],[131.17202,34.42974],[131.17148,34.42911],[131.17175,34.42901],[131.17179,34.42861],[131.17249,34.42763],[131.17287,34.42762],[131.1735,34.42723],[131.17453,34.427],[131.17675,34.42696],[131.17747,34.42742],[131.1772,34.42792],[131.17743,34.42806],[131.17723,34.42818],[131.17738,34.42844],[131.1777,34.42856],[131.17796,34.42844],[131.17797,34.42876],[131.17876,34.42888],[131.17884,34.42857],[131.17835,34.42816],[131.1793,34.4284],[131.17891,34.42791],[131.17913,34.42787],[131.17889,34.42762],[131.17923,34.42733],[131.17997,34.42727],[131.18007,34.42779],[131.18033,34.42793],[131.18081,34.42785],[131.18098,34.42764],[131.18094,34.42695],[131.18138,34.42662],[131.1809,34.42646],[131.18133,34.42626],[131.18091,34.42561],[131.18119,34.4254],[131.18154,34.42542],[131.18139,34.42482],[131.18152,34.42469],[131.18322,34.42387],[131.18446,34.42365],[131.18488,34.42389],[131.18495,34.4236],[131.18598,34.42343],[131.18659,34.424],[131.1868,34.42355],[131.18714,34.42377],[131.1874,34.42362],[131.18777,34.4238],[131.18867,34.42362],[131.18962,34.42379],[131.19039,34.42417],[131.19096,34.42394],[131.19291,34.42427],[131.19348,34.42489],[131.19362,34.42529],[131.19338,34.42538],[131.19371,34.4258],[131.19373,34.42612],[131.19394,34.42609],[131.19386,34.42582],[131.19401,34.42577],[131.19411,34.42611],[131.19444,34.42641],[131.19441,34.42684],[131.1948,34.4274],[131.19458,34.42749],[131.19462,34.42803],[131.19604,34.42852],[131.19668,34.42815],[131.19652,34.42779],[131.19679,34.42776],[131.19659,34.42738],[131.19686,34.42705],[131.19825,34.42645],[131.19863,34.42613],[131.19931,34.42607],[131.20016,34.42562],[131.20256,34.4255],[131.20284,34.42555],[131.20287,34.42573],[131.20312,34.42587],[131.20319,34.4256],[131.20348,34.42554],[131.20726,34.42539],[131.20759,34.4254],[131.20793,34.42579],[131.20817,34.42583],[131.21101,34.42526],[131.21276,34.42542],[131.21367,34.42593],[131.21518,34.4256],[131.21702,34.42564],[131.2174,34.42567],[131.21815,34.42606],[131.21846,34.42642],[131.21938,34.42612],[131.21965,34.42667],[131.2203,34.42699],[131.22116,34.42684],[131.22157,34.42738],[131.22061,34.42817],[131.22091,34.42885],[131.22196,34.42918],[131.22279,34.42902],[131.22304,34.4291],[131.22314,34.42932],[131.22372,34.42928],[131.22389,34.42938],[131.22393,34.42971],[131.22438,34.4298],[131.22453,34.43021],[131.22549,34.43042],[131.22573,34.43002],[131.22725,34.43075],[131.22771,34.43032],[131.22803,34.43086],[131.22835,34.43064],[131.22844,34.43122],[131.22885,34.43162],[131.2291,34.43154],[131.22918,34.43085],[131.22931,34.43104],[131.22929,34.43156],[131.22948,34.43182],[131.23022,34.4319],[131.22973,34.43111],[131.23077,34.43206],[131.23213,34.43246],[131.23246,34.43198],[131.23314,34.43196],[131.23325,34.43165],[131.23346,34.43159],[131.23206,34.43009],[131.23152,34.42887],[131.23123,34.42639],[131.23087,34.42567],[131.23031,34.42505],[131.22668,34.41939],[131.22531,34.41824],[131.22428,34.41749],[131.22215,34.41692],[131.2221,34.41724],[131.22308,34.4173],[131.22362,34.4177],[131.22375,34.41794],[131.22353,34.4184],[131.22359,34.41903],[131.22385,34.41921],[131.22486,34.41934],[131.2248,34.41974],[131.22512,34.4199],[131.22518,34.42013],[131.22492,34.42075],[131.22607,34.42149],[131.2257,34.42203],[131.2247,34.42222],[131.22441,34.42276],[131.22457,34.42307],[131.22524,34.42344],[131.22534,34.42413],[131.22638,34.42465],[131.22702,34.42537],[131.22728,34.42661],[131.22792,34.42733],[131.22797,34.42773],[131.22749,34.42817],[131.22705,34.42824],[131.22563,34.42722],[131.22515,34.42721],[131.22538,34.4266],[131.2252,34.42657],[131.22497,34.42737],[131.22446,34.42734],[131.22431,34.42653],[131.22366,34.42562],[131.22417,34.42517],[131.22368,34.42552],[131.22281,34.4251],[131.22265,34.42471],[131.22276,34.42466],[131.22264,34.42468],[131.22228,34.42402],[131.21985,34.42254],[131.21821,34.42068],[131.21678,34.41973],[131.21593,34.41939],[131.21484,34.41944],[131.21438,34.41929],[131.21401,34.41888],[131.21415,34.41846],[131.21408,34.41788],[131.21303,34.41746],[131.21225,34.41694],[131.21185,34.41604],[131.21193,34.41526],[131.21223,34.41486],[131.2133,34.41486],[131.2132,34.41403],[131.21362,34.41397],[131.21339,34.41328],[131.21395,34.41316],[131.2139,34.41293],[131.21285,34.41298],[131.21171,34.41261],[131.21099,34.41263],[131.2104,34.41284],[131.20975,34.41225],[131.21036,34.41289],[131.20965,34.41373],[131.20799,34.41268],[131.20765,34.41183],[131.20845,34.41152],[131.20764,34.41178],[131.2073,34.41075],[131.20797,34.41012],[131.2086,34.41033],[131.20898,34.41157],[131.20999,34.41191],[131.20901,34.41153],[131.20859,34.41043],[131.20876,34.41026],[131.20872,34.40996],[131.209,34.40968],[131.20925,34.40887],[131.21034,34.40836],[131.21059,34.40808],[131.21073,34.40752],[131.21098,34.40738],[131.21117,34.4068],[131.21134,34.40664],[131.21155,34.4067],[131.21144,34.40575],[131.21184,34.40512],[131.21218,34.40497],[131.21341,34.40506],[131.21325,34.40435],[131.21299,34.40399],[131.21311,34.40369],[131.2135,34.40338],[131.21381,34.40346],[131.21413,34.4033],[131.21444,34.40363],[131.21435,34.40345],[131.21467,34.40355],[131.21505,34.40325],[131.21497,34.40288],[131.21431,34.40233],[131.21421,34.40196],[131.2143,34.4017],[131.21474,34.40154],[131.21465,34.40105],[131.21496,34.40098],[131.21475,34.4007],[131.21411,34.40075],[131.21361,34.40039],[131.21357,34.40109],[131.21331,34.40141],[131.21291,34.40158],[131.21253,34.40153],[131.21213,34.40189],[131.21175,34.402],[131.21057,34.40198],[131.20995,34.40176],[131.20971,34.40147],[131.20889,34.40127],[131.20833,34.40077],[131.20758,34.40108],[131.20685,34.40086],[131.20669,34.39932],[131.20627,34.39857],[131.20578,34.39827],[131.20518,34.39862],[131.20458,34.3984],[131.20461,34.39803],[131.20434,34.39776],[131.20392,34.39793],[131.20335,34.39788],[131.20337,34.398],[131.20264,34.3984],[131.20246,34.39911],[131.20211,34.39925],[131.19901,34.39847],[131.19956,34.39757],[131.20026,34.39762],[131.19973,34.39752],[131.20044,34.39631],[131.20127,34.39644],[131.20125,34.39684],[131.20089,34.39738],[131.20046,34.39759],[131.20094,34.39739],[131.20128,34.39687],[131.20164,34.39689],[131.2015,34.39686],[131.20156,34.39604],[131.2005,34.39583],[131.20059,34.39427],[131.20119,34.39429],[131.20115,34.39506],[131.20126,34.39425],[131.20184,34.39431],[131.20188,34.3945],[131.20191,34.39398],[131.20212,34.394],[131.2021,34.3944],[131.20253,34.39445],[131.20251,34.39587],[131.20229,34.39684],[131.20244,34.39628],[131.20383,34.39647],[131.20336,34.39628],[131.2034,34.39593],[131.20425,34.39595],[131.20414,34.39645],[131.20429,34.39631],[131.20444,34.39352],[131.20456,34.39348],[131.20238,34.39322],[131.20234,34.39376],[131.20191,34.39389],[131.20192,34.39371],[131.20017,34.39336],[131.20011,34.39251],[131.20064,34.39262],[131.20064,34.39276],[131.2013,34.39318],[131.20117,34.39309],[131.20212,34.39005],[131.20306,34.39026],[131.20326,34.39215],[131.20482,34.39248],[131.20331,34.39213],[131.20331,34.39031],[131.20466,34.3906],[131.20468,34.39148],[131.20476,34.39008],[131.20511,34.38947],[131.20472,34.39004],[131.20358,34.3898],[131.20399,34.38902],[131.20354,34.3898],[131.20186,34.38945],[131.20209,34.38869],[131.20229,34.38863],[131.20325,34.38882],[131.20321,34.38905],[131.20394,34.38775],[131.20506,34.38815],[131.2025,34.38711],[131.2039,34.3854],[131.20792,34.38216],[131.2089,34.38063],[131.20906,34.38005],[131.20906,34.37901],[131.20817,34.37858],[131.20771,34.37805],[131.20707,34.37793],[131.2079,34.37826],[131.20826,34.37891],[131.20795,34.37924],[131.2068,34.37898],[131.20641,34.3792],[131.20652,34.37897],[131.20636,34.37876],[131.20653,34.37834],[131.20615,34.37799],[131.20589,34.37724],[131.20629,34.37652],[131.20611,34.37647],[131.20618,34.37626],[131.20564,34.3757],[131.20531,34.37579],[131.20513,34.37493],[131.20468,34.37453],[131.2051,34.37487],[131.20612,34.37376],[131.20592,34.37351],[131.20614,34.37375],[131.2066,34.37346],[131.20715,34.37433],[131.20731,34.37426],[131.20672,34.3734],[131.20764,34.37285],[131.20872,34.37267],[131.20827,34.37118],[131.20784,34.37062],[131.20702,34.37],[131.20658,34.36914],[131.20549,34.36879],[131.20462,34.36776],[131.20379,34.36752],[131.20354,34.36726],[131.20324,34.36665],[131.20324,34.36625],[131.20296,34.36583],[131.20177,34.36538],[131.20173,34.36416],[131.19933,34.3664],[131.198,34.36854],[131.19788,34.36941],[131.19803,34.37094],[131.1993,34.37649],[131.19632,34.37704],[131.19626,34.37894],[131.19641,34.37959],[131.19604,34.37997],[131.19689,34.38067],[131.19507,34.38256],[131.19435,34.38277],[131.19452,34.38296],[131.1943,34.38403],[131.19515,34.38372],[131.1978,34.38359],[131.19795,34.38382],[131.19789,34.38418],[131.19807,34.38433],[131.19779,34.38876],[131.19408,34.38791],[131.19455,34.38863],[131.19464,34.38913],[131.19442,34.38942],[131.19402,34.38961],[131.19464,34.38963],[131.1946,34.38989],[131.19531,34.39194],[131.19531,34.3922],[131.19495,34.39216],[131.19487,34.39229],[131.19534,34.39223],[131.19596,34.39397],[131.19559,34.39408],[131.19642,34.3939],[131.19723,34.39672],[131.1979,34.39738],[131.19859,34.39762],[131.1994,34.39761],[131.19887,34.39849],[131.1975,34.39846],[131.19647,34.398],[131.19609,34.39806],[131.196,34.39837],[131.1966,34.39894],[131.19729,34.39909],[131.19776,34.40025],[131.19859,34.40094],[131.19865,34.40135],[131.19847,34.40196],[131.19838,34.40204],[131.19814,34.40181],[131.1978,34.40207],[131.19804,34.4023],[131.1975,34.40262],[131.19648,34.40267],[131.1951,34.40175],[131.19499,34.40164],[131.19511,34.40147],[131.19568,34.40121],[131.19638,34.40124],[131.19647,34.40091],[131.1962,34.40067],[131.1957,34.40065],[131.19357,34.39991],[131.19564,34.40054],[131.196,34.39988],[131.19549,34.39967],[131.19561,34.39946],[131.19519,34.39931],[131.19555,34.39949],[131.19545,34.39966],[131.19494,34.39945],[131.19505,34.39916],[131.19488,34.39943],[131.19306,34.39883],[131.19262,34.39916],[131.19213,34.39891],[131.19138,34.39884],[131.19078,34.3991],[131.18987,34.39916],[131.1891,34.39892],[131.18881,34.3986],[131.18852,34.39861],[131.188,34.40031],[131.18702,34.40187],[131.18652,34.40221],[131.18629,34.40206],[131.1865,34.40233],[131.18626,34.40273],[131.18632,34.4024],[131.18586,34.4022],[131.18601,34.40156],[131.18557,34.40244],[131.18538,34.40263],[131.18524,34.40251],[131.18535,34.40266],[131.18524,34.4028],[131.18489,34.40284],[131.18501,34.40299],[131.18485,34.40317],[131.18468,34.4033],[131.18454,34.40319],[131.18465,34.40332],[131.18428,34.40359],[131.18414,34.4035],[131.18424,34.40361],[131.18404,34.40376],[131.18384,34.40387],[131.1837,34.40373],[131.18381,34.40388],[131.1837,34.40395],[131.18334,34.40406],[131.18325,34.40392],[131.1833,34.40406],[131.18287,34.40428],[131.18278,34.40415],[131.18284,34.40429],[131.18261,34.40442],[131.18241,34.40449],[131.18227,34.40436],[131.18237,34.4045],[131.18206,34.40468],[131.18178,34.40458],[131.18189,34.40474],[131.18168,34.40487],[131.18144,34.40494],[131.18134,34.40479],[131.18129,34.405],[131.18084,34.40513],[131.18075,34.40501],[131.18081,34.40514],[131.18031,34.40534],[131.18022,34.40518],[131.18027,34.40535],[131.17998,34.40547],[131.17979,34.40551],[131.1797,34.40536],[131.17975,34.40552],[131.17918,34.4057],[131.17908,34.40553],[131.17914,34.40571],[131.17862,34.4059],[131.17852,34.40574],[131.17858,34.40593],[131.17812,34.40616],[131.178,34.40601],[131.17803,34.40621],[131.17749,34.40639],[131.17742,34.40624],[131.17746,34.4064],[131.17684,34.4066],[131.17676,34.40646],[131.17681,34.40661],[131.17657,34.40671],[131.1763,34.40676],[131.17621,34.40657],[131.17625,34.40677],[131.17599,34.40683],[131.17571,34.40684],[131.17566,34.40671],[131.17566,34.40683],[131.17513,34.40692],[131.17494,34.40679],[131.17499,34.4069],[131.17449,34.407],[131.17282,34.40837],[131.17306,34.41009],[131.17288,34.41053],[131.1725,34.41077],[131.17262,34.41085],[131.17252,34.41138],[131.17278,34.41153],[131.17316,34.41226],[131.17324,34.41287],[131.17311,34.41301],[131.17329,34.41377],[131.17289,34.41414],[131.1732,34.41403],[131.17326,34.41464],[131.17311,34.41503],[131.17275,34.41508],[131.17294,34.41532],[131.17274,34.4159],[131.17317,34.41676],[131.17328,34.41738],[131.17322,34.41777],[131.1728,34.4184],[131.17235,34.42054],[131.17244,34.42138],[131.17231,34.42287],[131.17181,34.42327],[131.17182,34.4238],[131.17152,34.42405],[131.17166,34.42451],[131.17156,34.42493],[131.17097,34.42585],[131.17046,34.42586],[131.17049,34.42612],[131.16997,34.42639],[131.1697,34.4263],[131.16973,34.42653],[131.16947,34.42642],[131.16952,34.42684],[131.16891,34.42675],[131.1693,34.42722],[131.16888,34.42729],[131.16854,34.427],[131.16824,34.42705],[131.16826,34.42748],[131.16853,34.42782],[131.16838,34.42793],[131.16861,34.42817],[131.16837,34.4281],[131.16847,34.42841],[131.16808,34.4286],[131.16769,34.42857],[131.16771,34.4289],[131.16724,34.42853],[131.16674,34.42868],[131.16683,34.42967],[131.16693,34.42976],[131.16697,34.4296],[131.1673,34.43039],[131.1678,34.43058],[131.16758,34.43079],[131.16772,34.43111],[131.1676,34.43124],[131.16719,34.43098],[131.16682,34.43123],[131.16723,34.43219],[131.16735,34.43213],[131.16737,34.43156]]]},"properties":{"key":"352110020","name":"仙崎","pref":"山口県","prefCode":"35","municipality":"長門市","areaM2":13559141.344,"population":4062,"toponymIds":["35-47935ed0bb"]}},{"type":"Feature","geometry":{"type":"Polygon","coordinates":[[[131.0657,34.39856],[131.06389,34.39772],[131.06402,34.39579],[131.06345,34.3959],[131.06271,34.39565],[131.06148,34.39552],[131.06069,34.39574],[131.0592,34.39478],[131.05835,34.39452],[131.05784,34.39497],[131.05766,34.39573],[131.05595,34.39589],[131.05484,34.3958],[131.05465,34.39693],[131.05406,34.39733],[131.05463,34.39892],[131.05692,34.39888],[131.05829,34.39858],[131.05993,34.39951],[131.06102,34.39969],[131.06377,34.40134],[131.06436,34.40106],[131.06429,34.40051],[131.06467,34.39906],[131.0657,34.39856]]]},"properties":{"key":"352110170","name":"日置蔵小田","pref":"山口県","prefCode":"35","municipality":"長門市","areaM2":407187.478,"population":3,"toponymIds":["35-0c866d8fb0"]}},{"type":"Feature","geometry":{"type":"Polygon","coordinates":[[[131.04682,34.37773],[131.05262,34.37768],[131.05147,34.37287],[131.05252,34.37159],[131.05277,34.36916],[131.05415,34.36885],[131.05473,34.3685],[131.05631,34.36802],[131.0571,34.36848],[131.0576,34.36825],[131.05793,34.36725],[131.05909,34.36629],[131.06038,34.36367],[131.06063,34.36343],[131.06288,34.36313],[131.06534,34.35919],[131.06646,34.35807],[131.06825,34.35707],[131.0693,34.35678],[131.07227,34.35412],[131.07236,34.35377],[131.07218,34.35315],[131.07132,34.35232],[131.07101,34.35177],[131.06982,34.35128],[131.06917,34.3508],[131.06918,34.35024],[131.06979,34.34937],[131.06996,34.34875],[131.06995,34.34782],[131.07321,34.34692],[131.07503,34.34704],[131.07576,34.34667],[131.07634,34.34605],[131.07639,34.34566],[131.07516,34.34426],[131.07476,34.34348],[131.07467,34.34216],[131.07485,34.34165],[131.0773,34.33946],[131.07772,34.3384],[131.07771,34.33781],[131.07699,34.3361],[131.075,34.33404],[131.07495,34.33325],[131.07554,34.33201],[131.07529,34.33146],[131.07553,34.33074],[131.07768,34.32956],[131.07677,34.32919],[131.07625,34.32856],[131.07565,34.32844],[131.07499,34.32728],[131.07497,34.32668],[131.07538,34.32586],[131.07563,34.32569],[131.07602,34.32571],[131.07629,34.32514],[131.07591,34.3243],[131.07578,34.32361],[131.07485,34.32242],[131.07626,34.32142],[131.07659,34.32083],[131.07638,34.31917],[131.07558,34.31867],[131.07513,34.31813],[131.07406,34.3176],[131.07419,34.31717],[131.07457,34.3168],[131.07602,34.31602],[131.0761,34.31507],[131.07655,34.31435],[131.07663,34.31374],[131.07604,34.31305],[131.07534,34.31256],[131.07558,34.31162],[131.07527,34.31104],[131.0744,34.31069],[131.07484,34.30907],[131.07448,34.30818],[131.07197,34.30719],[131.07146,34.30679],[131.0714,34.30621],[131.07194,34.3053],[131.072,34.30488],[131.07192,34.30418],[131.0716,34.30365],[131.07054,34.30316],[131.06934,34.30294],[131.06867,34.30258],[131.06787,34.30177],[131.06745,34.30087],[131.06673,34.30079],[131.0662,34.29998],[131.06573,34.29995],[131.06519,34.30016],[131.06491,34.30006],[131.06474,34.29951],[131.06403,34.29835],[131.06369,34.29814],[131.06331,34.29683],[131.06249,34.29645],[131.06188,34.29678],[131.06152,34.29773],[131.06089,34.29804],[131.06031,34.29939],[131.05973,34.30007],[131.05816,34.30022],[131.05849,34.30139],[131.05841,34.30367],[131.05792,34.30402],[131.05793,34.30525],[131.05716,34.30502],[131.05469,34.30511],[131.0538,34.30533],[131.05314,34.3058],[131.05118,34.30579],[131.04968,34.30639],[131.0491,34.30723],[131.04851,34.30762],[131.04629,34.30844],[131.046,34.30883],[131.0441,34.30983],[131.043,34.31095],[131.04273,34.31094],[131.04197,34.31048],[131.04068,34.31024],[131.03974,34.3106],[131.03843,34.31057],[131.03732,34.3108],[131.03574,34.31148],[131.03565,34.31188],[131.03602,34.31337],[131.03536,34.31465],[131.03525,34.31614],[131.03507,34.3166],[131.03378,34.31796],[131.03376,34.31917],[131.03293,34.32062],[131.03258,34.32161],[131.03163,34.32221],[131.03089,34.32238],[131.02984,34.32212],[131.02859,34.3227],[131.02708,34.32314],[131.02671,34.32349],[131.0258,34.32371],[131.02534,34.32429],[131.02474,34.32465],[131.02019,34.32551],[131.02093,34.32874],[131.02067,34.32982],[131.01999,34.33078],[131.01986,34.33128],[131.01822,34.33227],[131.01756,34.33311],[131.01751,34.3337],[131.01649,34.33407],[131.01595,34.33473],[131.01573,34.33549],[131.01501,34.33579],[131.01498,34.33764],[131.01446,34.33786],[131.01359,34.33886],[131.01353,34.33992],[131.01326,34.34037],[131.01226,34.34096],[131.01148,34.3418],[131.01055,34.3424],[131.00766,34.34298],[131.00701,34.34347],[131.00621,34.3445],[131.00445,34.34473],[131.00274,34.34555],[131.00227,34.34641],[131.00231,34.34768],[131.00187,34.34897],[131.00165,34.35145],[131.0012,34.35224],[131.0011,34.35275],[130.9998,34.35281],[130.99835,34.35237],[130.99722,34.35264],[130.99675,34.35319],[130.99615,34.35356],[130.99584,34.35435],[130.99497,34.35463],[130.99426,34.35535],[130.99428,34.35628],[130.99386,34.35712],[130.99397,34.35767],[130.99351,34.3581],[130.99206,34.35846],[130.99186,34.35846],[130.99144,34.35806],[130.9905,34.35838],[130.98961,34.35915],[130.98803,34.35987],[130.98618,34.35985],[130.98391,34.36104],[130.9972,34.36132],[130.9995,34.36044],[131.00852,34.36035],[131.00851,34.36088],[131.00871,34.36104],[131.00964,34.36138],[131.01079,34.36138],[131.01144,34.36263],[131.01224,34.36314],[131.01634,34.36327],[131.01637,34.35844],[131.01649,34.35818],[131.01616,34.35357],[131.01606,34.34925],[131.01624,34.34833],[131.01662,34.34754],[131.02029,34.34296],[131.02234,34.3398],[131.02245,34.33516],[131.02363,34.33308],[131.02386,34.33291],[131.02502,34.33411],[131.0252,34.33456],[131.02582,34.34117],[131.01894,34.34992],[131.01871,34.35071],[131.01909,34.35481],[131.02777,34.35493],[131.02761,34.35429],[131.02699,34.35336],[131.02738,34.35158],[131.02793,34.35138],[131.02954,34.35137],[131.03039,34.35179],[131.03159,34.35482],[131.03179,34.355],[131.03368,34.35512],[131.03436,34.35559],[131.03519,34.35702],[131.0357,34.35856],[131.03578,34.35989],[131.03981,34.35998],[131.03895,34.36213],[131.03874,34.36601],[131.03789,34.37048],[131.03585,34.37212],[131.03657,34.37275],[131.0376,34.37298],[131.03763,34.37314],[131.03645,34.37287],[131.03571,34.37219],[131.03489,34.37293],[131.0352,34.37672],[131.03821,34.37681],[131.03825,34.37724],[131.04034,34.37721],[131.04299,34.37782],[131.04682,34.37773]]]},"properties":{"key":"352110200","name":"油谷河原","pref":"山口県","prefCode":"35","municipality":"長門市","areaM2":33732379.522,"population":595,"toponymIds":["35-eb79826f09"]}},{"type":"Feature","geometry":{"type":"Polygon","coordinates":[[[131.05449,34.39852],[131.05406,34.39733],[131.05465,34.39693],[131.05484,34.3958],[131.05595,34.39589],[131.05766,34.39573],[131.05784,34.39497],[131.05835,34.39452],[131.0592,34.39478],[131.06069,34.39574],[131.06148,34.39552],[131.06271,34.39565],[131.06345,34.3959],[131.06402,34.39579],[131.06417,34.39518],[131.06481,34.39509],[131.06542,34.3947],[131.06621,34.39372],[131.06731,34.39357],[131.06757,34.39308],[131.06755,34.39191],[131.06775,34.39123],[131.0688,34.3902],[131.07034,34.38829],[131.0719,34.38732],[131.07379,34.38511],[131.0739,34.3848],[131.07349,34.3842],[131.07183,34.38279],[131.0705,34.38185],[131.06971,34.38152],[131.06858,34.38148],[131.06685,34.38223],[131.06557,34.38217],[131.06499,34.38188],[131.06392,34.38105],[131.06034,34.37689],[131.05905,34.37607],[131.05828,34.37591],[131.05584,34.37587],[131.05499,34.37623],[131.05424,34.37699],[131.05262,34.37768],[131.04388,34.37787],[131.04299,34.37782],[131.04034,34.37721],[131.03825,34.37724],[131.03819,34.37778],[131.03459,34.37813],[131.03519,34.37809],[131.0353,34.37845],[131.03525,34.3781],[131.03638,34.37796],[131.03652,34.37884],[131.03561,34.37894],[131.03553,34.37874],[131.03555,34.37894],[131.03442,34.37915],[131.03389,34.37829],[131.03442,34.37927],[131.0357,34.38018],[131.03816,34.38111],[131.03983,34.38136],[131.04076,34.38214],[131.04182,34.38235],[131.0424,34.38382],[131.04374,34.38504],[131.04333,34.38642],[131.04233,34.38789],[131.04227,34.3883],[131.04278,34.38938],[131.04464,34.39076],[131.04507,34.39128],[131.04529,34.39263],[131.04625,34.39417],[131.04655,34.3949],[131.04664,34.39581],[131.04652,34.39663],[131.04613,34.39723],[131.04437,34.39814],[131.05023,34.39819],[131.05449,34.39852]]]},"properties":{"key":"352110220","name":"油谷蔵小田","pref":"山口県","prefCode":"35","municipality":"長門市","areaM2":5090668.422,"population":526,"toponymIds":["35-cd73c67de5"]}},{"type":"Feature","geometry":{"type":"Polygon","coordinates":[[[131.23543,34.12673],[131.23392,34.12666],[131.23329,34.12573],[131.23228,34.1254],[131.23133,34.12483],[131.23096,34.12431],[131.23074,34.12359],[131.23027,34.12324],[131.22914,34.12307],[131.22721,34.12226],[131.2262,34.12211],[131.22456,34.12274],[131.22344,34.12276],[131.22153,34.12108],[131.22129,34.1206],[131.22104,34.12044],[131.2193,34.12019],[131.21922,34.12224],[131.2197,34.12276],[131.21991,34.12329],[131.22049,34.12339],[131.22071,34.12367],[131.22068,34.12434],[131.2199,34.12511],[131.22005,34.12644],[131.21987,34.12689],[131.22076,34.12752],[131.22132,34.12852],[131.22224,34.1333],[131.22456,34.13624],[131.22639,34.13714],[131.22674,34.13755],[131.22723,34.14007],[131.22912,34.14137],[131.2294,34.14281],[131.22997,34.1439],[131.23191,34.14558],[131.23285,34.14678],[131.23363,34.14857],[131.23338,34.14928],[131.23572,34.15032],[131.23971,34.1529],[131.23992,34.15169],[131.24144,34.14981],[131.24182,34.14901],[131.24241,34.14633],[131.24206,34.14526],[131.24124,34.14395],[131.24096,34.14315],[131.2402,34.13917],[131.23912,34.13844],[131.23888,34.13769],[131.23894,34.13713],[131.23774,34.13663],[131.23751,34.13629],[131.23778,34.13453],[131.23733,34.13345],[131.23746,34.13263],[131.23674,34.13086],[131.23708,34.12979],[131.23706,34.12834],[131.23754,34.12727],[131.23679,34.12695],[131.23543,34.12673]]]},"properties":{"key":"35213002003","name":"伊佐町奥万倉","pref":"山口県","prefCode":"35","municipality":"美祢市","areaM2":3653753.683,"population":101,"toponymIds":["35-d996156b3f"]}},{"type":"Feature","geometry":{"type":"Polygon","coordinates":[[[131.25572,34.22395],[131.25706,34.22398],[131.25977,34.22349],[131.2608,34.22253],[131.2625,34.22054],[131.26269,34.2201],[131.26289,34.21741],[131.26314,34.21614],[131.26287,34.21562],[131.26204,34.21521],[131.26182,34.21392],[131.26117,34.21299],[131.26117,34.21278],[131.2613,34.21261],[131.26327,34.21232],[131.26527,34.21138],[131.2667,34.21013],[131.26699,34.20977],[131.26716,34.20868],[131.26801,34.20793],[131.26951,34.20619],[131.26961,34.20333],[131.27004,34.20196],[131.27101,34.20023],[131.27086,34.19627],[131.27044,34.19398],[131.27051,34.19296],[131.2708,34.19213],[131.27192,34.19124],[131.27225,34.19046],[131.27181,34.18892],[131.27154,34.1885],[131.27075,34.18786],[131.26851,34.187],[131.26741,34.18717],[131.26639,34.18679],[131.26494,34.18665],[131.2636,34.18611],[131.26338,34.18585],[131.26343,34.18525],[131.26222,34.1838],[131.26228,34.18297],[131.26197,34.18256],[131.26055,34.18228],[131.25977,34.18187],[131.25807,34.18173],[131.25656,34.18119],[131.25606,34.18132],[131.25527,34.18072],[131.25453,34.18047],[131.25429,34.18066],[131.25369,34.18039],[131.25205,34.18018],[131.25168,34.1794],[131.25175,34.17834],[131.2514,34.17834],[131.25124,34.17788],[131.25004,34.1773],[131.2495,34.17806],[131.24905,34.17834],[131.24835,34.17843],[131.2469,34.18025],[131.24635,34.18035],[131.243,34.18342],[131.23971,34.18407],[131.23885,34.18442],[131.23861,34.18475],[131.23849,34.18533],[131.23927,34.1866],[131.23926,34.18744],[131.23877,34.18855],[131.23668,34.18989],[131.23502,34.192],[131.23488,34.1923],[131.23583,34.19353],[131.23579,34.1938],[131.23487,34.1957],[131.23431,34.19751],[131.23304,34.19824],[131.23301,34.19847],[131.23343,34.19935],[131.2332,34.20045],[131.23238,34.20208],[131.23461,34.20443],[131.23481,34.20503],[131.23492,34.2062],[131.23473,34.20657],[131.23407,34.20708],[131.23375,34.20765],[131.23366,34.20872],[131.23472,34.20999],[131.23489,34.21096],[131.23635,34.21184],[131.23803,34.21215],[131.2386,34.21325],[131.2391,34.21362],[131.23991,34.2135],[131.2407,34.21372],[131.24264,34.21295],[131.24356,34.21321],[131.2445,34.21371],[131.24479,34.21421],[131.24444,34.21508],[131.24478,34.21628],[131.24621,34.21633],[131.24684,34.2167],[131.24766,34.21812],[131.24773,34.21847],[131.24753,34.21883],[131.24787,34.21951],[131.25066,34.22107],[131.25093,34.22188],[131.25191,34.22216],[131.25238,34.22293],[131.25268,34.22429],[131.25293,34.22472],[131.25572,34.22395]]]},"properties":{"key":"35213002002","name":"伊佐町河原","pref":"山口県","prefCode":"35","municipality":"美祢市","areaM2":12217068.296,"population":166,"toponymIds":["35-4663e4770e"]}},{"type":"Feature","geometry":{"type":"Polygon","coordinates":[[[131.83738,34.30996],[131.83754,34.30895],[131.83792,34.30865],[131.83989,34.30883],[131.84018,34.30871],[131.8404,34.30832],[131.84092,34.30827],[131.84185,34.30855],[131.84239,34.30981],[131.84333,34.31013],[131.84434,34.31077],[131.84488,34.31087],[131.84619,34.3103],[131.84654,34.30987],[131.84656,34.30907],[131.84801,34.30774],[131.85026,34.30693],[131.85074,34.30646],[131.85255,34.30618],[131.85488,34.30645],[131.85524,34.30616],[131.85599,34.306],[131.85664,34.30566],[131.85747,34.30507],[131.859,34.30501],[131.85975,34.30465],[131.8604,34.30474],[131.86101,34.30524],[131.86127,34.3057],[131.863,34.30542],[131.86515,34.30624],[131.8668,34.30573],[131.86705,34.30551],[131.86954,34.30492],[131.87113,34.30675],[131.87146,34.30734],[131.87206,34.30752],[131.87243,34.30783],[131.87254,34.30848],[131.87269,34.30861],[131.87349,34.309],[131.87475,34.30875],[131.87664,34.30942],[131.87967,34.30963],[131.88104,34.30879],[131.88103,34.30856],[131.88194,34.30752],[131.88172,34.30711],[131.88125,34.30706],[131.88111,34.30689],[131.88158,34.30629],[131.87978,34.30549],[131.87967,34.30443],[131.88007,34.30365],[131.87979,34.30323],[131.87995,34.3028],[131.87922,34.30254],[131.87889,34.30203],[131.87888,34.30131],[131.87907,34.30106],[131.8809,34.30032],[131.88116,34.29993],[131.88149,34.29978],[131.88171,34.299],[131.88157,34.29843],[131.8819,34.29802],[131.88257,34.29788],[131.88261,34.29723],[131.88205,34.29648],[131.88198,34.29583],[131.88233,34.29497],[131.88219,34.2946],[131.88243,34.29383],[131.88189,34.29354],[131.88196,34.29281],[131.88132,34.29176],[131.88153,34.29108],[131.88196,34.29064],[131.88169,34.28955],[131.88175,34.28897],[131.88135,34.28846],[131.88136,34.28753],[131.88107,34.28737],[131.88087,34.28687],[131.88038,34.28653],[131.8801,34.28558],[131.88034,34.28509],[131.88064,34.28368],[131.88072,34.28301],[131.88057,34.28275],[131.88072,34.2821],[131.88119,34.28151],[131.88144,34.28016],[131.88236,34.2793],[131.88212,34.27793],[131.88173,34.27773],[131.88138,34.27703],[131.88138,34.27593],[131.87995,34.27468],[131.87911,34.27476],[131.8787,34.27447],[131.87993,34.2738],[131.88071,34.27367],[131.881,34.27321],[131.88144,34.27113],[131.88102,34.26938],[131.88167,34.2686],[131.88194,34.26766],[131.88268,34.2673],[131.88285,34.2665],[131.88405,34.26449],[131.88424,34.2639],[131.88472,34.26333],[131.88391,34.26219],[131.88346,34.26196],[131.88603,34.26162],[131.88637,34.26144],[131.88753,34.26142],[131.88784,34.26063],[131.87819,34.25892],[131.87449,34.25751],[131.87235,34.2564],[131.87076,34.25531],[131.86954,34.25344],[131.86723,34.24877],[131.86596,34.24709],[131.86443,34.2458],[131.85986,34.24353],[131.86465,34.2349],[131.86021,34.22504],[131.85913,34.22361],[131.85626,34.22079],[131.85289,34.2188],[131.85084,34.21797],[131.84679,34.2231],[131.84076,34.22498],[131.83765,34.22819],[131.83273,34.23044],[131.83194,34.23955],[131.82493,34.23277],[131.82358,34.22814],[131.82052,34.22686],[131.82037,34.22787],[131.81964,34.22775],[131.81922,34.22632],[131.8186,34.22536],[131.81855,34.22432],[131.81741,34.22547],[131.81718,34.22601],[131.81613,34.22633],[131.81471,34.22621],[131.81472,34.22672],[131.81308,34.22772],[131.81228,34.2278],[131.81209,34.22811],[131.81035,34.22802],[131.8102,34.22848],[131.80944,34.22895],[131.80862,34.22797],[131.80848,34.22806],[131.80809,34.22876],[131.80841,34.22952],[131.8091,34.22996],[131.80942,34.23103],[131.81025,34.23133],[131.80993,34.23278],[131.80739,34.23394],[131.80651,34.23463],[131.80568,34.23569],[131.80542,34.23677],[131.8052,34.23848],[131.80807,34.24138],[131.80888,34.24202],[131.80985,34.24263],[131.81133,34.2431],[131.80718,34.24985],[131.8102,34.26248],[131.81827,34.28586],[131.81919,34.29542],[131.82082,34.30274],[131.82183,34.30335],[131.82198,34.30388],[131.82185,34.30472],[131.82287,34.30515],[131.82367,34.30528],[131.82481,34.30503],[131.82555,34.30436],[131.82647,34.30399],[131.82788,34.30357],[131.82893,34.30356],[131.82926,34.30267],[131.83038,34.30243],[131.83127,34.30252],[131.83164,34.30274],[131.83246,34.30373],[131.83262,34.3048],[131.83253,34.30646],[131.83361,34.30843],[131.83364,34.3093],[131.83339,34.30964],[131.83348,34.30978],[131.83394,34.30977],[131.83439,34.31022],[131.83407,34.31113],[131.83562,34.31129],[131.83664,34.31116],[131.83731,34.31063],[131.83738,34.30996]]]},"properties":{"key":"352151900","name":"大字鹿野上","pref":"山口県","prefCode":"35","municipality":"周南市","areaM2":50889527.701,"population":1226,"toponymIds":["35-74b5146b12"]}},{"type":"Feature","geometry":{"type":"Polygon","coordinates":[[[131.83765,34.22819],[131.84076,34.22498],[131.84679,34.2231],[131.85084,34.21797],[131.84298,34.21488],[131.84551,34.20835],[131.84613,34.20635],[131.84664,34.20416],[131.84668,34.20329],[131.84645,34.20169],[131.84527,34.19792],[131.84387,34.19539],[131.84374,34.19563],[131.84224,34.19679],[131.84131,34.19696],[131.83963,34.19805],[131.83761,34.1987],[131.83678,34.1995],[131.83488,34.2],[131.83355,34.19969],[131.83186,34.19955],[131.83061,34.19973],[131.82975,34.19967],[131.82842,34.19909],[131.82757,34.19801],[131.82698,34.19793],[131.82599,34.19813],[131.82512,34.19791],[131.82481,34.19735],[131.82449,34.19608],[131.82393,34.19517],[131.82268,34.1943],[131.82152,34.19389],[131.82098,34.19334],[131.81917,34.19433],[131.8185,34.19441],[131.81502,34.19247],[131.81468,34.19247],[131.81316,34.19352],[131.81242,34.19441],[131.81172,34.19455],[131.81059,34.19393],[131.80908,34.1938],[131.80824,34.19342],[131.80747,34.19255],[131.80542,34.19211],[131.80325,34.19142],[131.80282,34.19175],[131.80166,34.19223],[131.80096,34.19306],[131.80091,34.19431],[131.80112,34.19477],[131.80117,34.19562],[131.80088,34.19689],[131.80044,34.19722],[131.80033,34.19789],[131.799,34.19927],[131.79793,34.20009],[131.7973,34.20169],[131.79598,34.20218],[131.79534,34.20293],[131.79447,34.20351],[131.79435,34.20418],[131.79372,34.20446],[131.79374,34.20536],[131.79354,34.20572],[131.79599,34.20714],[131.79586,34.2076],[131.79611,34.20929],[131.79637,34.21383],[131.79661,34.21409],[131.79815,34.21499],[131.79901,34.21526],[131.80094,34.21528],[131.80506,34.2148],[131.80675,34.2141],[131.80737,34.21252],[131.80907,34.21099],[131.80946,34.21164],[131.81022,34.2122],[131.81051,34.21084],[131.81152,34.21074],[131.81198,34.21054],[131.81235,34.21137],[131.81289,34.21166],[131.81311,34.21196],[131.81295,34.21288],[131.8131,34.21304],[131.81401,34.21984],[131.81544,34.22045],[131.81484,34.22132],[131.81401,34.22425],[131.81289,34.2265],[131.81255,34.22775],[131.81308,34.22772],[131.81472,34.22672],[131.81471,34.22621],[131.81613,34.22633],[131.81718,34.22601],[131.81741,34.22547],[131.81855,34.22432],[131.8186,34.22536],[131.81922,34.22632],[131.81964,34.22775],[131.82037,34.22787],[131.82052,34.22686],[131.82358,34.22814],[131.82493,34.23277],[131.83194,34.23955],[131.83273,34.23044],[131.83765,34.22819]]]},"properties":{"key":"352151920","name":"大字鹿野下","pref":"山口県","prefCode":"35","municipality":"周南市","areaM2":14142386.835,"population":978,"toponymIds":["35-546bfd6815"]}},{"type":"Feature","geometry":{"type":"Polygon","coordinates":[[[131.78754,34.24303],[131.79495,34.24157],[131.79888,34.24383],[131.80105,34.24127],[131.80118,34.24148],[131.80113,34.24383],[131.80145,34.24486],[131.80167,34.24484],[131.80761,34.24918],[131.81133,34.2431],[131.80985,34.24263],[131.80888,34.24202],[131.80807,34.24138],[131.8052,34.23848],[131.80568,34.23569],[131.80602,34.23511],[131.80739,34.23394],[131.80993,34.23278],[131.81025,34.23133],[131.80942,34.23103],[131.8091,34.22996],[131.80841,34.22952],[131.80811,34.22863],[131.80862,34.22797],[131.80944,34.22895],[131.8102,34.22848],[131.81035,34.22802],[131.81201,34.22815],[131.81228,34.2278],[131.81255,34.22775],[131.81289,34.2265],[131.81401,34.22425],[131.81484,34.22132],[131.81544,34.22045],[131.81401,34.21984],[131.8131,34.21304],[131.81295,34.21288],[131.81311,34.21196],[131.81289,34.21166],[131.81235,34.21137],[131.81198,34.21054],[131.81152,34.21074],[131.81051,34.21084],[131.81022,34.2122],[131.80946,34.21164],[131.80907,34.21099],[131.80737,34.21252],[131.80675,34.2141],[131.8056,34.21466],[131.80206,34.21519],[131.79982,34.2153],[131.79901,34.21526],[131.79815,34.21499],[131.79698,34.21437],[131.78535,34.21995],[131.78114,34.21945],[131.77653,34.23416],[131.77474,34.24101],[131.7789,34.23959],[131.77191,34.25133],[131.77195,34.25477],[131.76877,34.26513],[131.77602,34.26147],[131.7824,34.25469],[131.78676,34.24979],[131.78754,34.24303]]]},"properties":{"key":"352151910","name":"大字鹿野中","pref":"山口県","prefCode":"35","municipality":"周南市","areaM2":11424952.642,"population":408,"toponymIds":["35-528cec8890"]}},{"type":"Feature","geometry":{"type":"Polygon","coordinates":[[[131.80596,34.0565],[131.8055,34.05571],[131.80563,34.05566],[131.80525,34.05517],[131.80391,34.05571],[131.80394,34.056],[131.80464,34.05704],[131.80596,34.0565]]]},"properties":{"key":"35215050001","name":"梅園町一丁目","pref":"山口県","prefCode":"35","municipality":"周南市","areaM2":22736.777,"population":294,"toponymIds":["35-5d404a7c9a"]}},{"type":"Feature","geometry":{"type":"Polygon","coordinates":[[[131.72617,34.07128],[131.72701,34.07038],[131.7277,34.0685],[131.72638,34.06787],[131.72596,34.06822],[131.72531,34.06969],[131.72509,34.0704],[131.72541,34.07054],[131.72534,34.07087],[131.72504,34.07102],[131.72454,34.071],[131.72429,34.07154],[131.72492,34.07166],[131.72452,34.07316],[131.72561,34.0733],[131.72617,34.07128]]]},"properties":{"key":"352151520","name":"かせ河原町","pref":"山口県","prefCode":"35","municipality":"周南市","areaM2":81871.64,"population":259,"toponymIds":["35-00103b5048"]}},{"type":"Feature","geometry":{"type":"Polygon","coordinates":[[[131.81011,34.05483],[131.80899,34.05282],[131.80764,34.05339],[131.80752,34.05329],[131.80716,34.05344],[131.80722,34.05356],[131.80627,34.05393],[131.80645,34.0542],[131.80628,34.05427],[131.80665,34.05482],[131.80774,34.05439],[131.80782,34.05453],[131.80844,34.05428],[131.80899,34.05528],[131.81011,34.05483]]]},"properties":{"key":"35215061001","name":"桜馬場通一丁目","pref":"山口県","prefCode":"35","municipality":"周南市","areaM2":47460.738,"population":89,"toponymIds":["35-34e7d90bcc"]}},{"type":"Feature","geometry":{"type":"Polygon","coordinates":[[[131.77735,34.06898],[131.77718,34.06859],[131.77279,34.06971],[131.7733,34.07105],[131.77772,34.06994],[131.77735,34.06898]]]},"properties":{"key":"352151410","name":"古川町","pref":"山口県","prefCode":"35","municipality":"周南市","areaM2":66286.915,"population":691,"toponymIds":["35-00eb9a3486"]}},{"type":"Feature","geometry":{"type":"Polygon","coordinates":[[[131.18202,34.01865],[131.18228,34.01792],[131.18221,34.01688],[131.18272,34.01628],[131.18299,34.01541],[131.18282,34.01439],[131.1805,34.01309],[131.18022,34.01463],[131.18039,34.01509],[131.1798,34.01504],[131.17984,34.01608],[131.17939,34.01667],[131.17989,34.01808],[131.18123,34.01798],[131.18155,34.01868],[131.18163,34.01857],[131.18173,34.01871],[131.18202,34.01865]]]},"properties":{"key":"35216032001","name":"柿の木坂一丁目","pref":"山口県","prefCode":"35","municipality":"山陽小野田市","areaM2":127986.784,"population":567,"toponymIds":["35-73d0854268"]}}]}
