{"type":"FeatureCollection","features":[{"type":"Feature","geometry":{"type":"Polygon","coordinates":[[[134.52087,34.07665],[134.5212,34.0747],[134.52081,34.07466],[134.52072,34.07409],[134.52017,34.07403],[134.51977,34.0761],[134.51914,34.07601],[134.51883,34.07728],[134.52071,34.07764],[134.52087,34.07665]]]},"properties":{"key":"36201119001","name":"蔵本町一丁目","pref":"徳島県","prefCode":"36","municipality":"徳島市","areaM2":47544.742,"population":3,"toponymIds":["36-55d1835362"]}},{"type":"Feature","geometry":{"type":"Polygon","coordinates":[[[134.52043,34.07871],[134.52071,34.07764],[134.51951,34.07741],[134.51907,34.07954],[134.52018,34.07968],[134.52043,34.07871]]]},"properties":{"key":"36201120001","name":"蔵本元町一丁目","pref":"徳島県","prefCode":"36","municipality":"徳島市","areaM2":25706.74,"population":123,"toponymIds":["36-67e7134cda"]}},{"type":"Feature","geometry":{"type":"Polygon","coordinates":[[[134.47511,34.095],[134.47887,34.09482],[134.47778,34.09396],[134.47573,34.09303],[134.47499,34.09207],[134.47432,34.09195],[134.47402,34.09034],[134.47196,34.0879],[134.47129,34.08731],[134.47089,34.0874],[134.47083,34.08785],[134.47008,34.08777],[134.46995,34.08767],[134.46991,34.08709],[134.46956,34.08691],[134.46953,34.08761],[134.46893,34.08816],[134.46838,34.08911],[134.47017,34.091],[134.47042,34.09158],[134.47057,34.09219],[134.4702,34.0932],[134.47029,34.09424],[134.47075,34.09452],[134.47357,34.09532],[134.47511,34.095]]]},"properties":{"key":"362011670","name":"国府町川原田","pref":"徳島県","prefCode":"36","municipality":"徳島市","areaM2":376471.792,"population":190,"toponymIds":["36-6c717ad3cf"]}},{"type":"Feature","geometry":{"type":"Polygon","coordinates":[[[134.46532,34.08641],[134.46558,34.08612],[134.46559,34.08568],[134.46669,34.0853],[134.46834,34.08574],[134.46874,34.08612],[134.46935,34.08337],[134.46915,34.08315],[134.46947,34.08165],[134.46976,34.08134],[134.46911,34.08],[134.4686,34.08],[134.46847,34.08037],[134.46808,34.07996],[134.46449,34.07947],[134.46377,34.0796],[134.46334,34.0823],[134.46417,34.08254],[134.46394,34.0835],[134.46316,34.08334],[134.46232,34.08679],[134.4642,34.0867],[134.46512,34.08686],[134.46532,34.08641]]]},"properties":{"key":"362011680","name":"国府町桜間","pref":"徳島県","prefCode":"36","municipality":"徳島市","areaM2":385775.013,"population":179,"toponymIds":["36-69bee6a38a"]}},{"type":"Feature","geometry":{"type":"Polygon","coordinates":[[[134.55944,34.07153],[134.55905,34.06906],[134.55762,34.06926],[134.55713,34.06703],[134.5564,34.0671],[134.55627,34.06843],[134.55542,34.07154],[134.55672,34.0716],[134.55658,34.07047],[134.55792,34.07042],[134.55808,34.07161],[134.55944,34.07153]]]},"properties":{"key":"36201005001","name":"新蔵町一丁目","pref":"徳島県","prefCode":"36","municipality":"徳島市","areaM2":94814.4,"population":323,"toponymIds":["36-71f0dd51f0"]}},{"type":"Feature","geometry":{"type":"Polygon","coordinates":[[[134.58347,34.05346],[134.58463,34.05335],[134.58616,34.05163],[134.58805,34.05131],[134.58801,34.05108],[134.58948,34.05083],[134.58944,34.05061],[134.58999,34.05051],[134.5901,34.05095],[134.59052,34.05088],[134.59048,34.05063],[134.5918,34.0504],[134.59196,34.05018],[134.59567,34.04954],[134.59611,34.04933],[134.59552,34.04773],[134.59506,34.04784],[134.59364,34.04389],[134.5935,34.04393],[134.5938,34.04452],[134.59065,34.04527],[134.59187,34.04878],[134.58929,34.04922],[134.58922,34.04904],[134.58937,34.04898],[134.58921,34.04902],[134.58793,34.04541],[134.59098,34.04455],[134.58998,34.04171],[134.59008,34.04164],[134.58993,34.04158],[134.5888,34.03846],[134.5918,34.03896],[134.5933,34.04319],[134.59317,34.04334],[134.59331,34.04323],[134.59412,34.04343],[134.59338,34.04319],[134.59183,34.03888],[134.58879,34.03844],[134.58701,34.03882],[134.58263,34.04061],[134.58251,34.04034],[134.58202,34.04058],[134.58186,34.04042],[134.58015,34.04095],[134.58029,34.0414],[134.58066,34.04146],[134.58148,34.04383],[134.58449,34.05008],[134.58463,34.05116],[134.58452,34.05195],[134.5843,34.05248],[134.58404,34.05269],[134.58307,34.05299],[134.58314,34.05353],[134.58347,34.05346]]]},"properties":{"key":"362011040","name":"津田海岸町","pref":"徳島県","prefCode":"36","municipality":"徳島市","areaM2":1109249.87,"population":0,"toponymIds":["36-139e656e46"]}},{"type":"Feature","geometry":{"type":"Polygon","coordinates":[[[134.5212,34.0747],[134.52123,34.07352],[134.52099,34.07285],[134.52036,34.07288],[134.52036,34.0736],[134.52017,34.07403],[134.52072,34.07409],[134.52081,34.07466],[134.5212,34.0747]]]},"properties":{"key":"36201123001","name":"南蔵本町一丁目","pref":"徳島県","prefCode":"36","municipality":"徳島市","areaM2":13546.529,"population":101,"toponymIds":["36-683b1e5b05"]}},{"type":"Feature","geometry":{"type":"Polygon","coordinates":[[[134.50004,34.18195],[134.5,34.18175],[134.49984,34.18173],[134.50004,34.18137],[134.49995,34.18063],[134.50032,34.18036],[134.50096,34.1789],[134.50149,34.17844],[134.50167,34.17765],[134.50221,34.17741],[134.50346,34.17465],[134.5014,34.17392],[134.50106,34.17354],[134.50126,34.17336],[134.50093,34.1724],[134.50032,34.17223],[134.49994,34.17179],[134.50191,34.17111],[134.50199,34.17095],[134.50178,34.17017],[134.50209,34.16915],[134.50161,34.16868],[134.50159,34.16828],[134.50115,34.16777],[134.50107,34.16744],[134.50056,34.16521],[134.50027,34.16213],[134.49895,34.15695],[134.4989,34.15591],[134.49892,34.15177],[134.49999,34.14944],[134.50022,34.147],[134.50071,34.14592],[134.50125,34.14341],[134.50034,34.14353],[134.49944,34.14391],[134.49839,34.14335],[134.49721,34.14492],[134.49532,34.14627],[134.49497,34.14545],[134.49284,34.14642],[134.49069,34.14703],[134.49032,34.14726],[134.4908,34.14826],[134.48905,34.14832],[134.48696,34.148],[134.48661,34.14838],[134.48611,34.14834],[134.48565,34.1485],[134.48575,34.14899],[134.48561,34.14928],[134.48585,34.14954],[134.48583,34.15038],[134.48632,34.1509],[134.48567,34.15173],[134.48651,34.15257],[134.48661,34.15319],[134.486,34.15391],[134.48603,34.15463],[134.48468,34.15499],[134.48421,34.15588],[134.48452,34.15746],[134.48429,34.15803],[134.48385,34.15837],[134.4845,34.16336],[134.48351,34.16435],[134.48335,34.16508],[134.48303,34.16556],[134.48348,34.16632],[134.48347,34.16658],[134.48194,34.16836],[134.4817,34.16933],[134.48054,34.16994],[134.47983,34.17166],[134.48073,34.17262],[134.48036,34.17331],[134.48047,34.17447],[134.48029,34.17587],[134.48569,34.17749],[134.48839,34.17778],[134.49463,34.18111],[134.49561,34.18448],[134.49599,34.18504],[134.49695,34.18559],[134.49823,34.18594],[134.49849,34.18669],[134.49958,34.18625],[134.49925,34.18547],[134.49959,34.18505],[134.4993,34.18429],[134.49935,34.18399],[134.49973,34.18394],[134.49995,34.18374],[134.49981,34.18335],[134.50015,34.18251],[134.49996,34.18214],[134.50004,34.18195]]]},"properties":{"key":"36202007021","name":"大麻町桧","pref":"徳島県","prefCode":"36","municipality":"鳴門市","areaM2":5950620.091,"population":2148,"toponymIds":["36-c4694233de"]}},{"type":"Feature","geometry":{"type":"Polygon","coordinates":[[[134.55101,34.19957],[134.55096,34.19923],[134.55115,34.19886],[134.55178,34.19862],[134.55181,34.19822],[134.55211,34.19784],[134.55263,34.19778],[134.55282,34.19689],[134.55342,34.19592],[134.55423,34.19609],[134.55608,34.19592],[134.55885,34.1951],[134.56029,34.19412],[134.5609,34.19349],[134.56162,34.19224],[134.56212,34.18628],[134.56158,34.18547],[134.56037,34.18504],[134.55785,34.18112],[134.55715,34.1804],[134.55551,34.1767],[134.55552,34.17593],[134.55583,34.17489],[134.55638,34.17412],[134.55806,34.17241],[134.56016,34.17082],[134.5589,34.17056],[134.5548,34.16916],[134.55371,34.16893],[134.54446,34.16911],[134.54459,34.16699],[134.54429,34.16491],[134.54496,34.16264],[134.54524,34.16055],[134.54568,34.15994],[134.54545,34.15938],[134.54553,34.15812],[134.54484,34.15811],[134.54503,34.15698],[134.54544,34.15648],[134.54471,34.15619],[134.5441,34.15555],[134.54351,34.15587],[134.54252,34.15591],[134.54199,34.15612],[134.54056,34.1552],[134.54,34.15575],[134.53801,34.15688],[134.53822,34.15739],[134.53819,34.15811],[134.53861,34.1587],[134.53793,34.15957],[134.53734,34.15984],[134.53682,34.15978],[134.53684,34.1612],[134.53645,34.16125],[134.53638,34.16098],[134.53547,34.16099],[134.5348,34.16185],[134.53417,34.16218],[134.53393,34.16249],[134.53325,34.16295],[134.53221,34.16324],[134.5322,34.1649],[134.53789,34.16424],[134.5385,34.16586],[134.53824,34.16716],[134.53834,34.16765],[134.53937,34.16938],[134.52822,34.17073],[134.52724,34.17261],[134.52704,34.17383],[134.52711,34.17508],[134.52771,34.17594],[134.53309,34.18058],[134.53484,34.183],[134.53849,34.18495],[134.53891,34.18548],[134.54014,34.18868],[134.54421,34.19423],[134.54478,34.19552],[134.54501,34.19565],[134.54567,34.19539],[134.54552,34.19491],[134.5458,34.19477],[134.54576,34.19511],[134.54598,34.19547],[134.54559,34.19584],[134.54557,34.19611],[134.54645,34.19701],[134.54717,34.19726],[134.54743,34.19773],[134.54869,34.19763],[134.54918,34.19791],[134.55021,34.19778],[134.55025,34.19792],[134.54988,34.19836],[134.5501,34.19869],[134.54964,34.19954],[134.55034,34.19952],[134.55069,34.19988],[134.55091,34.19984],[134.55101,34.19957]]]},"properties":{"key":"36202007002","name":"大麻町大谷","pref":"徳島県","prefCode":"36","municipality":"鳴門市","areaM2":7680495.383,"population":1432,"toponymIds":["36-b1eec35389","36-56cb3a1794","36-627ed1bc03"]}},{"type":"Feature","geometry":{"type":"Polygon","coordinates":[[[134.51662,34.16519],[134.51774,34.16471],[134.51923,34.16458],[134.51945,34.16438],[134.52658,34.16426],[134.52596,34.1617],[134.52497,34.15944],[134.52458,34.15903],[134.52425,34.15783],[134.52429,34.1565],[134.5238,34.15542],[134.52411,34.15511],[134.52426,34.15465],[134.52369,34.15205],[134.52353,34.15227],[134.52271,34.15208],[134.52259,34.15107],[134.52241,34.15071],[134.52284,34.15005],[134.52372,34.14955],[134.52357,34.14904],[134.52304,34.14879],[134.52279,34.14842],[134.52358,34.14785],[134.52301,34.14749],[134.52291,34.14661],[134.52095,34.14648],[134.52101,34.14557],[134.51874,34.14534],[134.51822,34.14923],[134.51778,34.14979],[134.51369,34.15165],[134.51332,34.15194],[134.51326,34.15235],[134.51194,34.15241],[134.51153,34.15266],[134.51127,34.1532],[134.51155,34.15512],[134.5108,34.15611],[134.51,34.15635],[134.50969,34.1566],[134.50902,34.15826],[134.50811,34.15886],[134.5092,34.15951],[134.514,34.1651],[134.51449,34.16474],[134.51527,34.16512],[134.51578,34.16487],[134.51639,34.16521],[134.51662,34.16519]]]},"properties":{"key":"36202007023","name":"大麻町萩原","pref":"徳島県","prefCode":"36","municipality":"鳴門市","areaM2":2153130.062,"population":683,"toponymIds":["36-4a66277095"]}},{"type":"Feature","geometry":{"type":"Polygon","coordinates":[[[134.5059,34.2167],[134.50764,34.21678],[134.5096,34.21487],[134.51218,34.2137],[134.51339,34.21332],[134.51445,34.21324],[134.5155,34.2134],[134.51775,34.2147],[134.51814,34.21463],[134.51699,34.21186],[134.51695,34.2112],[134.5171,34.21071],[134.52125,34.20364],[134.52477,34.20611],[134.52745,34.20882],[134.5284,34.20925],[134.52999,34.20965],[134.53099,34.20949],[134.53296,34.20829],[134.53396,34.20793],[134.53698,34.20728],[134.53931,34.20633],[134.54043,34.20553],[134.54101,34.20471],[134.54112,34.20252],[134.54171,34.19948],[134.54267,34.19709],[134.54304,34.19663],[134.54478,34.19552],[134.54421,34.19423],[134.54014,34.18868],[134.53891,34.18548],[134.53849,34.18495],[134.53484,34.183],[134.53309,34.18058],[134.52771,34.17594],[134.52711,34.17508],[134.52704,34.17383],[134.52724,34.17261],[134.52822,34.17073],[134.52759,34.16891],[134.52658,34.16426],[134.51945,34.16438],[134.51923,34.16458],[134.51774,34.16471],[134.51651,34.16523],[134.51578,34.16487],[134.51527,34.16512],[134.51449,34.16474],[134.514,34.1651],[134.5092,34.15951],[134.50811,34.15886],[134.50902,34.15826],[134.50969,34.1566],[134.51,34.15635],[134.5108,34.15611],[134.51155,34.15512],[134.51127,34.1532],[134.51153,34.15266],[134.51194,34.15241],[134.51326,34.15235],[134.51332,34.15194],[134.51369,34.15165],[134.51778,34.14979],[134.51822,34.14923],[134.51835,34.14826],[134.50788,34.14695],[134.50828,34.14454],[134.50821,34.14389],[134.50757,34.14414],[134.50723,34.1441],[134.50701,34.14357],[134.50339,34.14391],[134.50332,34.14304],[134.50125,34.14341],[134.50071,34.14592],[134.50022,34.147],[134.49999,34.14944],[134.49892,34.15177],[134.49882,34.15252],[134.49895,34.15695],[134.50027,34.16213],[134.50056,34.16521],[134.50115,34.16777],[134.50152,34.16812],[134.50161,34.16868],[134.50209,34.16915],[134.50178,34.17017],[134.50199,34.17095],[134.50191,34.17111],[134.49994,34.17179],[134.50032,34.17223],[134.50093,34.1724],[134.50126,34.17336],[134.50106,34.17354],[134.5014,34.17392],[134.50346,34.17465],[134.50221,34.17741],[134.50167,34.17765],[134.50149,34.17844],[134.50096,34.1789],[134.50032,34.18036],[134.49995,34.18063],[134.50004,34.18137],[134.49984,34.18173],[134.5,34.18175],[134.49996,34.18214],[134.50015,34.18251],[134.49981,34.18335],[134.49995,34.18374],[134.49973,34.18394],[134.49935,34.18399],[134.4993,34.18429],[134.49959,34.18505],[134.49925,34.18547],[134.49958,34.18625],[134.49822,34.18687],[134.49609,34.18867],[134.49431,34.18917],[134.49278,34.18936],[134.49253,34.18958],[134.4929,34.19026],[134.49309,34.19183],[134.49295,34.19263],[134.49375,34.19369],[134.49323,34.1956],[134.49422,34.19698],[134.49483,34.20121],[134.49515,34.20164],[134.49834,34.20425],[134.49903,34.20553],[134.49958,34.2078],[134.50097,34.20961],[134.50077,34.21047],[134.49979,34.21278],[134.50007,34.21537],[134.49819,34.2162],[134.49811,34.21666],[134.49859,34.21712],[134.49994,34.21769],[134.50333,34.21808],[134.50388,34.21801],[134.5059,34.2167]]]},"properties":{"key":"36202007022","name":"大麻町板東","pref":"徳島県","prefCode":"36","municipality":"鳴門市","areaM2":20488077.689,"population":2220,"toponymIds":["36-ec62166e2d"]}},{"type":"Feature","geometry":{"type":"Polygon","coordinates":[[[134.5633,34.16952],[134.56376,34.16764],[134.56499,34.16409],[134.56258,34.16345],[134.56069,34.1627],[134.55871,34.16145],[134.55747,34.16118],[134.55693,34.16067],[134.55428,34.16049],[134.55232,34.15964],[134.5506,34.15856],[134.5502,34.15863],[134.54996,34.15909],[134.5466,34.15822],[134.54553,34.15812],[134.54545,34.15938],[134.54568,34.15994],[134.54524,34.16055],[134.54496,34.16264],[134.54429,34.16491],[134.54459,34.16699],[134.54446,34.16911],[134.55371,34.16893],[134.5548,34.16916],[134.5589,34.17056],[134.56016,34.17082],[134.5633,34.16952]]]},"properties":{"key":"36202007001","name":"大麻町姫田","pref":"徳島県","prefCode":"36","municipality":"鳴門市","areaM2":1781223.663,"population":825,"toponymIds":["36-530e355c42"]}},{"type":"Feature","geometry":{"type":"Polygon","coordinates":[[[134.59533,34.16856],[134.59534,34.16784],[134.59438,34.16784],[134.59162,34.16726],[134.59432,34.1602],[134.59207,34.15897],[134.58715,34.15919],[134.58574,34.15849],[134.58359,34.15789],[134.58329,34.15874],[134.58333,34.15917],[134.58368,34.15926],[134.58377,34.15944],[134.58367,34.16162],[134.58331,34.16349],[134.58278,34.16489],[134.58377,34.16532],[134.58431,34.16583],[134.58475,34.16668],[134.58517,34.16825],[134.58613,34.16938],[134.58743,34.17026],[134.58912,34.17086],[134.59168,34.1714],[134.59388,34.1715],[134.5967,34.17104],[134.5964,34.1705],[134.59634,34.16947],[134.59531,34.16931],[134.59533,34.16856]]]},"properties":{"key":"36202005005","name":"大津町木津野","pref":"徳島県","prefCode":"36","municipality":"鳴門市","areaM2":1182180.47,"population":1582,"toponymIds":["36-5a50a486bc"]}},{"type":"Feature","geometry":{"type":"Polygon","coordinates":[[[134.56204,34.16324],[134.562,34.15357],[134.56317,34.15374],[134.56332,34.15336],[134.56383,34.15294],[134.5648,34.15263],[134.56585,34.1519],[134.56677,34.15171],[134.56795,34.15189],[134.5696,34.15256],[134.57006,34.15157],[134.57018,34.15058],[134.5701,34.14997],[134.56945,34.14937],[134.56862,34.14934],[134.56711,34.1499],[134.56505,34.15081],[134.56382,34.15155],[134.56216,34.15131],[134.56085,34.15085],[134.56007,34.15081],[134.55771,34.15152],[134.55455,34.15149],[134.55347,34.15249],[134.55268,34.15291],[134.5524,34.15348],[134.55079,34.15519],[134.55072,34.15551],[134.55094,34.15635],[134.55077,34.15721],[134.5504,34.15749],[134.55033,34.15792],[134.55067,34.15826],[134.55066,34.15859],[134.55232,34.15964],[134.55428,34.16049],[134.55693,34.16067],[134.55747,34.16118],[134.55871,34.16145],[134.56059,34.16265],[134.56204,34.16324]]]},"properties":{"key":"36202005002","name":"大津町大幸","pref":"徳島県","prefCode":"36","municipality":"鳴門市","areaM2":1209719.927,"population":396,"toponymIds":["36-be239dc764"]}},{"type":"Feature","geometry":{"type":"Polygon","coordinates":[[[134.61008,34.16168],[134.60996,34.16101],[134.60839,34.15689],[134.6083,34.15615],[134.60852,34.15255],[134.60938,34.14854],[134.60981,34.14441],[134.6009,34.14794],[134.60153,34.15014],[134.60326,34.15102],[134.60483,34.15244],[134.60481,34.15417],[134.60412,34.15537],[134.60385,34.15617],[134.6036,34.15826],[134.60458,34.1584],[134.60468,34.15931],[134.60676,34.1617],[134.6074,34.16173],[134.60814,34.16236],[134.61008,34.16168]]]},"properties":{"key":"36202005009","name":"大津町長江","pref":"徳島県","prefCode":"36","municipality":"鳴門市","areaM2":869915.446,"population":110,"toponymIds":["36-7c80b67c04"]}},{"type":"Feature","geometry":{"type":"Polygon","coordinates":[[[134.59476,34.15891],[134.5933,34.15825],[134.59384,34.15496],[134.59407,34.14591],[134.59154,34.14491],[134.59106,34.14657],[134.58705,34.14748],[134.58624,34.14789],[134.58527,34.14904],[134.58499,34.15039],[134.58433,34.15182],[134.58386,34.15246],[134.58323,34.1529],[134.58182,34.15342],[134.58384,34.15435],[134.58389,34.15478],[134.58365,34.15528],[134.58367,34.15692],[134.58389,34.15744],[134.58364,34.15761],[134.58359,34.15789],[134.58574,34.15849],[134.58715,34.15919],[134.59207,34.15897],[134.59432,34.1602],[134.59586,34.16067],[134.59609,34.16011],[134.59539,34.1597],[134.59522,34.15912],[134.59476,34.15891]]]},"properties":{"key":"36202005007","name":"大津町矢倉","pref":"徳島県","prefCode":"36","municipality":"鳴門市","areaM2":1231294.566,"population":1606,"toponymIds":["36-a30f8bbfac"]}},{"type":"Feature","geometry":{"type":"Polygon","coordinates":[[[134.64053,34.18146],[134.6413,34.18073],[134.64215,34.18021],[134.64085,34.17798],[134.64098,34.17769],[134.64149,34.17749],[134.64129,34.17737],[134.64109,34.17668],[134.63985,34.17574],[134.63921,34.1749],[134.63793,34.17223],[134.63841,34.17203],[134.63796,34.17219],[134.63745,34.17112],[134.63618,34.16935],[134.63557,34.1681],[134.63433,34.16675],[134.6339,34.16685],[134.63478,34.16637],[134.63388,34.16682],[134.63429,34.16647],[134.63361,34.16523],[134.63129,34.16277],[134.63091,34.16245],[134.63076,34.16253],[134.62967,34.16116],[134.63053,34.16064],[134.63001,34.1607],[134.62929,34.15977],[134.62799,34.15863],[134.62784,34.15872],[134.62794,34.15858],[134.62753,34.15823],[134.62735,34.15827],[134.62748,34.15819],[134.62721,34.15775],[134.62699,34.1578],[134.62716,34.15769],[134.62632,34.15611],[134.62518,34.15497],[134.6242,34.15368],[134.62396,34.15313],[134.62219,34.15119],[134.61907,34.14686],[134.61897,34.1467],[134.6211,34.14565],[134.61887,34.14665],[134.61861,34.14628],[134.61561,34.14388],[134.61538,34.14294],[134.61498,34.1427],[134.61435,34.14268],[134.60981,34.14441],[134.60938,34.14854],[134.60911,34.14975],[134.6098,34.15001],[134.61109,34.14967],[134.61338,34.15242],[134.61387,34.15326],[134.61393,34.15393],[134.61307,34.15443],[134.6127,34.15422],[134.61165,34.15516],[134.61195,34.15546],[134.61075,34.15655],[134.6084,34.15692],[134.60871,34.15776],[134.60996,34.16101],[134.61265,34.15982],[134.61323,34.16114],[134.6134,34.16247],[134.61617,34.16144],[134.61916,34.16383],[134.62031,34.16332],[134.62331,34.16616],[134.62191,34.16709],[134.62275,34.16843],[134.62271,34.16878],[134.62357,34.16948],[134.62278,34.16953],[134.62316,34.17015],[134.62253,34.17136],[134.62202,34.17149],[134.62227,34.17228],[134.62267,34.17223],[134.62302,34.17356],[134.62293,34.17607],[134.62474,34.17595],[134.62502,34.17692],[134.62481,34.17771],[134.62362,34.17802],[134.62363,34.17853],[134.62303,34.17882],[134.62273,34.1798],[134.62369,34.17999],[134.62349,34.18065],[134.62358,34.18095],[134.6238,34.18114],[134.62425,34.18077],[134.62503,34.18053],[134.62583,34.1806],[134.62585,34.18077],[134.62589,34.18059],[134.62647,34.1805],[134.62716,34.18066],[134.62921,34.18069],[134.631,34.18126],[134.63233,34.18139],[134.63267,34.18155],[134.63276,34.18209],[134.63309,34.18211],[134.63314,34.18171],[134.63432,34.18118],[134.63574,34.18154],[134.63614,34.18142],[134.63784,34.18161],[134.63825,34.18146],[134.63923,34.18147],[134.64009,34.18173],[134.64017,34.18224],[134.64012,34.18173],[134.64053,34.18146]]]},"properties":{"key":"36202002001","name":"里浦町里浦","pref":"徳島県","prefCode":"36","municipality":"鳴門市","areaM2":5257419.501,"population":2668,"toponymIds":["36-d58f962963","36-2b518d9ce4"]}},{"type":"Feature","geometry":{"type":"Polygon","coordinates":[[[134.58144,34.21476],[134.58304,34.21473],[134.58328,34.21335],[134.58358,34.2131],[134.58362,34.21296],[134.58339,34.21294],[134.5829,34.21305],[134.58159,34.21251],[134.58222,34.21248],[134.58249,34.21214],[134.58305,34.21051],[134.58238,34.2105],[134.58236,34.21037],[134.58398,34.20666],[134.58456,34.20599],[134.58434,34.20562],[134.5849,34.20571],[134.58458,34.20555],[134.58506,34.20454],[134.58408,34.20438],[134.58403,34.20426],[134.58459,34.20308],[134.585,34.20322],[134.5857,34.20212],[134.58535,34.20175],[134.58642,34.20133],[134.58632,34.20102],[134.58673,34.20073],[134.5869,34.20094],[134.5876,34.20053],[134.58938,34.19911],[134.59011,34.20034],[134.59035,34.20019],[134.58955,34.19888],[134.59017,34.19873],[134.59105,34.1981],[134.5918,34.19784],[134.59196,34.19756],[134.59267,34.19709],[134.59367,34.19667],[134.5945,34.19604],[134.59436,34.19592],[134.59444,34.19583],[134.59528,34.19533],[134.59566,34.19525],[134.59582,34.19539],[134.59591,34.19524],[134.59686,34.19505],[134.59699,34.19447],[134.5946,34.19421],[134.59274,34.19422],[134.58982,34.19487],[134.58762,34.19505],[134.58695,34.19436],[134.5859,34.19416],[134.58493,34.19442],[134.58448,34.19503],[134.58356,34.1954],[134.58271,34.19538],[134.58089,34.1959],[134.58023,34.19569],[134.57861,34.19648],[134.5776,34.19728],[134.57634,34.20064],[134.57598,34.20305],[134.5734,34.20449],[134.57203,34.20584],[134.57239,34.2063],[134.57464,34.20708],[134.57577,34.20611],[134.57596,34.2062],[134.57544,34.20701],[134.57592,34.20766],[134.57634,34.20791],[134.57484,34.20816],[134.57673,34.21001],[134.57787,34.21063],[134.57818,34.21096],[134.57622,34.2141],[134.57888,34.21475],[134.58144,34.21476]]]},"properties":{"key":"36202004004","name":"瀬戸町明神","pref":"徳島県","prefCode":"36","municipality":"鳴門市","areaM2":2014349.585,"population":2677,"toponymIds":["36-4ec89782e1"]}},{"type":"Feature","geometry":{"type":"Polygon","coordinates":[[[134.60406,34.23711],[134.60149,34.23445],[134.60076,34.23313],[134.59987,34.23071],[134.59926,34.2269],[134.59906,34.22709],[134.59874,34.22828],[134.59894,34.22891],[134.59882,34.22935],[134.59734,34.23026],[134.59213,34.23169],[134.59173,34.23161],[134.5916,34.23144],[134.59174,34.23068],[134.59162,34.2305],[134.59121,34.23035],[134.59049,34.23045],[134.59054,34.23097],[134.59102,34.23152],[134.59111,34.23215],[134.59187,34.23327],[134.59242,34.23339],[134.59249,34.234],[134.59316,34.23474],[134.59336,34.23523],[134.5937,34.23538],[134.59418,34.23626],[134.59428,34.23661],[134.59392,34.23698],[134.59333,34.23805],[134.59414,34.23911],[134.5944,34.23972],[134.59514,34.24058],[134.59564,34.24172],[134.59597,34.24198],[134.59688,34.24226],[134.59765,34.24228],[134.59898,34.24172],[134.60033,34.24054],[134.60119,34.2392],[134.60406,34.23711]]]},"properties":{"key":"36202004009","name":"瀬戸町中島田","pref":"徳島県","prefCode":"36","municipality":"鳴門市","areaM2":950879.605,"population":39,"toponymIds":["36-a946086bf8"]}},{"type":"Feature","geometry":{"type":"Polygon","coordinates":[[[134.59695,34.19506],[134.59729,34.19484],[134.59742,34.19448],[134.59773,34.19454],[134.60011,34.19341],[134.60188,34.19292],[134.60343,34.19288],[134.60341,34.19276],[134.60398,34.19248],[134.60274,34.19099],[134.60161,34.1902],[134.60132,34.18962],[134.60105,34.18739],[134.60126,34.18519],[134.60148,34.18476],[134.59835,34.18375],[134.59838,34.18357],[134.59769,34.18342],[134.5964,34.18352],[134.59658,34.1825],[134.59579,34.18225],[134.59607,34.18206],[134.59567,34.18162],[134.59558,34.18117],[134.59525,34.18113],[134.59513,34.18162],[134.59465,34.18199],[134.59393,34.1818],[134.59233,34.18188],[134.59228,34.18228],[134.59275,34.18259],[134.59228,34.18371],[134.58973,34.18372],[134.58878,34.18416],[134.58768,34.18403],[134.5863,34.18488],[134.58473,34.18464],[134.58423,34.18499],[134.58441,34.18544],[134.58596,34.18686],[134.58654,34.18852],[134.58679,34.19098],[134.5864,34.19356],[134.58576,34.19418],[134.58695,34.19436],[134.58762,34.19505],[134.58982,34.19487],[134.59274,34.19422],[134.5946,34.19421],[134.59699,34.19447],[134.597,34.19479],[134.59686,34.19481],[134.59695,34.19506]]]},"properties":{"key":"36202001004","name":"撫養町黒崎","pref":"徳島県","prefCode":"36","municipality":"鳴門市","areaM2":1735692.406,"population":2853,"toponymIds":["36-72bc36b7bb"]}},{"type":"Feature","geometry":{"type":"Polygon","coordinates":[[[134.60867,33.98486],[134.60889,33.98474],[134.60866,33.98412],[134.60882,33.98401],[134.60847,33.98316],[134.60882,33.98299],[134.61031,33.98283],[134.611,33.98323],[134.61427,33.98369],[134.61584,33.9833],[134.61578,33.98284],[134.61728,33.98269],[134.61511,33.98212],[134.6154,33.98165],[134.61332,33.98112],[134.61203,33.98113],[134.61188,33.9804],[134.61131,33.98047],[134.61191,33.97904],[134.61275,33.9778],[134.61188,33.97813],[134.61094,33.97902],[134.61004,33.97944],[134.60815,33.97964],[134.60771,33.98046],[134.60633,33.98051],[134.60578,33.98182],[134.60565,33.98317],[134.60388,33.98319],[134.60284,33.98388],[134.60287,33.98446],[134.60419,33.98471],[134.60455,33.98462],[134.60486,33.98492],[134.60516,33.98443],[134.60634,33.98431],[134.60637,33.98323],[134.60754,33.98272],[134.60859,33.98566],[134.60878,33.98543],[134.60867,33.98486]]]},"properties":{"key":"36203021000","name":"赤石町","pref":"徳島県","prefCode":"36","municipality":"小松島市","areaM2":356377.282,"population":1077,"toponymIds":["36-804425b6ff"]}},{"type":"Feature","geometry":{"type":"Polygon","coordinates":[[[134.60279,33.9975],[134.60307,33.99752],[134.60306,33.99783],[134.60313,33.99747],[134.60449,33.99704],[134.60485,33.99746],[134.60452,33.99704],[134.60466,33.99679],[134.60541,33.99643],[134.60686,33.99607],[134.60732,33.99611],[134.60733,33.99651],[134.60747,33.9966],[134.60842,33.9965],[134.60914,33.99611],[134.61124,33.99666],[134.6127,33.998],[134.61428,33.99679],[134.61161,33.99432],[134.60937,33.99288],[134.60912,33.99327],[134.6083,33.99322],[134.60582,33.9939],[134.60507,33.9938],[134.60525,33.99335],[134.60587,33.99324],[134.60577,33.99245],[134.60878,33.99162],[134.60881,33.99215],[134.60899,33.99213],[134.60855,33.98892],[134.608,33.98785],[134.60723,33.98701],[134.60732,33.98694],[134.60717,33.98674],[134.60666,33.98635],[134.60649,33.98644],[134.60541,33.98598],[134.60551,33.98553],[134.60508,33.98553],[134.60473,33.98472],[134.59654,33.99415],[134.59892,33.99578],[134.5996,33.99658],[134.60062,33.99856],[134.60279,33.9975]]]},"properties":{"key":"362030070","name":"金磯町","pref":"徳島県","prefCode":"36","municipality":"小松島市","areaM2":1099849.909,"population":2426,"toponymIds":["36-b62f1a1508"]}},{"type":"Feature","geometry":{"type":"Polygon","coordinates":[[[134.57708,33.94426],[134.57833,33.94365],[134.57805,33.94296],[134.57731,33.94255],[134.57716,33.94274],[134.57582,33.9425],[134.57605,33.94168],[134.57879,33.9422],[134.58046,33.94278],[134.59106,33.94038],[134.60868,33.93965],[134.61213,33.9365],[134.61444,33.93539],[134.61394,33.93082],[134.61397,33.92685],[134.615,33.92675],[134.61574,33.9247],[134.61452,33.92426],[134.61413,33.92348],[134.61296,33.92325],[134.61193,33.92257],[134.61096,33.92224],[134.60927,33.92185],[134.60674,33.92162],[134.60558,33.9218],[134.6036,33.92081],[134.6027,33.92057],[134.60141,33.91995],[134.59956,33.91973],[134.59941,33.91869],[134.59853,33.91798],[134.5981,33.91698],[134.59781,33.91563],[134.59771,33.91483],[134.59812,33.91267],[134.59634,33.91161],[134.59574,33.91102],[134.59552,33.91022],[134.59547,33.90785],[134.59563,33.90749],[134.59644,33.90673],[134.5971,33.90547],[134.59712,33.90384],[134.59662,33.9029],[134.59653,33.90141],[134.59413,33.90125],[134.59135,33.90066],[134.59028,33.90017],[134.59102,33.90121],[134.59108,33.9016],[134.59102,33.90216],[134.59008,33.90391],[134.59017,33.90579],[134.58999,33.90591],[134.58997,33.90676],[134.59025,33.91004],[134.58988,33.91222],[134.58857,33.91425],[134.58872,33.91546],[134.58907,33.91622],[134.58604,33.91626],[134.58533,33.91654],[134.58481,33.91713],[134.58477,33.91823],[134.57821,33.91815],[134.57622,33.91969],[134.57854,33.92295],[134.57876,33.92446],[134.57849,33.92462],[134.57703,33.92456],[134.57356,33.93121],[134.57253,33.93139],[134.56971,33.93543],[134.57001,33.93594],[134.57494,33.9396],[134.57345,33.94086],[134.57256,33.94187],[134.573,33.9427],[134.57396,33.94283],[134.57448,33.94328],[134.57574,33.94372],[134.57453,33.94458],[134.57606,33.94495],[134.57638,33.94442],[134.57708,33.94426]]]},"properties":{"key":"362040060","name":"上大野町","pref":"徳島県","prefCode":"36","municipality":"阿南市","areaM2":9962105.429,"population":2125,"toponymIds":["36-eb253804ac"]}},{"type":"Feature","geometry":{"type":"Polygon","coordinates":[[[134.64091,33.9324],[134.64256,33.93194],[134.64196,33.93091],[134.64422,33.93003],[134.64661,33.92801],[134.64766,33.92678],[134.64887,33.92472],[134.65043,33.92368],[134.64922,33.92127],[134.64864,33.92061],[134.64741,33.91967],[134.64869,33.91645],[134.64959,33.91475],[134.6509,33.91443],[134.652,33.91384],[134.65151,33.9099],[134.65072,33.90846],[134.64996,33.90801],[134.64909,33.90789],[134.64881,33.90697],[134.6477,33.90477],[134.64713,33.90454],[134.64696,33.90429],[134.64611,33.90415],[134.6451,33.90354],[134.64336,33.90194],[134.64273,33.90175],[134.64182,33.90109],[134.64121,33.90181],[134.64018,33.90247],[134.63918,33.90359],[134.6364,33.90533],[134.63653,33.90648],[134.63703,33.90826],[134.63773,33.91354],[134.63768,33.91414],[134.63886,33.91457],[134.63865,33.91497],[134.63373,33.91561],[134.63335,33.91658],[134.63286,33.91895],[134.63254,33.91893],[134.63232,33.92063],[134.63092,33.92072],[134.62927,33.92127],[134.62859,33.9217],[134.62854,33.92321],[134.62736,33.92492],[134.62757,33.92597],[134.62793,33.92613],[134.62792,33.92704],[134.62849,33.92721],[134.62791,33.92812],[134.63099,33.93031],[134.63248,33.93007],[134.63336,33.93102],[134.63534,33.93253],[134.63734,33.93228],[134.63831,33.93273],[134.63847,33.93304],[134.64091,33.9324]]]},"properties":{"key":"362040080","name":"宝田町","pref":"徳島県","prefCode":"36","municipality":"阿南市","areaM2":4552687.919,"population":3097,"toponymIds":["36-a65d7a6aec","36-4e377a900b","36-207fb40547"]}},{"type":"Feature","geometry":{"type":"Polygon","coordinates":[[[134.62813,33.92775],[134.62849,33.92721],[134.62792,33.92704],[134.62793,33.92613],[134.62757,33.92597],[134.62736,33.92492],[134.62854,33.92321],[134.62859,33.9217],[134.62927,33.92127],[134.63092,33.92072],[134.63232,33.92063],[134.63254,33.91893],[134.63286,33.91895],[134.63335,33.91658],[134.63373,33.91561],[134.63865,33.91497],[134.63886,33.91457],[134.63768,33.91414],[134.63773,33.91354],[134.63703,33.90826],[134.63637,33.90548],[134.6366,33.90515],[134.63918,33.90359],[134.64018,33.90247],[134.64121,33.90181],[134.64168,33.90115],[134.64193,33.90114],[134.64181,33.90088],[134.64206,33.89993],[134.64315,33.89864],[134.6437,33.89765],[134.64446,33.89526],[134.64377,33.89518],[134.64309,33.89473],[134.64265,33.89286],[134.64236,33.89251],[134.64114,33.89211],[134.64046,33.89139],[134.64013,33.89128],[134.63937,33.89135],[134.63778,33.89191],[134.63268,33.89141],[134.62914,33.89164],[134.6228,33.88956],[134.622,33.88969],[134.61974,33.89104],[134.61823,33.89104],[134.61646,33.89144],[134.61466,33.89192],[134.614,33.89257],[134.61326,33.89266],[134.61297,33.89211],[134.61032,33.89175],[134.60827,33.89084],[134.60729,33.89002],[134.60551,33.88915],[134.60311,33.88737],[134.6024,33.88599],[134.60002,33.88593],[134.5977,33.88512],[134.59671,33.88492],[134.59444,33.8848],[134.59242,33.8841],[134.59052,33.88431],[134.58733,33.88529],[134.58257,33.88546],[134.58003,33.88481],[134.57809,33.88496],[134.57511,33.88576],[134.57378,33.89002],[134.57382,33.89107],[134.5745,33.8925],[134.57402,33.89418],[134.57422,33.89444],[134.57514,33.89459],[134.57629,33.89521],[134.57712,33.89666],[134.57778,33.89703],[134.57975,33.89766],[134.5814,33.89777],[134.58356,33.89768],[134.58695,33.89851],[134.58893,33.89874],[134.59028,33.90017],[134.59135,33.90066],[134.59413,33.90125],[134.59653,33.90141],[134.59662,33.9029],[134.59712,33.90384],[134.5971,33.90547],[134.59644,33.90673],[134.59563,33.90749],[134.59547,33.90785],[134.59552,33.91022],[134.59574,33.91102],[134.59634,33.91161],[134.59812,33.91267],[134.59771,33.91483],[134.59781,33.91563],[134.5981,33.91698],[134.59853,33.91798],[134.59941,33.91869],[134.59956,33.91973],[134.60141,33.91995],[134.6027,33.92057],[134.6036,33.92081],[134.60558,33.9218],[134.60674,33.92162],[134.60973,33.92193],[134.61193,33.92257],[134.61296,33.92325],[134.61413,33.92348],[134.61452,33.92426],[134.61574,33.9247],[134.61506,33.92659],[134.61715,33.92587],[134.61743,33.92621],[134.61871,33.92658],[134.62049,33.92653],[134.62059,33.92736],[134.62196,33.92704],[134.62276,33.92731],[134.62467,33.92739],[134.62655,33.92802],[134.6267,33.92771],[134.62791,33.92812],[134.62813,33.92775]]]},"properties":{"key":"362040030","name":"長生町","pref":"徳島県","prefCode":"36","municipality":"阿南市","areaM2":17150903.286,"population":2734,"toponymIds":["36-eab8b66878","36-833b4e83fc","36-ec59310403"]}},{"type":"Feature","geometry":{"type":"Polygon","coordinates":[[[134.20248,34.08053],[134.20186,34.07947],[134.20226,34.07866],[134.20288,34.07557],[134.20062,34.07527],[134.19999,34.07799],[134.19945,34.07946],[134.19949,34.07972],[134.19853,34.07979],[134.1985,34.08052],[134.19857,34.08067],[134.19936,34.08064],[134.20083,34.08092],[134.20248,34.08053]]]},"properties":{"key":"36206002017","name":"阿波町梅川内","pref":"徳島県","prefCode":"36","municipality":"阿波市","areaM2":144867.203,"population":82,"toponymIds":["36-9c55c8300a"]}},{"type":"Feature","geometry":{"type":"Polygon","coordinates":[[[134.22688,34.09713],[134.22613,34.09662],[134.22417,34.09714],[134.22343,34.097],[134.22274,34.09655],[134.2222,34.10179],[134.22216,34.10375],[134.22285,34.10783],[134.22263,34.10841],[134.22228,34.10863],[134.22242,34.11028],[134.22298,34.11189],[134.22385,34.11359],[134.22523,34.11549],[134.22552,34.11564],[134.22636,34.11736],[134.22604,34.11385],[134.22559,34.1126],[134.22496,34.11156],[134.22496,34.11079],[134.2246,34.10945],[134.22472,34.10818],[134.22517,34.10637],[134.22589,34.10478],[134.22635,34.10412],[134.22663,34.10306],[134.22635,34.10233],[134.22632,34.10127],[134.22571,34.10116],[134.22608,34.10065],[134.22631,34.09924],[134.22689,34.09829],[134.22692,34.09749],[134.22712,34.0972],[134.22688,34.09713]]]},"properties":{"key":"36206003006","name":"阿波町梅ノ木原","pref":"徳島県","prefCode":"36","municipality":"阿波市","areaM2":584225.811,"population":134,"toponymIds":["36-07e448a303"]}},{"type":"Feature","geometry":{"type":"Polygon","coordinates":[[[134.23976,34.13333],[134.23939,34.13272],[134.23944,34.13164],[134.23896,34.1309],[134.23897,34.13033],[134.23865,34.1294],[134.23908,34.12886],[134.23916,34.12831],[134.24007,34.12766],[134.24062,34.12748],[134.24101,34.12694],[134.241,34.12648],[134.24146,34.12636],[134.2422,34.1251],[134.24258,34.12478],[134.24287,34.12331],[134.24259,34.12251],[134.24257,34.12048],[134.24576,34.12075],[134.24799,34.12053],[134.24869,34.12069],[134.24933,34.11958],[134.25033,34.11882],[134.25028,34.11783],[134.25043,34.11734],[134.2512,34.11692],[134.25142,34.11655],[134.25178,34.11443],[134.25171,34.11348],[134.25145,34.11272],[134.25073,34.11171],[134.25016,34.11034],[134.24955,34.1098],[134.24955,34.10964],[134.24815,34.11005],[134.2474,34.11008],[134.24639,34.10944],[134.24456,34.10903],[134.24237,34.10919],[134.24206,34.10903],[134.24107,34.10774],[134.24077,34.10895],[134.24016,34.10787],[134.23905,34.10687],[134.2383,34.10653],[134.23702,34.10634],[134.23623,34.10569],[134.23518,34.10528],[134.23407,34.10513],[134.2332,34.10432],[134.23129,34.10315],[134.22849,34.10253],[134.2278,34.10251],[134.22652,34.10353],[134.22635,34.10412],[134.22589,34.10478],[134.22517,34.10637],[134.22472,34.10818],[134.2246,34.10945],[134.22496,34.11079],[134.22496,34.11156],[134.22559,34.1126],[134.22604,34.11385],[134.22636,34.11736],[134.2329,34.11773],[134.23312,34.11801],[134.23284,34.11981],[134.23293,34.1206],[134.23195,34.12182],[134.23193,34.12383],[134.2313,34.12522],[134.23343,34.12561],[134.23594,34.12775],[134.2365,34.12831],[134.23877,34.13234],[134.23914,34.13287],[134.23976,34.13333]]]},"properties":{"key":"36206003003","name":"阿波町大久保","pref":"徳島県","prefCode":"36","municipality":"阿波市","areaM2":4165802.595,"population":15,"toponymIds":["36-985f534b0b"]}},{"type":"Feature","geometry":{"type":"Polygon","coordinates":[[[134.21884,34.09484],[134.219,34.09476],[134.22001,34.09532],[134.22002,34.09486],[134.21975,34.09427],[134.21993,34.09389],[134.21985,34.09206],[134.22008,34.09106],[134.21864,34.08866],[134.21536,34.08688],[134.21476,34.08672],[134.21397,34.08878],[134.21401,34.08977],[134.2123,34.0917],[134.21131,34.09231],[134.21112,34.09224],[134.2106,34.09309],[134.21066,34.09344],[134.21247,34.09369],[134.21268,34.09363],[134.2128,34.09321],[134.21439,34.09404],[134.21515,34.09455],[134.21588,34.09531],[134.21736,34.09622],[134.21827,34.0953],[134.21863,34.09518],[134.21884,34.09484]]]},"properties":{"key":"36206001002","name":"阿波町小倉","pref":"徳島県","prefCode":"36","municipality":"阿波市","areaM2":500729.931,"population":205,"toponymIds":["36-507100d3bc"]}},{"type":"Feature","geometry":{"type":"Polygon","coordinates":[[[134.25284,34.07987],[134.25356,34.07964],[134.25353,34.07926],[134.25664,34.08026],[134.2578,34.08046],[134.25704,34.07966],[134.25519,34.07872],[134.25458,34.07856],[134.25473,34.07699],[134.25562,34.0767],[134.25405,34.07631],[134.25315,34.07586],[134.25169,34.07557],[134.25129,34.07694],[134.25049,34.07751],[134.25143,34.07781],[134.25111,34.08011],[134.25164,34.0801],[134.25232,34.07982],[134.25284,34.07987]]]},"properties":{"key":"36206004021","name":"阿波町庚申原","pref":"徳島県","prefCode":"36","municipality":"阿波市","areaM2":160878.948,"population":90,"toponymIds":["36-a5a27a4d9b"]}},{"type":"Feature","geometry":{"type":"Polygon","coordinates":[[[134.19971,34.07015],[134.1993,34.07009],[134.19902,34.07138],[134.20261,34.07323],[134.20477,34.0704],[134.19971,34.07015]]]},"properties":{"key":"36206002024","name":"阿波町中川原","pref":"徳島県","prefCode":"36","municipality":"阿波市","areaM2":104540.093,"population":143,"toponymIds":["36-0fb9229117"]}},{"type":"Feature","geometry":{"type":"Polygon","coordinates":[[[134.20124,34.08905],[134.20187,34.08804],[134.2019,34.08596],[134.20227,34.08513],[134.20235,34.08409],[134.20188,34.08386],[134.20144,34.08388],[134.20134,34.08262],[134.20091,34.0828],[134.19986,34.08248],[134.20057,34.08339],[134.20013,34.08309],[134.20005,34.08337],[134.19953,34.08275],[134.19898,34.08293],[134.19921,34.08241],[134.19891,34.08179],[134.19852,34.08157],[134.19863,34.08129],[134.19851,34.07982],[134.19949,34.07972],[134.19945,34.07946],[134.19999,34.07799],[134.20062,34.07527],[134.19938,34.07511],[134.1996,34.07411],[134.19715,34.07378],[134.19644,34.07749],[134.19517,34.07764],[134.19503,34.0788],[134.1959,34.07987],[134.19558,34.08112],[134.19517,34.08201],[134.1946,34.08223],[134.19473,34.08251],[134.19453,34.0837],[134.19464,34.08538],[134.19585,34.08703],[134.19621,34.0879],[134.19634,34.08891],[134.19675,34.08886],[134.19865,34.08978],[134.19998,34.08991],[134.20099,34.08984],[134.20124,34.08905]]]},"properties":{"key":"36206002010","name":"阿波町馬場","pref":"徳島県","prefCode":"36","municipality":"阿波市","areaM2":774674.835,"population":167,"toponymIds":["36-9c03a9489f"]}},{"type":"Feature","geometry":{"type":"Polygon","coordinates":[[[134.21143,34.072],[134.2112,34.07182],[134.2102,34.07196],[134.20727,34.07192],[134.20773,34.07026],[134.19961,34.06779],[134.1993,34.07009],[134.20063,34.07029],[134.20477,34.0704],[134.20261,34.07323],[134.20617,34.07502],[134.20743,34.07527],[134.21127,34.07511],[134.21229,34.0739],[134.21217,34.0722],[134.21143,34.072]]]},"properties":{"key":"36206002022","name":"阿波町東川原","pref":"徳島県","prefCode":"36","municipality":"阿波市","areaM2":437521.895,"population":350,"toponymIds":["36-d2e886fecb"]}},{"type":"Feature","geometry":{"type":"Polygon","coordinates":[[[134.21217,34.0722],[134.21197,34.0707],[134.21276,34.06911],[134.21301,34.06607],[134.19984,34.06543],[134.19961,34.06779],[134.20773,34.07026],[134.20727,34.07192],[134.2102,34.07196],[134.2112,34.07182],[134.2116,34.0721],[134.21217,34.0722]]]},"properties":{"key":"36206002023","name":"阿波町南川原","pref":"徳島県","prefCode":"36","municipality":"阿波市","areaM2":578768.618,"population":130,"toponymIds":["36-baeb8e0587"]}},{"type":"Feature","geometry":{"type":"Polygon","coordinates":[[[134.36551,34.10493],[134.36547,34.10477],[134.36509,34.10482],[134.3654,34.10334],[134.36659,34.10304],[134.36742,34.1017],[134.36775,34.10159],[134.36892,34.10029],[134.36898,34.09995],[134.36935,34.09996],[134.36917,34.09958],[134.36926,34.09837],[134.36937,34.09736],[134.36973,34.09652],[134.37019,34.0961],[134.37035,34.09556],[134.37147,34.09493],[134.37241,34.09411],[134.37343,34.09139],[134.37683,34.08601],[134.37146,34.08624],[134.35723,34.0858],[134.34628,34.08577],[134.33694,34.08507],[134.33604,34.09131],[134.33603,34.0916],[134.33661,34.09167],[134.33657,34.09219],[134.33617,34.09319],[134.33521,34.09769],[134.33543,34.09887],[134.3354,34.09991],[134.33779,34.0998],[134.33854,34.10009],[134.33847,34.1007],[134.33958,34.10036],[134.34285,34.10114],[134.34618,34.10234],[134.34907,34.10296],[134.34895,34.10352],[134.34852,34.10404],[134.34879,34.10412],[134.34896,34.10395],[134.35024,34.10407],[134.35017,34.10457],[134.35085,34.10458],[134.35091,34.10442],[134.35166,34.10458],[134.3517,34.10444],[134.35213,34.10447],[134.35218,34.10417],[134.35368,34.10421],[134.35369,34.10439],[134.35402,34.1044],[134.354,34.10467],[134.35505,34.10462],[134.35509,34.10442],[134.35579,34.1045],[134.35569,34.10494],[134.35725,34.10513],[134.35728,34.10495],[134.35773,34.10497],[134.35777,34.10478],[134.35902,34.10491],[134.36469,34.1061],[134.36495,34.10535],[134.3648,34.10501],[134.36551,34.10493]]]},"properties":{"key":"362060320","name":"吉野町柿原","pref":"徳島県","prefCode":"36","municipality":"阿波市","areaM2":6366757.478,"population":2915,"toponymIds":["36-2e693e90e3"]}},{"type":"Feature","geometry":{"type":"Polygon","coordinates":[[[134.16091,34.07156],[134.16095,34.0708],[134.16137,34.07002],[134.16279,34.06979],[134.1626,34.06918],[134.16295,34.06851],[134.16283,34.06819],[134.16332,34.06778],[134.16343,34.06801],[134.16362,34.06798],[134.16354,34.06766],[134.16367,34.06756],[134.16328,34.06698],[134.16373,34.06655],[134.16344,34.06443],[134.16341,34.06143],[134.16451,34.06101],[134.16397,34.05718],[134.16001,34.05664],[134.15867,34.05707],[134.1572,34.05828],[134.15644,34.05924],[134.15559,34.0615],[134.15266,34.06311],[134.15027,34.0641],[134.14795,34.06478],[134.1505,34.07178],[134.15168,34.0718],[134.15209,34.0716],[134.15217,34.07204],[134.15272,34.07233],[134.15605,34.07281],[134.15617,34.07407],[134.15597,34.07435],[134.1559,34.07515],[134.1561,34.07544],[134.15621,34.07621],[134.15742,34.07667],[134.15779,34.0763],[134.15864,34.07625],[134.15855,34.0751],[134.16024,34.07475],[134.16032,34.07421],[134.16063,34.07411],[134.16009,34.0739],[134.15948,34.07287],[134.15945,34.07244],[134.16007,34.07209],[134.16081,34.07197],[134.16091,34.07156]]]},"properties":{"key":"362070100","name":"脇町大字猪尻","pref":"徳島県","prefCode":"36","municipality":"美馬市","areaM2":1881983.901,"population":2060,"toponymIds":["36-7cc243288d"]}}]}
