{"type":"FeatureCollection","features":[{"type":"Feature","geometry":{"type":"Polygon","coordinates":[[[134.04981,34.34365],[134.04975,34.34336],[134.04956,34.34339],[134.04941,34.34267],[134.04916,34.34272],[134.04913,34.34244],[134.04894,34.34247],[134.04882,34.34192],[134.04788,34.34206],[134.04814,34.3439],[134.04981,34.34365]]]},"properties":{"key":"372010670","name":"鍛冶屋町","pref":"香川県","prefCode":"37","municipality":"高松市","areaM2":24584.861,"population":55,"toponymIds":["37-8e3a09627f"]}},{"type":"Feature","geometry":{"type":"Polygon","coordinates":[[[134.03743,34.30507],[134.03767,34.30501],[134.03724,34.30327],[134.03669,34.3034],[134.03649,34.30234],[134.03854,34.30207],[134.03832,34.30182],[134.03824,34.30118],[134.03883,34.3011],[134.03859,34.30011],[134.03921,34.30002],[134.0393,34.29982],[134.039,34.29854],[134.03909,34.2983],[134.03864,34.29711],[134.03896,34.297],[134.03886,34.29685],[134.03797,34.29699],[134.03788,34.29659],[134.03743,34.2966],[134.03739,34.29627],[134.0362,34.29645],[134.03592,34.29541],[134.03351,34.29576],[134.03356,34.29605],[134.0325,34.29591],[134.02987,34.29635],[134.0295,34.29609],[134.02827,34.29607],[134.02796,34.29583],[134.02788,34.29606],[134.02675,34.29617],[134.02627,34.29621],[134.02623,34.29592],[134.02423,34.2961],[134.02518,34.29813],[134.0256,34.29969],[134.02573,34.30045],[134.0256,34.30237],[134.026,34.30235],[134.02608,34.30278],[134.02752,34.30255],[134.02811,34.30377],[134.028,34.30385],[134.02816,34.30469],[134.03505,34.30363],[134.03521,34.30442],[134.03653,34.30422],[134.03659,34.30517],[134.03743,34.30507]]]},"properties":{"key":"372011120","name":"鹿角町","pref":"香川県","prefCode":"37","municipality":"高松市","areaM2":1046248.303,"population":1680,"toponymIds":["37-50c160a9ad","37-f0137deafc"]}},{"type":"Feature","geometry":{"type":"Polygon","coordinates":[[[134.0666,34.33475],[134.06706,34.33477],[134.06786,34.33444],[134.06801,34.334],[134.06789,34.33375],[134.06766,34.3338],[134.06787,34.33285],[134.0682,34.33274],[134.06915,34.33193],[134.06901,34.33148],[134.06921,34.33112],[134.06859,34.33016],[134.06866,34.32892],[134.06741,34.3263],[134.06673,34.32643],[134.06678,34.32657],[134.06549,34.32665],[134.06499,34.32673],[134.06502,34.32686],[134.0635,34.3271],[134.06332,34.32622],[134.0615,34.32654],[134.06171,34.32741],[134.06235,34.3273],[134.06247,34.32787],[134.06115,34.32809],[134.06101,34.32751],[134.06165,34.32741],[134.06146,34.32654],[134.05805,34.32707],[134.05826,34.32802],[134.05846,34.32799],[134.05864,34.32872],[134.0596,34.32933],[134.05971,34.32981],[134.05907,34.32991],[134.0595,34.33055],[134.05924,34.33068],[134.05999,34.33212],[134.06046,34.33364],[134.06081,34.33337],[134.06151,34.33328],[134.06216,34.3328],[134.06396,34.33225],[134.06407,34.33301],[134.06368,34.33323],[134.06447,34.33481],[134.0648,34.33509],[134.06567,34.33508],[134.0666,34.33475]]]},"properties":{"key":"37201072100","name":"上福岡町","pref":"香川県","prefCode":"37","municipality":"高松市","areaM2":661860.756,"population":3181,"toponymIds":["37-41c5ec41d2"]}},{"type":"Feature","geometry":{"type":"Polygon","coordinates":[[[134.08828,34.19832],[134.08875,34.19712],[134.08956,34.19669],[134.0902,34.19589],[134.09031,34.19561],[134.08999,34.19511],[134.09122,34.19319],[134.09159,34.19287],[134.09189,34.19221],[134.09294,34.19178],[134.09356,34.19113],[134.09386,34.19057],[134.09452,34.19011],[134.09445,34.18947],[134.09407,34.18912],[134.0941,34.18863],[134.09515,34.18711],[134.09571,34.18516],[134.093,34.1852],[134.08947,34.18362],[134.08648,34.18426],[134.08501,34.1839],[134.08343,34.18325],[134.08368,34.18263],[134.0841,34.18225],[134.08406,34.1818],[134.08361,34.1808],[134.08381,34.1799],[134.08298,34.17915],[134.0831,34.17887],[134.08253,34.17839],[134.08242,34.17758],[134.08137,34.17639],[134.08203,34.17544],[134.08059,34.17486],[134.08048,34.17426],[134.07954,34.1734],[134.07769,34.17341],[134.07677,34.17326],[134.07534,34.17183],[134.07474,34.17073],[134.07422,34.17054],[134.07345,34.16992],[134.07361,34.17009],[134.07338,34.17047],[134.07253,34.17116],[134.07231,34.17114],[134.07191,34.1707],[134.0711,34.17021],[134.07058,34.16925],[134.07029,34.16824],[134.06938,34.16659],[134.06923,34.16644],[134.06854,34.1664],[134.06786,34.165],[134.06729,34.1643],[134.06713,34.16347],[134.06731,34.1629],[134.06723,34.16277],[134.06669,34.16245],[134.06543,34.16242],[134.06364,34.16154],[134.06269,34.16005],[134.06176,34.15956],[134.06084,34.15813],[134.05925,34.15772],[134.05829,34.1579],[134.05825,34.1593],[134.05838,34.15996],[134.05885,34.16035],[134.05969,34.16183],[134.06042,34.16229],[134.06072,34.16407],[134.06036,34.16574],[134.05985,34.16647],[134.05909,34.16691],[134.05915,34.16756],[134.05884,34.16811],[134.05898,34.16955],[134.05971,34.17048],[134.0596,34.17093],[134.06044,34.17133],[134.06211,34.1714],[134.0627,34.17171],[134.06297,34.17227],[134.06337,34.17244],[134.06587,34.17224],[134.06646,34.173],[134.06693,34.1732],[134.06697,34.17359],[134.06785,34.17557],[134.06819,34.17596],[134.06806,34.17652],[134.06852,34.17712],[134.06855,34.17758],[134.06921,34.17871],[134.06876,34.18009],[134.06816,34.18022],[134.06782,34.18059],[134.06825,34.18124],[134.0681,34.1819],[134.06775,34.1822],[134.06795,34.18275],[134.06644,34.18298],[134.06626,34.18328],[134.06494,34.1843],[134.06481,34.18446],[134.06477,34.18528],[134.06416,34.18607],[134.0637,34.18609],[134.06335,34.18651],[134.06291,34.18665],[134.06261,34.18695],[134.06157,34.18892],[134.06111,34.18945],[134.06089,34.18956],[134.05918,34.18889],[134.05928,34.18913],[134.06047,34.19028],[134.06187,34.19049],[134.06245,34.19082],[134.06374,34.19312],[134.06419,34.19348],[134.06453,34.19364],[134.06552,34.19311],[134.06624,34.1933],[134.06632,34.19363],[134.06712,34.1937],[134.06842,34.19411],[134.0689,34.19453],[134.07014,34.19487],[134.07092,34.1959],[134.07153,34.19639],[134.07227,34.19637],[134.07277,34.1966],[134.07379,34.1964],[134.0759,34.19723],[134.07788,34.19738],[134.07803,34.19759],[134.0789,34.19788],[134.07998,34.19769],[134.07981,34.19738],[134.08003,34.19691],[134.0799,34.19637],[134.08028,34.1954],[134.08101,34.19522],[134.08136,34.19488],[134.08165,34.19488],[134.08184,34.19516],[134.08257,34.19485],[134.08273,34.19433],[134.08309,34.19499],[134.08451,34.19573],[134.08499,34.19546],[134.08534,34.19493],[134.08646,34.19442],[134.08657,34.19474],[134.08573,34.19571],[134.08572,34.1962],[134.08642,34.19665],[134.0865,34.19758],[134.0868,34.19824],[134.08785,34.19846],[134.08828,34.19832]]]},"properties":{"key":"372011570","name":"塩江町安原上","pref":"香川県","prefCode":"37","municipality":"高松市","areaM2":6516847.152,"population":306,"toponymIds":["37-7df77f9904","37-cd5f07dcbd","37-1f324c30c3","37-cb953d51ff"]}},{"type":"Feature","geometry":{"type":"Polygon","coordinates":[[[134.10976,34.18493],[134.1098,34.18351],[134.11103,34.18323],[134.11158,34.18285],[134.11267,34.18251],[134.11293,34.18235],[134.11305,34.18163],[134.1134,34.18126],[134.11341,34.18086],[134.11314,34.18009],[134.11339,34.17937],[134.11324,34.17898],[134.11231,34.17805],[134.11274,34.17709],[134.11433,34.17675],[134.11445,34.1764],[134.11513,34.17614],[134.11605,34.17474],[134.1165,34.17431],[134.11811,34.1732],[134.11857,34.17187],[134.11953,34.1713],[134.12049,34.17024],[134.12084,34.1696],[134.12082,34.16921],[134.1214,34.16867],[134.12148,34.16788],[134.12219,34.1677],[134.12252,34.16551],[134.12354,34.16351],[134.1236,34.16199],[134.12533,34.16002],[134.12669,34.15603],[134.12692,34.15569],[134.12782,34.15505],[134.12808,34.1544],[134.12806,34.15341],[134.12785,34.15266],[134.12985,34.15185],[134.13039,34.15122],[134.13106,34.1508],[134.13129,34.15077],[134.13176,34.15112],[134.13326,34.15138],[134.13498,34.1513],[134.1354,34.15111],[134.13598,34.15063],[134.13638,34.14995],[134.13683,34.14953],[134.13678,34.14891],[134.13731,34.14817],[134.13747,34.14712],[134.13734,34.14654],[134.13763,34.14553],[134.13745,34.14496],[134.1378,34.1425],[134.13794,34.14196],[134.13843,34.14148],[134.13852,34.14113],[134.13824,34.14062],[134.13796,34.13887],[134.13768,34.1382],[134.13783,34.13681],[134.1387,34.13555],[134.13867,34.13523],[134.13927,34.13385],[134.13839,34.13342],[134.13845,34.13277],[134.13824,34.13241],[134.13695,34.13191],[134.13598,34.13099],[134.1348,34.13048],[134.13424,34.13046],[134.13344,34.13014],[134.13253,34.12933],[134.13219,34.12812],[134.13219,34.12736],[134.13153,34.12645],[134.1315,34.12582],[134.13128,34.12564],[134.13121,34.12525],[134.13013,34.12454],[134.13002,34.12377],[134.12834,34.12313],[134.12695,34.12299],[134.12584,34.12387],[134.12581,34.1244],[134.12538,34.12491],[134.1241,34.12551],[134.12329,34.12697],[134.12139,34.12764],[134.12075,34.12819],[134.11996,34.12827],[134.11924,34.12897],[134.11751,34.12979],[134.1173,34.13033],[134.11654,34.13074],[134.11597,34.13086],[134.11591,34.13148],[134.11542,34.13248],[134.11511,34.13267],[134.11468,34.13286],[134.11364,34.13294],[134.11228,34.13368],[134.11161,34.13384],[134.11057,34.13349],[134.10694,34.13477],[134.1062,34.13518],[134.10566,34.13571],[134.10471,34.13606],[134.103,34.1372],[134.10155,34.13767],[134.1011,34.13856],[134.10048,34.13912],[134.09959,34.13967],[134.09896,34.13973],[134.09853,34.13995],[134.09811,34.14043],[134.09791,34.14118],[134.09688,34.14183],[134.09675,34.1421],[134.09661,34.14276],[134.0972,34.14353],[134.09715,34.14409],[134.09682,34.14441],[134.09702,34.14499],[134.0941,34.14653],[134.09358,34.148],[134.09305,34.14883],[134.09216,34.14929],[134.09167,34.14988],[134.09152,34.15025],[134.09165,34.15108],[134.09121,34.15212],[134.09006,34.15346],[134.08967,34.15422],[134.08834,34.15504],[134.08642,34.15531],[134.0858,34.15499],[134.08477,34.156],[134.0833,34.15662],[134.08277,34.15729],[134.08236,34.15947],[134.08239,34.16163],[134.08223,34.16237],[134.08183,34.16277],[134.08136,34.16371],[134.08134,34.16444],[134.08051,34.16444],[134.07959,34.16395],[134.07907,34.16408],[134.07878,34.1644],[134.07851,34.16609],[134.07724,34.16623],[134.07677,34.16613],[134.07636,34.16579],[134.07607,34.16585],[134.07502,34.16644],[134.07406,34.16774],[134.07315,34.16836],[134.0734,34.16853],[134.07411,34.16833],[134.07459,34.16934],[134.07427,34.16935],[134.07412,34.17001],[134.07395,34.17001],[134.07382,34.16968],[134.07325,34.16972],[134.07422,34.17054],[134.07474,34.17073],[134.07534,34.17183],[134.07677,34.17326],[134.07769,34.17341],[134.07954,34.1734],[134.08048,34.17426],[134.08059,34.17486],[134.08203,34.17544],[134.08137,34.17639],[134.08242,34.17758],[134.08253,34.17839],[134.0831,34.17887],[134.08298,34.17915],[134.08381,34.1799],[134.08361,34.1808],[134.08406,34.1818],[134.0841,34.18225],[134.08368,34.18263],[134.08343,34.18325],[134.08501,34.1839],[134.08648,34.18426],[134.08947,34.18362],[134.093,34.1852],[134.09571,34.18516],[134.0967,34.1845],[134.09738,34.18363],[134.09799,34.18319],[134.09841,34.18251],[134.0992,34.18201],[134.09951,34.18197],[134.10062,34.18225],[134.10125,34.18269],[134.10287,34.18284],[134.10316,34.18355],[134.10361,34.18404],[134.10356,34.1844],[134.10398,34.18498],[134.10551,34.18463],[134.10617,34.18529],[134.10716,34.18586],[134.10797,34.18686],[134.10797,34.18703],[134.1081,34.1868],[134.10933,34.18612],[134.10976,34.18493]]]},"properties":{"key":"372011580","name":"塩江町安原上東","pref":"香川県","prefCode":"37","municipality":"高松市","areaM2":21667400.922,"population":628,"toponymIds":["37-e8e096972a","37-6795777360"]}},{"type":"Feature","geometry":{"type":"Polygon","coordinates":[[[134.0848,34.20267],[134.08499,34.20244],[134.08496,34.20201],[134.08606,34.20063],[134.0868,34.19824],[134.0865,34.19758],[134.08642,34.19665],[134.08568,34.19607],[134.08573,34.19571],[134.08638,34.19508],[134.08657,34.19463],[134.08646,34.19442],[134.08534,34.19493],[134.08484,34.19559],[134.08441,34.19573],[134.08309,34.19499],[134.08264,34.19435],[134.0825,34.19487],[134.08184,34.19516],[134.08146,34.19485],[134.08101,34.19522],[134.08028,34.1954],[134.0799,34.19637],[134.08003,34.19691],[134.07981,34.19738],[134.08031,34.19899],[134.07999,34.19927],[134.0794,34.19942],[134.07959,34.20039],[134.07975,34.20074],[134.08184,34.20053],[134.08217,34.20109],[134.08254,34.20244],[134.0848,34.20267]]]},"properties":{"key":"372011560","name":"塩江町安原下","pref":"香川県","prefCode":"37","municipality":"高松市","areaM2":422156.514,"population":0,"toponymIds":["37-14ea19eeea","37-ede0342e14","37-7686f6dbde"]}},{"type":"Feature","geometry":{"type":"Polygon","coordinates":[[[134.09989,34.20554],[134.10003,34.2053],[134.10216,34.20519],[134.10282,34.20451],[134.10377,34.20402],[134.10403,34.204],[134.10477,34.20446],[134.10531,34.20404],[134.10539,34.2039],[134.10488,34.20316],[134.10515,34.20246],[134.10514,34.20165],[134.10602,34.20068],[134.10697,34.20021],[134.10705,34.19957],[134.10896,34.1988],[134.10916,34.19858],[134.10947,34.19748],[134.10912,34.19703],[134.10908,34.19671],[134.10923,34.19639],[134.10987,34.19598],[134.1098,34.19531],[134.10994,34.19489],[134.10976,34.19423],[134.10985,34.19398],[134.11009,34.19396],[134.11033,34.19294],[134.10993,34.19237],[134.11031,34.19131],[134.11022,34.19081],[134.10982,34.19027],[134.10997,34.18949],[134.10985,34.18903],[134.10929,34.18872],[134.1081,34.1875],[134.10797,34.18686],[134.10716,34.18586],[134.10617,34.18529],[134.10551,34.18463],[134.10398,34.18498],[134.10356,34.1844],[134.10361,34.18404],[134.10316,34.18355],[134.10287,34.18284],[134.10125,34.18269],[134.10062,34.18225],[134.09951,34.18197],[134.0992,34.18201],[134.09841,34.18251],[134.09799,34.18319],[134.09738,34.18363],[134.09644,34.18475],[134.09565,34.18521],[134.09515,34.18711],[134.0941,34.18863],[134.09407,34.18912],[134.09445,34.18947],[134.09452,34.19011],[134.09386,34.19057],[134.09356,34.19113],[134.09294,34.19178],[134.09189,34.19221],[134.09159,34.19287],[134.09122,34.19319],[134.08999,34.19511],[134.09031,34.19561],[134.0902,34.19589],[134.08956,34.19669],[134.08875,34.19712],[134.08828,34.19832],[134.08785,34.19846],[134.08693,34.1982],[134.08673,34.19831],[134.08629,34.20002],[134.08724,34.19998],[134.08773,34.20029],[134.08828,34.20031],[134.08956,34.20021],[134.09002,34.1999],[134.0916,34.20013],[134.09219,34.2007],[134.0922,34.20146],[134.09292,34.20158],[134.09372,34.20203],[134.09433,34.20267],[134.09529,34.20298],[134.09641,34.20273],[134.09706,34.203],[134.09721,34.20387],[134.09689,34.20478],[134.09801,34.20643],[134.09938,34.20606],[134.09989,34.20554]]]},"properties":{"key":"372011540","name":"菅沢町","pref":"香川県","prefCode":"37","municipality":"高松市","areaM2":3392673.59,"population":62,"toponymIds":["37-1990ce46da","37-97b5383e7b"]}},{"type":"Feature","geometry":{"type":"Polygon","coordinates":[[[134.05152,34.34323],[134.05355,34.34286],[134.05331,34.342],[134.05245,34.34212],[134.05236,34.34167],[134.05035,34.34204],[134.05045,34.34244],[134.05014,34.34248],[134.05038,34.3434],[134.05152,34.34323]]]},"properties":{"key":"372010080","name":"古馬場町","pref":"香川県","prefCode":"37","municipality":"高松市","areaM2":38892.15,"population":89,"toponymIds":["37-29f19503aa"]}},{"type":"Feature","geometry":{"type":"Polygon","coordinates":[[[133.78219,34.27494],[133.78245,34.27476],[133.78267,34.2748],[133.7832,34.27419],[133.78622,34.26929],[133.78629,34.26865],[133.78583,34.26819],[133.78592,34.26806],[133.78746,34.26833],[133.78834,34.26606],[133.7869,34.26555],[133.78692,34.26545],[133.78842,34.26464],[133.78943,34.26368],[133.78989,34.26393],[133.78957,34.26435],[133.78996,34.26457],[133.79073,34.26354],[133.78308,34.26003],[133.78277,34.25956],[133.78245,34.25967],[133.77995,34.25885],[133.77927,34.25833],[133.77921,34.25812],[133.77881,34.25842],[133.77852,34.25788],[133.77664,34.257],[133.77566,34.25678],[133.77517,34.25808],[133.77462,34.25815],[133.77448,34.25844],[133.77466,34.25859],[133.77494,34.25841],[133.77519,34.25927],[133.77497,34.25954],[133.77407,34.2597],[133.77389,34.26021],[133.77411,34.26058],[133.77432,34.26039],[133.77454,34.26062],[133.77431,34.26077],[133.77442,34.26087],[133.77474,34.26076],[133.77454,34.26095],[133.77491,34.26127],[133.77484,34.26135],[133.77635,34.26258],[133.77626,34.26277],[133.77616,34.26263],[133.77598,34.2627],[133.77598,34.26308],[133.77577,34.26317],[133.77496,34.26445],[133.77442,34.26484],[133.7736,34.26606],[133.77251,34.26671],[133.77182,34.26655],[133.77152,34.26692],[133.77213,34.26708],[133.77394,34.26825],[133.77159,34.27162],[133.77389,34.27278],[133.77381,34.27291],[133.77619,34.27369],[133.77999,34.2755],[133.78038,34.27583],[133.78219,34.27494]]]},"properties":{"key":"372020270","name":"金倉町","pref":"香川県","prefCode":"37","municipality":"丸亀市","areaM2":2015203.42,"population":1724,"toponymIds":["37-8de7eabf9e","37-6dfdcfd175"]}},{"type":"Feature","geometry":{"type":"Polygon","coordinates":[[[133.79773,34.29469],[133.79801,34.29409],[133.79766,34.29397],[133.7978,34.29368],[133.79764,34.29362],[133.79814,34.29275],[133.79839,34.29283],[133.79845,34.29273],[133.79819,34.29263],[133.79851,34.29207],[133.79865,34.29195],[133.79906,34.29211],[133.7993,34.29165],[133.7989,34.2915],[133.79903,34.29124],[133.79834,34.29099],[133.79682,34.29372],[133.79708,34.29383],[133.79687,34.29406],[133.79734,34.2942],[133.79715,34.29438],[133.79773,34.29469]]]},"properties":{"key":"372020030","name":"葭町","pref":"香川県","prefCode":"37","municipality":"丸亀市","areaM2":30404.607,"population":128,"toponymIds":["37-2875669530"]}},{"type":"Feature","geometry":{"type":"Polygon","coordinates":[[[133.82858,34.24592],[133.83328,34.23864],[133.8347,34.2366],[133.83487,34.23664],[133.83484,34.23637],[133.838,34.23572],[133.83813,34.22922],[133.83779,34.22736],[133.8377,34.22589],[133.8377,34.2183],[133.83653,34.21828],[133.83652,34.21768],[133.83584,34.21833],[133.83577,34.21865],[133.83539,34.21905],[133.83409,34.2197],[133.83301,34.22056],[133.83263,34.22047],[133.83259,34.22016],[133.83217,34.22015],[133.83246,34.21988],[133.83232,34.2198],[133.83217,34.22002],[133.83179,34.22002],[133.83096,34.21936],[133.83019,34.21906],[133.8284,34.22169],[133.82524,34.22029],[133.82184,34.2255],[133.82282,34.22599],[133.82035,34.22979],[133.82009,34.22969],[133.81975,34.23018],[133.81983,34.23056],[133.81833,34.23288],[133.81902,34.23331],[133.8188,34.23431],[133.81969,34.23478],[133.81914,34.23564],[133.82012,34.23612],[133.81665,34.24141],[133.81951,34.24256],[133.82037,34.24263],[133.82091,34.24288],[133.82098,34.24276],[133.82134,34.24294],[133.82247,34.24265],[133.82288,34.24346],[133.82382,34.24438],[133.8248,34.24502],[133.82492,34.24526],[133.82633,34.24593],[133.82692,34.24595],[133.82728,34.24633],[133.82804,34.24664],[133.82858,34.24592]]]},"properties":{"key":"372020420","name":"垂水町","pref":"香川県","prefCode":"37","municipality":"丸亀市","areaM2":3899584.099,"population":5674,"toponymIds":["37-f7acd9491e","37-7e654b1120","37-423d9c2a46"]}},{"type":"Feature","geometry":{"type":"Polygon","coordinates":[[[133.85201,34.26913],[133.85207,34.26903],[133.85182,34.26887],[133.85172,34.26903],[133.85113,34.2686],[133.8514,34.26769],[133.85191,34.26698],[133.8532,34.26758],[133.8539,34.26775],[133.85426,34.26767],[133.85448,34.26803],[133.85493,34.26819],[133.85533,34.26821],[133.85539,34.26809],[133.85537,34.26768],[133.8551,34.26723],[133.85635,34.26716],[133.85612,34.26743],[133.85612,34.26807],[133.85804,34.26809],[133.85919,34.26833],[133.86114,34.26552],[133.86221,34.26593],[133.86337,34.26422],[133.86545,34.26519],[133.86494,34.2661],[133.8649,34.26688],[133.86583,34.267],[133.86604,34.26737],[133.86771,34.2673],[133.8698,34.26669],[133.87106,34.26656],[133.87251,34.266],[133.87318,34.26544],[133.87571,34.26454],[133.87611,34.26468],[133.87622,34.26513],[133.87677,34.26527],[133.87712,34.26558],[133.87686,34.26593],[133.87776,34.26656],[133.87925,34.26633],[133.87988,34.2667],[133.88026,34.26742],[133.88063,34.26751],[133.88058,34.26728],[133.88124,34.26715],[133.88212,34.26744],[133.88389,34.26881],[133.88433,34.26864],[133.88392,34.26813],[133.88392,34.26781],[133.88346,34.26734],[133.88237,34.26692],[133.88192,34.26641],[133.88095,34.26595],[133.88019,34.26522],[133.88082,34.2644],[133.8808,34.26424],[133.87985,34.26461],[133.87884,34.26386],[133.87887,34.26363],[133.87945,34.26295],[133.88022,34.26293],[133.88127,34.26339],[133.88213,34.26309],[133.88303,34.26218],[133.88292,34.26159],[133.88222,34.26156],[133.88177,34.26181],[133.88038,34.26175],[133.87972,34.2619],[133.87999,34.26109],[133.87966,34.26023],[133.87799,34.26039],[133.87755,34.25972],[133.87665,34.25962],[133.87589,34.25914],[133.87522,34.25904],[133.87445,34.25849],[133.87325,34.25824],[133.87267,34.25895],[133.86941,34.25864],[133.86738,34.25886],[133.86715,34.25832],[133.86593,34.25795],[133.86551,34.25771],[133.86527,34.25735],[133.86502,34.25779],[133.86404,34.2583],[133.86234,34.25852],[133.86134,34.25839],[133.86048,34.25753],[133.85982,34.25803],[133.85951,34.25898],[133.8596,34.25993],[133.85943,34.26043],[133.85851,34.26012],[133.85845,34.26032],[133.8577,34.26018],[133.85745,34.26],[133.85749,34.25957],[133.85733,34.25924],[133.85637,34.25925],[133.85545,34.25856],[133.85536,34.25811],[133.85476,34.25822],[133.85482,34.25796],[133.85436,34.25787],[133.85451,34.25728],[133.85419,34.25719],[133.85437,34.25658],[133.85296,34.25577],[133.85254,34.25536],[133.85152,34.25555],[133.85081,34.25731],[133.85067,34.25726],[133.85024,34.2583],[133.84967,34.25832],[133.84942,34.25862],[133.84907,34.26004],[133.85101,34.26082],[133.84964,34.26359],[133.84939,34.26362],[133.8494,34.26464],[133.85066,34.26521],[133.84951,34.26695],[133.84962,34.26771],[133.84587,34.27442],[133.85209,34.26954],[133.85224,34.26921],[133.85201,34.26913]]]},"properties":{"key":"372020840","name":"飯山町川原","pref":"香川県","prefCode":"37","municipality":"丸亀市","areaM2":2702903.26,"population":2272,"toponymIds":["37-2e9481b974","37-9f6d2d951a"]}},{"type":"Feature","geometry":{"type":"Polygon","coordinates":[[[133.6932,34.37144],[133.69389,34.37082],[133.69491,34.37071],[133.6956,34.36989],[133.69618,34.36962],[133.69719,34.36965],[133.69928,34.37031],[133.69918,34.36928],[133.69955,34.36868],[133.69955,34.36735],[133.69907,34.36667],[133.69914,34.36607],[133.69723,34.36589],[133.69659,34.36565],[133.69621,34.36525],[133.69596,34.36488],[133.69588,34.3641],[133.69638,34.36256],[133.69593,34.3607],[133.69423,34.35913],[133.6917,34.36209],[133.69149,34.36196],[133.69069,34.36196],[133.69062,34.36108],[133.69074,34.36067],[133.69064,34.36062],[133.69045,34.36092],[133.68988,34.3609],[133.688,34.36004],[133.68773,34.36013],[133.68673,34.35968],[133.68559,34.36078],[133.68504,34.36089],[133.68443,34.36144],[133.6845,34.36171],[133.68525,34.36235],[133.68533,34.36296],[133.68503,34.36375],[133.68513,34.36393],[133.68553,34.36403],[133.68553,34.36439],[133.68576,34.36463],[133.6857,34.36534],[133.68696,34.36592],[133.68716,34.36617],[133.68699,34.36589],[133.68608,34.3654],[133.68656,34.36482],[133.68676,34.36486],[133.68651,34.36479],[133.6868,34.36416],[133.6878,34.36448],[133.68752,34.36467],[133.68687,34.3647],[133.68737,34.36472],[133.687,34.36518],[133.6874,34.36474],[133.6887,34.36588],[133.68818,34.36619],[133.68824,34.36641],[133.68838,34.36637],[133.68863,34.36783],[133.6888,34.36811],[133.68818,34.36822],[133.68846,34.36944],[133.69006,34.36945],[133.69004,34.37035],[133.68979,34.37144],[133.69107,34.37162],[133.69157,34.37139],[133.69215,34.37136],[133.69253,34.3716],[133.69274,34.37197],[133.69295,34.37188],[133.6932,34.37144]]]},"properties":{"key":"372020580","name":"広島町青木","pref":"香川県","prefCode":"37","municipality":"丸亀市","areaM2":1076350.772,"population":42,"toponymIds":["37-60c2317bfc","37-14c1073dc2"]}},{"type":"Feature","geometry":{"type":"Polygon","coordinates":[[[133.78155,34.2582],[133.78217,34.25581],[133.78262,34.25509],[133.78319,34.2552],[133.7833,34.25556],[133.7834,34.25524],[133.78382,34.25542],[133.78369,34.25558],[133.78463,34.25585],[133.78446,34.25301],[133.78377,34.2534],[133.7837,34.25251],[133.78353,34.25224],[133.78392,34.25107],[133.78506,34.24866],[133.78743,34.24707],[133.78818,34.24623],[133.78868,34.24493],[133.78957,34.24408],[133.7894,34.24348],[133.78913,34.24314],[133.78941,34.24274],[133.7896,34.24281],[133.79094,34.24098],[133.79176,34.24131],[133.7925,34.24017],[133.79305,34.23922],[133.79208,34.23782],[133.7916,34.23821],[133.79075,34.23834],[133.79023,34.23803],[133.78901,34.23776],[133.78884,34.23828],[133.78861,34.23846],[133.78841,34.2383],[133.78828,34.23864],[133.78801,34.23854],[133.78817,34.23822],[133.78782,34.23802],[133.78724,34.23816],[133.7868,34.23947],[133.78633,34.2394],[133.78553,34.23984],[133.78463,34.2411],[133.78424,34.24088],[133.7835,34.24143],[133.78326,34.24179],[133.782,34.24161],[133.78089,34.24326],[133.78203,34.24366],[133.78173,34.24408],[133.78127,34.24429],[133.78114,34.24459],[133.7813,34.24468],[133.78108,34.2451],[133.78,34.24579],[133.77851,34.24576],[133.77845,34.24637],[133.77804,34.2469],[133.77766,34.24706],[133.77785,34.24749],[133.77758,34.24757],[133.7778,34.24795],[133.77695,34.24916],[133.77635,34.24966],[133.77594,34.2504],[133.77583,34.25102],[133.77543,34.2518],[133.77528,34.25284],[133.77467,34.25366],[133.77433,34.25487],[133.77359,34.25584],[133.7756,34.25679],[133.77719,34.25722],[133.77852,34.25788],[133.77881,34.25842],[133.77929,34.25815],[133.77927,34.25833],[133.77972,34.25856],[133.77987,34.2588],[133.78113,34.25923],[133.78155,34.2582]]]},"properties":{"key":"372040110","name":"金蔵寺町","pref":"香川県","prefCode":"37","municipality":"善通寺市","areaM2":1638206.033,"population":1699,"toponymIds":["37-14abe8c13d","37-816f2be802","37-cd3e9b5758"]}},{"type":"Feature","geometry":{"type":"Polygon","coordinates":[[[133.70354,34.12481],[133.70371,34.12473],[133.70315,34.12473],[133.70144,34.12377],[133.7013,34.12384],[133.70009,34.12195],[133.69541,34.12395],[133.69408,34.12368],[133.69182,34.12129],[133.69155,34.12159],[133.69077,34.12178],[133.69085,34.12223],[133.68987,34.12365],[133.68967,34.12338],[133.68936,34.12354],[133.68971,34.12398],[133.68901,34.12506],[133.68934,34.12545],[133.689,34.12556],[133.68885,34.12608],[133.69031,34.12785],[133.69115,34.12953],[133.69376,34.13303],[133.70168,34.1293],[133.69955,34.12789],[133.70039,34.12749],[133.7007,34.12655],[133.70159,34.12583],[133.70294,34.12549],[133.70312,34.12511],[133.70354,34.12481]]]},"properties":{"key":"372050210","name":"古川町","pref":"香川県","prefCode":"37","municipality":"観音寺市","areaM2":969858.142,"population":1144,"toponymIds":["37-f3117d1510"]}},{"type":"Feature","geometry":{"type":"Polygon","coordinates":[[[134.30876,34.27556],[134.30964,34.27601],[134.31031,34.27521],[134.31069,34.27522],[134.31086,34.27494],[134.31135,34.27469],[134.31199,34.27458],[134.31244,34.27481],[134.31294,34.27479],[134.31461,34.27346],[134.31502,34.27329],[134.31527,34.27341],[134.31551,34.27323],[134.31549,34.27295],[134.31582,34.27264],[134.31636,34.27256],[134.31622,34.27238],[134.3163,34.27223],[134.31766,34.27104],[134.31875,34.27122],[134.31894,34.27111],[134.31927,34.27128],[134.31947,34.27075],[134.31891,34.2707],[134.31889,34.27012],[134.31975,34.26889],[134.32034,34.26847],[134.32109,34.26888],[134.3216,34.26868],[134.32284,34.26794],[134.32372,34.267],[134.32278,34.26787],[134.32151,34.26853],[134.3208,34.26811],[134.32177,34.2672],[134.32207,34.26738],[134.32262,34.26683],[134.32298,34.26708],[134.3225,34.26663],[134.32304,34.26612],[134.3213,34.2651],[134.32154,34.26471],[134.32026,34.26422],[134.32059,34.26335],[134.32048,34.26275],[134.31847,34.25771],[134.31831,34.25706],[134.31834,34.25513],[134.31339,34.25538],[134.315,34.25694],[134.3156,34.25786],[134.31788,34.25943],[134.31573,34.25992],[134.31583,34.26054],[134.31456,34.26079],[134.3141,34.26057],[134.31322,34.26133],[134.3132,34.26151],[134.31258,34.26164],[134.31277,34.26222],[134.3136,34.26212],[134.31367,34.26299],[134.31265,34.2627],[134.31257,34.26284],[134.31324,34.26338],[134.31405,34.26367],[134.31192,34.2646],[134.31036,34.26461],[134.30987,34.26447],[134.3099,34.2648],[134.30967,34.26521],[134.30847,34.26547],[134.30816,34.26571],[134.30815,34.26594],[134.30778,34.26622],[134.30731,34.267],[134.3074,34.26763],[134.3059,34.26749],[134.30549,34.26786],[134.30557,34.26834],[134.30604,34.26914],[134.30624,34.27127],[134.30607,34.27437],[134.30573,34.27513],[134.30649,34.27791],[134.30678,34.27818],[134.30712,34.27724],[134.30813,34.276],[134.30876,34.27556]]]},"properties":{"key":"372070250","name":"小磯","pref":"香川県","prefCode":"37","municipality":"東かがわ市","areaM2":1807104.399,"population":393,"toponymIds":["37-8391b45239"]}},{"type":"Feature","geometry":{"type":"Polygon","coordinates":[[[133.77424,34.28849],[133.77472,34.28824],[133.77518,34.28846],[133.77733,34.28504],[133.77756,34.28369],[133.77669,34.28326],[133.77818,34.28083],[133.7794,34.27715],[133.78038,34.27583],[133.77999,34.2755],[133.77619,34.27369],[133.77381,34.27291],[133.77389,34.27278],[133.77255,34.27211],[133.7677,34.27927],[133.76684,34.27889],[133.76599,34.28171],[133.76639,34.28198],[133.76559,34.28258],[133.76521,34.28322],[133.76422,34.28416],[133.76552,34.28512],[133.76541,34.28539],[133.76554,34.28514],[133.76694,34.28593],[133.76811,34.28754],[133.76818,34.28769],[133.76697,34.28868],[133.76845,34.28752],[133.76886,34.28766],[133.76894,34.28745],[133.76985,34.287],[133.7702,34.2864],[133.76994,34.28644],[133.76979,34.28608],[133.76967,34.28672],[133.76949,34.28669],[133.7696,34.28591],[133.77022,34.28578],[133.77038,34.28557],[133.77023,34.2859],[133.76989,34.28594],[133.76995,34.28631],[133.77011,34.28632],[133.77067,34.28562],[133.77059,34.28539],[133.77183,34.28587],[133.77181,34.28709],[133.7714,34.2879],[133.77173,34.28804],[133.77165,34.28811],[133.77273,34.28836],[133.77365,34.28878],[133.77404,34.28871],[133.77424,34.28849]]]},"properties":{"key":"372020280","name":"中津町","pref":"香川県","prefCode":"37","municipality":"丸亀市","areaM2":1518043.146,"population":1697,"toponymIds":["37-63fab57a8e"]}},{"type":"Feature","geometry":{"type":"Polygon","coordinates":[[[134.03255,34.2838],[134.03568,34.28361],[134.0375,34.28374],[134.0379,34.28372],[134.03789,34.2835],[134.03744,34.28283],[134.03637,34.28297],[134.03607,34.28168],[134.03527,34.2815],[134.03542,34.28119],[134.03526,34.28089],[134.03375,34.2799],[134.03332,34.27874],[134.03301,34.27862],[134.03229,34.27875],[134.03199,34.27678],[134.03266,34.27666],[134.03251,34.27563],[134.0329,34.27559],[134.03298,34.27544],[134.03292,34.27483],[134.03306,34.27479],[134.03306,34.2745],[134.03279,34.2741],[134.03198,34.27344],[134.03214,34.27331],[134.03185,34.27296],[134.03093,34.27332],[134.03117,34.27408],[134.03152,34.27404],[134.03158,34.27424],[134.03183,34.27424],[134.03191,34.27465],[134.03206,34.27463],[134.03232,34.27509],[134.03205,34.27513],[134.03206,34.2753],[134.03127,34.27542],[134.03119,34.27491],[134.03165,34.2747],[134.03162,34.27452],[134.03089,34.27464],[134.03089,34.27488],[134.02989,34.27504],[134.02984,34.27447],[134.03025,34.27431],[134.0302,34.27411],[134.02998,34.27407],[134.03002,34.27357],[134.02989,34.27356],[134.02997,34.27347],[134.02974,34.27322],[134.02975,34.27301],[134.02956,34.273],[134.02942,34.27179],[134.02881,34.27189],[134.02874,34.2717],[134.02708,34.27204],[134.02694,34.27173],[134.02659,34.27178],[134.0262,34.27158],[134.02628,34.27223],[134.02583,34.27232],[134.02587,34.27256],[134.02547,34.27254],[134.02552,34.27273],[134.02581,34.27271],[134.02583,34.27283],[134.02541,34.27287],[134.02544,34.27328],[134.02478,34.27338],[134.02487,34.27386],[134.02569,34.27373],[134.02577,34.27405],[134.02498,34.2742],[134.02507,34.27492],[134.02458,34.27655],[134.02428,34.27702],[134.02353,34.27713],[134.02306,34.27632],[134.02195,34.27663],[134.02183,34.27639],[134.02152,34.27634],[134.01941,34.27632],[134.01996,34.27924],[134.02039,34.28038],[134.02163,34.28208],[134.02187,34.28201],[134.02204,34.28235],[134.02227,34.28231],[134.0225,34.28287],[134.0227,34.2827],[134.02312,34.28275],[134.02314,34.28249],[134.02289,34.28242],[134.02294,34.28226],[134.0248,34.28199],[134.02493,34.28181],[134.0285,34.28141],[134.0288,34.28226],[134.02906,34.28209],[134.02934,34.28223],[134.02966,34.28319],[134.02984,34.28316],[134.02982,34.28299],[134.0304,34.28289],[134.03242,34.28387],[134.03255,34.2838]]]},"properties":{"key":"372011150","name":"寺井町","pref":"香川県","prefCode":"37","municipality":"高松市","areaM2":1150076.89,"population":3989,"toponymIds":["37-035dd9e40c"]}},{"type":"Feature","geometry":{"type":"Polygon","coordinates":[[[133.63308,34.19478],[133.63297,34.19414],[133.63353,34.19364],[133.63427,34.19343],[133.63612,34.19355],[133.63603,34.19311],[133.63531,34.1924],[133.63434,34.19239],[133.63364,34.19209],[133.63327,34.19173],[133.63278,34.19169],[133.63257,34.19201],[133.63202,34.1923],[133.63118,34.19243],[133.63082,34.19274],[133.63097,34.1931],[133.63059,34.19338],[133.63084,34.19411],[133.63107,34.19431],[133.63177,34.19421],[133.63257,34.19482],[133.63292,34.19474],[133.63337,34.1949],[133.63308,34.19478]]]},"properties":{"key":"372080360","name":"仁尾町仁尾","pref":"香川県","prefCode":"37","municipality":"三豊市","areaM2":87809.349,"population":0,"toponymIds":["37-5af0ccacb5"]}},{"type":"Feature","geometry":{"type":"Polygon","coordinates":[[[133.83392,34.25972],[133.83683,34.2542],[133.83786,34.25098],[133.83864,34.24688],[133.83876,34.24417],[133.83783,34.23756],[133.838,34.23743],[133.838,34.23572],[133.83484,34.23637],[133.83487,34.23664],[133.8347,34.2366],[133.83328,34.23864],[133.83048,34.24311],[133.82975,34.244],[133.82442,34.25207],[133.82556,34.25241],[133.82535,34.25194],[133.82563,34.25139],[133.82607,34.25146],[133.82632,34.25101],[133.82642,34.25105],[133.82693,34.25138],[133.82608,34.25254],[133.82767,34.25318],[133.82757,34.25332],[133.82788,34.25352],[133.83062,34.25477],[133.82877,34.25729],[133.82783,34.25891],[133.82803,34.25911],[133.82824,34.25898],[133.82861,34.25913],[133.82855,34.25971],[133.82929,34.26007],[133.82876,34.26085],[133.83256,34.26213],[133.83392,34.25972]]]},"properties":{"key":"372020340","name":"川西町南","pref":"香川県","prefCode":"37","municipality":"丸亀市","areaM2":2030675.536,"population":2085,"toponymIds":["37-53d10e345a"]}},{"type":"Feature","geometry":{"type":"Polygon","coordinates":[[[133.79082,34.24291],[133.7914,34.24289],[133.79181,34.24319],[133.79268,34.24282],[133.79327,34.24172],[133.79298,34.24161],[133.79315,34.24116],[133.79274,34.24108],[133.7925,34.2403],[133.79335,34.23979],[133.79285,34.23956],[133.79176,34.24131],[133.79094,34.24098],[133.7896,34.24281],[133.78941,34.24274],[133.78913,34.24314],[133.7894,34.24348],[133.79082,34.24291]]]},"properties":{"key":"372040100","name":"原田町","pref":"香川県","prefCode":"37","municipality":"善通寺市","areaM2":62471.284,"population":0,"toponymIds":["37-f1ee07a6dc"]}},{"type":"Feature","geometry":{"type":"Polygon","coordinates":[[[133.65518,34.12004],[133.65467,34.1192],[133.65229,34.11997],[133.65204,34.11985],[133.65071,34.11997],[133.65049,34.12136],[133.65103,34.12291],[133.65254,34.12337],[133.65262,34.12279],[133.65353,34.12154],[133.65458,34.12033],[133.65518,34.12004]]]},"properties":{"key":"37205001103","name":"昭和町三丁目","pref":"香川県","prefCode":"37","municipality":"観音寺市","areaM2":106220.01,"population":372,"toponymIds":["37-5a055e0d24"]}},{"type":"Feature","geometry":{"type":"Polygon","coordinates":[[[133.81231,34.15738],[133.81166,34.15605],[133.81174,34.15579],[133.81148,34.15518],[133.81151,34.15473],[133.81131,34.15447],[133.81146,34.15409],[133.81092,34.15326],[133.81124,34.15224],[133.81172,34.15203],[133.81176,34.15149],[133.81162,34.1511],[133.81217,34.15074],[133.81212,34.15017],[133.81299,34.1488],[133.81358,34.14876],[133.81488,34.14823],[133.81507,34.14762],[133.8158,34.14697],[133.81671,34.14693],[133.8173,34.14664],[133.81707,34.146],[133.81731,34.14545],[133.81606,34.14459],[133.81629,34.14425],[133.81627,34.14336],[133.81589,34.14264],[133.81605,34.14216],[133.81654,34.14194],[133.81676,34.14118],[133.81677,34.14079],[133.81642,34.14007],[133.81656,34.13956],[133.81635,34.13896],[133.81725,34.1379],[133.81726,34.13638],[133.81685,34.13496],[133.81649,34.13438],[133.81718,34.13385],[133.8174,34.13337],[133.8174,34.13304],[133.81694,34.13305],[133.81716,34.13256],[133.81682,34.13186],[133.81684,34.13156],[133.81717,34.13162],[133.81751,34.13091],[133.81803,34.13107],[133.81849,34.13033],[133.81805,34.12934],[133.81783,34.12796],[133.81802,34.12776],[133.81748,34.12708],[133.81781,34.12634],[133.81764,34.12545],[133.81742,34.12546],[133.8176,34.1253],[133.81743,34.12459],[133.81711,34.12391],[133.81644,34.12311],[133.81563,34.12235],[133.81488,34.12206],[133.81545,34.1216],[133.81539,34.12103],[133.81593,34.11985],[133.81619,34.11983],[133.81642,34.11938],[133.81729,34.11669],[133.81759,34.11652],[133.81749,34.11617],[133.81763,34.11568],[133.81697,34.11487],[133.81702,34.11471],[133.81771,34.11352],[133.81856,34.1131],[133.8187,34.1121],[133.81857,34.11147],[133.81913,34.11071],[133.81927,34.10982],[133.81997,34.10932],[133.81947,34.10857],[133.81938,34.10808],[133.81935,34.1075],[133.81964,34.10623],[133.81875,34.10495],[133.81885,34.10448],[133.81874,34.1036],[133.81825,34.10262],[133.81856,34.10191],[133.81832,34.10088],[133.81882,34.09986],[133.82043,34.09842],[133.82072,34.09778],[133.82133,34.09725],[133.82126,34.09664],[133.82078,34.09595],[133.82055,34.09501],[133.82231,34.09394],[133.82287,34.09332],[133.82238,34.0925],[133.82163,34.09183],[133.82149,34.09086],[133.82171,34.09017],[133.82217,34.08964],[133.82219,34.08937],[133.82265,34.08894],[133.82245,34.08787],[133.8227,34.08708],[133.82348,34.08638],[133.8235,34.08602],[133.82286,34.08484],[133.82188,34.08399],[133.82174,34.0834],[133.82056,34.08298],[133.82029,34.08249],[133.8199,34.08219],[133.81988,34.0818],[133.82026,34.08085],[133.81945,34.08001],[133.81876,34.07963],[133.81875,34.07916],[133.81929,34.07791],[133.81941,34.07704],[133.81928,34.07662],[133.81951,34.07574],[133.81933,34.07474],[133.81953,34.07434],[133.82012,34.07408],[133.82013,34.07387],[133.81991,34.07365],[133.81735,34.07231],[133.81474,34.07356],[133.81381,34.07355],[133.81298,34.07305],[133.81235,34.0729],[133.81017,34.07273],[133.80941,34.07209],[133.80808,34.07189],[133.80702,34.07131],[133.80599,34.07121],[133.8029,34.07022],[133.8018,34.07023],[133.80004,34.06969],[133.79776,34.06993],[133.79543,34.0707],[133.79476,34.07154],[133.79419,34.07191],[133.79312,34.0733],[133.79225,34.07384],[133.79052,34.07545],[133.79006,34.07621],[133.7902,34.07656],[133.79201,34.07803],[133.7921,34.07833],[133.79178,34.07825],[133.79192,34.07852],[133.79257,34.07892],[133.79308,34.07881],[133.79394,34.07821],[133.79465,34.07823],[133.79495,34.07941],[133.79536,34.0799],[133.79544,34.08136],[133.79605,34.08181],[133.7962,34.08241],[133.79622,34.08532],[133.79587,34.08643],[133.79591,34.08967],[133.79695,34.09197],[133.79721,34.09442],[133.79709,34.09488],[133.79676,34.09521],[133.79664,34.09607],[133.79552,34.09701],[133.79479,34.10063],[133.79414,34.10086],[133.79355,34.10143],[133.793,34.10168],[133.79291,34.10182],[133.79324,34.10193],[133.79292,34.10308],[133.78376,34.10785],[133.77995,34.11046],[133.77651,34.11137],[133.77534,34.11354],[133.77378,34.11421],[133.77077,34.11603],[133.77074,34.11846],[133.76893,34.12393],[133.76922,34.1247],[133.76988,34.12537],[133.76994,34.12572],[133.76975,34.12614],[133.77024,34.12699],[133.77089,34.12725],[133.77081,34.12761],[133.77199,34.12754],[133.77255,34.12877],[133.77255,34.1293],[133.7732,34.12939],[133.77366,34.12918],[133.77393,34.12923],[133.77459,34.13001],[133.77579,34.13075],[133.77586,34.13105],[133.77672,34.13174],[133.77743,34.13267],[133.77977,34.13362],[133.78036,34.13413],[133.78176,34.13437],[133.78263,34.13495],[133.78324,34.13487],[133.78367,34.1345],[133.78433,34.13485],[133.7841,34.1354],[133.78451,34.13589],[133.785,34.13588],[133.78534,34.13639],[133.78505,34.13667],[133.78564,34.13691],[133.78601,34.13762],[133.78715,34.13789],[133.78793,34.13936],[133.78919,34.13968],[133.78966,34.14024],[133.7897,34.14116],[133.79089,34.14201],[133.79198,34.14198],[133.79231,34.14285],[133.79272,34.14306],[133.79286,34.14342],[133.79395,34.14392],[133.79465,34.14467],[133.79598,34.14517],[133.79587,34.14573],[133.79611,34.1464],[133.79653,34.14625],[133.79742,34.14667],[133.79759,34.14709],[133.79815,34.14711],[133.79858,34.14771],[133.79852,34.14836],[133.79816,34.14834],[133.79812,34.14856],[133.79903,34.1487],[133.79982,34.14902],[133.8006,34.14966],[133.80145,34.15096],[133.80187,34.15226],[133.80269,34.15266],[133.80263,34.1532],[133.80337,34.15322],[133.80489,34.15404],[133.80575,34.15411],[133.80676,34.1562],[133.80773,34.15679],[133.80829,34.15746],[133.81041,34.15736],[133.81224,34.15781],[133.81231,34.15738]]]},"properties":{"key":"372080380","name":"財田町財田上","pref":"香川県","prefCode":"37","municipality":"三豊市","areaM2":26149588.972,"population":2199,"toponymIds":["37-780dfd6bc0"]}},{"type":"Feature","geometry":{"type":"Polygon","coordinates":[[[133.70381,34.1372],[133.70434,34.13732],[133.7045,34.13758],[133.70466,34.13746],[133.70524,34.13753],[133.70587,34.13725],[133.70608,34.13741],[133.70723,34.13677],[133.70778,34.13671],[133.70858,34.13581],[133.70886,34.13596],[133.70946,34.13584],[133.71201,34.1343],[133.71528,34.1327],[133.71477,34.13235],[133.71392,34.13126],[133.71353,34.13111],[133.71371,34.13082],[133.71446,34.13104],[133.7147,34.13073],[133.71321,34.12946],[133.7137,34.12935],[133.71288,34.12881],[133.71028,34.12892],[133.70797,34.12967],[133.70172,34.13448],[133.69962,34.13568],[133.70012,34.13644],[133.7007,34.13627],[133.70013,34.13686],[133.70089,34.13674],[133.70133,34.13722],[133.70274,34.13654],[133.70358,34.13763],[133.70381,34.1372]]]},"properties":{"key":"372080260","name":"豊中町本山乙","pref":"香川県","prefCode":"37","municipality":"三豊市","areaM2":726484.757,"population":589,"toponymIds":["37-7b6afded9f"]}},{"type":"Feature","geometry":{"type":"Polygon","coordinates":[[[133.68168,34.13857],[133.68305,34.13794],[133.68443,34.1376],[133.68459,34.1373],[133.68443,34.13637],[133.68373,34.13452],[133.68398,34.13417],[133.68472,34.1338],[133.68475,34.13347],[133.68549,34.13324],[133.68555,34.1325],[133.68515,34.13173],[133.68455,34.13166],[133.68558,34.13111],[133.68336,34.12795],[133.68359,34.1278],[133.68355,34.12755],[133.68234,34.12828],[133.68107,34.12881],[133.68082,34.12932],[133.68087,34.13015],[133.67978,34.13112],[133.67968,34.13124],[133.67988,34.13131],[133.67954,34.13169],[133.67624,34.13067],[133.67617,34.13198],[133.67517,34.1336],[133.67324,34.13321],[133.67042,34.13331],[133.66915,34.13307],[133.66909,34.1335],[133.67302,34.13393],[133.67284,34.13435],[133.67374,34.1344],[133.67386,34.13482],[133.67222,34.13523],[133.6719,34.13554],[133.67132,34.13566],[133.67061,34.13554],[133.6683,34.13612],[133.67306,34.13764],[133.6728,34.13826],[133.66647,34.13643],[133.66743,34.13928],[133.66819,34.14053],[133.6692,34.14156],[133.66941,34.14214],[133.67024,34.14233],[133.67099,34.14274],[133.67328,34.14191],[133.6767,34.14099],[133.67899,34.1397],[133.68168,34.13857]]]},"properties":{"key":"372050090","name":"流岡町","pref":"香川県","prefCode":"37","municipality":"観音寺市","areaM2":1414208.608,"population":937,"toponymIds":["37-a4fae1084b"]}},{"type":"Feature","geometry":{"type":"Polygon","coordinates":[[[134.21654,34.29527],[134.2175,34.29494],[134.21791,34.29435],[134.21835,34.29418],[134.21994,34.2927],[134.22069,34.29225],[134.22148,34.29226],[134.22294,34.29188],[134.2237,34.29325],[134.22395,34.29461],[134.22474,34.29499],[134.22778,34.2934],[134.22757,34.29331],[134.22811,34.29236],[134.22802,34.29173],[134.22908,34.29107],[134.22964,34.29042],[134.22934,34.28979],[134.22974,34.28876],[134.23226,34.28693],[134.23229,34.2863],[134.23325,34.2854],[134.23456,34.28486],[134.23593,34.28382],[134.23517,34.28317],[134.23431,34.28292],[134.23379,34.28244],[134.23364,34.28202],[134.23387,34.28149],[134.23365,34.28118],[134.23242,34.28028],[134.23223,34.27976],[134.23172,34.2795],[134.23056,34.27942],[134.23002,34.27861],[134.22954,34.27843],[134.22843,34.27759],[134.22798,34.27818],[134.22671,34.27846],[134.2254,34.27843],[134.22395,34.27871],[134.2231,34.27827],[134.22148,34.2784],[134.22066,34.27878],[134.21928,34.27853],[134.21932,34.27895],[134.21753,34.27905],[134.21729,34.27935],[134.21664,34.27939],[134.21669,34.27982],[134.21578,34.28046],[134.21356,34.28032],[134.21283,34.28203],[134.21219,34.28212],[134.21126,34.28193],[134.21053,34.2814],[134.21023,34.28076],[134.20873,34.27973],[134.20975,34.27787],[134.21008,34.27627],[134.20995,34.27538],[134.2097,34.27522],[134.20912,34.27532],[134.20821,34.2761],[134.20745,34.27548],[134.20731,34.27509],[134.2077,34.27392],[134.20721,34.27256],[134.20707,34.27251],[134.20671,34.27256],[134.20659,34.27274],[134.20667,34.27357],[134.20629,34.27365],[134.20612,34.2742],[134.20624,34.27484],[134.20652,34.27507],[134.20673,34.27608],[134.20595,34.27621],[134.20502,34.27724],[134.19922,34.2774],[134.19859,34.2772],[134.19783,34.2772],[134.19797,34.28188],[134.19766,34.28191],[134.19798,34.28228],[134.1979,34.28314],[134.19862,34.28313],[134.19876,34.28348],[134.20146,34.2834],[134.20166,34.28407],[134.20179,34.28549],[134.20156,34.28643],[134.20182,34.28729],[134.20168,34.28871],[134.20125,34.28911],[134.20119,34.29029],[134.20059,34.29103],[134.19992,34.29407],[134.19935,34.29456],[134.19879,34.29463],[134.19943,34.29534],[134.19968,34.29554],[134.20028,34.29519],[134.20131,34.29541],[134.20196,34.29534],[134.20294,34.29558],[134.2031,34.29802],[134.20466,34.29968],[134.20467,34.3004],[134.20759,34.29939],[134.20776,34.29917],[134.20802,34.29746],[134.20818,34.29735],[134.21409,34.29656],[134.21472,34.29604],[134.21654,34.29527]]]},"properties":{"key":"372060150","name":"寒川町神前","pref":"香川県","prefCode":"37","municipality":"さぬき市","areaM2":5518145.784,"population":1614,"toponymIds":["37-9e9e166a7e"]}},{"type":"Feature","geometry":{"type":"Polygon","coordinates":[[[133.84506,34.25676],[133.84514,34.25662],[133.84532,34.25668],[133.84545,34.25642],[133.84584,34.25653],[133.8461,34.256],[133.84633,34.25597],[133.84755,34.25356],[133.8478,34.25227],[133.84735,34.25209],[133.84692,34.25219],[133.84682,34.25201],[133.84655,34.25196],[133.84652,34.25173],[133.84639,34.25178],[133.84547,34.2511],[133.84505,34.25102],[133.84494,34.25064],[133.8451,34.25022],[133.84557,34.24969],[133.84566,34.24938],[133.84671,34.24879],[133.84689,34.24843],[133.84701,34.2485],[133.84717,34.24801],[133.84711,34.2476],[133.84741,34.24716],[133.84746,34.2466],[133.84723,34.24652],[133.84766,34.2459],[133.84795,34.24439],[133.8488,34.24444],[133.84902,34.24406],[133.84942,34.24415],[133.84973,34.24389],[133.84981,34.24408],[133.85085,34.24414],[133.85071,34.24364],[133.85097,34.24351],[133.85107,34.24369],[133.85168,34.24112],[133.85097,34.24067],[133.85137,34.24046],[133.85142,34.24074],[133.85171,34.24073],[133.85163,34.24047],[133.85177,34.24048],[133.85178,34.24023],[133.85173,34.23985],[133.85059,34.23944],[133.8506,34.23875],[133.84987,34.23893],[133.84991,34.23847],[133.84924,34.23847],[133.84954,34.2377],[133.85,34.2376],[133.84974,34.23625],[133.84914,34.23564],[133.84832,34.23538],[133.84742,34.23543],[133.84746,34.23518],[133.84724,34.23499],[133.84593,34.2344],[133.84571,34.23449],[133.84583,34.23407],[133.84519,34.23379],[133.84479,34.23405],[133.84452,34.23396],[133.8439,34.23462],[133.84217,34.23513],[133.84178,34.23511],[133.84116,34.23548],[133.84056,34.2355],[133.84036,34.23586],[133.8406,34.23734],[133.83784,34.23762],[133.83876,34.24417],[133.83871,34.24608],[133.83786,34.25098],[133.83706,34.25354],[133.83914,34.25414],[133.83947,34.25442],[133.83993,34.25448],[133.84007,34.25467],[133.8427,34.25591],[133.84506,34.25676]]]},"properties":{"key":"372020810","name":"飯山町東小川","pref":"香川県","prefCode":"37","municipality":"丸亀市","areaM2":2114671.513,"population":1916,"toponymIds":["37-5ef3893490"]}},{"type":"Feature","geometry":{"type":"Polygon","coordinates":[[[133.8033,34.1648],[133.80367,34.16389],[133.80345,34.1627],[133.80297,34.16194],[133.80242,34.1615],[133.80235,34.16077],[133.80188,34.1602],[133.80097,34.15793],[133.80088,34.15707],[133.80042,34.15657],[133.80141,34.15583],[133.80207,34.15486],[133.80253,34.15394],[133.80274,34.15283],[133.80269,34.15266],[133.80187,34.15226],[133.80145,34.15096],[133.8006,34.14966],[133.79982,34.14902],[133.79903,34.1487],[133.79812,34.14856],[133.79816,34.14834],[133.79852,34.14836],[133.79853,34.1475],[133.79827,34.14745],[133.79815,34.14711],[133.79759,34.14709],[133.79742,34.14667],[133.79677,34.14636],[133.79644,34.14625],[133.79611,34.1464],[133.79587,34.14573],[133.79598,34.14517],[133.79465,34.14467],[133.79395,34.14392],[133.79286,34.14342],[133.79272,34.14306],[133.79231,34.14285],[133.79198,34.14198],[133.79089,34.14201],[133.7897,34.14116],[133.78966,34.14024],[133.78919,34.13968],[133.78793,34.13936],[133.78715,34.13789],[133.78601,34.13762],[133.78564,34.13691],[133.78505,34.13667],[133.78534,34.13639],[133.785,34.13588],[133.78451,34.13589],[133.7841,34.1354],[133.78433,34.13485],[133.78367,34.1345],[133.78324,34.13487],[133.78263,34.13495],[133.78176,34.13437],[133.78036,34.13413],[133.77977,34.13362],[133.77743,34.13267],[133.77672,34.13174],[133.77586,34.13105],[133.77579,34.13075],[133.77459,34.13001],[133.77393,34.12923],[133.77366,34.12918],[133.7732,34.12939],[133.77255,34.1293],[133.77255,34.12877],[133.77199,34.12754],[133.77081,34.12761],[133.77089,34.12725],[133.77024,34.12699],[133.76975,34.12614],[133.76994,34.12572],[133.76988,34.12537],[133.76922,34.1247],[133.76892,34.12392],[133.76829,34.12416],[133.76773,34.12408],[133.76724,34.12449],[133.76684,34.12452],[133.76635,34.1249],[133.76559,34.1252],[133.76473,34.12505],[133.76257,34.12374],[133.76025,34.12378],[133.75978,34.12318],[133.75889,34.12294],[133.75856,34.1224],[133.75811,34.12274],[133.75772,34.12346],[133.7572,34.12362],[133.75627,34.12278],[133.75577,34.12278],[133.75532,34.12244],[133.75479,34.12234],[133.75361,34.1215],[133.75278,34.12134],[133.75201,34.12084],[133.75106,34.12094],[133.75076,34.12007],[133.75015,34.11942],[133.74974,34.11938],[133.7486,34.12031],[133.74738,34.12166],[133.74716,34.12152],[133.7463,34.12188],[133.74425,34.1232],[133.74426,34.12338],[133.74482,34.12317],[133.74512,34.12343],[133.74475,34.12388],[133.7438,34.12302],[133.74322,34.12315],[133.74303,34.12342],[133.74261,34.12361],[133.74221,34.1242],[133.74196,34.12507],[133.74132,34.12618],[133.74109,34.1269],[133.74054,34.12771],[133.73943,34.12805],[133.73927,34.12868],[133.73952,34.12951],[133.74057,34.13032],[133.7408,34.13066],[133.74115,34.13076],[133.74233,34.13174],[133.7437,34.13194],[133.74414,34.13331],[133.74453,34.13373],[133.74568,34.13364],[133.74659,34.13404],[133.74825,34.13433],[133.74904,34.13561],[133.74947,34.1368],[133.75037,34.13733],[133.75041,34.13875],[133.75126,34.13882],[133.75207,34.13939],[133.75266,34.13904],[133.75295,34.13859],[133.75384,34.13839],[133.75532,34.13922],[133.75543,34.13954],[133.75672,34.14102],[133.75893,34.14137],[133.76005,34.14239],[133.76107,34.14216],[133.76174,34.14258],[133.76267,34.14353],[133.76267,34.14378],[133.76353,34.1441],[133.76379,34.14495],[133.76448,34.14557],[133.766,34.14563],[133.76612,34.14657],[133.76677,34.1472],[133.76655,34.14792],[133.76667,34.1484],[133.76721,34.14888],[133.76682,34.14927],[133.76647,34.14995],[133.76626,34.15119],[133.76586,34.15182],[133.76605,34.15237],[133.76594,34.15358],[133.76562,34.15384],[133.76682,34.15413],[133.76775,34.15372],[133.76896,34.15371],[133.7696,34.15393],[133.77081,34.15527],[133.77134,34.15557],[133.7724,34.15552],[133.77326,34.15584],[133.77361,34.15582],[133.77403,34.15552],[133.7748,34.15559],[133.77475,34.15649],[133.77516,34.15699],[133.77559,34.15794],[133.77611,34.15815],[133.77759,34.15835],[133.77785,34.15855],[133.77907,34.1579],[133.77956,34.1572],[133.77988,34.15699],[133.78021,34.15629],[133.78102,34.15656],[133.78171,34.15648],[133.78284,34.15739],[133.78347,34.15732],[133.78399,34.15772],[133.78459,34.15774],[133.78489,34.15825],[133.78619,34.15919],[133.78629,34.15956],[133.78751,34.16016],[133.78782,34.16056],[133.78835,34.16052],[133.78986,34.16106],[133.79119,34.16013],[133.79206,34.16062],[133.79308,34.16045],[133.79388,34.161],[133.7947,34.16112],[133.79503,34.16132],[133.7958,34.16119],[133.79691,34.16161],[133.79716,34.16188],[133.7996,34.16309],[133.80187,34.16505],[133.80205,34.1648],[133.80244,34.16489],[133.80258,34.16553],[133.80323,34.1656],[133.80345,34.16514],[133.80321,34.16505],[133.8033,34.1648]]]},"properties":{"key":"372080150","name":"山本町神田","pref":"香川県","prefCode":"37","municipality":"三豊市","areaM2":12163133.428,"population":1176,"toponymIds":["37-669de62635"]}},{"type":"Feature","geometry":{"type":"Polygon","coordinates":[[[133.80302,34.22656],[133.80442,34.22638],[133.80477,34.22594],[133.80611,34.22584],[133.80671,34.22504],[133.8069,34.224],[133.80731,34.22339],[133.80877,34.22241],[133.8094,34.22164],[133.80855,34.22073],[133.80758,34.22026],[133.80687,34.21958],[133.80652,34.21987],[133.80677,34.22001],[133.80639,34.22047],[133.80614,34.2204],[133.80596,34.2209],[133.80553,34.22093],[133.80494,34.22057],[133.80524,34.22029],[133.80508,34.22023],[133.80536,34.21995],[133.80527,34.21977],[133.80569,34.21914],[133.80572,34.21882],[133.8054,34.21853],[133.80541,34.21802],[133.80423,34.2171],[133.80419,34.21669],[133.80491,34.21594],[133.80652,34.21594],[133.80662,34.21546],[133.80765,34.21355],[133.80781,34.21295],[133.80734,34.21234],[133.8072,34.21229],[133.80706,34.21251],[133.80676,34.21237],[133.80693,34.21187],[133.80727,34.21192],[133.80757,34.21142],[133.8071,34.21116],[133.80726,34.21097],[133.80701,34.21086],[133.80719,34.21061],[133.80675,34.21033],[133.80633,34.21084],[133.80591,34.21224],[133.80533,34.21302],[133.806,34.21336],[133.80587,34.21361],[133.80412,34.21405],[133.80334,34.21464],[133.80289,34.21608],[133.80219,34.21733],[133.80104,34.2186],[133.80084,34.21914],[133.80059,34.21923],[133.80039,34.22033],[133.79979,34.22094],[133.80067,34.22142],[133.79847,34.22366],[133.79908,34.22404],[133.79938,34.22372],[133.80051,34.22485],[133.80126,34.22489],[133.80127,34.22503],[133.80089,34.22533],[133.8008,34.22656],[133.80302,34.22656]]]},"properties":{"key":"372040070","name":"櫛梨町","pref":"香川県","prefCode":"37","municipality":"善通寺市","areaM2":744973.809,"population":425,"toponymIds":["37-927c47c613"]}},{"type":"Feature","geometry":{"type":"Polygon","coordinates":[[[134.37882,34.22778],[134.3794,34.22784],[134.37986,34.22769],[134.38054,34.22791],[134.38121,34.22732],[134.38087,34.22713],[134.38079,34.22696],[134.38095,34.22676],[134.38121,34.22676],[134.38144,34.22647],[134.38217,34.22623],[134.38336,34.22537],[134.38387,34.22554],[134.38616,34.22486],[134.38607,34.22428],[134.38551,34.22414],[134.38539,34.22392],[134.38635,34.22362],[134.38681,34.22363],[134.38721,34.2234],[134.38721,34.22282],[134.38552,34.22241],[134.38472,34.2208],[134.38578,34.22071],[134.38619,34.21989],[134.3864,34.21868],[134.38723,34.21826],[134.3875,34.21781],[134.38812,34.21742],[134.38817,34.21699],[134.38776,34.21602],[134.38769,34.21544],[134.38782,34.21378],[134.38798,34.21342],[134.38876,34.21263],[134.38892,34.21167],[134.39052,34.21049],[134.39058,34.20877],[134.39037,34.20636],[134.39199,34.20669],[134.39206,34.20597],[134.39224,34.20592],[134.39258,34.20619],[134.39338,34.2049],[134.39357,34.20406],[134.3927,34.20317],[134.3926,34.20245],[134.39213,34.202],[134.39172,34.20088],[134.3913,34.2003],[134.39094,34.19992],[134.38918,34.19922],[134.38911,34.19818],[134.38742,34.19724],[134.38637,34.19576],[134.38586,34.19552],[134.38464,34.19448],[134.38418,34.1946],[134.38308,34.19368],[134.38049,34.19255],[134.37967,34.19183],[134.37875,34.19167],[134.37729,34.19065],[134.37689,34.19057],[134.37624,34.19107],[134.37545,34.19124],[134.37498,34.19175],[134.37411,34.19218],[134.37365,34.19218],[134.37348,34.19194],[134.37248,34.19202],[134.37093,34.19171],[134.37074,34.19205],[134.36916,34.193],[134.36825,34.19379],[134.3668,34.19335],[134.36685,34.19309],[134.36567,34.19289],[134.36561,34.19355],[134.36488,34.19492],[134.36429,34.19524],[134.36368,34.19617],[134.36225,34.19774],[134.36126,34.19931],[134.3597,34.20028],[134.35924,34.20134],[134.35857,34.20189],[134.35845,34.20244],[134.35856,34.20262],[134.35936,34.20299],[134.35964,34.20337],[134.35962,34.20362],[134.35922,34.20412],[134.35764,34.20527],[134.35678,34.20566],[134.35634,34.20648],[134.35604,34.20669],[134.35439,34.20684],[134.35402,34.20714],[134.35378,34.20748],[134.35371,34.20917],[134.35355,34.20942],[134.35252,34.20932],[134.35207,34.20886],[134.35185,34.20884],[134.351,34.20943],[134.35048,34.2093],[134.35026,34.2094],[134.34954,34.21137],[134.34971,34.21166],[134.35045,34.21218],[134.35045,34.21267],[134.35,34.21344],[134.34865,34.21393],[134.34827,34.21506],[134.3484,34.21592],[134.34937,34.21664],[134.34946,34.21687],[134.34904,34.2176],[134.34819,34.21851],[134.34792,34.21934],[134.34741,34.22015],[134.34865,34.22123],[134.34905,34.22198],[134.35043,34.2227],[134.35098,34.2229],[134.35246,34.22268],[134.35455,34.22416],[134.3551,34.2248],[134.36083,34.22648],[134.36186,34.22711],[134.36402,34.22691],[134.3663,34.22775],[134.3668,34.22773],[134.36719,34.22745],[134.36773,34.22741],[134.36889,34.2269],[134.37031,34.22726],[134.37216,34.22716],[134.37278,34.22743],[134.37449,34.22687],[134.37599,34.22752],[134.37696,34.22718],[134.37761,34.2266],[134.3784,34.22688],[134.37865,34.22824],[134.37922,34.22856],[134.37876,34.22808],[134.37882,34.22778]]]},"properties":{"key":"372070180","name":"小海","pref":"香川県","prefCode":"37","municipality":"東かがわ市","areaM2":11700808.614,"population":538,"toponymIds":["37-58d9204aba"]}},{"type":"Feature","geometry":{"type":"Polygon","coordinates":[[[134.13719,34.41208],[134.13736,34.41218],[134.1373,34.41202],[134.13767,34.41165],[134.13767,34.41112],[134.13749,34.41111],[134.13784,34.41076],[134.13806,34.41026],[134.13804,34.4099],[134.13763,34.40968],[134.13754,34.40991],[134.13626,34.41065],[134.13517,34.41016],[134.13485,34.40964],[134.1343,34.40966],[134.13407,34.40984],[134.13588,34.41126],[134.13644,34.41216],[134.13693,34.4123],[134.13719,34.41208]]]},"properties":{"key":"372011630","name":"庵治町","pref":"香川県","prefCode":"37","municipality":"高松市","areaM2":43939.327,"population":0,"toponymIds":["37-5ff1ad51a1"]}},{"type":"Feature","geometry":{"type":"Polygon","coordinates":[[[134.18536,34.3327],[134.187,34.33268],[134.18699,34.33251],[134.18713,34.33251],[134.18714,34.33268],[134.1881,34.33262],[134.18809,34.33252],[134.18897,34.33258],[134.18969,34.33229],[134.18975,34.33166],[134.1895,34.33157],[134.18948,34.33058],[134.1888,34.33061],[134.18874,34.32965],[134.18797,34.32853],[134.18824,34.32792],[134.1894,34.32844],[134.19034,34.32712],[134.19079,34.32687],[134.19141,34.32498],[134.19314,34.32502],[134.19537,34.32379],[134.19659,34.32277],[134.19683,34.32159],[134.19563,34.32197],[134.19281,34.3236],[134.19226,34.32376],[134.19131,34.32377],[134.19041,34.32357],[134.18451,34.32077],[134.18325,34.32036],[134.18283,34.31877],[134.18201,34.3176],[134.18149,34.31618],[134.18161,34.31575],[134.1825,34.31561],[134.18346,34.31415],[134.18369,34.31316],[134.1836,34.31181],[134.18236,34.31208],[134.18239,34.31172],[134.18182,34.31052],[134.18081,34.31053],[134.18063,34.31024],[134.17995,34.31012],[134.17931,34.30687],[134.17881,34.30601],[134.17769,34.30526],[134.17741,34.30518],[134.17677,34.30532],[134.17574,34.30593],[134.17408,34.3048],[134.17194,34.30363],[134.17048,34.30534],[134.16975,34.30569],[134.16921,34.30571],[134.16785,34.30526],[134.16751,34.30485],[134.16743,34.30426],[134.16673,34.30399],[134.16609,34.30394],[134.16482,34.30352],[134.16395,34.3036],[134.1625,34.30315],[134.16206,34.30339],[134.16134,34.30293],[134.16078,34.30311],[134.15968,34.30418],[134.15895,34.30438],[134.15887,34.30486],[134.15903,34.30543],[134.15888,34.3059],[134.15916,34.30665],[134.15893,34.30723],[134.15867,34.30734],[134.15834,34.30725],[134.15839,34.30758],[134.15768,34.30742],[134.15667,34.30761],[134.15677,34.3086],[134.15585,34.30915],[134.15579,34.30932],[134.15596,34.30968],[134.1554,34.31065],[134.15653,34.31155],[134.15687,34.31211],[134.15874,34.31359],[134.15919,34.31422],[134.15931,34.31509],[134.15976,34.31546],[134.15998,34.3163],[134.16072,34.31778],[134.16134,34.31806],[134.16153,34.31852],[134.16285,34.31983],[134.16295,34.32045],[134.16406,34.32111],[134.1643,34.32176],[134.16477,34.32201],[134.1652,34.32261],[134.16528,34.32341],[134.16497,34.32489],[134.16567,34.32607],[134.16635,34.32585],[134.16655,34.32637],[134.16655,34.32627],[134.16764,34.32614],[134.16761,34.32561],[134.16775,34.32555],[134.16793,34.32606],[134.16904,34.32591],[134.16797,34.32601],[134.16781,34.32558],[134.16966,34.32531],[134.16959,34.32511],[134.16983,34.32505],[134.17016,34.32591],[134.16975,34.32603],[134.16945,34.32637],[134.16978,34.32605],[134.17019,34.32593],[134.16976,34.32473],[134.16996,34.32468],[134.1701,34.32506],[134.17274,34.32421],[134.17291,34.32551],[134.17623,34.32558],[134.17718,34.3258],[134.17622,34.32554],[134.17398,34.32549],[134.17401,34.32426],[134.1768,34.32445],[134.17989,34.32515],[134.1801,34.32541],[134.1803,34.3254],[134.18026,34.32592],[134.1804,34.32569],[134.18116,34.32604],[134.18109,34.32649],[134.18025,34.32645],[134.18024,34.32621],[134.18007,34.32716],[134.17988,34.32715],[134.17987,34.32664],[134.17857,34.32662],[134.17818,34.33225],[134.17925,34.33313],[134.18529,34.33281],[134.18536,34.3327]],[[134.17598,34.31335],[134.17606,34.31325],[134.17653,34.31359],[134.1767,34.3141],[134.17654,34.3148],[134.17579,34.315],[134.17572,34.31452],[134.17598,34.31335]]]},"properties":{"key":"37206001001","name":"志度","pref":"香川県","prefCode":"37","municipality":"さぬき市","areaM2":5745505.082,"population":8993,"toponymIds":["37-4959510a96"]}},{"type":"Feature","geometry":{"type":"Polygon","coordinates":[[[133.8204,34.28085],[133.82172,34.27963],[133.82539,34.27516],[133.8202,34.27265],[133.81958,34.27207],[133.81694,34.27101],[133.81548,34.27309],[133.81531,34.27354],[133.81579,34.27365],[133.8155,34.27433],[133.81512,34.27464],[133.81496,34.27522],[133.81494,34.27534],[133.81651,34.27633],[133.8169,34.27699],[133.81685,34.27754],[133.81566,34.27938],[133.81851,34.28078],[133.81901,34.28094],[133.81955,34.28065],[133.82008,34.2811],[133.8204,34.28085]]]},"properties":{"key":"37202035301","name":"土器町西一丁目","pref":"香川県","prefCode":"37","municipality":"丸亀市","areaM2":613914.285,"population":687,"toponymIds":["37-855fbb5173"]}},{"type":"Feature","geometry":{"type":"Polygon","coordinates":[[[134.2007,34.27056],[134.20085,34.27035],[134.20789,34.27034],[134.20778,34.26839],[134.20815,34.26813],[134.20816,34.26779],[134.20834,34.26772],[134.20822,34.26725],[134.20841,34.26526],[134.21405,34.26493],[134.21788,34.26497],[134.21856,34.26487],[134.21893,34.26465],[134.21913,34.2641],[134.2191,34.26355],[134.21943,34.26278],[134.21965,34.26107],[134.22001,34.2609],[134.22057,34.26109],[134.22108,34.25759],[134.22092,34.25747],[134.22097,34.25606],[134.22121,34.25563],[134.22159,34.25551],[134.22233,34.25472],[134.22264,34.25349],[134.22254,34.25257],[134.22295,34.25176],[134.22275,34.25079],[134.2229,34.25048],[134.22335,34.25017],[134.22333,34.2495],[134.22354,34.24922],[134.22367,34.24816],[134.22423,34.24776],[134.22397,34.24662],[134.22405,34.24602],[134.22361,34.24546],[134.22371,34.24364],[134.22429,34.24283],[134.22471,34.2418],[134.22468,34.24136],[134.22439,34.24109],[134.2244,34.24088],[134.22525,34.23956],[134.22573,34.23908],[134.22537,34.23839],[134.22481,34.23791],[134.22451,34.23739],[134.22398,34.23712],[134.22323,34.23708],[134.22287,34.23679],[134.22312,34.23572],[134.22385,34.23518],[134.22365,34.23438],[134.22385,34.2338],[134.2238,34.23216],[134.22335,34.23185],[134.22247,34.23045],[134.2225,34.23018],[134.22308,34.22962],[134.22296,34.22898],[134.22349,34.22692],[134.22346,34.22642],[134.22313,34.2261],[134.22339,34.2254],[134.22307,34.22467],[134.22326,34.22407],[134.22262,34.22246],[134.22256,34.22175],[134.22195,34.22146],[134.22174,34.22002],[134.22128,34.2185],[134.22053,34.21792],[134.22059,34.21741],[134.21884,34.2161],[134.21906,34.21523],[134.21902,34.21463],[134.21955,34.2143],[134.2198,34.21391],[134.21973,34.21329],[134.22036,34.21256],[134.22028,34.21192],[134.22065,34.2114],[134.21995,34.2107],[134.22007,34.20992],[134.21908,34.20991],[134.21826,34.20937],[134.21715,34.20931],[134.21689,34.20904],[134.21676,34.20821],[134.21723,34.20743],[134.21726,34.2069],[134.21703,34.2061],[134.21728,34.20565],[134.21725,34.20446],[134.21695,34.20364],[134.21489,34.20363],[134.213,34.20291],[134.20996,34.20295],[134.20936,34.20278],[134.20831,34.20341],[134.20779,34.20458],[134.208,34.20501],[134.20886,34.20528],[134.20929,34.2056],[134.20887,34.20739],[134.20887,34.20805],[134.20965,34.20899],[134.20995,34.20962],[134.20987,34.21018],[134.21046,34.21094],[134.2106,34.21141],[134.21014,34.21218],[134.2101,34.21308],[134.20953,34.2145],[134.20854,34.21513],[134.20802,34.21581],[134.20867,34.21656],[134.21016,34.21925],[134.20992,34.21956],[134.21011,34.21979],[134.2104,34.22085],[134.21035,34.22319],[134.2107,34.22464],[134.21066,34.22635],[134.20993,34.22853],[134.20974,34.22971],[134.20934,34.2307],[134.20838,34.23223],[134.20824,34.23276],[134.20829,34.23322],[134.20857,34.23329],[134.20837,34.23407],[134.20801,34.23753],[134.20817,34.23986],[134.20945,34.24388],[134.2093,34.2447],[134.20879,34.24545],[134.20694,34.24928],[134.20684,34.25035],[134.20695,34.25193],[134.20644,34.25369],[134.20579,34.25417],[134.20544,34.255],[134.20403,34.25514],[134.20329,34.2568],[134.2035,34.25831],[134.2038,34.25898],[134.20055,34.25905],[134.20136,34.26149],[134.20004,34.2665],[134.19976,34.26841],[134.19985,34.26915],[134.2007,34.27056]]]},"properties":{"key":"372060130","name":"寒川町石田東","pref":"香川県","prefCode":"37","municipality":"さぬき市","areaM2":9261682.75,"population":1787,"toponymIds":["37-83cd185698"]}},{"type":"Feature","geometry":{"type":"Polygon","coordinates":[[[134.03,34.31569],[134.03101,34.31567],[134.03119,34.31516],[134.032,34.31478],[134.03219,34.315],[134.03212,34.31548],[134.03411,34.31522],[134.0357,34.3158],[134.03521,34.31509],[134.03523,34.31468],[134.03546,34.31462],[134.03531,34.31311],[134.03456,34.31082],[134.03399,34.30973],[134.03356,34.30782],[134.03473,34.30765],[134.03452,34.30659],[134.03747,34.30609],[134.03751,34.30582],[134.03727,34.30584],[134.03705,34.30517],[134.0369,34.30521],[134.03687,34.30506],[134.03659,34.30517],[134.03653,34.30422],[134.03521,34.30442],[134.03505,34.30363],[134.02816,34.30469],[134.028,34.30385],[134.02811,34.30377],[134.02752,34.30255],[134.02707,34.30262],[134.0271,34.30304],[134.02737,34.30302],[134.0274,34.30338],[134.02764,34.30357],[134.02661,34.30355],[134.02643,34.30437],[134.02606,34.30466],[134.02572,34.30456],[134.02577,34.30636],[134.0255,34.30684],[134.02569,34.30791],[134.02659,34.31083],[134.02662,34.31199],[134.02645,34.31268],[134.02679,34.31364],[134.02696,34.31362],[134.02766,34.31509],[134.02782,34.31503],[134.02855,34.31609],[134.0289,34.31587],[134.03,34.31569]]]},"properties":{"key":"372010820","name":"田村町","pref":"香川県","prefCode":"37","municipality":"高松市","areaM2":1023849.564,"population":2328,"toponymIds":["37-57caa093af","37-8d5686bbb0"]}},{"type":"Feature","geometry":{"type":"Polygon","coordinates":[[[133.79001,34.22482],[133.78951,34.22459],[133.78922,34.22484],[133.78809,34.2265],[133.79063,34.22763],[133.79178,34.2256],[133.79001,34.22482]]]},"properties":{"key":"37204017001","name":"生野本町一丁目","pref":"香川県","prefCode":"37","municipality":"善通寺市","areaM2":64395.134,"population":63,"toponymIds":["37-2e42ef7c65"]}},{"type":"Feature","geometry":{"type":"Polygon","coordinates":[[[134.2111,34.36911],[134.21139,34.369],[134.21113,34.36863],[134.21145,34.36793],[134.21134,34.36774],[134.21154,34.36751],[134.21141,34.36754],[134.21121,34.36723],[134.21122,34.36682],[134.21165,34.3657],[134.21253,34.36538],[134.21292,34.36547],[134.21308,34.36564],[134.21295,34.36581],[134.2133,34.3658],[134.21295,34.36631],[134.21304,34.36639],[134.21343,34.3658],[134.21316,34.36573],[134.21325,34.36535],[134.21413,34.36533],[134.21453,34.36567],[134.21476,34.36557],[134.2153,34.36486],[134.21521,34.36472],[134.21543,34.3643],[134.21531,34.36403],[134.21565,34.36306],[134.21594,34.36282],[134.21625,34.36219],[134.21649,34.36226],[134.21672,34.36205],[134.21654,34.36203],[134.21678,34.36181],[134.21676,34.36161],[134.21663,34.36161],[134.21672,34.36127],[134.21659,34.36081],[134.21696,34.36032],[134.21667,34.35996],[134.21675,34.3592],[134.21783,34.35717],[134.21786,34.3566],[134.21797,34.3566],[134.2179,34.35611],[134.21763,34.35575],[134.21788,34.35535],[134.21782,34.35479],[134.21821,34.35395],[134.21873,34.35338],[134.21881,34.35274],[134.21863,34.3524],[134.21878,34.35184],[134.21906,34.35154],[134.21832,34.3507],[134.21824,34.35001],[134.21855,34.34941],[134.2196,34.34807],[134.22085,34.34721],[134.22164,34.34714],[134.22182,34.34737],[134.22186,34.3471],[134.22229,34.34713],[134.22229,34.34684],[134.22288,34.34702],[134.22325,34.34692],[134.22329,34.3474],[134.22315,34.34761],[134.22244,34.34742],[134.22186,34.34786],[134.22253,34.3475],[134.2234,34.34772],[134.22356,34.34799],[134.22394,34.34792],[134.22394,34.34743],[134.22382,34.34736],[134.22394,34.34717],[134.22481,34.34644],[134.22557,34.34607],[134.22559,34.34589],[134.22582,34.34589],[134.22619,34.34538],[134.22614,34.34514],[134.2257,34.3451],[134.22566,34.34467],[134.22493,34.3439],[134.22497,34.34377],[134.22605,34.3436],[134.22537,34.34364],[134.22526,34.3432],[134.22536,34.3429],[134.22504,34.34274],[134.22539,34.34285],[134.22759,34.34119],[134.22894,34.34053],[134.22956,34.34047],[134.22958,34.34086],[134.22974,34.33995],[134.23025,34.34003],[134.23192,34.33925],[134.23262,34.33915],[134.23334,34.33821],[134.23363,34.33716],[134.23484,34.3369],[134.23507,34.33704],[134.23504,34.33742],[134.23511,34.33689],[134.23524,34.33691],[134.23521,34.33799],[134.2353,34.33773],[134.23634,34.33795],[134.23638,34.33781],[134.23665,34.33789],[134.23666,34.33805],[134.23682,34.33757],[134.23756,34.3377],[134.23753,34.3381],[134.23765,34.3377],[134.23845,34.33798],[134.23817,34.33853],[134.23794,34.33843],[134.23722,34.33864],[134.23511,34.33862],[134.23646,34.33871],[134.23631,34.33947],[134.23874,34.33996],[134.23893,34.33931],[134.23913,34.33954],[134.2399,34.33942],[134.24018,34.33877],[134.2399,34.33942],[134.23934,34.33953],[134.24085,34.34033],[134.24047,34.3407],[134.24085,34.34099],[134.24131,34.3408],[134.24145,34.34107],[134.24164,34.34106],[134.2413,34.34173],[134.24078,34.34183],[134.24057,34.34145],[134.24013,34.34128],[134.24071,34.3418],[134.24062,34.34207],[134.24128,34.34242],[134.24132,34.34289],[134.24218,34.3433],[134.2423,34.34421],[134.2426,34.34459],[134.24387,34.34521],[134.244,34.34508],[134.24392,34.34522],[134.24456,34.34569],[134.24465,34.34602],[134.24557,34.347],[134.24569,34.3474],[134.24636,34.34824],[134.24663,34.34928],[134.24939,34.35125],[134.25023,34.35159],[134.25064,34.3514],[134.25094,34.35153],[134.25095,34.35132],[134.25169,34.35114],[134.25166,34.3509],[134.25145,34.35086],[134.25154,34.3506],[134.25184,34.35029],[134.2531,34.34965],[134.25304,34.34947],[134.25321,34.34938],[134.25302,34.34912],[134.25307,34.34883],[134.25346,34.34815],[134.25396,34.3477],[134.2549,34.34721],[134.25601,34.34736],[134.25659,34.34655],[134.25713,34.3464],[134.25691,34.34619],[134.25746,34.34534],[134.2575,34.34482],[134.25693,34.34383],[134.25716,34.34366],[134.25717,34.34339],[134.25663,34.34332],[134.25654,34.34309],[134.2571,34.3411],[134.25702,34.34069],[134.2568,34.34063],[134.25667,34.34033],[134.25685,34.33971],[134.2566,34.33963],[134.25638,34.33931],[134.25657,34.33929],[134.25713,34.33819],[134.25829,34.33669],[134.25927,34.33635],[134.25976,34.33644],[134.26118,34.33605],[134.26237,34.33647],[134.26279,34.33642],[134.26463,34.33691],[134.2648,34.33675],[134.26596,34.33667],[134.26581,34.33652],[134.26609,34.33649],[134.26606,34.33632],[134.26631,34.33625],[134.26431,34.33589],[134.26352,34.33534],[134.26332,34.33441],[134.26287,34.33391],[134.26053,34.33269],[134.25922,34.33138],[134.25847,34.33145],[134.25796,34.33107],[134.25722,34.33083],[134.25655,34.33021],[134.25554,34.32971],[134.25529,34.32913],[134.25408,34.32852],[134.25333,34.32739],[134.25318,34.32678],[134.2535,34.32634],[134.25278,34.32575],[134.25263,34.32393],[134.25284,34.32375],[134.25268,34.3235],[134.25106,34.32442],[134.24943,34.32488],[134.24848,34.32488],[134.24778,34.32457],[134.24716,34.32451],[134.2454,34.32534],[134.24426,34.32654],[134.2434,34.32673],[134.24294,34.32593],[134.24124,34.32519],[134.24059,34.32522],[134.23743,34.32596],[134.23725,34.32611],[134.23675,34.32776],[134.23534,34.32773],[134.23497,34.32709],[134.23464,34.32708],[134.23372,34.32792],[134.23303,34.32891],[134.23294,34.32957],[134.23269,34.32988],[134.23037,34.3298],[134.2296,34.32998],[134.22808,34.33169],[134.22765,34.33274],[134.22718,34.33325],[134.22567,34.33409],[134.22452,34.33449],[134.22448,34.33585],[134.22398,34.33586],[134.22415,34.33683],[134.22397,34.33779],[134.22358,34.33851],[134.22179,34.33942],[134.2217,34.33982],[134.22197,34.34054],[134.22187,34.34088],[134.22136,34.34105],[134.22082,34.34002],[134.21835,34.34151],[134.21799,34.34199],[134.21743,34.34203],[134.21689,34.34176],[134.21619,34.34202],[134.21525,34.34264],[134.21551,34.34372],[134.2156,34.3455],[134.21637,34.34683],[134.21657,34.34756],[134.21649,34.34993],[134.2157,34.35317],[134.21509,34.35406],[134.21415,34.35464],[134.21412,34.35734],[134.2144,34.35861],[134.21309,34.35943],[134.21189,34.3608],[134.21099,34.3607],[134.21061,34.36082],[134.20969,34.36125],[134.20887,34.36187],[134.20841,34.3626],[134.20814,34.36475],[134.20754,34.36528],[134.20776,34.3657],[134.20827,34.3658],[134.20826,34.36698],[134.20851,34.36789],[134.21088,34.36935],[134.2111,34.36911]]]},"properties":{"key":"372060040","name":"小田","pref":"香川県","prefCode":"37","municipality":"さぬき市","areaM2":7182280.989,"population":900,"toponymIds":["37-d9f1d90fc7"]}},{"type":"Feature","geometry":{"type":"Polygon","coordinates":[[[134.0379,34.31864],[134.03784,34.31755],[134.03867,34.31767],[134.03979,34.31848],[134.03996,34.31831],[134.03978,34.31801],[134.03999,34.31761],[134.03963,34.31684],[134.04024,34.31673],[134.04009,34.31581],[134.03766,34.31618],[134.03686,34.3157],[134.03553,34.31523],[134.0357,34.3158],[134.03411,34.31522],[134.03212,34.31548],[134.03219,34.315],[134.032,34.31478],[134.03119,34.31516],[134.03101,34.31567],[134.0289,34.31587],[134.02854,34.31636],[134.02808,34.31631],[134.02875,34.31677],[134.02954,34.31701],[134.03011,34.31692],[134.03086,34.31723],[134.03273,34.31845],[134.03404,34.3185],[134.03792,34.3196],[134.0379,34.31864]]]},"properties":{"key":"372010780","name":"紙町","pref":"香川県","prefCode":"37","municipality":"高松市","areaM2":297866.915,"population":1013,"toponymIds":["37-ff8e1f9df4"]}},{"type":"Feature","geometry":{"type":"Polygon","coordinates":[[[134.22808,34.33169],[134.2296,34.32998],[134.23037,34.3298],[134.23269,34.32988],[134.23294,34.32957],[134.23303,34.32891],[134.23372,34.32792],[134.23464,34.32708],[134.23497,34.32709],[134.23534,34.32773],[134.23675,34.32776],[134.23725,34.32611],[134.23743,34.32596],[134.24059,34.32522],[134.24124,34.32519],[134.24294,34.32593],[134.2434,34.32673],[134.24426,34.32654],[134.2454,34.32534],[134.24716,34.32451],[134.24778,34.32457],[134.24848,34.32488],[134.24943,34.32488],[134.25106,34.32442],[134.25268,34.3235],[134.25204,34.32235],[134.25197,34.32213],[134.25212,34.32191],[134.25075,34.32124],[134.249,34.31973],[134.24816,34.31947],[134.24742,34.319],[134.24719,34.31833],[134.24736,34.3179],[134.24726,34.31722],[134.2464,34.31642],[134.24555,34.31622],[134.24543,34.31493],[134.24557,34.31439],[134.24535,34.31354],[134.2455,34.31306],[134.24503,34.31277],[134.24355,34.31268],[134.24293,34.31214],[134.24174,34.31174],[134.24021,34.31015],[134.2391,34.31012],[134.23766,34.30984],[134.2372,34.30915],[134.23634,34.30882],[134.23562,34.30741],[134.23578,34.30685],[134.23439,34.30571],[134.23447,34.30505],[134.23486,34.30402],[134.23487,34.30349],[134.23518,34.3033],[134.23541,34.30288],[134.23474,34.30108],[134.23381,34.30041],[134.23366,34.29962],[134.23379,34.29925],[134.23332,34.29818],[134.23288,34.29776],[134.23199,34.29815],[134.23101,34.29805],[134.23074,34.2969],[134.23024,34.29647],[134.22984,34.29578],[134.22908,34.2955],[134.22852,34.29505],[134.22806,34.29379],[134.22815,34.2935],[134.22764,34.29344],[134.225,34.29492],[134.22474,34.29499],[134.22403,34.29472],[134.2237,34.29325],[134.22294,34.29188],[134.22148,34.29226],[134.2205,34.2923],[134.21835,34.29418],[134.21791,34.29435],[134.2175,34.29494],[134.21472,34.29604],[134.21416,34.29653],[134.20818,34.29735],[134.20802,34.29746],[134.20776,34.29917],[134.20759,34.29939],[134.20467,34.3004],[134.20467,34.30102],[134.20585,34.30214],[134.20571,34.30304],[134.206,34.30383],[134.20586,34.30474],[134.20343,34.30622],[134.20316,34.30666],[134.20289,34.30775],[134.20165,34.30917],[134.20165,34.30986],[134.20208,34.31033],[134.20232,34.31094],[134.20205,34.31316],[134.2017,34.3139],[134.20057,34.31471],[134.19909,34.31528],[134.19829,34.31667],[134.19908,34.31781],[134.20022,34.31802],[134.20181,34.31913],[134.20186,34.32008],[134.20233,34.32069],[134.20453,34.32091],[134.20582,34.32012],[134.20682,34.31993],[134.20867,34.32096],[134.21036,34.32152],[134.21173,34.32222],[134.21242,34.32185],[134.21264,34.32194],[134.2129,34.32179],[134.2136,34.32213],[134.21443,34.32215],[134.21485,34.32159],[134.21595,34.32095],[134.21607,34.32126],[134.21654,34.32152],[134.21763,34.3217],[134.21793,34.32197],[134.21809,34.32258],[134.21922,34.32293],[134.21972,34.32335],[134.22014,34.32338],[134.22049,34.32367],[134.22208,34.3267],[134.22293,34.32713],[134.22346,34.32825],[134.22282,34.32921],[134.22265,34.32998],[134.22556,34.33076],[134.22628,34.33079],[134.22722,34.33156],[134.22808,34.33169]]]},"properties":{"key":"372060050","name":"鴨部","pref":"香川県","prefCode":"37","municipality":"さぬき市","areaM2":11526591.816,"population":1933,"toponymIds":["37-0271599ea0"]}},{"type":"Feature","geometry":{"type":"Polygon","coordinates":[[[133.89701,34.27373],[133.89952,34.27277],[133.90017,34.2722],[133.90083,34.27237],[133.90264,34.27221],[133.90391,34.27158],[133.9046,34.27072],[133.90518,34.26874],[133.90516,34.26779],[133.90422,34.26658],[133.90422,34.266],[133.90383,34.26553],[133.90329,34.26418],[133.90417,34.26375],[133.90415,34.2633],[133.90255,34.26247],[133.90219,34.26174],[133.90219,34.26084],[133.90302,34.25882],[133.90287,34.25725],[133.9015,34.2561],[133.90064,34.25585],[133.90059,34.25419],[133.90029,34.25341],[133.90025,34.25282],[133.89931,34.25222],[133.89928,34.25158],[133.89837,34.25114],[133.89832,34.25014],[133.89797,34.24948],[133.89433,34.24864],[133.89495,34.24754],[133.89395,34.24752],[133.89311,34.24586],[133.89318,34.24434],[133.89342,34.244],[133.89341,34.24361],[133.89307,34.24335],[133.89247,34.24346],[133.89192,34.24318],[133.89125,34.24314],[133.89104,34.24281],[133.89156,34.24188],[133.89115,34.24182],[133.89042,34.24215],[133.89052,34.2416],[133.88995,34.24131],[133.89039,34.24082],[133.89033,34.24065],[133.8882,34.24007],[133.88841,34.23973],[133.88948,34.23992],[133.8901,34.24021],[133.89039,34.24019],[133.89065,34.23984],[133.89055,34.23935],[133.88953,34.23895],[133.88983,34.23823],[133.88956,34.23787],[133.88942,34.23773],[133.88829,34.23813],[133.88757,34.238],[133.88722,34.23776],[133.88598,34.23819],[133.88577,34.23894],[133.88447,34.24059],[133.88406,34.24254],[133.88296,34.24278],[133.8826,34.24318],[133.8815,34.24358],[133.8812,34.24438],[133.88082,34.24463],[133.87477,34.24191],[133.87458,34.24151],[133.87442,34.24205],[133.87338,34.24268],[133.87246,34.24233],[133.87228,34.24263],[133.87242,34.24303],[133.87164,34.24357],[133.86828,34.24872],[133.86742,34.24965],[133.86725,34.25018],[133.86682,34.2505],[133.86682,34.25124],[133.86574,34.25173],[133.86534,34.25278],[133.86537,34.25303],[133.86451,34.2541],[133.86467,34.25481],[133.8635,34.25579],[133.86416,34.25624],[133.86561,34.25677],[133.8658,34.25784],[133.86715,34.25832],[133.86738,34.25886],[133.86941,34.25864],[133.87267,34.25895],[133.87325,34.25824],[133.87445,34.25849],[133.87522,34.25904],[133.87589,34.25914],[133.87665,34.25962],[133.87755,34.25972],[133.87799,34.26039],[133.87903,34.26035],[133.8796,34.26028],[133.88018,34.25984],[133.88099,34.25854],[133.88129,34.2586],[133.88192,34.25826],[133.88209,34.25768],[133.88269,34.25728],[133.88289,34.2574],[133.88366,34.25859],[133.88374,34.25965],[133.88481,34.25971],[133.88794,34.25951],[133.88869,34.26023],[133.88963,34.26031],[133.88964,34.26061],[133.88806,34.26135],[133.88828,34.26185],[133.88831,34.2627],[133.8871,34.26319],[133.88678,34.26349],[133.88804,34.2632],[133.88879,34.26358],[133.88841,34.2644],[133.88853,34.26448],[133.88828,34.26622],[133.8883,34.26721],[133.88973,34.268],[133.89071,34.26794],[133.89137,34.26868],[133.89309,34.26918],[133.89335,34.26944],[133.89446,34.26921],[133.89484,34.26969],[133.89504,34.27031],[133.89448,34.27122],[133.89456,34.27186],[133.89515,34.27283],[133.89643,34.27369],[133.89701,34.27373]]]},"properties":{"key":"372020920","name":"綾歌町富熊","pref":"香川県","prefCode":"37","municipality":"丸亀市","areaM2":7160246.205,"population":3805,"toponymIds":["37-a298d50433","37-08b8263786"]}},{"type":"Feature","geometry":{"type":"Polygon","coordinates":[[[133.89783,34.24431],[133.89843,34.24358],[133.89836,34.24329],[133.89851,34.24286],[133.89787,34.24263],[133.89914,34.24199],[133.9008,34.24068],[133.89916,34.23861],[133.89894,34.23871],[133.89835,34.23787],[133.89743,34.23702],[133.899,34.23417],[133.89858,34.23207],[133.89826,34.23161],[133.89855,34.23112],[133.89866,34.23044],[133.89869,34.22965],[133.89852,34.22913],[133.8989,34.2253],[133.89872,34.22225],[133.89892,34.22049],[133.89833,34.22086],[133.89795,34.21976],[133.89813,34.21919],[133.89781,34.21874],[133.8978,34.21791],[133.89749,34.21746],[133.89745,34.21704],[133.89708,34.21668],[133.89709,34.21622],[133.89648,34.21546],[133.8963,34.21473],[133.89558,34.21403],[133.89545,34.21352],[133.89558,34.21321],[133.89688,34.21265],[133.89743,34.21219],[133.89743,34.21108],[133.89904,34.20928],[133.90067,34.20896],[133.90034,34.20778],[133.89924,34.2077],[133.89788,34.20632],[133.89737,34.20676],[133.89532,34.20731],[133.8944,34.20808],[133.89333,34.20816],[133.89332,34.20881],[133.89264,34.20898],[133.89235,34.20924],[133.89218,34.20978],[133.89296,34.21062],[133.89303,34.21102],[133.89203,34.21132],[133.89215,34.21184],[133.89159,34.21271],[133.89118,34.21402],[133.89092,34.21427],[133.88904,34.21527],[133.8873,34.21505],[133.88708,34.21517],[133.88709,34.21564],[133.88582,34.2156],[133.88487,34.2162],[133.88462,34.21732],[133.88507,34.21939],[133.88479,34.21966],[133.88476,34.22021],[133.88358,34.22064],[133.88333,34.22088],[133.88325,34.22129],[133.88363,34.22115],[133.88363,34.2218],[133.88399,34.22179],[133.88319,34.22263],[133.88306,34.22368],[133.88243,34.22408],[133.88274,34.22503],[133.88373,34.22554],[133.88383,34.22585],[133.88363,34.22677],[133.8838,34.22778],[133.88333,34.22835],[133.88312,34.2276],[133.88256,34.22722],[133.88286,34.22923],[133.88175,34.22848],[133.88151,34.22873],[133.88213,34.22978],[133.8829,34.22991],[133.88312,34.23014],[133.88307,34.23047],[133.88268,34.23053],[133.88285,34.23082],[133.88339,34.23096],[133.88377,34.23067],[133.88392,34.23098],[133.88414,34.23098],[133.88433,34.23125],[133.884,34.23145],[133.88345,34.23143],[133.88293,34.23131],[133.88241,34.23091],[133.88176,34.23094],[133.88148,34.2308],[133.88179,34.23159],[133.88159,34.2317],[133.88173,34.232],[133.88208,34.23203],[133.88217,34.23223],[133.88182,34.23244],[133.88165,34.23284],[133.88276,34.23329],[133.87962,34.23798],[133.87945,34.23836],[133.87972,34.23856],[133.87974,34.23886],[133.87994,34.2389],[133.87993,34.23915],[133.87923,34.23907],[133.87906,34.23955],[133.87829,34.23961],[133.87832,34.23985],[133.87893,34.23991],[133.87903,34.23961],[133.87903,34.24016],[133.87971,34.24002],[133.87973,34.2405],[133.87939,34.24048],[133.87943,34.24121],[133.87929,34.24146],[133.87898,34.24114],[133.87845,34.24096],[133.87713,34.24302],[133.88082,34.24463],[133.8812,34.24438],[133.8815,34.24358],[133.8826,34.24318],[133.88296,34.24278],[133.88406,34.24254],[133.88447,34.24059],[133.88577,34.23894],[133.88598,34.23819],[133.88722,34.23776],[133.88757,34.238],[133.88829,34.23813],[133.88942,34.23773],[133.88983,34.23823],[133.88953,34.23895],[133.89055,34.23935],[133.8907,34.23974],[133.89039,34.24019],[133.88976,34.24016],[133.88948,34.23992],[133.8885,34.23973],[133.88817,34.24001],[133.88841,34.2402],[133.89033,34.24065],[133.89039,34.24082],[133.88995,34.24131],[133.89052,34.2416],[133.89042,34.24215],[133.89115,34.24182],[133.89156,34.24188],[133.89104,34.24281],[133.89125,34.24314],[133.89192,34.24318],[133.89247,34.24346],[133.89307,34.24335],[133.89341,34.24361],[133.89342,34.244],[133.89398,34.24411],[133.89434,34.24473],[133.8948,34.24497],[133.89524,34.245],[133.89582,34.24439],[133.89624,34.24427],[133.89673,34.24514],[133.89745,34.24489],[133.89783,34.24431]]]},"properties":{"key":"372020900","name":"綾歌町栗熊東","pref":"香川県","prefCode":"37","municipality":"丸亀市","areaM2":4933363.099,"population":1389,"toponymIds":["37-69fc2c381f"]}},{"type":"Feature","geometry":{"type":"Polygon","coordinates":[[[134.04814,34.31834],[134.04924,34.31852],[134.04973,34.31895],[134.04982,34.31742],[134.05027,34.31713],[134.05109,34.31698],[134.0507,34.31508],[134.0496,34.31525],[134.04897,34.31235],[134.04867,34.31239],[134.04847,34.31139],[134.04789,34.31151],[134.04809,34.3125],[134.04775,34.31254],[134.04734,34.31056],[134.04635,34.31073],[134.04613,34.30975],[134.04256,34.31038],[134.04232,34.30935],[134.04128,34.30952],[134.04154,34.31087],[134.0426,34.31069],[134.04319,34.31316],[134.04329,34.31329],[134.04382,34.3132],[134.04393,34.31401],[134.04413,34.31411],[134.04418,34.3146],[134.04454,34.31506],[134.04441,34.31509],[134.04491,34.31601],[134.03963,34.31684],[134.03999,34.31761],[134.03978,34.31801],[134.03985,34.31817],[134.04194,34.31908],[134.04369,34.31948],[134.04462,34.3193],[134.04715,34.31841],[134.04814,34.31834]]]},"properties":{"key":"372010840","name":"三条町","pref":"香川県","prefCode":"37","municipality":"高松市","areaM2":617774.05,"population":4862,"toponymIds":["37-f8907f8940","37-a28d127a02"]}},{"type":"Feature","geometry":{"type":"Polygon","coordinates":[[[133.67645,34.24257],[133.67606,34.24254],[133.67629,34.24275],[133.67648,34.24272],[133.67645,34.24257]]]},"properties":{"key":"372080280","name":"詫間町詫間","pref":"香川県","prefCode":"37","municipality":"三豊市","areaM2":784.231,"population":0,"toponymIds":["37-fa19ff887d"]}},{"type":"Feature","geometry":{"type":"Polygon","coordinates":[[[134.00255,34.32868],[134.00235,34.32862],[134.00194,34.32784],[134.00207,34.3277],[134.00241,34.32827],[134.0027,34.32832],[134.00279,34.3281],[134.00255,34.32747],[134.00176,34.32673],[134.0019,34.32656],[134.00188,34.3262],[134.00288,34.32597],[134.00266,34.32439],[134.00379,34.32441],[134.00425,34.3242],[134.00421,34.32387],[134.00442,34.32345],[134.00568,34.3235],[134.00642,34.323],[134.00976,34.32247],[134.01475,34.32222],[134.01621,34.32155],[134.01779,34.32149],[134.01733,34.31945],[134.01751,34.31822],[134.01692,34.31795],[134.01638,34.31801],[134.0156,34.31763],[134.01369,34.31529],[134.01369,34.31483],[134.01252,34.3144],[134.01114,34.31415],[134.00857,34.31455],[134.00819,34.31281],[134.00573,34.31221],[134.00577,34.31319],[134.00545,34.31299],[134.00542,34.31341],[134.00511,34.31398],[134.00432,34.31451],[134.00296,34.31345],[134.00053,34.31353],[133.99997,34.31338],[133.99981,34.31281],[133.99958,34.31281],[133.99544,34.31335],[133.9953,34.31354],[133.9954,34.31386],[133.99374,34.31428],[133.99334,34.31422],[133.99322,34.31459],[133.99244,34.31455],[133.99161,34.31498],[133.99252,34.31672],[133.99359,34.31987],[133.99606,34.32293],[133.99736,34.3238],[133.99865,34.32439],[133.99916,34.32484],[133.9995,34.32546],[134.00008,34.32742],[134.0006,34.3281],[134.00202,34.32911],[134.00255,34.32868]]]},"properties":{"key":"372011250","name":"飯田町","pref":"香川県","prefCode":"37","municipality":"高松市","areaM2":2311049.257,"population":2824,"toponymIds":["37-5b19cb5f9b"]}}]}
