{"type":"FeatureCollection","features":[{"type":"Feature","geometry":{"type":"Polygon","coordinates":[[[133.5122,33.55738],[133.5126,33.55725],[133.51268,33.5566],[133.51203,33.55672],[133.50982,33.55645],[133.50961,33.55679],[133.50968,33.5571],[133.50952,33.55715],[133.50937,33.55752],[133.51068,33.5581],[133.5122,33.55738]]]},"properties":{"key":"392010940","name":"赤石町","pref":"高知県","prefCode":"39","municipality":"高知市","areaM2":36264.021,"population":258,"toponymIds":["39-52d9ae4e60"]}},{"type":"Feature","geometry":{"type":"Polygon","coordinates":[[[133.4851,33.54599],[133.48489,33.54596],[133.48493,33.54629],[133.48465,33.54668],[133.48459,33.54713],[133.4851,33.54599]]]},"properties":{"key":"392011890","name":"朝倉乙","pref":"高知県","prefCode":"39","municipality":"高知市","areaM2":1607.757,"population":0,"toponymIds":["39-428aa3db87"]}},{"type":"Feature","geometry":{"type":"Polygon","coordinates":[[[133.49305,33.53873],[133.49307,33.53857],[133.49687,33.53854],[133.49614,33.5372],[133.49611,33.53555],[133.49564,33.53526],[133.49538,33.53457],[133.49638,33.53391],[133.49634,33.53332],[133.49694,33.5327],[133.49708,33.53144],[133.49774,33.53106],[133.49819,33.53017],[133.49824,33.53001],[133.49757,33.52911],[133.49781,33.52827],[133.4967,33.52795],[133.49543,33.52699],[133.49448,33.52735],[133.49383,33.52734],[133.49347,33.52653],[133.49094,33.52667],[133.4907,33.52602],[133.49021,33.52586],[133.48845,33.52623],[133.48768,33.52668],[133.48686,33.52671],[133.48655,33.52634],[133.48547,33.5257],[133.48438,33.52452],[133.48282,33.52405],[133.48167,33.52459],[133.4806,33.52441],[133.47979,33.52455],[133.4788,33.52547],[133.4786,33.52584],[133.47653,33.52616],[133.47682,33.52637],[133.47747,33.52645],[133.47764,33.52665],[133.47758,33.52704],[133.47737,33.5271],[133.47819,33.52944],[133.47808,33.53003],[133.47817,33.53112],[133.4778,33.53132],[133.47817,33.53168],[133.47812,33.53258],[133.47972,33.53306],[133.48021,33.53279],[133.48061,33.53356],[133.48326,33.53548],[133.48425,33.53546],[133.48515,33.53634],[133.48618,33.53686],[133.48771,33.53682],[133.48831,33.53712],[133.48881,33.53786],[133.49001,33.53794],[133.49043,33.53857],[133.49103,33.53857],[133.49166,33.53884],[133.49305,33.53873]]]},"properties":{"key":"392011930","name":"朝倉己","pref":"高知県","prefCode":"39","municipality":"高知市","areaM2":2080656.462,"population":3553,"toponymIds":["39-8e28a527fb"]}},{"type":"Feature","geometry":{"type":"Polygon","coordinates":[[[133.48358,33.549],[133.48459,33.54713],[133.48465,33.54668],[133.48493,33.54629],[133.48489,33.54596],[133.4851,33.54599],[133.48514,33.54489],[133.48411,33.54427],[133.48278,33.54406],[133.4826,33.54264],[133.48221,33.54211],[133.48104,33.54188],[133.47977,33.54119],[133.47867,33.54094],[133.47561,33.54206],[133.47399,33.54405],[133.4735,33.54426],[133.4728,33.54494],[133.47149,33.54544],[133.47167,33.54582],[133.47344,33.54678],[133.47375,33.54744],[133.47348,33.54777],[133.47351,33.54808],[133.47392,33.54842],[133.47433,33.54843],[133.47466,33.54896],[133.47598,33.5488],[133.48196,33.54948],[133.48339,33.55022],[133.48306,33.55068],[133.48379,33.55106],[133.48396,33.55009],[133.48361,33.54964],[133.48358,33.549]]]},"properties":{"key":"392011912","name":"朝倉丁","pref":"高知県","prefCode":"39","municipality":"高知市","areaM2":803308.284,"population":916,"toponymIds":["39-2ead5c3f14"]}},{"type":"Feature","geometry":{"type":"Polygon","coordinates":[[[133.50378,33.54218],[133.504,33.54173],[133.50352,33.54149],[133.50322,33.54154],[133.50272,33.54212],[133.50215,33.54172],[133.5014,33.54165],[133.50077,33.54126],[133.50066,33.5409],[133.50094,33.54052],[133.50071,33.5399],[133.501,33.5395],[133.50061,33.53905],[133.5001,33.53889],[133.49986,33.53844],[133.49931,33.53843],[133.49923,33.53862],[133.4985,33.5385],[133.49307,33.53857],[133.49305,33.53873],[133.49228,33.53885],[133.49043,33.53857],[133.49103,33.5395],[133.49108,33.54039],[133.49387,33.54153],[133.49906,33.5427],[133.49993,33.54333],[133.50084,33.54474],[133.50297,33.54373],[133.50346,33.54316],[133.50369,33.54312],[133.50357,33.54301],[133.50378,33.54218]]]},"properties":{"key":"392011885","name":"朝倉甲","pref":"高知県","prefCode":"39","municipality":"高知市","areaM2":414875.182,"population":2646,"toponymIds":["39-78226bf12b"]}},{"type":"Feature","geometry":{"type":"Polygon","coordinates":[[[133.48516,33.54426],[133.48559,33.54285],[133.48552,33.54249],[133.48159,33.53942],[133.48021,33.54107],[133.47935,33.54114],[133.47977,33.54119],[133.48104,33.54188],[133.48221,33.54211],[133.4826,33.54264],[133.48278,33.54406],[133.48411,33.54427],[133.48514,33.54489],[133.48516,33.54426]]]},"properties":{"key":"39201192501","name":"朝倉西町一丁目","pref":"高知県","prefCode":"39","municipality":"高知市","areaM2":136360.765,"population":918,"toponymIds":["39-5cd0a8c955"]}},{"type":"Feature","geometry":{"type":"Polygon","coordinates":[[[133.49919,33.54563],[133.49952,33.54558],[133.49995,33.54518],[133.50084,33.54474],[133.50014,33.54358],[133.49906,33.5427],[133.4967,33.54214],[133.49612,33.5439],[133.49634,33.54464],[133.49613,33.54564],[133.49564,33.54688],[133.49484,33.54824],[133.49587,33.54879],[133.49763,33.54709],[133.49794,33.54662],[133.49886,33.54612],[133.49919,33.54563]]]},"properties":{"key":"392011884","name":"朝倉東町","pref":"高知県","prefCode":"39","municipality":"高知市","areaM2":187460.998,"population":1296,"toponymIds":["39-37b530ba20"]}},{"type":"Feature","geometry":{"type":"Polygon","coordinates":[[[133.48509,33.56279],[133.48454,33.56216],[133.48419,33.56132],[133.48435,33.55927],[133.48481,33.55816],[133.48559,33.55857],[133.48698,33.55718],[133.4869,33.55711],[133.48715,33.55688],[133.48676,33.55648],[133.49107,33.5539],[133.49213,33.55342],[133.49271,33.55332],[133.49273,33.55248],[133.49134,33.55215],[133.48802,33.55093],[133.48554,33.55113],[133.48545,33.55096],[133.48485,33.55115],[133.48379,33.55106],[133.48306,33.55068],[133.48339,33.55022],[133.48196,33.54948],[133.47598,33.5488],[133.47466,33.54896],[133.47433,33.54843],[133.47392,33.54842],[133.47351,33.54808],[133.47348,33.54777],[133.47375,33.54744],[133.47344,33.54678],[133.47167,33.54582],[133.47149,33.54544],[133.47065,33.54572],[133.46935,33.54577],[133.46866,33.54539],[133.46712,33.54533],[133.46602,33.54464],[133.46424,33.5443],[133.46325,33.54445],[133.46576,33.54524],[133.46558,33.5462],[133.46651,33.54623],[133.4672,33.54668],[133.46682,33.54719],[133.46683,33.54775],[133.46743,33.54835],[133.46836,33.54891],[133.46786,33.54933],[133.46788,33.54986],[133.4676,33.55027],[133.46787,33.55089],[133.46777,33.55114],[133.46792,33.55279],[133.46769,33.55386],[133.46966,33.55571],[133.47156,33.55718],[133.47248,33.55844],[133.47235,33.55926],[133.47264,33.55963],[133.47298,33.56096],[133.47459,33.56257],[133.47596,33.56273],[133.47958,33.56372],[133.48134,33.56456],[133.48389,33.56515],[133.48432,33.56566],[133.48544,33.56409],[133.48544,33.56346],[133.48509,33.56279]]]},"properties":{"key":"392011900","name":"朝倉丙","pref":"高知県","prefCode":"39","municipality":"高知市","areaM2":2697035.146,"population":6182,"toponymIds":["39-34d378c190"]}},{"type":"Feature","geometry":{"type":"Polygon","coordinates":[[[133.4909,33.54923],[133.49173,33.54941],[133.49328,33.54939],[133.49497,33.54833],[133.49268,33.54688],[133.49106,33.54689],[133.49074,33.54663],[133.48977,33.54651],[133.4891,33.54964],[133.49015,33.54957],[133.4909,33.54923]]]},"properties":{"key":"39201201001","name":"朝倉本町一丁目","pref":"高知県","prefCode":"39","municipality":"高知市","areaM2":123327.898,"population":914,"toponymIds":["39-8e0cabcef8"]}},{"type":"Feature","geometry":{"type":"Polygon","coordinates":[[[133.48044,33.53317],[133.48021,33.53279],[133.47972,33.53306],[133.48061,33.53356],[133.48044,33.53317]]]},"properties":{"key":"392011929","name":"朝倉戊","pref":"高知県","prefCode":"39","municipality":"高知市","areaM2":2883.103,"population":0,"toponymIds":["39-507eac4b34"]}},{"type":"Feature","geometry":{"type":"Polygon","coordinates":[[[133.49614,33.54382],[133.4967,33.54214],[133.49346,33.54141],[133.49108,33.54039],[133.49152,33.54167],[133.49164,33.5436],[133.49266,33.5434],[133.49618,33.54406],[133.49614,33.54382]]]},"properties":{"key":"392011882","name":"朝倉南町","pref":"高知県","prefCode":"39","municipality":"高知市","areaM2":111609.242,"population":759,"toponymIds":["39-4fe760d0d8"]}},{"type":"Feature","geometry":{"type":"Polygon","coordinates":[[[133.49557,33.547],[133.49634,33.5449],[133.49618,33.54406],[133.49309,33.54343],[133.49084,33.54358],[133.49047,33.54505],[133.49024,33.54556],[133.49009,33.54551],[133.48977,33.54651],[133.49074,33.54663],[133.49106,33.54689],[133.49268,33.54688],[133.49484,33.54824],[133.49557,33.547]]]},"properties":{"key":"392011881","name":"朝倉横町","pref":"高知県","prefCode":"39","municipality":"高知市","areaM2":212644.803,"population":1398,"toponymIds":["39-d233910af9"]}},{"type":"Feature","geometry":{"type":"Polygon","coordinates":[[[133.54477,33.55373],[133.54515,33.55317],[133.54451,33.55286],[133.54432,33.55302],[133.54358,33.55263],[133.5425,33.55318],[133.54185,33.55248],[133.54152,33.55433],[133.54069,33.55588],[133.54264,33.55636],[133.5444,33.55641],[133.54413,33.55483],[133.54477,33.55373]]]},"properties":{"key":"392011270","name":"梅ノ辻","pref":"高知県","prefCode":"39","municipality":"高知市","areaM2":110992.487,"population":771,"toponymIds":["39-3059cd9915"]}},{"type":"Feature","geometry":{"type":"Polygon","coordinates":[[[133.56911,33.56237],[133.56906,33.56136],[133.5679,33.55721],[133.56523,33.55754],[133.56585,33.56114],[133.56602,33.56112],[133.56624,33.56226],[133.56842,33.56205],[133.56911,33.56237]]]},"properties":{"key":"392010280","name":"小倉町","pref":"高知県","prefCode":"39","municipality":"高知市","areaM2":145322.18,"population":444,"toponymIds":["39-e785d9d925"]}},{"type":"Feature","geometry":{"type":"Polygon","coordinates":[[[133.41457,33.60445],[133.41663,33.60382],[133.41833,33.60381],[133.41962,33.60326],[133.42049,33.60254],[133.42072,33.60214],[133.42238,33.60123],[133.42296,33.60053],[133.42359,33.59921],[133.42499,33.59837],[133.42579,33.59739],[133.4264,33.59693],[133.4275,33.59658],[133.42763,33.59731],[133.42806,33.59771],[133.42891,33.59717],[133.42946,33.59637],[133.43001,33.5942],[133.43073,33.5931],[133.4318,33.59233],[133.4346,33.59161],[133.43454,33.59012],[133.43419,33.58832],[133.43442,33.58782],[133.43552,33.58708],[133.4359,33.58625],[133.43485,33.58612],[133.43406,33.58552],[133.43326,33.58526],[133.43293,33.58401],[133.43223,33.58345],[133.43207,33.58256],[133.43065,33.58332],[133.42873,33.5864],[133.42821,33.58692],[133.42303,33.5889],[133.42015,33.58904],[133.41863,33.58884],[133.41792,33.58864],[133.41621,33.58767],[133.41531,33.58733],[133.41325,33.58684],[133.41319,33.58707],[133.41227,33.58774],[133.4111,33.58914],[133.41014,33.58882],[133.40892,33.58923],[133.40737,33.58921],[133.40608,33.59067],[133.40532,33.59124],[133.40362,33.59166],[133.40169,33.59237],[133.40087,33.59363],[133.40095,33.59474],[133.40116,33.59515],[133.40158,33.5955],[133.4035,33.59631],[133.4043,33.59698],[133.40468,33.59816],[133.40561,33.59964],[133.40713,33.60079],[133.40788,33.60284],[133.40845,33.60376],[133.40875,33.6046],[133.40905,33.60491],[133.40965,33.60526],[133.41082,33.60543],[133.41203,33.606],[133.41375,33.60636],[133.41457,33.60445]]]},"properties":{"key":"392012570","name":"鏡梅ノ木","pref":"高知県","prefCode":"39","municipality":"高知市","areaM2":4062902.393,"population":49,"toponymIds":["39-8f31b56fd1"]}},{"type":"Feature","geometry":{"type":"Polygon","coordinates":[[[133.417,33.66141],[133.41718,33.65992],[133.41764,33.65904],[133.41793,33.65792],[133.41851,33.65716],[133.41985,33.65631],[133.42011,33.65586],[133.42004,33.65542],[133.42022,33.65499],[133.42063,33.65464],[133.42221,33.65429],[133.424,33.65352],[133.42458,33.65299],[133.42499,33.6518],[133.4248,33.65056],[133.424,33.64869],[133.42384,33.64738],[133.4239,33.64648],[133.42367,33.64603],[133.42347,33.64368],[133.42533,33.64141],[133.42611,33.63961],[133.42667,33.63924],[133.42698,33.63716],[133.42667,33.6362],[133.42551,33.63511],[133.4221,33.63131],[133.42166,33.63042],[133.42166,33.62944],[133.42014,33.63004],[133.41899,33.63021],[133.41805,33.63008],[133.41667,33.63017],[133.41622,33.63095],[133.41029,33.63411],[133.40901,33.63505],[133.40748,33.63754],[133.40652,33.63854],[133.40545,33.6393],[133.40403,33.64104],[133.4022,33.64192],[133.39927,33.64253],[133.3995,33.64451],[133.39987,33.64602],[133.39956,33.64681],[133.3997,33.6483],[133.40055,33.65067],[133.40129,33.65144],[133.40417,33.65343],[133.405,33.65534],[133.40688,33.65567],[133.40726,33.6563],[133.40874,33.65737],[133.40881,33.65775],[133.40958,33.65822],[133.40978,33.65852],[133.41094,33.65876],[133.41246,33.66059],[133.41334,33.66068],[133.41423,33.66113],[133.41535,33.66131],[133.41597,33.66159],[133.417,33.66141]]]},"properties":{"key":"392012410","name":"鏡柿ノ又","pref":"高知県","prefCode":"39","municipality":"高知市","areaM2":5600280.424,"population":24,"toponymIds":["39-fa12cb2330"]}},{"type":"Feature","geometry":{"type":"Polygon","coordinates":[[[133.46058,33.60258],[133.46151,33.60293],[133.46259,33.60261],[133.46357,33.60252],[133.46462,33.60276],[133.46289,33.60043],[133.46274,33.59864],[133.46222,33.59675],[133.46248,33.59563],[133.46239,33.59533],[133.45962,33.59293],[133.45915,33.5926],[133.45829,33.59245],[133.45775,33.59268],[133.45618,33.59413],[133.45594,33.59409],[133.45526,33.59515],[133.45443,33.59502],[133.45402,33.59511],[133.45293,33.59671],[133.45223,33.59716],[133.45064,33.59702],[133.44979,33.59747],[133.44916,33.59864],[133.44869,33.59915],[133.4472,33.59975],[133.44657,33.60024],[133.44629,33.60075],[133.44594,33.60075],[133.44293,33.60236],[133.44181,33.6054],[133.44324,33.60617],[133.44365,33.60706],[133.44484,33.60797],[133.44629,33.60667],[133.44657,33.60526],[133.4471,33.605],[133.44779,33.60481],[133.4505,33.60472],[133.45114,33.60407],[133.4541,33.60277],[133.45789,33.60191],[133.45865,33.60197],[133.46058,33.60258]]]},"properties":{"key":"392012540","name":"鏡去坂","pref":"高知県","prefCode":"39","municipality":"高知市","areaM2":1507546.774,"population":31,"toponymIds":["39-58bae39915"]}},{"type":"Feature","geometry":{"type":"Polygon","coordinates":[[[133.52696,33.56262],[133.52696,33.5625],[133.5273,33.5625],[133.52704,33.56051],[133.52606,33.5607],[133.5258,33.5623],[133.52514,33.5622],[133.52488,33.56351],[133.52689,33.56374],[133.52696,33.56262]]]},"properties":{"key":"392010770","name":"桜馬場","pref":"高知県","prefCode":"39","municipality":"高知市","areaM2":49326.913,"population":512,"toponymIds":["39-68702d09b2"]}},{"type":"Feature","geometry":{"type":"Polygon","coordinates":[[[133.55117,33.62429],[133.55248,33.62433],[133.55224,33.62365],[133.55236,33.62344],[133.55334,33.6237],[133.55339,33.62334],[133.55387,33.62315],[133.55416,33.62261],[133.554,33.62175],[133.55414,33.62094],[133.55491,33.62063],[133.55554,33.62058],[133.55679,33.61889],[133.55761,33.61862],[133.56062,33.61644],[133.5617,33.61518],[133.56179,33.61458],[133.56156,33.61349],[133.56134,33.61085],[133.56157,33.61044],[133.56272,33.60972],[133.56301,33.60912],[133.56325,33.60897],[133.56326,33.6081],[133.56374,33.60493],[133.56362,33.60469],[133.5632,33.60464],[133.56333,33.60418],[133.56356,33.60398],[133.5628,33.6032],[133.56257,33.60193],[133.562,33.60181],[133.56075,33.60114],[133.56036,33.60142],[133.55803,33.60057],[133.55598,33.60074],[133.5539,33.60041],[133.5535,33.60002],[133.5531,33.6001],[133.5527,33.59973],[133.55206,33.6],[133.55043,33.5993],[133.54991,33.60023],[133.54986,33.60129],[133.54938,33.60262],[133.54947,33.60298],[133.55006,33.60335],[133.5501,33.6036],[133.54944,33.6044],[133.54888,33.60466],[133.54873,33.60519],[133.54816,33.60556],[133.54801,33.60589],[133.54805,33.60652],[133.54763,33.60742],[133.54774,33.60773],[133.54757,33.6082],[133.54784,33.60844],[133.54783,33.60863],[133.54757,33.60892],[133.54753,33.60977],[133.54705,33.61011],[133.54698,33.61032],[133.5477,33.61085],[133.54763,33.61122],[133.54708,33.61168],[133.54581,33.61195],[133.54408,33.6129],[133.5438,33.61335],[133.54383,33.61357],[133.5449,33.61382],[133.54512,33.61401],[133.54473,33.61475],[133.54278,33.61451],[133.54235,33.61466],[133.54247,33.61492],[133.54372,33.61572],[133.54376,33.61599],[133.54342,33.6169],[133.54312,33.6172],[133.54201,33.61702],[133.5422,33.61754],[133.54322,33.61872],[133.5449,33.6202],[133.54443,33.62042],[133.54325,33.62159],[133.54303,33.62273],[133.54339,33.62388],[133.54379,33.62414],[133.54438,33.62421],[133.54581,33.6254],[133.54665,33.62817],[133.54766,33.6288],[133.54858,33.62913],[133.54909,33.62799],[133.55046,33.6271],[133.55057,33.62491],[133.55078,33.62444],[133.55117,33.62429]]]},"properties":{"key":"392011630","name":"重倉","pref":"高知県","prefCode":"39","municipality":"高知市","areaM2":3688058.637,"population":728,"toponymIds":["39-153e4dbc6c"]}},{"type":"Feature","geometry":{"type":"Polygon","coordinates":[[[133.57215,33.65836],[133.57311,33.65838],[133.57338,33.65782],[133.57419,33.65738],[133.5755,33.6573],[133.5753,33.65656],[133.57564,33.65578],[133.5769,33.65428],[133.57717,33.65369],[133.57813,33.65334],[133.57925,33.65174],[133.57932,33.6514],[133.57912,33.65068],[133.58009,33.65079],[133.58012,33.65048],[133.58074,33.64945],[133.58053,33.6489],[133.58118,33.64829],[133.58148,33.64738],[133.58008,33.64649],[133.57945,33.64528],[133.57945,33.64464],[133.57984,33.64431],[133.58035,33.64332],[133.58169,33.64278],[133.58214,33.64226],[133.58244,33.64098],[133.58291,33.64027],[133.58241,33.63948],[133.58258,33.63924],[133.58265,33.63848],[133.58354,33.63713],[133.58414,33.63692],[133.58426,33.63651],[133.58488,33.63577],[133.58503,33.63502],[133.58458,33.63307],[133.58384,33.63317],[133.58328,33.63353],[133.58286,33.63352],[133.58004,33.63243],[133.57905,33.63112],[133.57902,33.63042],[133.57878,33.63029],[133.57629,33.6305],[133.57236,33.6304],[133.5717,33.63012],[133.57131,33.6296],[133.57074,33.62931],[133.56804,33.62887],[133.567,33.6295],[133.56621,33.63033],[133.56474,33.63064],[133.56251,33.63157],[133.56089,33.63165],[133.56103,33.63367],[133.56096,33.63503],[133.5605,33.63543],[133.56102,33.63559],[133.56161,33.63617],[133.56203,33.63748],[133.5623,33.64102],[133.56221,33.64191],[133.56171,33.64279],[133.56167,33.64352],[133.56298,33.64576],[133.56242,33.64813],[133.56255,33.65214],[133.56285,33.65308],[133.56347,33.65334],[133.56452,33.65456],[133.5652,33.65503],[133.56542,33.65582],[133.5652,33.65662],[133.5656,33.65779],[133.56842,33.66042],[133.57046,33.65951],[133.57134,33.65867],[133.57215,33.65836]]]},"properties":{"key":"392012640","name":"土佐山菖蒲","pref":"高知県","prefCode":"39","municipality":"高知市","areaM2":5225918.691,"population":98,"toponymIds":["39-d37c86ff33"]}},{"type":"Feature","geometry":{"type":"Polygon","coordinates":[[[133.58157,33.66168],[133.58256,33.66068],[133.58329,33.65933],[133.58469,33.65828],[133.58585,33.65701],[133.58695,33.65623],[133.58967,33.65543],[133.59062,33.65498],[133.59198,33.65358],[133.59235,33.65204],[133.58894,33.64854],[133.5877,33.64843],[133.58649,33.64713],[133.5862,33.64634],[133.58667,33.64523],[133.58656,33.64431],[133.58764,33.64361],[133.5883,33.64281],[133.58927,33.64063],[133.59046,33.63991],[133.5927,33.63904],[133.59476,33.63768],[133.59558,33.63672],[133.59804,33.63275],[133.59596,33.63232],[133.59366,33.63214],[133.59064,33.63141],[133.58936,33.63217],[133.58845,33.63242],[133.58458,33.63307],[133.58503,33.63502],[133.58493,33.63565],[133.58426,33.63651],[133.58412,33.63694],[133.58354,33.63713],[133.58265,33.63848],[133.58258,33.63924],[133.58241,33.63948],[133.58291,33.64027],[133.58244,33.64098],[133.58215,33.64222],[133.58169,33.64278],[133.58035,33.64332],[133.57984,33.64431],[133.57944,33.64468],[133.57945,33.64528],[133.58008,33.64649],[133.58148,33.64738],[133.58118,33.64829],[133.58053,33.6489],[133.58074,33.64945],[133.58012,33.65048],[133.5801,33.65077],[133.57912,33.65068],[133.57932,33.6514],[133.57925,33.65174],[133.57813,33.65334],[133.57717,33.65369],[133.5769,33.65428],[133.57564,33.65578],[133.5753,33.65656],[133.5755,33.6573],[133.57419,33.65738],[133.57338,33.65782],[133.57311,33.65838],[133.57215,33.65836],[133.57531,33.65998],[133.57646,33.66113],[133.57813,33.66171],[133.58157,33.66168]]]},"properties":{"key":"392040050","name":"上倉","pref":"高知県","prefCode":"39","municipality":"南国市","areaM2":2982734.966,"population":15,"toponymIds":["39-ec9516222f"]}},{"type":"Feature","geometry":{"type":"Polygon","coordinates":[[[133.59793,33.59564],[133.5982,33.59537],[133.59842,33.59589],[133.59871,33.596],[133.60097,33.59616],[133.60182,33.59607],[133.60259,33.59526],[133.60418,33.59504],[133.60549,33.59534],[133.60806,33.59645],[133.60822,33.59638],[133.60871,33.5953],[133.60902,33.5952],[133.60929,33.59484],[133.61031,33.59458],[133.61068,33.59387],[133.61039,33.59312],[133.60865,33.59111],[133.60866,33.59097],[133.60778,33.5908],[133.6054,33.58976],[133.60493,33.589],[133.60382,33.58982],[133.60281,33.59083],[133.60184,33.59091],[133.60124,33.59039],[133.60071,33.59043],[133.60135,33.59104],[133.6006,33.59126],[133.59951,33.59067],[133.59768,33.59066],[133.59745,33.59038],[133.59752,33.5897],[133.59689,33.58925],[133.59674,33.58885],[133.59616,33.58897],[133.59693,33.58998],[133.59612,33.59052],[133.59579,33.59055],[133.5957,33.59023],[133.59498,33.58963],[133.59435,33.58878],[133.59433,33.58956],[133.59399,33.59015],[133.59523,33.59118],[133.595,33.59176],[133.59394,33.5931],[133.59347,33.59332],[133.5925,33.5942],[133.59127,33.59443],[133.59124,33.59378],[133.5911,33.5938],[133.59108,33.59449],[133.59053,33.59445],[133.59059,33.59382],[133.59029,33.59381],[133.5902,33.59444],[133.59111,33.59455],[133.59249,33.59432],[133.59292,33.59447],[133.59461,33.59648],[133.59612,33.59749],[133.59667,33.5972],[133.59709,33.5964],[133.5976,33.5962],[133.59793,33.59564]]]},"properties":{"key":"392040250","name":"岡豊町蒲原","pref":"高知県","prefCode":"39","municipality":"南国市","areaM2":919303.104,"population":850,"toponymIds":["39-027823e7d9"]}},{"type":"Feature","geometry":{"type":"Polygon","coordinates":[[[133.64131,33.6341],[133.64117,33.63096],[133.64082,33.63041],[133.63985,33.62947],[133.63926,33.62849],[133.63977,33.62423],[133.63913,33.62386],[133.63804,33.6239],[133.63673,33.62367],[133.63584,33.624],[133.63459,33.62478],[133.6341,33.62537],[133.63388,33.62628],[133.63384,33.62773],[133.63412,33.6296],[133.6344,33.63006],[133.63477,33.63033],[133.63493,33.63073],[133.63551,33.6311],[133.63669,33.63107],[133.63738,33.63234],[133.6374,33.6325],[133.63654,33.63297],[133.6367,33.63432],[133.6362,33.63554],[133.63879,33.63409],[133.64009,33.63397],[133.64131,33.6341]]]},"properties":{"key":"392040120","name":"宍崎","pref":"高知県","prefCode":"39","municipality":"南国市","areaM2":554125.245,"population":103,"toponymIds":["39-b43ccd89ca"]}},{"type":"Feature","geometry":{"type":"Polygon","coordinates":[[[133.68355,33.58003],[133.68272,33.57957],[133.68249,33.57922],[133.68238,33.57749],[133.68178,33.57701],[133.68153,33.57716],[133.68144,33.5764],[133.6806,33.57506],[133.68006,33.57436],[133.67891,33.57348],[133.67826,33.57366],[133.67822,33.57426],[133.67786,33.57409],[133.67777,33.57449],[133.67681,33.57408],[133.67595,33.57463],[133.67514,33.57386],[133.67538,33.57428],[133.67532,33.57444],[133.67671,33.57555],[133.67728,33.57534],[133.67726,33.57558],[133.67823,33.57617],[133.67863,33.57597],[133.67887,33.57618],[133.67846,33.57633],[133.67992,33.57711],[133.68193,33.57996],[133.68208,33.58009],[133.68235,33.58003],[133.68298,33.58079],[133.68387,33.58067],[133.68355,33.58003]]]},"properties":{"key":"392040720","name":"蔵福寺島","pref":"高知県","prefCode":"39","municipality":"南国市","areaM2":166711.454,"population":40,"toponymIds":["39-ea161549d1"]}},{"type":"Feature","geometry":{"type":"Polygon","coordinates":[[[133.2892,33.38911],[133.28899,33.3891],[133.28904,33.39091],[133.29091,33.39088],[133.29098,33.38921],[133.2892,33.38911]]]},"properties":{"key":"392060150","name":"青木町","pref":"高知県","prefCode":"39","municipality":"須崎市","areaM2":34297.71,"population":115,"toponymIds":["39-fdbe707da0"]}},{"type":"Feature","geometry":{"type":"Polygon","coordinates":[[[133.0141,32.75467],[133.01454,32.75391],[133.01431,32.75386],[133.01445,32.75374],[133.01429,32.75315],[133.01476,32.75119],[133.01511,32.75112],[133.01477,32.75073],[133.01492,32.7502],[133.01516,32.74994],[133.01555,32.74993],[133.01543,32.74973],[133.01558,32.74952],[133.01583,32.74952],[133.01603,32.74882],[133.0164,32.74827],[133.01683,32.748],[133.01709,32.74749],[133.01736,32.74743],[133.01747,32.74718],[133.01782,32.74698],[133.01789,32.7466],[133.0175,32.74636],[133.01784,32.74541],[133.0187,32.745],[133.01893,32.74473],[133.01859,32.74471],[133.01917,32.74459],[133.0191,32.74437],[133.01952,32.74441],[133.01905,32.7442],[133.01929,32.74394],[133.01896,32.74402],[133.01832,32.74313],[133.01845,32.74292],[133.0182,32.74272],[133.01808,32.74206],[133.01837,32.74185],[133.01823,32.74152],[133.01839,32.74094],[133.01873,32.7407],[133.01867,32.74023],[133.0188,32.74018],[133.01861,32.73999],[133.01886,32.73951],[133.0187,32.73925],[133.01887,32.73922],[133.01866,32.73893],[133.01911,32.73885],[133.01873,32.7387],[133.01915,32.73697],[133.01912,32.73651],[133.01962,32.73556],[133.01883,32.73508],[133.01791,32.73503],[133.0188,32.73503],[133.01939,32.73543],[133.01973,32.73549],[133.01976,32.73515],[133.01999,32.73501],[133.01992,32.73477],[133.02028,32.73378],[133.02046,32.73362],[133.02066,32.73259],[133.02091,32.73215],[133.02151,32.73179],[133.02168,32.7314],[133.02185,32.73139],[133.02173,32.73122],[133.02184,32.72977],[133.02218,32.72928],[133.02197,32.72896],[133.02211,32.72887],[133.02196,32.72884],[133.02194,32.72848],[133.02152,32.72785],[133.02168,32.72778],[133.02147,32.72774],[133.0214,32.72715],[133.02187,32.72708],[133.02159,32.72697],[133.02199,32.72669],[133.0221,32.72638],[133.02146,32.7265],[133.02136,32.7263],[133.02104,32.72639],[133.02056,32.726],[133.02134,32.72538],[133.02114,32.72522],[133.02118,32.725],[133.02071,32.72507],[133.02037,32.7246],[133.02067,32.72407],[133.02081,32.72335],[133.02045,32.72372],[133.02035,32.72357],[133.02015,32.72363],[133.02009,32.7234],[133.01989,32.72356],[133.01962,32.72346],[133.01901,32.72409],[133.01802,32.72392],[133.0177,32.72363],[133.01773,32.72344],[133.01698,32.72366],[133.01657,32.72344],[133.01599,32.72345],[133.01528,32.72318],[133.01465,32.72324],[133.01445,32.72297],[133.01397,32.72316],[133.01383,32.7234],[133.01367,32.72324],[133.01334,32.72344],[133.01334,32.72382],[133.01312,32.72402],[133.01219,32.72405],[133.01135,32.72377],[133.01153,32.72357],[133.01134,32.72326],[133.01145,32.72304],[133.0108,32.72306],[133.0107,32.72281],[133.00974,32.72257],[133.00925,32.72272],[133.00905,32.72383],[133.00911,32.72297],[133.00884,32.72313],[133.00816,32.72299],[133.00855,32.72328],[133.00897,32.72328],[133.00888,32.72367],[133.00846,32.72369],[133.00829,32.72386],[133.00743,32.72356],[133.00761,32.7233],[133.00825,32.72359],[133.00844,32.72341],[133.0082,32.72348],[133.00721,32.72315],[133.00668,32.72275],[133.00689,32.72248],[133.00673,32.72236],[133.00704,32.72204],[133.00616,32.72214],[133.00664,32.72191],[133.00603,32.7218],[133.0071,32.72162],[133.00717,32.72129],[133.00621,32.7213],[133.00593,32.72155],[133.00521,32.72176],[133.00479,32.72168],[133.00411,32.7219],[133.00276,32.72159],[133.00286,32.72208],[133.00379,32.72215],[133.00316,32.72224],[133.00402,32.72264],[133.00402,32.7229],[133.00356,32.72351],[133.00337,32.72358],[133.00311,32.72331],[133.00254,32.72322],[133.00278,32.72347],[133.00229,32.72341],[133.00217,32.72355],[133.00249,32.72383],[133.0014,32.72344],[133.00134,32.72368],[133.00162,32.72404],[133.00143,32.72412],[133.00115,32.72377],[133.00124,32.72351],[133.00101,32.72323],[133.00043,32.72273],[132.99987,32.72269],[132.99985,32.72296],[132.99921,32.72324],[133.00016,32.72323],[132.99992,32.72335],[133.00023,32.72341],[132.99969,32.72354],[133.00038,32.72362],[132.99928,32.72379],[132.99964,32.72395],[132.99948,32.72409],[132.99958,32.72421],[132.99938,32.72421],[132.99958,32.72437],[132.9986,32.72478],[132.99888,32.72496],[132.9986,32.72524],[132.99695,32.72497],[132.99704,32.72517],[132.99746,32.72536],[132.9984,32.72546],[132.99803,32.72565],[132.99834,32.72589],[132.99793,32.72607],[132.99841,32.72633],[132.99831,32.72652],[132.99651,32.72593],[132.99641,32.72638],[132.99673,32.72685],[132.99656,32.72699],[132.996,32.72687],[132.99589,32.72699],[132.99605,32.72735],[132.99673,32.72751],[132.99646,32.72786],[132.99549,32.72844],[132.99552,32.72865],[132.99503,32.72927],[132.99527,32.72969],[132.99446,32.73066],[132.99406,32.73037],[132.99353,32.73034],[132.99357,32.73067],[132.99395,32.73089],[132.99349,32.73125],[132.99302,32.73132],[132.99276,32.73112],[132.99253,32.73124],[132.99258,32.73105],[132.99232,32.73121],[132.99188,32.73106],[132.99192,32.73037],[132.98989,32.73457],[132.98943,32.73453],[132.9892,32.73483],[132.98913,32.73508],[132.98983,32.73753],[132.98952,32.73793],[132.98908,32.73812],[132.98885,32.73786],[132.98801,32.7375],[132.9862,32.73811],[132.98597,32.73781],[132.98543,32.73775],[132.98525,32.73829],[132.98423,32.73919],[132.98406,32.73968],[132.98381,32.73976],[132.98299,32.73894],[132.98181,32.73811],[132.98098,32.73778],[132.97991,32.73772],[132.97976,32.73757],[132.97916,32.7382],[132.97827,32.73822],[132.97838,32.73992],[132.97942,32.74423],[132.97936,32.74519],[132.9795,32.74529],[132.97998,32.74543],[132.98303,32.74465],[132.98516,32.74495],[132.98567,32.74481],[132.98536,32.74581],[132.98642,32.74642],[132.98717,32.74653],[132.98783,32.74648],[132.98811,32.74609],[132.98839,32.7464],[132.98853,32.74617],[132.98889,32.74602],[132.99023,32.74569],[132.99215,32.74735],[132.99414,32.74802],[132.995,32.74855],[132.99743,32.74915],[132.99778,32.74937],[132.99804,32.74968],[132.99851,32.75135],[132.99911,32.75179],[133.00065,32.75222],[133.00099,32.7529],[133.00148,32.75326],[133.00337,32.75353],[133.0044,32.75339],[133.00765,32.7525],[133.00868,32.75331],[133.00914,32.75413],[133.00993,32.75406],[133.01023,32.75421],[133.01113,32.75397],[133.0117,32.75435],[133.01368,32.75473],[133.0141,32.75467]]]},"properties":{"key":"392090240","name":"足摺岬","pref":"高知県","prefCode":"39","municipality":"土佐清水市","areaM2":8906260.907,"population":503,"toponymIds":["39-57454569ba","39-0232513373"]}},{"type":"Feature","geometry":{"type":"Polygon","coordinates":[[[132.8511,32.9692],[132.85099,32.96859],[132.8518,32.96707],[132.85192,32.96555],[132.84885,32.96345],[132.84386,32.96169],[132.84328,32.96371],[132.84331,32.96495],[132.84194,32.96565],[132.84044,32.96695],[132.83942,32.96807],[132.83776,32.97057],[132.83682,32.97512],[132.83872,32.97915],[132.85001,32.97995],[132.85013,32.9795],[132.8493,32.97339],[132.84983,32.97159],[132.8511,32.9692]]]},"properties":{"key":"39210030005","name":"磯ノ川","pref":"高知県","prefCode":"39","municipality":"四万十市","areaM2":1955595.251,"population":141,"toponymIds":["39-934537f214"]}},{"type":"Feature","geometry":{"type":"Polygon","coordinates":[[[132.95499,32.93408],[132.95587,32.93344],[132.95847,32.93434],[132.96132,32.93447],[132.96388,32.93527],[132.96477,32.9354],[132.96645,32.93551],[132.9701,32.93529],[132.97148,32.93546],[132.97267,32.93585],[132.97162,32.93449],[132.97427,32.92861],[132.97419,32.92824],[132.97463,32.92769],[132.97449,32.92721],[132.97594,32.92641],[132.97623,32.92581],[132.9772,32.92555],[132.97832,32.92481],[132.97368,32.9247],[132.97322,32.92423],[132.9728,32.9229],[132.97239,32.92238],[132.97013,32.92145],[132.9703,32.92079],[132.97018,32.92055],[132.96872,32.91936],[132.96845,32.91876],[132.96825,32.91779],[132.96841,32.9175],[132.96783,32.91724],[132.967,32.91746],[132.96601,32.91732],[132.96553,32.91712],[132.96436,32.91617],[132.96269,32.91548],[132.96333,32.91379],[132.96318,32.91312],[132.96336,32.91177],[132.9629,32.90953],[132.96141,32.90981],[132.96032,32.9098],[132.9592,32.90962],[132.95804,32.90915],[132.95685,32.90889],[132.95534,32.90943],[132.95365,32.90918],[132.95313,32.90965],[132.95272,32.91075],[132.95285,32.91156],[132.95267,32.91232],[132.95137,32.91311],[132.95039,32.91307],[132.94954,32.91358],[132.94929,32.91399],[132.94839,32.91431],[132.94794,32.91406],[132.94781,32.91345],[132.94741,32.91279],[132.94664,32.91251],[132.94597,32.91162],[132.94551,32.91132],[132.94515,32.91169],[132.94504,32.91248],[132.94473,32.91295],[132.94484,32.91344],[132.94466,32.91395],[132.9448,32.91458],[132.94419,32.91596],[132.94357,32.91669],[132.9427,32.91719],[132.94184,32.91793],[132.94149,32.91903],[132.94072,32.91975],[132.94061,32.92026],[132.94037,32.92051],[132.94052,32.92089],[132.94035,32.92144],[132.93968,32.92241],[132.9395,32.92256],[132.93927,32.92252],[132.93891,32.9217],[132.93771,32.92201],[132.93675,32.92192],[132.93672,32.92229],[132.93602,32.92285],[132.93519,32.92406],[132.93511,32.92465],[132.93383,32.92666],[132.9334,32.92692],[132.93211,32.92723],[132.93174,32.9275],[132.93155,32.92816],[132.93152,32.92935],[132.93177,32.92987],[132.93106,32.93045],[132.93038,32.93163],[132.92996,32.93188],[132.92976,32.93307],[132.92982,32.93398],[132.92931,32.93447],[132.92938,32.93537],[132.93077,32.93593],[132.93537,32.93696],[132.93674,32.93772],[132.94,32.93911],[132.94154,32.93801],[132.94396,32.93693],[132.94768,32.93613],[132.95098,32.93588],[132.95188,32.93568],[132.95301,32.93525],[132.95499,32.93408]]]},"properties":{"key":"39210031007","name":"津蔵渕","pref":"高知県","prefCode":"39","municipality":"四万十市","areaM2":8613838.98,"population":204,"toponymIds":["39-1bf3bc7340"]}},{"type":"Feature","geometry":{"type":"Polygon","coordinates":[[[132.99698,32.93153],[133.00016,32.93115],[133.00079,32.93048],[133.00006,32.93012],[133.00063,32.92981],[133.00052,32.92954],[132.99957,32.92917],[132.99863,32.92907],[132.99808,32.92918],[132.99713,32.92878],[132.99689,32.92833],[132.99673,32.92717],[132.99685,32.92649],[132.99765,32.9266],[132.99803,32.9262],[132.99852,32.92605],[132.9984,32.926],[132.99859,32.92587],[132.99851,32.92574],[132.99761,32.9257],[132.99727,32.92521],[132.9974,32.924],[132.998,32.92272],[132.99873,32.92218],[132.99985,32.92205],[133.00044,32.92151],[133.00101,32.92165],[133.00053,32.92145],[133.00083,32.92134],[133.00056,32.92116],[133.00125,32.92075],[133.00173,32.92087],[133.00204,32.92165],[133.00216,32.92157],[133.00187,32.92089],[133.00264,32.92122],[133.00286,32.92114],[133.0031,32.92087],[133.00299,32.9204],[133.00342,32.91978],[133.00347,32.91908],[133.00474,32.91813],[133.00517,32.91801],[133.00511,32.91788],[133.00456,32.91788],[133.00486,32.91742],[133.00513,32.9173],[133.00554,32.91748],[133.00558,32.91731],[133.00586,32.91732],[133.00682,32.91678],[133.00596,32.91695],[133.00604,32.91674],[133.0058,32.91672],[133.00571,32.91654],[133.00689,32.91641],[133.00676,32.91566],[133.00697,32.91548],[133.00682,32.91537],[133.00741,32.9155],[133.0077,32.91524],[133.00719,32.91525],[133.00731,32.91503],[133.00666,32.9154],[133.00656,32.91525],[133.00673,32.91626],[133.00586,32.91619],[133.00579,32.91573],[133.00612,32.91568],[133.00608,32.91534],[133.00631,32.91512],[133.00657,32.91514],[133.00658,32.91493],[133.0068,32.91481],[133.00665,32.91476],[133.00725,32.91427],[133.00727,32.91401],[133.00703,32.91387],[133.00728,32.9132],[133.00766,32.91297],[133.00803,32.91296],[133.00812,32.91272],[133.00918,32.91265],[133.00918,32.91252],[133.0087,32.91255],[133.00886,32.9121],[133.00642,32.91229],[133.00511,32.9121],[133.00473,32.91245],[133.00431,32.91257],[133.00275,32.91231],[133.00221,32.91254],[133.00166,32.91247],[133.00059,32.91209],[133.0001,32.91246],[132.99956,32.91237],[132.99844,32.91253],[132.99762,32.91211],[132.99709,32.91237],[132.99674,32.91208],[132.99635,32.91202],[132.99402,32.91219],[132.99324,32.91179],[132.99267,32.91231],[132.99175,32.91386],[132.99161,32.91507],[132.99061,32.91563],[132.99022,32.91671],[132.98986,32.917],[132.98911,32.91684],[132.98819,32.91725],[132.98794,32.91753],[132.98706,32.91776],[132.98527,32.91723],[132.9843,32.91801],[132.98292,32.91859],[132.98233,32.91912],[132.98191,32.91922],[132.98093,32.91896],[132.98004,32.91915],[132.97884,32.91901],[132.97853,32.91882],[132.97832,32.91805],[132.97787,32.91773],[132.97621,32.91795],[132.97532,32.9178],[132.97358,32.9172],[132.97305,32.91673],[132.9694,32.91751],[132.96841,32.9175],[132.96825,32.91779],[132.96872,32.91936],[132.96984,32.92019],[132.9703,32.92079],[132.97013,32.92145],[132.97239,32.92238],[132.9728,32.9229],[132.97322,32.92423],[132.97368,32.9247],[132.97832,32.92481],[132.9799,32.92675],[132.98073,32.92749],[132.98595,32.92976],[132.98648,32.9301],[132.9869,32.93116],[132.98936,32.93213],[132.9905,32.93393],[132.99138,32.9335],[132.99396,32.9329],[132.99375,32.93209],[132.99698,32.93153]]]},"properties":{"key":"39210031009","name":"名鹿","pref":"高知県","prefCode":"39","municipality":"四万十市","areaM2":4259277.885,"population":103,"toponymIds":["39-dd04b46e84"]}}]}
