{"type":"FeatureCollection","features":[{"type":"Feature","geometry":{"type":"Polygon","coordinates":[[[130.25389,33.26481],[130.25395,33.26438],[130.25455,33.26442],[130.25519,33.25823],[130.25744,33.25828],[130.25753,33.25799],[130.25756,33.25829],[130.25811,33.2583],[130.25819,33.25797],[130.25865,33.25798],[130.26183,33.25852],[130.26273,33.25848],[130.26263,33.25817],[130.26313,33.25413],[130.26399,33.25],[130.25936,33.24968],[130.25921,33.25095],[130.25543,33.25065],[130.25568,33.24818],[130.25482,33.24811],[130.25509,33.24558],[130.25564,33.24269],[130.25528,33.24265],[130.25529,33.24231],[130.2548,33.24219],[130.25475,33.24184],[130.25479,33.24136],[130.25528,33.24124],[130.25531,33.24101],[130.25329,33.24076],[130.25341,33.24025],[130.25326,33.24022],[130.25332,33.23982],[130.2531,33.23926],[130.25218,33.23969],[130.25247,33.23995],[130.25252,33.2403],[130.25227,33.24086],[130.25113,33.24157],[130.24662,33.24271],[130.24347,33.24288],[130.24332,33.24346],[130.24335,33.24425],[130.24426,33.24641],[130.24441,33.24747],[130.24431,33.24886],[130.24447,33.25203],[130.24405,33.25573],[130.24416,33.25835],[130.24388,33.26436],[130.24547,33.26437],[130.24562,33.2618],[130.25021,33.26208],[130.25012,33.26312],[130.24976,33.2631],[130.24954,33.264],[130.25155,33.26442],[130.25178,33.26316],[130.25282,33.26322],[130.25265,33.26483],[130.25386,33.26508],[130.25389,33.26481]]]},"properties":{"key":"412010620","name":"嘉瀬町大字荻野","pref":"佐賀県","prefCode":"41","municipality":"佐賀市","areaM2":3120438.972,"population":1035,"toponymIds":["41-60e0e32fd1"]}},{"type":"Feature","geometry":{"type":"Polygon","coordinates":[[[130.25064,33.35611],[130.2505,33.35559],[130.25,33.35487],[130.24869,33.35366],[130.24858,33.35522],[130.24901,33.35644],[130.2493,33.35663],[130.25064,33.35611]]]},"properties":{"key":"412011341","name":"富士町大字梅野","pref":"佐賀県","prefCode":"41","municipality":"佐賀市","areaM2":35816.287,"population":17,"toponymIds":["41-2ae56f0fa9"]}},{"type":"Feature","geometry":{"type":"Polygon","coordinates":[[[130.29863,33.23137],[130.29896,33.2313],[130.2991,33.22903],[130.29764,33.22895],[130.29785,33.22601],[130.29838,33.22595],[130.2982,33.22513],[130.29791,33.22506],[130.298,33.22403],[130.29772,33.2221],[130.29785,33.22206],[130.29773,33.22109],[130.29725,33.22097],[130.2967,33.22027],[130.29527,33.21989],[130.29478,33.22025],[130.29469,33.21967],[130.2948,33.21935],[130.29465,33.21928],[130.29367,33.21894],[130.29221,33.21893],[130.29246,33.21797],[130.29076,33.21779],[130.28752,33.21781],[130.2867,33.21811],[130.287,33.21906],[130.28741,33.21957],[130.2875,33.22065],[130.28627,33.22084],[130.2852,33.22054],[130.28524,33.22087],[130.285,33.22125],[130.28319,33.22316],[130.28274,33.22313],[130.28222,33.22267],[130.28196,33.2212],[130.28128,33.21995],[130.28088,33.21974],[130.28026,33.21999],[130.27954,33.21927],[130.27933,33.21883],[130.27856,33.21854],[130.27866,33.21796],[130.27833,33.21796],[130.27777,33.21837],[130.27717,33.2183],[130.2766,33.21793],[130.27654,33.21768],[130.2767,33.21723],[130.27292,33.21792],[130.2732,33.21878],[130.27255,33.21891],[130.27311,33.22094],[130.27718,33.22013],[130.27857,33.22509],[130.27848,33.22659],[130.27903,33.22662],[130.27896,33.2306],[130.28402,33.23068],[130.28413,33.2287],[130.28639,33.22873],[130.28646,33.22777],[130.28907,33.22779],[130.29057,33.22786],[130.29053,33.22975],[130.29318,33.22996],[130.29309,33.23066],[130.29441,33.23062],[130.29513,33.23077],[130.29498,33.23143],[130.29582,33.23157],[130.29581,33.23171],[130.29841,33.23183],[130.29863,33.23137]]]},"properties":{"key":"412010710","name":"本庄町大字鹿子","pref":"佐賀県","prefCode":"41","municipality":"佐賀市","areaM2":2218731.982,"population":1058,"toponymIds":["41-7840327e96"]}},{"type":"Feature","geometry":{"type":"Polygon","coordinates":[[[130.29157,33.24983],[130.29117,33.24979],[130.29076,33.2521],[130.29283,33.25244],[130.29258,33.25323],[130.29344,33.25333],[130.29407,33.2501],[130.29157,33.24983]]]},"properties":{"key":"412010340","name":"川原町","pref":"佐賀県","prefCode":"41","municipality":"佐賀市","areaM2":80131.13,"population":179,"toponymIds":["41-8d32274a89"]}},{"type":"Feature","geometry":{"type":"Polygon","coordinates":[[[129.90115,33.4986],[129.90304,33.49878],[129.9039,33.49851],[129.90468,33.49759],[129.90468,33.49734],[129.90411,33.49664],[129.90419,33.49632],[129.90484,33.49576],[129.9046,33.49545],[129.90435,33.49421],[129.90428,33.49402],[129.90272,33.493],[129.90248,33.49251],[129.90253,33.49206],[129.90273,33.49166],[129.90428,33.49148],[129.90478,33.49152],[129.9054,33.49211],[129.90649,33.49186],[129.90669,33.49157],[129.9063,33.49091],[129.90615,33.49024],[129.90695,33.4893],[129.90648,33.48892],[129.9068,33.48839],[129.90769,33.48835],[129.90935,33.48761],[129.90996,33.48767],[129.91113,33.48794],[129.91205,33.48836],[129.91475,33.4886],[129.91515,33.4893],[129.91573,33.48982],[129.91643,33.48988],[129.91697,33.49025],[129.91767,33.49035],[129.91789,33.49069],[129.91922,33.4907],[129.9218,33.49014],[129.92284,33.49045],[129.92332,33.49137],[129.92453,33.49127],[129.92463,33.4838],[129.92077,33.48241],[129.92027,33.48186],[129.92072,33.48102],[129.92083,33.4799],[129.92083,33.47571],[129.92066,33.47422],[129.92021,33.47233],[129.91821,33.46618],[129.9144,33.46005],[129.91342,33.46029],[129.91323,33.46047],[129.91223,33.46061],[129.91152,33.46039],[129.91051,33.45969],[129.91046,33.45904],[129.90986,33.45845],[129.90926,33.45726],[129.90804,33.45718],[129.90773,33.45738],[129.90741,33.45802],[129.90644,33.4584],[129.90743,33.45958],[129.9072,33.46068],[129.90812,33.46125],[129.90916,33.46296],[129.9093,33.46402],[129.90875,33.4645],[129.90895,33.46498],[129.90901,33.46582],[129.90858,33.46616],[129.90863,33.46664],[129.90903,33.46729],[129.90695,33.46885],[129.90503,33.47106],[129.90442,33.47213],[129.9045,33.47407],[129.90366,33.47483],[129.90399,33.47533],[129.90399,33.47708],[129.90329,33.4774],[129.90303,33.47882],[129.90308,33.47904],[129.90383,33.47974],[129.90389,33.48003],[129.90378,33.48028],[129.90224,33.48076],[129.90186,33.48112],[129.9017,33.48147],[129.90179,33.48177],[129.90225,33.48207],[129.90254,33.48277],[129.90133,33.48339],[129.9016,33.48407],[129.90123,33.48445],[129.90141,33.48549],[129.90004,33.48547],[129.89819,33.48617],[129.89814,33.48682],[129.89746,33.48786],[129.89739,33.48943],[129.89723,33.4897],[129.89534,33.49052],[129.89483,33.49107],[129.8948,33.49128],[129.89583,33.49234],[129.89827,33.49442],[129.89828,33.49486],[129.89796,33.49584],[129.89838,33.4965],[129.8995,33.49714],[129.8991,33.4977],[129.89768,33.49788],[129.89765,33.49913],[129.89735,33.4997],[129.8975,33.50017],[129.89885,33.50018],[129.89893,33.49994],[129.89995,33.49936],[129.90012,33.49893],[129.90115,33.4986]]]},"properties":{"key":"412021000","name":"枝去木","pref":"佐賀県","prefCode":"41","municipality":"唐津市","areaM2":5650462.407,"population":440,"toponymIds":["41-fc2ad7bdda"]}},{"type":"Feature","geometry":{"type":"Polygon","coordinates":[[[129.95664,33.47618],[129.95802,33.47385],[129.95686,33.4726],[129.95828,33.47069],[129.95886,33.47065],[129.95992,33.47209],[129.95972,33.47219],[129.96002,33.47223],[129.95969,33.47239],[129.96005,33.47229],[129.96013,33.47244],[129.95982,33.4726],[129.96013,33.47251],[129.96029,33.473],[129.9613,33.473],[129.96095,33.47189],[129.95744,33.46778],[129.95658,33.46619],[129.95618,33.46641],[129.95626,33.46727],[129.95504,33.46761],[129.95479,33.46792],[129.95467,33.46775],[129.9544,33.46784],[129.95394,33.46851],[129.95381,33.46844],[129.95341,33.46898],[129.95317,33.46905],[129.95366,33.46925],[129.95357,33.4694],[129.95384,33.46938],[129.95315,33.47115],[129.95504,33.47101],[129.95506,33.47054],[129.95499,33.47095],[129.95418,33.47105],[129.95411,33.47066],[129.95439,33.47057],[129.9541,33.47061],[129.95399,33.46994],[129.95473,33.46953],[129.95519,33.46991],[129.95539,33.46975],[129.95543,33.46914],[129.95583,33.46878],[129.95597,33.46892],[129.9557,33.46998],[129.95617,33.47022],[129.95669,33.46953],[129.95731,33.46987],[129.95373,33.47464],[129.95483,33.47523],[129.95473,33.47534],[129.95485,33.47524],[129.95664,33.47618]]]},"properties":{"key":"412020810","name":"海岸通","pref":"佐賀県","prefCode":"41","municipality":"唐津市","areaM2":294606.783,"population":406,"toponymIds":["41-0030828535"]}},{"type":"Feature","geometry":{"type":"Polygon","coordinates":[[[129.96132,33.37943],[129.96377,33.37675],[129.96249,33.37524],[129.96112,33.37296],[129.96016,33.37248],[129.95945,33.37247],[129.96003,33.37148],[129.96024,33.37053],[129.9603,33.36963],[129.96,33.36849],[129.95904,33.36947],[129.95725,33.36957],[129.95498,33.37214],[129.95411,33.37253],[129.95463,33.37342],[129.95568,33.37449],[129.95601,33.37553],[129.95561,33.37615],[129.95447,33.37683],[129.95498,33.37742],[129.95622,33.37738],[129.95672,33.37712],[129.95795,33.37711],[129.95855,33.37727],[129.96048,33.37845],[129.96132,33.37943]]]},"properties":{"key":"41202169001","name":"北波多岸山","pref":"佐賀県","prefCode":"41","municipality":"唐津市","areaM2":532014.906,"population":104,"toponymIds":["41-286780d3d6"]}},{"type":"Feature","geometry":{"type":"Polygon","coordinates":[[[129.9641,33.44804],[129.96395,33.4478],[129.96121,33.44903],[129.96184,33.45017],[129.96448,33.44902],[129.9641,33.44804]]]},"properties":{"key":"412020570","name":"桜馬場","pref":"佐賀県","prefCode":"41","municipality":"唐津市","areaM2":39960.754,"population":271,"toponymIds":["41-75f6270a46"]}},{"type":"Feature","geometry":{"type":"Polygon","coordinates":[[[129.93682,33.42718],[129.93827,33.42606],[129.94101,33.4251],[129.94209,33.4243],[129.94228,33.42361],[129.94188,33.42235],[129.93968,33.42064],[129.93905,33.42071],[129.9388,33.4213],[129.93827,33.42111],[129.93893,33.42051],[129.93911,33.42007],[129.93939,33.41992],[129.93917,33.41962],[129.93927,33.41942],[129.93879,33.41866],[129.9386,33.41742],[129.93814,33.41616],[129.93702,33.41592],[129.93561,33.41531],[129.93546,33.41403],[129.93591,33.41279],[129.93564,33.41146],[129.93481,33.41022],[129.9332,33.41],[129.93306,33.4114],[129.93266,33.41175],[129.93198,33.4118],[129.93169,33.41203],[129.93177,33.41294],[129.93147,33.41324],[129.9314,33.41375],[129.9308,33.41378],[129.93033,33.41455],[129.92929,33.41532],[129.92878,33.41686],[129.92837,33.41706],[129.92679,33.41721],[129.92462,33.41823],[129.92446,33.4189],[129.92403,33.41899],[129.92441,33.41934],[129.92627,33.42038],[129.92729,33.42156],[129.92884,33.42204],[129.93044,33.42205],[129.93112,33.42227],[129.93428,33.42451],[129.93498,33.42569],[129.93509,33.42691],[129.93682,33.42718]]]},"properties":{"key":"412020890","name":"菅牟田","pref":"佐賀県","prefCode":"41","municipality":"唐津市","areaM2":1412049.427,"population":119,"toponymIds":["41-ec0b65b764"]}},{"type":"Feature","geometry":{"type":"Polygon","coordinates":[[[129.90478,33.49947],[129.90519,33.49873],[129.90636,33.49743],[129.90592,33.49667],[129.90613,33.49509],[129.90625,33.49502],[129.90667,33.49626],[129.90673,33.49704],[129.90707,33.49734],[129.90841,33.4968],[129.909,33.49618],[129.91022,33.49556],[129.9104,33.4951],[129.91075,33.49504],[129.91105,33.49514],[129.91181,33.4968],[129.91228,33.4963],[129.9122,33.49609],[129.91263,33.49591],[129.913,33.49523],[129.91291,33.49494],[129.91327,33.49431],[129.91288,33.49405],[129.91294,33.49392],[129.9137,33.49433],[129.91469,33.49393],[129.91608,33.49419],[129.9167,33.49392],[129.91668,33.49355],[129.91711,33.49238],[129.91644,33.49113],[129.91589,33.4908],[129.91616,33.4905],[129.91615,33.48989],[129.91573,33.48982],[129.91515,33.4893],[129.91475,33.4886],[129.91205,33.48836],[129.91113,33.48794],[129.90935,33.48761],[129.90769,33.48835],[129.9068,33.48839],[129.90648,33.48873],[129.90648,33.48892],[129.90695,33.4893],[129.90615,33.49024],[129.9063,33.49091],[129.90669,33.49157],[129.90643,33.49191],[129.9054,33.49211],[129.90478,33.49152],[129.90428,33.49148],[129.90273,33.49166],[129.90248,33.49251],[129.90272,33.493],[129.90428,33.49402],[129.9046,33.49545],[129.90481,33.49558],[129.90484,33.49576],[129.90419,33.49632],[129.90411,33.49664],[129.90468,33.49734],[129.90468,33.49759],[129.9039,33.49851],[129.90304,33.49878],[129.90156,33.4986],[129.90048,33.49876],[129.90012,33.49893],[129.89995,33.49936],[129.89889,33.50006],[129.89958,33.50126],[129.89956,33.50193],[129.90021,33.50204],[129.90037,33.5016],[129.90079,33.50137],[129.90129,33.50141],[129.90179,33.50175],[129.90217,33.50174],[129.90251,33.50168],[129.90295,33.5012],[129.90372,33.50101],[129.9045,33.50047],[129.90476,33.49994],[129.90478,33.49947]]]},"properties":{"key":"412022100","name":"鎮西町加倉","pref":"佐賀県","prefCode":"41","municipality":"唐津市","areaM2":1042301.873,"population":106,"toponymIds":["41-8968385e5e"]}},{"type":"Feature","geometry":{"type":"Polygon","coordinates":[[[129.92272,33.51743],[129.92404,33.51755],[129.92409,33.5172],[129.92366,33.51634],[129.92376,33.51596],[129.92414,33.5162],[129.92572,33.51609],[129.92797,33.51531],[129.92865,33.51445],[129.92961,33.51358],[129.93026,33.51243],[129.93021,33.51222],[129.9297,33.51195],[129.9273,33.51109],[129.92649,33.51122],[129.92561,33.51084],[129.92499,33.5111],[129.92464,33.51103],[129.92467,33.51028],[129.92539,33.5098],[129.92552,33.50908],[129.92639,33.50874],[129.92655,33.50815],[129.92608,33.50772],[129.92601,33.50742],[129.92539,33.50664],[129.92551,33.5054],[129.92491,33.50533],[129.92452,33.50455],[129.92397,33.50418],[129.92372,33.50089],[129.92198,33.5008],[129.91921,33.50131],[129.91886,33.50152],[129.91777,33.50288],[129.91693,33.5034],[129.91604,33.50434],[129.91506,33.50482],[129.91425,33.50552],[129.91409,33.50603],[129.91403,33.50772],[129.91271,33.51083],[129.91308,33.5107],[129.91347,33.51135],[129.91411,33.51146],[129.91466,33.51207],[129.91459,33.51239],[129.91417,33.51276],[129.9139,33.51363],[129.91425,33.5141],[129.91424,33.51432],[129.91366,33.51463],[129.91584,33.51571],[129.91704,33.51513],[129.91746,33.51508],[129.91918,33.51571],[129.92028,33.51536],[129.92054,33.51513],[129.92069,33.51535],[129.92084,33.51664],[129.92063,33.5171],[129.9198,33.51738],[129.91968,33.51777],[129.9205,33.51858],[129.92272,33.51743]]]},"properties":{"key":"412022060","name":"鎮西町菖蒲","pref":"佐賀県","prefCode":"41","municipality":"唐津市","areaM2":1787435.037,"population":175,"toponymIds":["41-9e4b094a7e"]}},{"type":"Feature","geometry":{"type":"Polygon","coordinates":[[[129.84566,33.45491],[129.84601,33.45492],[129.84615,33.45461],[129.84641,33.4545],[129.84643,33.45404],[129.84679,33.45366],[129.84723,33.45378],[129.84744,33.4532],[129.84775,33.45356],[129.84806,33.45359],[129.84821,33.45378],[129.84808,33.45412],[129.84864,33.45388],[129.84858,33.45348],[129.84816,33.4532],[129.84811,33.45292],[129.84788,33.45289],[129.84769,33.45263],[129.84732,33.45284],[129.84711,33.4526],[129.84746,33.45224],[129.84719,33.45175],[129.84609,33.45204],[129.84624,33.45244],[129.84588,33.4528],[129.84537,33.45282],[129.84548,33.45306],[129.8458,33.45313],[129.84592,33.45345],[129.84648,33.45283],[129.84664,33.45304],[129.84652,33.45352],[129.84583,33.45461],[129.84559,33.45462],[129.84524,33.45434],[129.84506,33.45445],[129.84545,33.45499],[129.84566,33.45491]]]},"properties":{"key":"412021860","name":"肥前町梅崎","pref":"佐賀県","prefCode":"41","municipality":"唐津市","areaM2":39174.179,"population":0,"toponymIds":["41-5146348f21"]}},{"type":"Feature","geometry":{"type":"Polygon","coordinates":[[[130.49391,33.3795],[130.49414,33.37915],[130.49477,33.37904],[130.49523,33.3793],[130.49665,33.37934],[130.49697,33.37817],[130.49314,33.37768],[130.49149,33.3781],[130.49302,33.37984],[130.49329,33.37947],[130.4934,33.37994],[130.49366,33.37993],[130.49391,33.3795]]]},"properties":{"key":"41203044101","name":"蔵上一丁目","pref":"佐賀県","prefCode":"41","municipality":"鳥栖市","areaM2":71622.722,"population":669,"toponymIds":["41-d5fe13be9a"]}},{"type":"Feature","geometry":{"type":"Polygon","coordinates":[[[130.49801,33.37857],[130.49891,33.37864],[130.49878,33.37509],[130.49826,33.37528],[130.49575,33.37531],[130.49425,33.37565],[130.49405,33.37621],[130.49425,33.377],[130.49408,33.37779],[130.49697,33.37817],[130.49785,33.37876],[130.49801,33.37857]]]},"properties":{"key":"412030442","name":"蔵上町","pref":"佐賀県","prefCode":"41","municipality":"鳥栖市","areaM2":141504.71,"population":373,"toponymIds":["41-15aee4e7c7"]}},{"type":"Feature","geometry":{"type":"Polygon","coordinates":[[[130.49112,33.4116],[130.49167,33.4116],[130.49238,33.41122],[130.49273,33.40982],[130.49455,33.40905],[130.49457,33.4087],[130.49522,33.40814],[130.49583,33.40825],[130.49638,33.40807],[130.49665,33.40849],[130.49681,33.40849],[130.49744,33.40753],[130.49882,33.40621],[130.4993,33.40626],[130.49944,33.40606],[130.50022,33.40576],[130.50143,33.40551],[130.5023,33.40398],[130.50252,33.40303],[130.50365,33.40273],[130.50445,33.40225],[130.50455,33.40196],[130.50434,33.40208],[130.50437,33.40152],[130.50384,33.4009],[130.50457,33.40049],[130.50514,33.40053],[130.50565,33.39991],[130.50628,33.39967],[130.50737,33.39979],[130.50839,33.39863],[130.51186,33.39799],[130.5135,33.39653],[130.51277,33.39616],[130.51317,33.39525],[130.51465,33.3953],[130.5158,33.39277],[130.51593,33.39262],[130.51673,33.39258],[130.51698,33.39229],[130.51724,33.39177],[130.50954,33.38287],[130.50902,33.3832],[130.50844,33.38445],[130.50764,33.38525],[130.50827,33.38527],[130.50805,33.38644],[130.50817,33.38751],[130.50941,33.38748],[130.50945,33.38721],[130.51032,33.38727],[130.50893,33.3887],[130.50536,33.38831],[130.50491,33.39038],[130.50454,33.39081],[130.50471,33.39178],[130.50462,33.39241],[130.50422,33.3928],[130.50348,33.39282],[130.50318,33.39267],[130.50309,33.39238],[130.50285,33.39234],[130.50262,33.39271],[130.50193,33.39247],[130.5013,33.39287],[130.50054,33.39241],[130.49988,33.39311],[130.49968,33.39306],[130.49849,33.3939],[130.49832,33.39423],[130.49437,33.39281],[130.49237,33.39588],[130.49189,33.39601],[130.49196,33.39631],[130.49183,33.39648],[130.49116,33.39663],[130.49048,33.39704],[130.49044,33.3977],[130.49103,33.39768],[130.49096,33.39825],[130.49455,33.3983],[130.49456,33.3991],[130.49356,33.39914],[130.49336,33.39877],[130.49272,33.39895],[130.49193,33.39968],[130.49171,33.40091],[130.49077,33.40201],[130.49012,33.40241],[130.48938,33.40216],[130.48887,33.40225],[130.4884,33.40292],[130.48786,33.40309],[130.48781,33.40345],[130.48686,33.40419],[130.48688,33.40517],[130.48599,33.4052],[130.48541,33.40575],[130.48484,33.40564],[130.4844,33.40621],[130.48339,33.40693],[130.48433,33.40695],[130.48619,33.4066],[130.48666,33.40597],[130.48716,33.40611],[130.48741,33.4064],[130.48811,33.40631],[130.48827,33.40569],[130.48895,33.40588],[130.4892,33.40736],[130.48881,33.40765],[130.48891,33.40793],[130.48878,33.40826],[130.48946,33.4087],[130.48947,33.40922],[130.48989,33.40925],[130.4903,33.41022],[130.49019,33.41043],[130.49051,33.41098],[130.49111,33.41121],[130.49112,33.4116]],[[130.51169,33.39409],[130.51096,33.39364],[130.51116,33.39319],[130.51107,33.39096],[130.51118,33.39072],[130.51353,33.39052],[130.51495,33.39063],[130.51527,33.39029],[130.51628,33.39148],[130.51629,33.39178],[130.51608,33.39208],[130.51553,33.39245],[130.51502,33.39259],[130.51447,33.39243],[130.51404,33.3934],[130.51384,33.39353],[130.51247,33.39358],[130.512,33.39405],[130.51169,33.39409]]]},"properties":{"key":"412030270","name":"神辺町","pref":"佐賀県","prefCode":"41","municipality":"鳥栖市","areaM2":3217129.297,"population":1581,"toponymIds":["41-fd19dd1fb5"]}},{"type":"Feature","geometry":{"type":"Polygon","coordinates":[[[130.51243,33.37111],[130.51244,33.37094],[130.51201,33.37101],[130.51201,33.37061],[130.51224,33.37063],[130.51219,33.37017],[130.51273,33.37022],[130.51295,33.36967],[130.51322,33.36967],[130.51325,33.36907],[130.51337,33.36903],[130.51327,33.36881],[130.51283,33.36886],[130.51257,33.36774],[130.51292,33.36759],[130.51219,33.36712],[130.51237,33.36682],[130.51256,33.36504],[130.51197,33.36511],[130.51174,33.36551],[130.51127,33.36571],[130.51097,33.36607],[130.51077,33.36732],[130.51084,33.3684],[130.51039,33.36844],[130.51032,33.36909],[130.51011,33.36923],[130.50827,33.36978],[130.50554,33.36984],[130.50635,33.37385],[130.50586,33.37411],[130.50577,33.37455],[130.50605,33.37598],[130.50534,33.37619],[130.5055,33.37679],[130.50704,33.37688],[130.50719,33.3776],[130.50764,33.3774],[130.50786,33.37648],[130.50822,33.37617],[130.50924,33.37442],[130.51044,33.37398],[130.51048,33.37329],[130.51099,33.37326],[130.51096,33.37283],[130.51121,33.37272],[130.51114,33.37255],[130.51151,33.37245],[130.51154,33.372],[130.51124,33.37177],[130.51236,33.37176],[130.51243,33.37111]]]},"properties":{"key":"412030020","name":"元町","pref":"佐賀県","prefCode":"41","municipality":"鳥栖市","areaM2":432048.666,"population":2341,"toponymIds":["41-d5727d2070"]}},{"type":"Feature","geometry":{"type":"Polygon","coordinates":[[[129.97105,33.28988],[129.97373,33.28649],[129.97482,33.28567],[129.97405,33.28372],[129.97417,33.28335],[129.97622,33.28199],[129.9763,33.28151],[129.977,33.28027],[129.9791,33.27819],[129.98158,33.27699],[129.97785,33.2764],[129.97487,33.27621],[129.96985,33.27471],[129.96822,33.27461],[129.9662,33.27471],[129.96458,33.27518],[129.96511,33.28004],[129.96562,33.28166],[129.96605,33.28234],[129.96763,33.28334],[129.96804,33.28396],[129.96798,33.28744],[129.96895,33.2903],[129.97072,33.29007],[129.97105,33.28988]]]},"properties":{"key":"41205008013","name":"大川町川原","pref":"佐賀県","prefCode":"41","municipality":"伊万里市","areaM2":1379028.358,"population":133,"toponymIds":["41-60a5cc2ab6"]}},{"type":"Feature","geometry":{"type":"Polygon","coordinates":[[[129.82262,33.28335],[129.82451,33.28265],[129.8243,33.28232],[129.82286,33.28175],[129.82326,33.28148],[129.82324,33.28105],[129.82382,33.28065],[129.8238,33.28035],[129.82342,33.28006],[129.82339,33.27984],[129.82541,33.28017],[129.82558,33.27949],[129.82516,33.27905],[129.82436,33.27725],[129.82413,33.27549],[129.82433,33.27462],[129.82432,33.27368],[129.82476,33.27295],[129.82246,33.27299],[129.82239,33.27237],[129.82308,33.27209],[129.82355,33.27113],[129.82356,33.27064],[129.82427,33.27108],[129.8258,33.2712],[129.82606,33.27134],[129.82614,33.27187],[129.82584,33.27232],[129.82605,33.27348],[129.82658,33.27364],[129.82689,33.27355],[129.82743,33.27266],[129.82915,33.27073],[129.82937,33.27027],[129.82976,33.26876],[129.82994,33.26726],[129.82982,33.2652],[129.8334,33.26332],[129.83555,33.25919],[129.83204,33.25879],[129.83051,33.2583],[129.82852,33.25671],[129.82529,33.25489],[129.82429,33.25473],[129.82301,33.25481],[129.82155,33.25195],[129.82097,33.25142],[129.81346,33.2497],[129.81244,33.24905],[129.81117,33.24774],[129.80971,33.24561],[129.80797,33.24429],[129.80709,33.24576],[129.80615,33.24651],[129.80497,33.24776],[129.80332,33.24873],[129.80315,33.2495],[129.80119,33.25048],[129.79975,33.25223],[129.79815,33.25346],[129.79628,33.25414],[129.7953,33.25511],[129.7921,33.25692],[129.79072,33.25749],[129.78934,33.25902],[129.78655,33.26162],[129.78567,33.26221],[129.78406,33.26381],[129.78403,33.26508],[129.78373,33.26544],[129.78142,33.26634],[129.77997,33.26736],[129.77616,33.27244],[129.77597,33.27394],[129.77461,33.27568],[129.77305,33.2787],[129.77454,33.27773],[129.77546,33.27753],[129.77755,33.27764],[129.77898,33.27756],[129.78078,33.27712],[129.78422,33.27713],[129.78554,33.2769],[129.79015,33.2754],[129.79063,33.27495],[129.79122,33.27395],[129.79188,33.26958],[129.79258,33.26913],[129.7927,33.26871],[129.79333,33.26824],[129.79641,33.26715],[129.79705,33.26663],[129.79739,33.26497],[129.79874,33.26194],[129.80032,33.25895],[129.80175,33.25711],[129.80272,33.25632],[129.80736,33.25515],[129.80912,33.25431],[129.81,33.2534],[129.81185,33.25299],[129.81277,33.25246],[129.81412,33.25198],[129.81615,33.25412],[129.81664,33.25517],[129.81675,33.25739],[129.81081,33.26816],[129.81212,33.26878],[129.81552,33.26853],[129.81668,33.26823],[129.81601,33.26991],[129.81567,33.2713],[129.81567,33.27279],[129.8154,33.27388],[129.81545,33.2749],[129.81504,33.27684],[129.81459,33.27834],[129.81394,33.27955],[129.81858,33.28164],[129.82043,33.28216],[129.82221,33.28346],[129.82262,33.28335]]]},"properties":{"key":"41205011009","name":"東山代町大久保","pref":"佐賀県","prefCode":"41","municipality":"伊万里市","areaM2":8183342.953,"population":347,"toponymIds":["41-b3ca75ddf1"]}},{"type":"Feature","geometry":{"type":"Polygon","coordinates":[[[129.83521,33.28234],[129.83485,33.28133],[129.83473,33.28016],[129.8332,33.27723],[129.83221,33.27664],[129.83174,33.27617],[129.83131,33.27527],[129.83025,33.27384],[129.82814,33.27268],[129.82743,33.27266],[129.82699,33.27328],[129.82653,33.27469],[129.8275,33.27642],[129.82808,33.27839],[129.82804,33.2793],[129.82782,33.27943],[129.82784,33.27974],[129.82811,33.28002],[129.82808,33.28057],[129.82749,33.28151],[129.82663,33.28118],[129.82611,33.28067],[129.82564,33.28068],[129.82573,33.2812],[129.82609,33.28145],[129.8266,33.28143],[129.82685,33.28187],[129.82725,33.2821],[129.82975,33.28225],[129.83222,33.28335],[129.83377,33.28331],[129.83529,33.28255],[129.83521,33.28234]]]},"properties":{"key":"41205011008","name":"東山代町東大久保","pref":"佐賀県","prefCode":"41","municipality":"伊万里市","areaM2":569529.648,"population":173,"toponymIds":["41-0c23abca81"]}},{"type":"Feature","geometry":{"type":"Polygon","coordinates":[[[129.95209,33.3158],[129.95179,33.31266],[129.95189,33.31092],[129.95237,33.30921],[129.95441,33.30525],[129.95455,33.30426],[129.95356,33.30398],[129.95083,33.30369],[129.95008,33.30345],[129.94951,33.30353],[129.94911,33.30326],[129.9486,33.30245],[129.94831,33.30125],[129.94789,33.30081],[129.94732,33.29946],[129.94626,33.29987],[129.94492,33.3001],[129.9438,33.3007],[129.94057,33.3012],[129.93921,33.30158],[129.938,33.30218],[129.93617,33.30359],[129.93323,33.30682],[129.93239,33.307],[129.93178,33.30689],[129.93076,33.30887],[129.93014,33.30964],[129.93069,33.30987],[129.93138,33.3113],[129.93171,33.31362],[129.93155,33.31526],[129.93075,33.31641],[129.9307,33.31656],[129.93085,33.31666],[129.93184,33.3168],[129.93203,33.31662],[129.93257,33.31653],[129.93472,33.31715],[129.93543,33.31721],[129.9382,33.31697],[129.94064,33.31654],[129.94234,33.31663],[129.94558,33.31784],[129.95038,33.3168],[129.95209,33.3158]]]},"properties":{"key":"41205007003","name":"南波多町大川原","pref":"佐賀県","prefCode":"41","municipality":"伊万里市","areaM2":3167155.944,"population":234,"toponymIds":["41-96e69316b8"]}},{"type":"Feature","geometry":{"type":"Polygon","coordinates":[[[129.95495,33.30232],[129.95548,33.30081],[129.95678,33.2988],[129.95736,33.29744],[129.95768,33.29642],[129.95774,33.29563],[129.9573,33.29451],[129.9567,33.2938],[129.95644,33.29321],[129.95641,33.29217],[129.95545,33.28879],[129.95482,33.28897],[129.95187,33.28896],[129.95066,33.28937],[129.94974,33.28927],[129.94829,33.28949],[129.94389,33.29066],[129.9443,33.29157],[129.94382,33.29225],[129.94387,33.29307],[129.94689,33.29774],[129.94727,33.29861],[129.94741,33.29971],[129.94789,33.30081],[129.94831,33.30125],[129.9486,33.30245],[129.94911,33.30326],[129.94951,33.30353],[129.95008,33.30345],[129.95083,33.30369],[129.95356,33.30398],[129.95455,33.30426],[129.95495,33.30232]]]},"properties":{"key":"41205007001","name":"南波多町古川","pref":"佐賀県","prefCode":"41","municipality":"伊万里市","areaM2":1510365.239,"population":88,"toponymIds":["41-b6f8a4d26e"]}},{"type":"Feature","geometry":{"type":"Polygon","coordinates":[[[129.78643,33.32256],[129.78629,33.32223],[129.78575,33.3219],[129.78234,33.32092],[129.78131,33.321],[129.78033,33.31983],[129.77965,33.31935],[129.77952,33.31816],[129.77896,33.31637],[129.77644,33.31367],[129.77483,33.31405],[129.77423,33.31435],[129.7763,33.31693],[129.77695,33.31835],[129.77622,33.32214],[129.77796,33.32499],[129.77842,33.32411],[129.77985,33.32256],[129.78119,33.32224],[129.78178,33.32181],[129.78197,33.32122],[129.78282,33.32192],[129.78318,33.32283],[129.78365,33.3231],[129.78583,33.3225],[129.78643,33.32256]]]},"properties":{"key":"41205012017","name":"山代町西大久保","pref":"佐賀県","prefCode":"41","municipality":"伊万里市","areaM2":395243.516,"population":69,"toponymIds":["41-3b3f7245af"]}},{"type":"Feature","geometry":{"type":"Polygon","coordinates":[[[130.05944,33.20574],[130.05987,33.20504],[130.06033,33.20277],[130.06107,33.20218],[130.06108,33.20202],[130.06033,33.20151],[130.06032,33.20114],[130.06105,33.20087],[130.062,33.19994],[130.06403,33.19862],[130.06328,33.19863],[130.06103,33.19752],[130.05936,33.19815],[130.05901,33.19812],[130.05825,33.19854],[130.05673,33.19767],[130.05661,33.19778],[130.0567,33.19832],[130.05628,33.19833],[130.0558,33.19882],[130.05542,33.19892],[130.05013,33.19765],[130.04966,33.19899],[130.04663,33.19758],[130.04493,33.20042],[130.04395,33.20161],[130.0446,33.20209],[130.04461,33.20249],[130.0471,33.20439],[130.04866,33.20291],[130.04954,33.20358],[130.05031,33.20288],[130.05088,33.20335],[130.05164,33.20266],[130.05382,33.20414],[130.05458,33.20407],[130.05476,33.2044],[130.05474,33.20475],[130.05393,33.20605],[130.05447,33.20614],[130.05453,33.20592],[130.05496,33.20604],[130.05668,33.20554],[130.05763,33.20646],[130.0578,33.20606],[130.05944,33.20574]]]},"properties":{"key":"412060060","name":"橘町大字芦原","pref":"佐賀県","prefCode":"41","municipality":"武雄市","areaM2":1033581.469,"population":159,"toponymIds":["41-c192a7b011"]}}]}
