{"type":"FeatureCollection","features":[{"type":"Feature","geometry":{"type":"Polygon","coordinates":[[[131.4253,31.90564],[131.42462,31.90399],[131.42266,31.90481],[131.42387,31.90623],[131.42412,31.90823],[131.42576,31.90813],[131.42573,31.90723],[131.4253,31.90564]]]},"properties":{"key":"452010250","name":"川原町","pref":"宮崎県","prefCode":"45","municipality":"宮崎市","areaM2":73632.737,"population":659,"toponymIds":["45-33a9867d54"]}},{"type":"Feature","geometry":{"type":"Polygon","coordinates":[[[131.41612,31.92216],[131.41612,31.92169],[131.41336,31.92232],[131.41358,31.9254],[131.41614,31.92521],[131.41612,31.92216]]]},"properties":{"key":"45201020001","name":"和知川原一丁目","pref":"宮崎県","prefCode":"45","municipality":"宮崎市","areaM2":92703.627,"population":946,"toponymIds":["45-9bcd7b9d1e"]}},{"type":"Feature","geometry":{"type":"Polygon","coordinates":[[[131.06194,31.69167],[131.06218,31.6905],[131.0686,31.69148],[131.06949,31.68741],[131.07164,31.68774],[131.07175,31.68715],[131.07191,31.68722],[131.0723,31.68629],[131.0727,31.68618],[131.07333,31.6863],[131.07351,31.6858],[131.07453,31.68546],[131.07482,31.68467],[131.07528,31.68403],[131.07522,31.68113],[131.07488,31.68039],[131.07641,31.67963],[131.07854,31.68044],[131.07835,31.67871],[131.0794,31.67842],[131.07981,31.67758],[131.08015,31.67743],[131.08045,31.67688],[131.08076,31.6768],[131.08106,31.67602],[131.08207,31.67542],[131.0818,31.67524],[131.08183,31.6749],[131.08332,31.67294],[131.08356,31.67238],[131.08296,31.67218],[131.08197,31.67042],[131.08172,31.6703],[131.08196,31.66973],[131.08191,31.66938],[131.07959,31.66926],[131.07917,31.66874],[131.07882,31.6691],[131.07819,31.66908],[131.07808,31.6689],[131.07837,31.66851],[131.07844,31.66809],[131.07784,31.66805],[131.0774,31.66829],[131.07717,31.66806],[131.07667,31.66823],[131.07636,31.6672],[131.07586,31.66729],[131.07582,31.66647],[131.07432,31.66692],[131.07415,31.66685],[131.07456,31.66622],[131.07433,31.66599],[131.07149,31.66576],[131.07161,31.66477],[131.07215,31.66366],[131.07442,31.66162],[131.07351,31.66174],[131.07343,31.66162],[131.07365,31.6613],[131.07539,31.66022],[131.07611,31.66005],[131.0743,31.65934],[131.07374,31.65887],[131.07202,31.65802],[131.07072,31.65581],[131.07061,31.6546],[131.06986,31.65181],[131.06916,31.65032],[131.06781,31.64904],[131.06714,31.64814],[131.06646,31.64824],[131.0659,31.64763],[131.06554,31.64763],[131.06542,31.64729],[131.06479,31.64682],[131.06426,31.64603],[131.06355,31.64556],[131.06276,31.64454],[131.0624,31.64368],[131.06197,31.64334],[131.06197,31.64285],[131.06113,31.64219],[131.06105,31.64177],[131.06073,31.64138],[131.06065,31.6407],[131.0603,31.64042],[131.05995,31.64039],[131.05969,31.6394],[131.05983,31.63933],[131.05982,31.63875],[131.05901,31.63799],[131.05873,31.63811],[131.05857,31.638],[131.05824,31.63828],[131.05804,31.63803],[131.05796,31.6374],[131.05728,31.63602],[131.05732,31.63547],[131.05758,31.63499],[131.05725,31.63425],[131.05612,31.63335],[131.05592,31.63354],[131.05439,31.63324],[131.05428,31.63375],[131.05398,31.63379],[131.05314,31.63504],[131.05235,31.63559],[131.05219,31.63594],[131.05205,31.63702],[131.05245,31.63807],[131.05248,31.6388],[131.05287,31.63975],[131.05229,31.64018],[131.05048,31.64028],[131.0498,31.64054],[131.04945,31.64029],[131.04927,31.6399],[131.04903,31.63991],[131.0478,31.64178],[131.04754,31.64185],[131.04757,31.64286],[131.04779,31.64297],[131.04798,31.64386],[131.04784,31.64443],[131.04805,31.64497],[131.04813,31.64755],[131.04747,31.64807],[131.04582,31.65289],[131.04436,31.65454],[131.04196,31.65655],[131.04032,31.6584],[131.03789,31.66038],[131.03708,31.66161],[131.03409,31.66195],[131.03067,31.66295],[131.02926,31.66409],[131.02887,31.66487],[131.02847,31.66526],[131.02545,31.66685],[131.0261,31.66733],[131.02692,31.66746],[131.02738,31.66788],[131.02727,31.66792],[131.02785,31.66856],[131.02722,31.66897],[131.02736,31.66924],[131.02935,31.67184],[131.03041,31.67355],[131.03074,31.67424],[131.03057,31.67495],[131.03131,31.67593],[131.03546,31.68676],[131.03726,31.6863],[131.03827,31.68991],[131.03779,31.69021],[131.03797,31.69065],[131.0398,31.69017],[131.04255,31.68916],[131.04294,31.68933],[131.04352,31.68906],[131.04481,31.68885],[131.04514,31.68898],[131.04498,31.68919],[131.04513,31.68943],[131.04559,31.6892],[131.04543,31.68905],[131.04594,31.68874],[131.04621,31.68904],[131.04678,31.68875],[131.04719,31.68931],[131.04781,31.6891],[131.05008,31.68972],[131.05039,31.69028],[131.05034,31.6905],[131.0506,31.69072],[131.05233,31.69044],[131.05263,31.69074],[131.05297,31.6908],[131.05327,31.69121],[131.05413,31.6905],[131.05526,31.69054],[131.05566,31.69035],[131.05593,31.69072],[131.05822,31.69078],[131.05858,31.69089],[131.05857,31.69101],[131.05804,31.69211],[131.06171,31.6927],[131.06194,31.69167]]]},"properties":{"key":"452020810","name":"梅北町","pref":"宮崎県","prefCode":"45","municipality":"都城市","areaM2":19070516.046,"population":3388,"toponymIds":["45-94b5e67499"]}},{"type":"Feature","geometry":{"type":"Polygon","coordinates":[[[131.06822,31.72387],[131.06901,31.72406],[131.06902,31.72331],[131.06857,31.72085],[131.06824,31.72039],[131.06814,31.72073],[131.06713,31.72095],[131.06578,31.72097],[131.06568,31.72061],[131.06375,31.72086],[131.06588,31.72524],[131.06719,31.72464],[131.06822,31.72387]]]},"properties":{"key":"452020090","name":"蔵原町","pref":"宮崎県","prefCode":"45","municipality":"都城市","areaM2":165757.871,"population":673,"toponymIds":["45-6b82a8e8a7"]}},{"type":"Feature","geometry":{"type":"Polygon","coordinates":[[[130.98166,31.88006],[130.9818,31.87993],[130.9832,31.88085],[130.9865,31.8814],[130.98743,31.88126],[130.98893,31.88137],[130.98961,31.88094],[130.99087,31.88112],[130.99138,31.88092],[130.99078,31.87991],[130.99107,31.87815],[130.99071,31.87727],[130.99036,31.87688],[130.98878,31.87644],[130.98805,31.87479],[130.98619,31.87507],[130.98601,31.87501],[130.98587,31.87465],[130.98583,31.87318],[130.98656,31.8718],[130.98662,31.87065],[130.9872,31.86913],[130.98702,31.86784],[130.98521,31.86645],[130.98474,31.86652],[130.98388,31.86628],[130.98368,31.86467],[130.98468,31.86277],[130.98553,31.86203],[130.98646,31.86164],[130.98734,31.86056],[130.98791,31.8602],[130.989,31.85786],[130.98925,31.85678],[130.98911,31.85621],[130.9861,31.85579],[130.98571,31.85521],[130.98469,31.85465],[130.98482,31.8541],[130.98462,31.8537],[130.98575,31.85236],[130.9855,31.8518],[130.98589,31.85038],[130.98636,31.84972],[130.98714,31.84916],[130.98721,31.84877],[130.98632,31.84815],[130.98575,31.84717],[130.98548,31.84602],[130.98557,31.84557],[130.98599,31.84506],[130.98581,31.84443],[130.98443,31.84306],[130.9836,31.84165],[130.98207,31.84069],[130.98294,31.83983],[130.9831,31.8379],[130.98324,31.83773],[130.98397,31.83759],[130.98439,31.83732],[130.98429,31.83697],[130.98478,31.8358],[130.98449,31.83513],[130.98502,31.83438],[130.98504,31.83384],[130.98563,31.83345],[130.98617,31.83256],[130.98673,31.83216],[130.98673,31.83135],[130.98708,31.83077],[130.98723,31.83006],[130.98824,31.82924],[130.98923,31.82891],[130.99032,31.82915],[130.99083,31.82907],[130.99122,31.82746],[130.99213,31.82589],[130.99387,31.82485],[130.99492,31.82316],[130.99462,31.82162],[130.99396,31.82061],[130.99508,31.82],[130.99509,31.81975],[130.99352,31.81898],[130.99114,31.8197],[130.99069,31.82003],[130.98999,31.81977],[130.9895,31.81979],[130.98873,31.82052],[130.98835,31.82113],[130.98785,31.82149],[130.98658,31.82191],[130.98607,31.82171],[130.98536,31.8218],[130.98495,31.82146],[130.98451,31.82133],[130.98348,31.82143],[130.98251,31.82052],[130.98148,31.82063],[130.98033,31.82119],[130.9797,31.82129],[130.97867,31.82191],[130.97842,31.8227],[130.97852,31.82299],[130.97792,31.82306],[130.97826,31.82327],[130.97822,31.82416],[130.97637,31.82466],[130.97621,31.82486],[130.97597,31.82458],[130.9753,31.82467],[130.97561,31.82495],[130.97529,31.8253],[130.97484,31.82549],[130.97409,31.82522],[130.97423,31.82577],[130.97313,31.82552],[130.97284,31.82623],[130.97253,31.82618],[130.97254,31.82538],[130.97226,31.82514],[130.97213,31.82516],[130.97151,31.82641],[130.97131,31.82634],[130.97123,31.82562],[130.97095,31.82549],[130.97091,31.82601],[130.97042,31.82659],[130.97013,31.82586],[130.96978,31.82596],[130.96969,31.82624],[130.96907,31.82629],[130.96885,31.82658],[130.96802,31.82631],[130.96774,31.82642],[130.96775,31.8269],[130.96697,31.8269],[130.96701,31.82718],[130.96736,31.82757],[130.96671,31.82767],[130.96571,31.82738],[130.96509,31.82763],[130.96464,31.82786],[130.96398,31.82861],[130.96327,31.82879],[130.96294,31.82909],[130.96261,31.82989],[130.96211,31.82982],[130.96152,31.8304],[130.95941,31.83117],[130.95941,31.83237],[130.95881,31.83255],[130.95893,31.83352],[130.9587,31.83372],[130.95838,31.8336],[130.95819,31.83384],[130.95837,31.8352],[130.95821,31.83543],[130.95776,31.83535],[130.95744,31.83557],[130.95746,31.83774],[130.95678,31.83939],[130.95703,31.83968],[130.95804,31.83964],[130.95869,31.84018],[130.95948,31.84032],[130.95959,31.84141],[130.95986,31.84137],[130.95994,31.84154],[130.95943,31.84252],[130.95892,31.84274],[130.95706,31.84314],[130.95508,31.84313],[130.95431,31.84335],[130.95427,31.84358],[130.95469,31.8439],[130.95538,31.84408],[130.95536,31.84472],[130.95485,31.84494],[130.95451,31.84563],[130.95417,31.84585],[130.95396,31.8458],[130.95377,31.84533],[130.95355,31.84528],[130.95301,31.84598],[130.95253,31.84739],[130.95219,31.84759],[130.95161,31.84761],[130.95118,31.84861],[130.95125,31.84963],[130.9517,31.84948],[130.95292,31.85014],[130.95347,31.84995],[130.95439,31.84996],[130.95518,31.85044],[130.95622,31.85169],[130.95704,31.85218],[130.95742,31.85208],[130.95824,31.85243],[130.96076,31.85427],[130.96052,31.85446],[130.96115,31.85485],[130.96128,31.85549],[130.9603,31.85788],[130.95982,31.85818],[130.95776,31.85873],[130.95785,31.86026],[130.95754,31.86075],[130.95753,31.8616],[130.95698,31.86283],[130.95449,31.86292],[130.95533,31.86337],[130.95935,31.8644],[130.95936,31.86463],[130.95911,31.86485],[130.9576,31.8658],[130.95646,31.86631],[130.95769,31.86764],[130.95775,31.86893],[130.95737,31.86927],[130.95548,31.86965],[130.95596,31.86972],[130.95578,31.87039],[130.95545,31.87043],[130.95584,31.87065],[130.95569,31.87178],[130.95465,31.87171],[130.95451,31.87189],[130.95456,31.87253],[130.95431,31.87285],[130.95379,31.87305],[130.95312,31.87297],[130.95302,31.87337],[130.9517,31.87395],[130.95174,31.87438],[130.95242,31.87516],[130.95235,31.8756],[130.95185,31.87649],[130.95277,31.8766],[130.95289,31.87687],[130.95243,31.87706],[130.95174,31.87691],[130.95155,31.87714],[130.95092,31.87729],[130.95084,31.87833],[130.95019,31.87836],[130.94973,31.87792],[130.94959,31.87795],[130.94992,31.87863],[130.95017,31.87884],[130.95117,31.87902],[130.95153,31.87931],[130.95147,31.87953],[130.95074,31.87997],[130.95107,31.88044],[130.95118,31.881],[130.95169,31.8815],[130.95185,31.88194],[130.95177,31.8825],[130.95193,31.88326],[130.9516,31.88455],[130.95253,31.88523],[130.95275,31.886],[130.95336,31.88615],[130.95343,31.8864],[130.95306,31.88676],[130.9541,31.88788],[130.95543,31.88744],[130.95879,31.8869],[130.97741,31.88233],[130.97906,31.88216],[130.98027,31.88177],[130.98101,31.88126],[130.98166,31.88006]]]},"properties":{"key":"452020800","name":"夏尾町","pref":"宮崎県","prefCode":"45","municipality":"都城市","areaM2":19153149.82,"population":295,"toponymIds":["45-843f4136bf"]}},{"type":"Feature","geometry":{"type":"Polygon","coordinates":[[[131.61783,32.62005],[131.62031,32.61894],[131.62103,32.61826],[131.62197,32.61688],[131.62225,32.61673],[131.62382,32.61714],[131.6258,32.61712],[131.62865,32.61779],[131.62848,32.6157],[131.62798,32.61451],[131.6274,32.61221],[131.62746,32.61134],[131.62764,32.61107],[131.6284,32.61064],[131.63086,32.60998],[131.62967,32.60906],[131.62729,32.6052],[131.6264,32.60147],[131.62266,32.60039],[131.62183,32.59984],[131.62105,32.59962],[131.62045,32.59925],[131.61861,32.59898],[131.61734,32.59903],[131.61597,32.59888],[131.61537,32.59837],[131.6147,32.59693],[131.61364,32.59651],[131.61187,32.59662],[131.61007,32.59772],[131.60893,32.59778],[131.60854,32.59807],[131.60768,32.59892],[131.60748,32.60031],[131.60693,32.60115],[131.60669,32.60188],[131.60597,32.60251],[131.60556,32.60332],[131.60492,32.60358],[131.60288,32.6054],[131.60208,32.60501],[131.60148,32.6065],[131.59777,32.60766],[131.59361,32.60842],[131.59265,32.60892],[131.59318,32.61056],[131.59481,32.61279],[131.59481,32.61337],[131.59542,32.61534],[131.59657,32.61736],[131.59633,32.61779],[131.59264,32.62055],[131.59079,32.62353],[131.59018,32.62482],[131.58911,32.62634],[131.58826,32.62887],[131.58773,32.62951],[131.59069,32.63056],[131.5982,32.63131],[131.60083,32.63216],[131.60126,32.63104],[131.60351,32.62821],[131.60506,32.62672],[131.60809,32.62434],[131.61124,32.62154],[131.61292,32.62083],[131.61783,32.62005]]]},"properties":{"key":"452030370","name":"鹿狩瀬町","pref":"宮崎県","prefCode":"45","municipality":"延岡市","areaM2":8129845.815,"population":175,"toponymIds":["45-54e73e8bf2"]}},{"type":"Feature","geometry":{"type":"Polygon","coordinates":[[[131.71231,32.63493],[131.71166,32.63443],[131.71174,32.63408],[131.71157,32.63321],[131.7111,32.63194],[131.70981,32.63136],[131.70889,32.63113],[131.70769,32.63112],[131.7061,32.63016],[131.70548,32.63004],[131.70512,32.62942],[131.7046,32.62894],[131.70265,32.62815],[131.70199,32.62805],[131.70101,32.62832],[131.70006,32.62819],[131.69918,32.62847],[131.69872,32.6277],[131.69631,32.62576],[131.69605,32.62525],[131.69401,32.62415],[131.69302,32.62503],[131.69412,32.62579],[131.69531,32.62703],[131.6965,32.62945],[131.69674,32.6305],[131.6968,32.6333],[131.69628,32.63408],[131.69777,32.63423],[131.69897,32.63556],[131.70001,32.63601],[131.7018,32.63728],[131.70258,32.63748],[131.70561,32.63759],[131.70927,32.63744],[131.70998,32.6377],[131.71056,32.63717],[131.71166,32.63655],[131.71177,32.63555],[131.71231,32.63493]]]},"properties":{"key":"452030880","name":"鹿小路","pref":"宮崎県","prefCode":"45","municipality":"延岡市","areaM2":1234961.418,"population":101,"toponymIds":["45-a4448bfe83"]}},{"type":"Feature","geometry":{"type":"Polygon","coordinates":[[[131.6826,32.58949],[131.68185,32.58933],[131.68194,32.58904],[131.68223,32.58897],[131.68244,32.5887],[131.68077,32.58825],[131.68033,32.5882],[131.67972,32.58881],[131.67931,32.5895],[131.67636,32.58855],[131.67599,32.58941],[131.67593,32.59014],[131.67713,32.59627],[131.67907,32.59527],[131.67914,32.59478],[131.67994,32.59371],[131.68082,32.59308],[131.68179,32.59297],[131.68329,32.59099],[131.68508,32.5903],[131.6826,32.58949]]]},"properties":{"key":"452030210","name":"川原崎町","pref":"宮崎県","prefCode":"45","municipality":"延岡市","areaM2":383152.373,"population":1251,"toponymIds":["45-c3a097b135"]}},{"type":"Feature","geometry":{"type":"Polygon","coordinates":[[[131.6727,32.59323],[131.67272,32.59311],[131.67135,32.59315],[131.67219,32.59431],[131.6727,32.59323]]]},"properties":{"key":"45203032001","name":"中川原町一丁目","pref":"宮崎県","prefCode":"45","municipality":"延岡市","areaM2":9793.692,"population":67,"toponymIds":["45-59826d40c7"]}},{"type":"Feature","geometry":{"type":"Polygon","coordinates":[[[131.66789,32.60871],[131.66903,32.60878],[131.67087,32.60934],[131.6711,32.6087],[131.67207,32.60924],[131.67294,32.60663],[131.6731,32.60541],[131.67428,32.60374],[131.67368,32.60303],[131.66511,32.60268],[131.66516,32.60348],[131.66674,32.60359],[131.66637,32.60973],[131.66758,32.60954],[131.66753,32.60892],[131.66789,32.60871]]]},"properties":{"key":"452030940","name":"夏田町","pref":"宮崎県","prefCode":"45","municipality":"延岡市","areaM2":436192.919,"population":608,"toponymIds":["45-397027da99"]}},{"type":"Feature","geometry":{"type":"Polygon","coordinates":[[[131.66994,32.58126],[131.6694,32.58115],[131.66933,32.58132],[131.6693,32.5831],[131.67057,32.583],[131.67052,32.5815],[131.67023,32.58149],[131.66994,32.58126]]]},"properties":{"key":"45203012001","name":"船倉町一丁目","pref":"宮崎県","prefCode":"45","municipality":"延岡市","areaM2":22356.516,"population":114,"toponymIds":["45-04c59b2b03"]}},{"type":"Feature","geometry":{"type":"Polygon","coordinates":[[[131.65499,32.59376],[131.65547,32.59234],[131.65463,32.59045],[131.6544,32.58932],[131.65441,32.58847],[131.65678,32.58815],[131.65575,32.58562],[131.65511,32.58342],[131.65315,32.58404],[131.65183,32.58482],[131.64982,32.58542],[131.64764,32.58537],[131.64623,32.58499],[131.64572,32.586],[131.64526,32.5863],[131.64156,32.58688],[131.6418,32.58785],[131.6422,32.58776],[131.64226,32.5881],[131.64185,32.5887],[131.64248,32.58931],[131.64257,32.59028],[131.64408,32.59098],[131.64497,32.5909],[131.6452,32.59127],[131.64627,32.59184],[131.64728,32.59202],[131.64758,32.59232],[131.64751,32.59307],[131.64807,32.59366],[131.64919,32.59408],[131.64989,32.5939],[131.65044,32.59397],[131.65116,32.59345],[131.65187,32.59329],[131.65372,32.59335],[131.65454,32.5941],[131.65465,32.59461],[131.65499,32.59376]]]},"properties":{"key":"452030280","name":"古川町","pref":"宮崎県","prefCode":"45","municipality":"延岡市","areaM2":1016365.508,"population":858,"toponymIds":["45-5e26b8cde0"]}},{"type":"Feature","geometry":{"type":"Polygon","coordinates":[[[131.68592,32.61756],[131.68948,32.61273],[131.6888,32.61186],[131.68894,32.61107],[131.68821,32.60916],[131.68754,32.60471],[131.68537,32.60507],[131.68387,32.60463],[131.68434,32.60791],[131.68321,32.60802],[131.68336,32.60977],[131.68289,32.61021],[131.6833,32.61027],[131.68325,32.61064],[131.68277,32.61208],[131.6818,32.61392],[131.68173,32.61495],[131.68216,32.61598],[131.68315,32.61755],[131.68332,32.61725],[131.68592,32.61756]]]},"properties":{"key":"45203080001","name":"無鹿町一丁目","pref":"宮崎県","prefCode":"45","municipality":"延岡市","areaM2":665705.33,"population":590,"toponymIds":["45-a2eb0a98c4"]}},{"type":"Feature","geometry":{"type":"Polygon","coordinates":[[[131.40946,31.59034],[131.40912,31.58933],[131.40912,31.58838],[131.40802,31.58842],[131.40799,31.58821],[131.40729,31.58824],[131.40735,31.5878],[131.40772,31.58709],[131.40574,31.58657],[131.4053,31.58771],[131.40539,31.58862],[131.40499,31.58876],[131.40655,31.58956],[131.40774,31.59053],[131.40872,31.59021],[131.40896,31.59037],[131.40919,31.59095],[131.40947,31.591],[131.40961,31.59085],[131.40946,31.59034]]]},"properties":{"key":"45204020101","name":"梅ヶ浜一丁目","pref":"宮崎県","prefCode":"45","municipality":"日南市","areaM2":100841.528,"population":284,"toponymIds":["45-362a934fca"]}},{"type":"Feature","geometry":{"type":"Polygon","coordinates":[[[131.35998,31.626],[131.35924,31.62586],[131.35977,31.62787],[131.3602,31.62884],[131.36043,31.62917],[131.36254,31.63013],[131.3642,31.63043],[131.36563,31.63042],[131.36765,31.62984],[131.36832,31.62929],[131.36318,31.62804],[131.36178,31.62737],[131.35998,31.626]]]},"properties":{"key":"45204008001","name":"星倉一丁目","pref":"宮崎県","prefCode":"45","municipality":"日南市","areaM2":177551.173,"population":269,"toponymIds":["45-d5f4e2649e"]}},{"type":"Feature","geometry":{"type":"Polygon","coordinates":[[[131.385,32.09041],[131.38615,32.09052],[131.38761,32.09018],[131.38881,32.09018],[131.39327,32.09075],[131.39603,32.09005],[131.39643,32.08921],[131.3986,32.08686],[131.40073,32.08522],[131.40105,32.08403],[131.40114,32.08277],[131.40039,32.07903],[131.40005,32.0782],[131.39924,32.07765],[131.39767,32.07725],[131.39617,32.07597],[131.39607,32.07558],[131.39616,32.07496],[131.39658,32.07451],[131.39932,32.07313],[131.39974,32.07269],[131.40023,32.07109],[131.40025,32.06814],[131.40008,32.06629],[131.40052,32.06573],[131.40093,32.06563],[131.40224,32.06557],[131.40297,32.0657],[131.40301,32.06423],[131.40219,32.063],[131.40246,32.06194],[131.40221,32.06115],[131.40152,32.06033],[131.40109,32.06017],[131.40093,32.05932],[131.40108,32.05886],[131.40068,32.05782],[131.40016,32.05774],[131.39958,32.05714],[131.39952,32.05679],[131.39967,32.05656],[131.39931,32.05567],[131.39851,32.05517],[131.39663,32.05303],[131.39569,32.0531],[131.3947,32.05272],[131.39436,32.05328],[131.39348,32.05366],[131.39331,32.0544],[131.392,32.05462],[131.39207,32.05494],[131.39133,32.05522],[131.39091,32.05572],[131.38901,32.05637],[131.38828,32.05606],[131.38638,32.05587],[131.38315,32.05522],[131.38305,32.05496],[131.38246,32.05464],[131.38259,32.05431],[131.38239,32.05332],[131.38165,32.05373],[131.38161,32.05393],[131.38132,32.05353],[131.38148,32.05313],[131.38125,32.05286],[131.3814,32.05262],[131.38077,32.05238],[131.37991,32.05259],[131.37876,32.05216],[131.37849,32.05233],[131.3775,32.05237],[131.37629,32.05211],[131.3757,32.05263],[131.37541,32.05356],[131.375,32.05413],[131.37606,32.05559],[131.3764,32.05537],[131.37886,32.05585],[131.38023,32.05588],[131.38049,32.05593],[131.38044,32.05617],[131.38175,32.05645],[131.3816,32.05728],[131.37791,32.05656],[131.37764,32.05664],[131.3776,32.05651],[131.37647,32.05624],[131.37594,32.05582],[131.3754,32.05597],[131.37487,32.05624],[131.37463,32.05684],[131.37385,32.05708],[131.3741,32.05795],[131.37473,32.05904],[131.3731,32.05974],[131.37289,32.05965],[131.37256,32.05978],[131.37208,32.05961],[131.37158,32.06006],[131.37162,32.0612],[131.37203,32.06192],[131.37318,32.06235],[131.37351,32.06298],[131.37378,32.0642],[131.37203,32.06594],[131.37321,32.06625],[131.37514,32.0672],[131.37581,32.07119],[131.37555,32.0725],[131.37509,32.07277],[131.37489,32.07368],[131.37499,32.07435],[131.37535,32.07493],[131.37527,32.07596],[131.37194,32.07981],[131.37148,32.08075],[131.37133,32.08177],[131.3713,32.08479],[131.37164,32.08611],[131.37268,32.08664],[131.37319,32.08659],[131.37531,32.0858],[131.37814,32.08525],[131.37966,32.09185],[131.38132,32.09224],[131.38216,32.09214],[131.38265,32.09193],[131.38375,32.0909],[131.385,32.09041]]]},"properties":{"key":"452080270","name":"大字鹿野田","pref":"宮崎県","prefCode":"45","municipality":"西都市","areaM2":9704109.63,"population":1392,"toponymIds":["45-0951c5a8ed"]}}]}
