{"type":"FeatureCollection","features":[{"type":"Feature","geometry":{"type":"Polygon","coordinates":[[[130.55374,31.58412],[130.55377,31.58388],[130.55248,31.58344],[130.55215,31.58383],[130.55134,31.58408],[130.54807,31.58403],[130.54706,31.58456],[130.54588,31.58622],[130.55096,31.5887],[130.55332,31.58535],[130.55374,31.58412]]]},"properties":{"key":"462011280","name":"加治屋町","pref":"鹿児島県","prefCode":"46","municipality":"鹿児島市","areaM2":250446.89,"population":2366,"toponymIds":["46-eea4116705"]}},{"type":"Feature","geometry":{"type":"Polygon","coordinates":[[[130.52608,31.37386],[130.52717,31.37402],[130.52893,31.3739],[130.52928,31.37377],[130.52848,31.37369],[130.52964,31.37324],[130.52992,31.3734],[130.53036,31.37325],[130.53026,31.37292],[130.52962,31.37254],[130.52914,31.37119],[130.52773,31.36828],[130.52809,31.36824],[130.52862,31.36776],[130.5292,31.36763],[130.52968,31.36721],[130.52968,31.367],[130.52888,31.36671],[130.52872,31.3665],[130.52815,31.36472],[130.52853,31.36461],[130.5288,31.36494],[130.52904,31.36499],[130.52928,31.36451],[130.52957,31.36467],[130.53048,31.36463],[130.53105,31.36451],[130.53147,31.36414],[130.52784,31.3621],[130.52782,31.36172],[130.52873,31.36003],[130.52823,31.35968],[130.52725,31.3598],[130.52692,31.35971],[130.52712,31.35926],[130.52617,31.35733],[130.52614,31.35664],[130.52632,31.35624],[130.52614,31.35576],[130.52633,31.35548],[130.52673,31.35536],[130.5273,31.35456],[130.52822,31.35389],[130.52847,31.35392],[130.52853,31.35365],[130.52921,31.35331],[130.53096,31.35377],[130.53142,31.35368],[130.53302,31.35382],[130.5339,31.35355],[130.53398,31.35317],[130.53291,31.35233],[130.52964,31.35054],[130.52917,31.35005],[130.52878,31.35046],[130.52846,31.35052],[130.52752,31.34992],[130.5273,31.34782],[130.52705,31.34746],[130.5269,31.34612],[130.52692,31.34566],[130.52745,31.34456],[130.52757,31.34367],[130.52739,31.34344],[130.52741,31.34283],[130.52595,31.34212],[130.52585,31.34177],[130.52518,31.34193],[130.52453,31.34168],[130.52443,31.34124],[130.52407,31.34119],[130.52398,31.34101],[130.52339,31.34113],[130.52313,31.3401],[130.52315,31.33932],[130.52235,31.33786],[130.52277,31.33681],[130.51908,31.33024],[130.51875,31.33076],[130.51791,31.33138],[130.51716,31.33161],[130.5154,31.33175],[130.51033,31.3304],[130.5097,31.33053],[130.50906,31.33042],[130.50847,31.33118],[130.50856,31.33189],[130.50751,31.33245],[130.50654,31.33255],[130.50423,31.33322],[130.50097,31.33364],[130.50056,31.33414],[130.50059,31.33485],[130.50112,31.33558],[130.50153,31.33705],[130.50138,31.33747],[130.50082,31.33806],[130.50062,31.33865],[130.49848,31.33902],[130.49698,31.33829],[130.49662,31.33826],[130.49528,31.33878],[130.49445,31.33939],[130.49308,31.34187],[130.49155,31.34289],[130.49115,31.34334],[130.49078,31.34468],[130.48977,31.34717],[130.48973,31.34884],[130.49007,31.35022],[130.49052,31.351],[130.49213,31.35286],[130.49384,31.35575],[130.49525,31.35927],[130.49634,31.35999],[130.49657,31.36059],[130.49691,31.36091],[130.49829,31.36136],[130.49864,31.36173],[130.49891,31.36243],[130.49971,31.36251],[130.50066,31.36289],[130.50179,31.36392],[130.50285,31.36438],[130.50425,31.36446],[130.50521,31.36483],[130.50611,31.36648],[130.50623,31.36811],[130.5065,31.36844],[130.51284,31.36843],[130.51346,31.36856],[130.51454,31.36918],[130.51485,31.36994],[130.5157,31.37077],[130.51573,31.37098],[130.51552,31.37114],[130.51565,31.37138],[130.51782,31.37201],[130.51827,31.37231],[130.51882,31.37298],[130.52024,31.37377],[130.5236,31.37351],[130.52392,31.37365],[130.52507,31.37369],[130.52544,31.37421],[130.52608,31.37386]]]},"properties":{"key":"462017220","name":"喜入一倉町","pref":"鹿児島県","prefCode":"46","municipality":"鹿児島市","areaM2":12437538.934,"population":389,"toponymIds":["46-41ff6fd83b"]}},{"type":"Feature","geometry":{"type":"Polygon","coordinates":[[[130.84624,31.33255],[130.84683,31.33253],[130.85046,31.3332],[130.85312,31.33382],[130.85159,31.33112],[130.85267,31.32916],[130.85348,31.32573],[130.85328,31.32523],[130.85346,31.32443],[130.85299,31.32389],[130.85344,31.32193],[130.85346,31.32118],[130.85375,31.32071],[130.85318,31.31935],[130.85285,31.31904],[130.85284,31.3186],[130.85328,31.3184],[130.85366,31.31787],[130.85383,31.31593],[130.85415,31.31528],[130.85413,31.31399],[130.8539,31.31356],[130.85417,31.31329],[130.85262,31.31397],[130.85038,31.31692],[130.84875,31.31844],[130.84677,31.31999],[130.8466,31.32031],[130.8465,31.31964],[130.84622,31.31924],[130.84266,31.31938],[130.8394,31.319],[130.83893,31.31864],[130.83932,31.31776],[130.83914,31.31748],[130.83903,31.31645],[130.83812,31.31693],[130.83745,31.31664],[130.83708,31.31692],[130.83656,31.31704],[130.83612,31.31669],[130.8357,31.31662],[130.83555,31.31735],[130.83528,31.31746],[130.83477,31.3169],[130.83473,31.31646],[130.83436,31.31634],[130.83409,31.31579],[130.83394,31.31576],[130.83318,31.31643],[130.8323,31.31623],[130.83221,31.31693],[130.83174,31.31749],[130.83124,31.31778],[130.83076,31.31906],[130.83173,31.32018],[130.83203,31.32034],[130.83213,31.3208],[130.83342,31.32257],[130.83363,31.32251],[130.83497,31.32291],[130.83501,31.32339],[130.83536,31.3235],[130.83455,31.32491],[130.83398,31.32549],[130.83581,31.32585],[130.83663,31.32574],[130.8366,31.32611],[130.83909,31.32792],[130.83955,31.32801],[130.84002,31.33401],[130.84128,31.33405],[130.84208,31.33462],[130.84253,31.3346],[130.84624,31.33255]]]},"properties":{"key":"462030430","name":"獅子目町","pref":"鹿児島県","prefCode":"46","municipality":"鹿屋市","areaM2":2838097.892,"population":244,"toponymIds":["46-ecea904ebf"]}},{"type":"Feature","geometry":{"type":"Polygon","coordinates":[[[130.29199,31.2859],[130.29192,31.28442],[130.29146,31.28342],[130.28993,31.28419],[130.2897,31.28478],[130.28874,31.28475],[130.2885,31.28448],[130.28752,31.2849],[130.28616,31.28439],[130.2841,31.2845],[130.28418,31.28513],[130.28446,31.2856],[130.28524,31.28619],[130.28623,31.28656],[130.28721,31.28809],[130.28524,31.2904],[130.2855,31.29119],[130.28735,31.29193],[130.28823,31.29207],[130.28889,31.29192],[130.28964,31.29152],[130.29087,31.29007],[130.29223,31.28765],[130.29228,31.28705],[130.29199,31.2859]]]},"properties":{"key":"462040550","name":"鹿篭麓町","pref":"鹿児島県","prefCode":"46","municipality":"枕崎市","areaM2":444804.539,"population":288,"toponymIds":["46-b9616e32e4"]}},{"type":"Feature","geometry":{"type":"Polygon","coordinates":[[[130.24652,31.30753],[130.24679,31.30752],[130.24706,31.3079],[130.24827,31.30821],[130.25101,31.30823],[130.25143,31.30798],[130.25183,31.30806],[130.25229,31.30737],[130.25271,31.30771],[130.25333,31.30756],[130.25373,31.30734],[130.25411,31.30669],[130.25551,31.30716],[130.25589,31.3062],[130.25628,31.3061],[130.25662,31.30627],[130.25687,31.30684],[130.25623,31.30687],[130.25601,31.3072],[130.25575,31.3072],[130.25569,31.30734],[130.25711,31.30756],[130.26065,31.30643],[130.26257,31.30607],[130.26415,31.30459],[130.26461,31.30373],[130.26415,31.30294],[130.26439,31.30177],[130.26499,31.30154],[130.2642,31.3006],[130.26484,31.30086],[130.2657,31.3015],[130.2663,31.30138],[130.26644,31.30184],[130.26699,31.30182],[130.26736,31.30208],[130.2674,31.30243],[130.26763,31.30245],[130.26852,31.30194],[130.26867,31.30159],[130.26968,31.30127],[130.2705,31.30181],[130.27152,31.30123],[130.27368,31.30068],[130.27395,31.30077],[130.27399,31.30057],[130.27375,31.3004],[130.27397,31.3003],[130.27421,31.30029],[130.27445,31.30068],[130.27476,31.30052],[130.27466,31.2997],[130.27486,31.29954],[130.2756,31.29984],[130.27668,31.29974],[130.27705,31.29938],[130.27719,31.29831],[130.27895,31.29809],[130.27954,31.29751],[130.27622,31.29774],[130.2758,31.29751],[130.27417,31.29737],[130.27431,31.29654],[130.27414,31.29587],[130.27512,31.29364],[130.27583,31.29349],[130.2773,31.29186],[130.27763,31.2918],[130.27781,31.29242],[130.27886,31.29291],[130.27936,31.29268],[130.27935,31.29226],[130.2797,31.29183],[130.27801,31.29062],[130.27819,31.29001],[130.27873,31.2901],[130.27888,31.28981],[130.27919,31.28983],[130.27904,31.2891],[130.27931,31.28851],[130.27907,31.28802],[130.27938,31.28748],[130.27806,31.287],[130.27729,31.28626],[130.27711,31.2852],[130.27753,31.28452],[130.27646,31.28455],[130.27544,31.28436],[130.27491,31.28403],[130.27421,31.28296],[130.27341,31.28227],[130.27161,31.28211],[130.27109,31.28222],[130.2705,31.28271],[130.26972,31.28421],[130.26896,31.2847],[130.26842,31.2847],[130.26788,31.28442],[130.26611,31.28229],[130.26572,31.28212],[130.26551,31.28228],[130.26518,31.28319],[130.26466,31.28363],[130.26391,31.28379],[130.26279,31.2837],[130.26097,31.28457],[130.26024,31.28511],[130.25888,31.28514],[130.25882,31.28524],[130.26055,31.28555],[130.26166,31.2867],[130.26264,31.28811],[130.26271,31.2886],[130.26334,31.28924],[130.26496,31.29223],[130.26541,31.29272],[130.26488,31.29306],[130.26382,31.29341],[130.26344,31.29439],[130.26085,31.29511],[130.25912,31.29586],[130.25817,31.29729],[130.25738,31.29793],[130.25724,31.29848],[130.25732,31.29908],[130.25667,31.29945],[130.25605,31.30016],[130.25525,31.3002],[130.25472,31.30044],[130.25406,31.30149],[130.25299,31.30214],[130.25189,31.30315],[130.24577,31.30456],[130.24458,31.30507],[130.24279,31.30501],[130.24267,31.30527],[130.24322,31.30735],[130.24417,31.30779],[130.24497,31.31016],[130.24661,31.31289],[130.24606,31.31029],[130.24597,31.30904],[130.2461,31.30843],[130.24601,31.30785],[130.24652,31.30753]]]},"properties":{"key":"462040380","name":"西鹿篭","pref":"鹿児島県","prefCode":"46","municipality":"枕崎市","areaM2":4117622.94,"population":0,"toponymIds":["46-8685b51de3"]}},{"type":"Feature","geometry":{"type":"Polygon","coordinates":[[[130.30687,31.33692],[130.30858,31.33688],[130.31052,31.33577],[130.31116,31.33574],[130.31148,31.33557],[130.31313,31.33401],[130.31339,31.33344],[130.31596,31.33042],[130.31657,31.32934],[130.31825,31.32946],[130.31906,31.32905],[130.32037,31.32896],[130.32118,31.32639],[130.32117,31.32599],[130.32072,31.32511],[130.32069,31.32455],[130.32141,31.32331],[130.32228,31.32237],[130.32499,31.3212],[130.32653,31.32008],[130.32666,31.31898],[130.32664,31.3175],[130.3265,31.31717],[130.32674,31.3167],[130.32758,31.3159],[130.32763,31.31564],[130.32695,31.31424],[130.32902,31.31329],[130.3293,31.3128],[130.32939,31.31198],[130.32994,31.31113],[130.33015,31.31002],[130.33075,31.30941],[130.33137,31.30676],[130.33146,31.30533],[130.33133,31.30388],[130.33168,31.30224],[130.33296,31.29945],[130.3343,31.29473],[130.33352,31.29463],[130.33194,31.29402],[130.33066,31.29375],[130.32936,31.29387],[130.32775,31.29359],[130.32501,31.29347],[130.32347,31.29325],[130.31918,31.29225],[130.31858,31.29199],[130.31791,31.2914],[130.31704,31.29006],[130.31502,31.28813],[130.31438,31.28702],[130.31371,31.2852],[130.31316,31.28438],[130.31313,31.28474],[130.31342,31.28554],[130.31283,31.285],[130.31242,31.28484],[130.31049,31.28482],[130.30934,31.28425],[130.3091,31.28424],[130.30758,31.28497],[130.30672,31.28403],[130.30636,31.28392],[130.30556,31.28403],[130.30489,31.28337],[130.30422,31.28313],[130.30468,31.28396],[130.30671,31.28575],[130.30702,31.28632],[130.30689,31.28876],[130.30783,31.28888],[130.30794,31.28939],[130.30857,31.29011],[130.30843,31.29122],[130.30912,31.29239],[130.30958,31.29372],[130.31018,31.29449],[130.31068,31.29485],[130.30901,31.29602],[130.30915,31.29643],[130.30895,31.29656],[130.31013,31.29868],[130.31159,31.30061],[130.31166,31.30096],[130.3121,31.30121],[130.31265,31.3012],[130.31276,31.30149],[130.31316,31.30178],[130.31418,31.3019],[130.31571,31.30158],[130.31644,31.30062],[130.31734,31.30054],[130.31806,31.30088],[130.31845,31.30086],[130.31868,31.30049],[130.31965,31.30007],[130.32109,31.30016],[130.32143,31.3],[130.32161,31.30016],[130.32213,31.30016],[130.32245,31.29989],[130.32265,31.30007],[130.32231,31.30063],[130.32154,31.30113],[130.32091,31.30122],[130.31955,31.30104],[130.31998,31.30153],[130.31986,31.30193],[130.32049,31.30318],[130.32055,31.30395],[130.32021,31.30395],[130.32014,31.3035],[130.31992,31.30342],[130.31865,31.304],[130.3189,31.30412],[130.31955,31.30402],[130.31887,31.30472],[130.31914,31.30497],[130.31973,31.30501],[130.31972,31.30552],[130.32008,31.30573],[130.32001,31.30633],[130.32037,31.3069],[130.32064,31.30696],[130.32064,31.30723],[130.32041,31.30728],[130.32034,31.30757],[130.31991,31.30765],[130.31995,31.30854],[130.31977,31.30837],[130.31943,31.30836],[130.31937,31.30798],[130.31872,31.3072],[130.31513,31.30719],[130.31359,31.30701],[130.31313,31.30656],[130.3128,31.30559],[130.312,31.30487],[130.31002,31.30587],[130.30446,31.30538],[130.3024,31.30395],[130.30235,31.30318],[130.30211,31.30248],[130.30099,31.30141],[130.29944,31.30114],[130.29688,31.29901],[130.29303,31.29853],[130.292,31.29683],[130.29098,31.29574],[130.29069,31.29583],[130.28912,31.29557],[130.28895,31.2965],[130.28791,31.29669],[130.28716,31.29786],[130.2862,31.29861],[130.28389,31.29862],[130.28255,31.29987],[130.28207,31.29946],[130.28232,31.29889],[130.28309,31.29799],[130.28284,31.29699],[130.28147,31.29923],[130.28153,31.30053],[130.28058,31.30107],[130.28012,31.30156],[130.27965,31.30425],[130.27933,31.30472],[130.27919,31.30528],[130.28056,31.3061],[130.282,31.30596],[130.28359,31.3063],[130.28487,31.3069],[130.28504,31.30741],[130.28599,31.30763],[130.28712,31.30834],[130.28784,31.30847],[130.28824,31.30838],[130.28846,31.30864],[130.28949,31.30864],[130.28973,31.30839],[130.29026,31.30825],[130.29085,31.30832],[130.29162,31.30875],[130.292,31.30916],[130.29241,31.30892],[130.29435,31.30949],[130.29514,31.30921],[130.29568,31.30921],[130.29649,31.30936],[130.29679,31.30962],[130.2967,31.31005],[130.29701,31.31056],[130.29561,31.31039],[130.29457,31.31139],[130.29528,31.31212],[130.29518,31.31247],[130.29442,31.31242],[130.2932,31.31345],[130.29258,31.31366],[130.29262,31.314],[130.29389,31.31541],[130.29176,31.31664],[130.29133,31.31743],[130.29128,31.31771],[130.29165,31.31759],[130.29165,31.31799],[130.29254,31.3177],[130.29262,31.31797],[130.29215,31.3191],[130.29166,31.31976],[130.29225,31.32],[130.29295,31.32064],[130.29304,31.32136],[130.29246,31.32148],[130.29171,31.32141],[130.29069,31.32096],[130.29098,31.32175],[130.29005,31.32139],[130.28911,31.32188],[130.28738,31.32018],[130.28659,31.31969],[130.28695,31.3181],[130.28659,31.31782],[130.28657,31.318],[130.28591,31.31848],[130.28509,31.31875],[130.28501,31.31945],[130.28342,31.31873],[130.28216,31.31957],[130.28009,31.31709],[130.2797,31.31726],[130.27944,31.31691],[130.27899,31.31684],[130.27812,31.31801],[130.27805,31.31777],[130.27859,31.316],[130.27845,31.31578],[130.27693,31.31621],[130.27554,31.31593],[130.27446,31.31622],[130.27362,31.31714],[130.27295,31.31862],[130.27423,31.31866],[130.27432,31.31979],[130.27558,31.32162],[130.27787,31.32387],[130.27831,31.32528],[130.2789,31.32556],[130.28,31.32539],[130.281,31.32554],[130.28166,31.32633],[130.2824,31.32673],[130.28273,31.32747],[130.28274,31.32866],[130.28435,31.33013],[130.28463,31.33102],[130.2863,31.33211],[130.28672,31.33216],[130.28833,31.33157],[130.28956,31.33177],[130.29047,31.33119],[130.29187,31.33095],[130.2925,31.33163],[130.29285,31.33261],[130.29333,31.33497],[130.29512,31.33627],[130.29788,31.33764],[130.29924,31.33871],[130.30106,31.33965],[130.3019,31.33976],[130.30274,31.3396],[130.30363,31.33894],[130.30405,31.3383],[130.30551,31.33806],[130.30687,31.33692]],[[130.30833,31.31842],[130.30845,31.31801],[130.30779,31.31767],[130.30746,31.31768],[130.30747,31.31787],[130.30708,31.31804],[130.30619,31.31821],[130.3058,31.31797],[130.30484,31.31805],[130.30445,31.31665],[130.30401,31.31624],[130.30364,31.31663],[130.30299,31.31669],[130.30285,31.31649],[130.30199,31.31653],[130.30153,31.31629],[130.30148,31.3161],[130.3017,31.31577],[130.30349,31.31417],[130.30238,31.31263],[130.30257,31.3116],[130.30224,31.30927],[130.30233,31.30843],[130.30259,31.30799],[130.3032,31.30739],[130.30414,31.30683],[130.30415,31.30757],[130.30511,31.30824],[130.30604,31.30931],[130.30689,31.30957],[130.30721,31.3101],[130.30806,31.31057],[130.30852,31.31074],[130.30914,31.31056],[130.30944,31.31065],[130.31071,31.30981],[130.31097,31.30983],[130.311,31.31009],[130.31154,31.31002],[130.31192,31.31044],[130.31201,31.31215],[130.31304,31.31236],[130.31302,31.31272],[130.31253,31.31332],[130.31276,31.3136],[130.31303,31.3146],[130.31231,31.3144],[130.31208,31.31475],[130.31125,31.31531],[130.31119,31.31649],[130.31145,31.31692],[130.31191,31.31721],[130.31166,31.31788],[130.31123,31.31825],[130.31136,31.31849],[130.31128,31.31905],[130.31169,31.32007],[130.31056,31.32035],[130.30988,31.31936],[130.30907,31.31909],[130.30833,31.31842]]]},"properties":{"key":"462040370","name":"東鹿篭","pref":"鹿児島県","prefCode":"46","municipality":"枕崎市","areaM2":15951642.991,"population":2,"toponymIds":["46-8fe59b506e"]}},{"type":"Feature","geometry":{"type":"Polygon","coordinates":[[[129.78498,31.79115],[129.78557,31.79126],[129.78547,31.79142],[129.78562,31.79145],[129.78595,31.79101],[129.78628,31.79088],[129.78636,31.79049],[129.78686,31.7904],[129.78707,31.79012],[129.78745,31.79027],[129.78896,31.78832],[129.78854,31.78756],[129.78837,31.78652],[129.78849,31.78604],[129.78917,31.78548],[129.78929,31.78514],[129.79046,31.78495],[129.79099,31.78433],[129.79144,31.78433],[129.79151,31.78409],[129.79214,31.784],[129.79251,31.78434],[129.79271,31.78426],[129.79283,31.78437],[129.79255,31.78456],[129.79256,31.78474],[129.79337,31.78488],[129.79335,31.78468],[129.79365,31.78437],[129.79482,31.78435],[129.79547,31.7841],[129.79592,31.78437],[129.79612,31.78417],[129.79683,31.78432],[129.79695,31.78447],[129.79683,31.78471],[129.79779,31.78496],[129.79798,31.78529],[129.79821,31.78524],[129.79845,31.78479],[129.79915,31.78526],[129.79963,31.78524],[129.79987,31.78569],[129.8006,31.78549],[129.8014,31.78555],[129.80202,31.78545],[129.80257,31.78506],[129.80258,31.78455],[129.80283,31.78406],[129.80322,31.78364],[129.80351,31.78356],[129.80356,31.7829],[129.8039,31.78265],[129.80399,31.7824],[129.80377,31.78224],[129.80343,31.78228],[129.80349,31.78281],[129.80335,31.78287],[129.80307,31.78264],[129.80336,31.78313],[129.8024,31.78361],[129.80204,31.78354],[129.80197,31.78331],[129.80179,31.7833],[129.80185,31.78318],[129.80163,31.78319],[129.80162,31.78341],[129.80149,31.78341],[129.80128,31.783],[129.80104,31.78317],[129.80096,31.78291],[129.80062,31.78293],[129.80066,31.78279],[129.80041,31.78268],[129.79996,31.78276],[129.80033,31.78244],[129.7995,31.78238],[129.79938,31.78208],[129.79892,31.78213],[129.79838,31.7825],[129.7982,31.78233],[129.7978,31.78278],[129.79715,31.78276],[129.79607,31.78181],[129.79571,31.78131],[129.79581,31.78127],[129.79571,31.78091],[129.79647,31.7805],[129.79636,31.78035],[129.79533,31.78091],[129.79519,31.78076],[129.79472,31.78003],[129.79549,31.77976],[129.79541,31.77959],[129.7949,31.77981],[129.7948,31.7796],[129.7945,31.7797],[129.79421,31.77941],[129.79348,31.77767],[129.79394,31.77751],[129.79336,31.7776],[129.79318,31.77682],[129.79349,31.77599],[129.79386,31.77586],[129.79423,31.77547],[129.79498,31.77544],[129.79433,31.77584],[129.79432,31.77721],[129.79471,31.77824],[129.79614,31.77965],[129.79626,31.77956],[129.79481,31.7782],[129.7944,31.77721],[129.79443,31.77593],[129.79563,31.77552],[129.796,31.77511],[129.79606,31.77383],[129.79364,31.77358],[129.79144,31.77368],[129.78458,31.77567],[129.78085,31.77519],[129.78085,31.77538],[129.78131,31.77596],[129.78186,31.77633],[129.78174,31.7766],[129.78258,31.77685],[129.78263,31.77724],[129.7829,31.77756],[129.78327,31.77741],[129.78303,31.77683],[129.78363,31.77733],[129.78385,31.77789],[129.78402,31.7778],[129.78418,31.77806],[129.78479,31.77796],[129.78463,31.77864],[129.78548,31.77872],[129.78597,31.77846],[129.78621,31.77851],[129.78643,31.7788],[129.78642,31.77911],[129.78619,31.77916],[129.78626,31.77927],[129.78597,31.77951],[129.78583,31.77999],[129.78592,31.78011],[129.78617,31.78002],[129.78674,31.78074],[129.78677,31.78132],[129.78527,31.78192],[129.78502,31.78218],[129.78515,31.78228],[129.78483,31.78249],[129.78534,31.78275],[129.7857,31.78269],[129.78591,31.7829],[129.78592,31.78391],[129.78541,31.78397],[129.78563,31.78443],[129.78525,31.78438],[129.78534,31.78461],[129.78469,31.7847],[129.78495,31.7849],[129.78579,31.78494],[129.78602,31.78534],[129.78599,31.78576],[129.78543,31.78612],[129.78492,31.78597],[129.78507,31.78684],[129.78441,31.78758],[129.78332,31.78814],[129.78303,31.78803],[129.78289,31.78831],[129.78275,31.78809],[129.78266,31.78844],[129.78235,31.78825],[129.78209,31.78875],[129.78219,31.78864],[129.78223,31.78889],[129.78292,31.78907],[129.78259,31.7895],[129.78198,31.78971],[129.78153,31.7901],[129.78169,31.79055],[129.78199,31.79082],[129.78288,31.79111],[129.7835,31.79098],[129.78412,31.7915],[129.78498,31.79115]]]},"properties":{"key":"462150910","name":"鹿島町藺牟田","pref":"鹿児島県","prefCode":"46","municipality":"薩摩川内市","areaM2":1591941.723,"population":317,"toponymIds":["46-8d33e0a7a5"]}},{"type":"Feature","geometry":{"type":"Polygon","coordinates":[[[130.25475,31.87934],[130.25648,31.87724],[130.25728,31.87593],[130.25856,31.87488],[130.25803,31.87311],[130.25894,31.87234],[130.26088,31.87008],[130.26243,31.86869],[130.26287,31.86759],[130.26463,31.86502],[130.26522,31.86356],[130.26568,31.86103],[130.2655,31.85925],[130.26554,31.85751],[130.26764,31.85568],[130.26889,31.85414],[130.26924,31.85348],[130.26905,31.85119],[130.26916,31.8492],[130.26939,31.84896],[130.27221,31.84829],[130.27266,31.84714],[130.27237,31.84596],[130.27104,31.84347],[130.27014,31.84314],[130.26829,31.84286],[130.26689,31.84232],[130.26588,31.84124],[130.26525,31.84014],[130.26523,31.83936],[130.26574,31.83834],[130.26413,31.83616],[130.2636,31.83489],[130.26373,31.83393],[130.26429,31.83322],[130.26448,31.83311],[130.2658,31.83331],[130.2649,31.82758],[130.25878,31.82914],[130.25595,31.82866],[130.25464,31.82872],[130.25202,31.83011],[130.2495,31.83178],[130.24798,31.83236],[130.2483,31.83423],[130.24823,31.83564],[130.24779,31.83786],[130.24789,31.83909],[130.24801,31.8394],[130.24877,31.83975],[130.24956,31.83981],[130.25082,31.84079],[130.25086,31.84194],[130.25161,31.84252],[130.25229,31.8443],[130.25298,31.84512],[130.25323,31.84584],[130.25373,31.84632],[130.2542,31.8502],[130.25395,31.85032],[130.25452,31.85144],[130.25499,31.85376],[130.25485,31.85614],[130.25662,31.85825],[130.25665,31.8589],[130.25615,31.86095],[130.25606,31.86248],[130.25695,31.86413],[130.25554,31.86665],[130.25387,31.86714],[130.25108,31.8707],[130.249,31.87119],[130.24788,31.87474],[130.24626,31.87492],[130.24552,31.87534],[130.24735,31.87965],[130.24985,31.8789],[130.25433,31.87993],[130.25475,31.87934]]]},"properties":{"key":"462150420","name":"小倉町","pref":"鹿児島県","prefCode":"46","municipality":"薩摩川内市","areaM2":6935198.265,"population":445,"toponymIds":["46-54047421ff"]}},{"type":"Feature","geometry":{"type":"Polygon","coordinates":[[[130.33108,31.90204],[130.33458,31.90105],[130.33753,31.90194],[130.33779,31.89676],[130.33771,31.89612],[130.33732,31.89527],[130.33663,31.89465],[130.33554,31.89401],[130.33369,31.89365],[130.33343,31.89343],[130.33379,31.89205],[130.33406,31.89167],[130.33323,31.88992],[130.33311,31.8893],[130.33146,31.88702],[130.33001,31.88581],[130.32984,31.88583],[130.32951,31.88644],[130.32846,31.8871],[130.32805,31.88722],[130.32735,31.88696],[130.32586,31.88804],[130.32506,31.88822],[130.32486,31.88867],[130.32436,31.88905],[130.32396,31.88975],[130.32358,31.89164],[130.3232,31.89214],[130.32332,31.89257],[130.32361,31.89286],[130.32316,31.89307],[130.32319,31.8936],[130.32285,31.89426],[130.32383,31.89494],[130.32547,31.89553],[130.32552,31.89579],[130.32525,31.89634],[130.32557,31.89749],[130.32617,31.89743],[130.32557,31.89846],[130.32616,31.89927],[130.32504,31.90058],[130.32431,31.90079],[130.32441,31.90129],[130.32673,31.90231],[130.32702,31.90259],[130.32895,31.90253],[130.33108,31.90204]]]},"properties":{"key":"462150680","name":"東郷町宍野","pref":"鹿児島県","prefCode":"46","municipality":"薩摩川内市","areaM2":1702191.796,"population":170,"toponymIds":["46-ef477503f7"]}},{"type":"Feature","geometry":{"type":"Polygon","coordinates":[[[130.40712,31.85251],[130.40861,31.85242],[130.40968,31.85122],[130.40976,31.85069],[130.41105,31.85099],[130.41161,31.85128],[130.41326,31.85118],[130.41334,31.85053],[130.41368,31.85019],[130.41496,31.84781],[130.41442,31.84714],[130.41463,31.84661],[130.41565,31.84535],[130.41584,31.84487],[130.4151,31.84345],[130.41502,31.84255],[130.41387,31.84237],[130.41338,31.84174],[130.41272,31.84134],[130.41205,31.84128],[130.41096,31.84073],[130.41022,31.84055],[130.40886,31.84053],[130.40835,31.84033],[130.40627,31.83797],[130.40549,31.83807],[130.40532,31.83828],[130.40525,31.83888],[130.4054,31.83953],[130.40583,31.84004],[130.40576,31.84026],[130.40535,31.84038],[130.40528,31.84056],[130.40606,31.84128],[130.40633,31.84192],[130.40622,31.84214],[130.40496,31.84202],[130.40391,31.84133],[130.40399,31.84083],[130.40436,31.84037],[130.40422,31.83975],[130.40257,31.83868],[130.40165,31.83757],[130.401,31.83741],[130.40079,31.83828],[130.40016,31.83814],[130.39917,31.8424],[130.39809,31.84117],[130.39719,31.84082],[130.39623,31.84077],[130.39585,31.83996],[130.39608,31.83936],[130.39604,31.8384],[130.39488,31.83843],[130.39487,31.83734],[130.39304,31.83978],[130.39315,31.84052],[130.39298,31.84178],[130.39351,31.84275],[130.39144,31.84278],[130.39011,31.84219],[130.38989,31.84246],[130.38992,31.84293],[130.38927,31.84315],[130.3891,31.84347],[130.38832,31.8437],[130.38729,31.84428],[130.38651,31.84436],[130.38696,31.84491],[130.38759,31.84526],[130.38803,31.84586],[130.38897,31.84631],[130.38933,31.84695],[130.38942,31.84746],[130.39023,31.84826],[130.39109,31.84837],[130.39165,31.84906],[130.39209,31.84934],[130.39251,31.85147],[130.39193,31.85199],[130.39113,31.85235],[130.39109,31.85292],[130.39143,31.8536],[130.39131,31.85396],[130.38999,31.85458],[130.39169,31.85635],[130.39319,31.85871],[130.39397,31.85954],[130.39503,31.86038],[130.39629,31.86102],[130.39911,31.86151],[130.4005,31.86117],[130.4012,31.86075],[130.40236,31.85971],[130.40364,31.85816],[130.40368,31.85781],[130.40348,31.85743],[130.40297,31.85699],[130.40307,31.85675],[130.40624,31.8533],[130.40624,31.85296],[130.40712,31.85251]]]},"properties":{"key":"462150630","name":"樋脇町倉野","pref":"鹿児島県","prefCode":"46","municipality":"薩摩川内市","areaM2":4111118.275,"population":165,"toponymIds":["46-b510d7653f"]}},{"type":"Feature","geometry":{"type":"Polygon","coordinates":[[[130.31309,31.79169],[130.31438,31.78794],[130.31365,31.78775],[130.31427,31.78594],[130.31299,31.78617],[130.31416,31.78255],[130.31097,31.78249],[130.3089,31.78178],[130.30872,31.78231],[130.30828,31.78282],[130.30837,31.78296],[130.30813,31.78287],[130.30785,31.78319],[130.30805,31.78441],[130.30778,31.78478],[130.30834,31.78502],[130.30871,31.78547],[130.30826,31.7855],[130.30821,31.78581],[130.30782,31.78636],[130.3081,31.78674],[130.30791,31.78808],[130.31021,31.78951],[130.31053,31.79069],[130.31106,31.79137],[130.31178,31.79156],[130.31257,31.79148],[130.31309,31.79169]]]},"properties":{"key":"462150160","name":"矢倉町","pref":"鹿児島県","prefCode":"46","municipality":"薩摩川内市","areaM2":474343.638,"population":701,"toponymIds":["46-d54b38959e"]}},{"type":"Feature","geometry":{"type":"Polygon","coordinates":[[[130.31012,31.82038],[130.3113,31.81635],[130.3103,31.816],[130.3095,31.81521],[130.30858,31.81499],[130.3075,31.81602],[130.30851,31.81702],[130.30983,31.81738],[130.30955,31.81798],[130.31011,31.81816],[130.30994,31.81839],[130.31029,31.81857],[130.30916,31.82013],[130.31012,31.82038]]]},"properties":{"key":"462150230","name":"横馬場町","pref":"鹿児島県","prefCode":"46","municipality":"薩摩川内市","areaM2":83012.711,"population":733,"toponymIds":["46-82dc9bae0b"]}},{"type":"Feature","geometry":{"type":"Polygon","coordinates":[[[130.41239,31.63469],[130.41111,31.63295],[130.4108,31.63182],[130.4121,31.63142],[130.41249,31.63098],[130.41239,31.6304],[130.41169,31.62955],[130.4117,31.62896],[130.41234,31.62846],[130.41317,31.62846],[130.41339,31.62705],[130.41418,31.62717],[130.41589,31.62657],[130.41632,31.62636],[130.41616,31.62606],[130.41425,31.62581],[130.41372,31.62622],[130.41296,31.62582],[130.41237,31.62524],[130.41186,31.62529],[130.40786,31.62338],[130.40676,31.623],[130.4046,31.6236],[130.40325,31.62428],[130.40251,31.62439],[130.40153,31.6248],[130.40112,31.62686],[130.40068,31.62792],[130.40144,31.62804],[130.40131,31.62863],[130.40303,31.62838],[130.40305,31.62855],[130.40345,31.62863],[130.40383,31.62909],[130.40465,31.62911],[130.40474,31.63039],[130.40434,31.63028],[130.40431,31.63041],[130.40446,31.63157],[130.40475,31.63209],[130.40522,31.63249],[130.40476,31.63343],[130.40482,31.63376],[130.40526,31.63388],[130.40606,31.63473],[130.40704,31.63399],[130.40854,31.63405],[130.40843,31.63374],[130.40853,31.63369],[130.41088,31.63447],[130.41237,31.63527],[130.4131,31.63541],[130.41239,31.63469]]]},"properties":{"key":"462160070","name":"伊集院町猪鹿倉","pref":"鹿児島県","prefCode":"46","municipality":"日置市","areaM2":1008971.259,"population":2315,"toponymIds":["46-863c013695"]}},{"type":"Feature","geometry":{"type":"Polygon","coordinates":[[[130.43893,31.66449],[130.43998,31.66376],[130.4397,31.66316],[130.43968,31.66183],[130.43871,31.66079],[130.43855,31.65999],[130.43908,31.65924],[130.44015,31.65902],[130.44123,31.65828],[130.44126,31.65759],[130.4416,31.65727],[130.44187,31.65656],[130.4428,31.65528],[130.44255,31.65436],[130.44291,31.65434],[130.44255,31.65409],[130.44237,31.65368],[130.44242,31.65349],[130.44217,31.65305],[130.44226,31.65248],[130.44197,31.65212],[130.44155,31.652],[130.44151,31.65112],[130.44179,31.65044],[130.44226,31.65032],[130.44243,31.64943],[130.44202,31.64907],[130.44185,31.64854],[130.44141,31.64839],[130.44097,31.64765],[130.43911,31.64648],[130.43898,31.6459],[130.43792,31.64475],[130.437,31.64432],[130.43693,31.64389],[130.4366,31.64354],[130.43676,31.6425],[130.43572,31.64196],[130.43567,31.6413],[130.43543,31.64097],[130.43414,31.64096],[130.43365,31.64057],[130.43307,31.64037],[130.43266,31.63968],[130.43161,31.63906],[130.43044,31.63889],[130.43004,31.63865],[130.42929,31.63779],[130.42933,31.63693],[130.42816,31.63599],[130.4277,31.63589],[130.42772,31.63558],[130.42802,31.6354],[130.42736,31.63437],[130.42685,31.63389],[130.42636,31.63389],[130.4252,31.63321],[130.42455,31.63304],[130.42421,31.63298],[130.42355,31.63325],[130.42298,31.63372],[130.42295,31.63409],[130.42307,31.63482],[130.42365,31.63555],[130.42461,31.63617],[130.42453,31.63655],[130.42398,31.63704],[130.42432,31.63795],[130.42392,31.63816],[130.423,31.63758],[130.42245,31.63781],[130.42194,31.63776],[130.42189,31.6383],[130.42118,31.63848],[130.42083,31.63877],[130.42069,31.63981],[130.42115,31.64033],[130.42037,31.64045],[130.42017,31.64083],[130.42002,31.64257],[130.41954,31.64326],[130.41973,31.64426],[130.41946,31.64542],[130.41952,31.6465],[130.41938,31.64698],[130.41724,31.6485],[130.41558,31.64935],[130.41511,31.64946],[130.41388,31.65017],[130.41241,31.65005],[130.41243,31.65048],[130.41458,31.6513],[130.41621,31.65165],[130.41652,31.65186],[130.4169,31.6529],[130.41723,31.65319],[130.41943,31.65341],[130.41982,31.65361],[130.42146,31.65355],[130.42228,31.65405],[130.42461,31.65403],[130.42544,31.65424],[130.4259,31.65536],[130.42822,31.65891],[130.42863,31.65912],[130.42997,31.6591],[130.43026,31.65928],[130.43014,31.65979],[130.43071,31.66058],[130.43003,31.66088],[130.42904,31.6617],[130.43052,31.66217],[130.43215,31.66293],[130.43317,31.66315],[130.43369,31.66344],[130.43445,31.66459],[130.43502,31.6644],[130.43544,31.66455],[130.43674,31.66555],[130.44012,31.66883],[130.44017,31.66856],[130.43984,31.66744],[130.43907,31.66678],[130.43885,31.66584],[130.4384,31.66526],[130.43893,31.66449]]]},"properties":{"key":"462160140","name":"伊集院町麦生田","pref":"鹿児島県","prefCode":"46","municipality":"日置市","areaM2":4868420.835,"population":1882,"toponymIds":["46-2ce799d58d"]}},{"type":"Feature","geometry":{"type":"Polygon","coordinates":[[[130.41963,31.53817],[130.42022,31.53819],[130.42472,31.54285],[130.42475,31.5426],[130.42515,31.54242],[130.42745,31.54241],[130.42742,31.54079],[130.42772,31.54007],[130.4284,31.53967],[130.42839,31.53888],[130.4294,31.539],[130.42994,31.53874],[130.43245,31.53875],[130.43279,31.53843],[130.43284,31.53815],[130.43407,31.53801],[130.43426,31.53804],[130.43474,31.53896],[130.4353,31.53874],[130.43673,31.53775],[130.43717,31.53769],[130.43708,31.53717],[130.43723,31.53685],[130.43835,31.53689],[130.44055,31.53571],[130.4436,31.53332],[130.44456,31.53241],[130.44522,31.53151],[130.44718,31.53051],[130.44713,31.52808],[130.44733,31.52771],[130.44812,31.52739],[130.44852,31.52665],[130.44775,31.52501],[130.44704,31.5245],[130.44689,31.52414],[130.4472,31.52168],[130.44681,31.51993],[130.44735,31.51852],[130.44809,31.51852],[130.44881,31.51794],[130.44645,31.51731],[130.4433,31.51708],[130.43946,31.51566],[130.43749,31.5147],[130.43664,31.51408],[130.43383,31.51015],[130.43227,31.50896],[130.43076,31.50834],[130.42953,31.50806],[130.42866,31.50827],[130.42793,31.50878],[130.42776,31.50935],[130.42786,31.51246],[130.42774,31.51298],[130.42662,31.51534],[130.42618,31.51595],[130.42548,31.51654],[130.42146,31.51747],[130.41932,31.51776],[130.41605,31.51794],[130.4134,31.51737],[130.4105,31.51731],[130.40616,31.51638],[130.40394,31.51619],[130.396,31.51613],[130.39395,31.5166],[130.39144,31.51673],[130.39091,31.51656],[130.39034,31.51615],[130.38756,31.51354],[130.38681,31.51307],[130.38486,31.51226],[130.3793,31.51083],[130.37393,31.50968],[130.37167,31.50873],[130.37073,31.50869],[130.3703,31.50851],[130.36997,31.50871],[130.3694,31.50864],[130.36918,31.50898],[130.3685,31.50918],[130.36744,31.50877],[130.36545,31.51013],[130.36474,31.5103],[130.3648,31.51081],[130.36546,31.51166],[130.36557,31.51253],[130.36518,31.51305],[130.36541,31.51361],[130.36628,31.51423],[130.36644,31.51456],[130.36777,31.51568],[130.36837,31.51583],[130.36861,31.51716],[130.36937,31.51769],[130.37268,31.51805],[130.37292,31.51783],[130.37308,31.51722],[130.37333,31.51709],[130.37429,31.51699],[130.37515,31.51723],[130.37647,31.51707],[130.37667,31.51796],[130.37701,31.51826],[130.37836,31.51883],[130.37901,31.51948],[130.38019,31.51946],[130.38092,31.51995],[130.38129,31.52053],[130.38118,31.52115],[130.38177,31.52176],[130.38257,31.52184],[130.38726,31.52376],[130.39369,31.53389],[130.39447,31.53459],[130.39693,31.53594],[130.39814,31.53747],[130.39823,31.53932],[130.39752,31.54351],[130.39764,31.54387],[130.39853,31.5435],[130.41466,31.54016],[130.41963,31.53817]]]},"properties":{"key":"462160410","name":"吹上町与倉","pref":"鹿児島県","prefCode":"46","municipality":"日置市","areaM2":16073978.218,"population":446,"toponymIds":["46-b4e5614ba5"]}},{"type":"Feature","geometry":{"type":"Polygon","coordinates":[[[130.82513,31.75814],[130.82936,31.75179],[130.83009,31.75211],[130.83046,31.75249],[130.83042,31.75309],[130.83015,31.75358],[130.83134,31.75377],[130.83156,31.75422],[130.83138,31.75452],[130.83202,31.75459],[130.83228,31.75495],[130.83192,31.75566],[130.832,31.75589],[130.8327,31.75593],[130.83292,31.75662],[130.83432,31.75711],[130.83462,31.75757],[130.83505,31.75785],[130.83593,31.75779],[130.83683,31.75812],[130.83755,31.75788],[130.83822,31.75701],[130.8394,31.75722],[130.83944,31.75674],[130.83813,31.75607],[130.83796,31.7558],[130.83805,31.75553],[130.83914,31.75597],[130.83975,31.75572],[130.84082,31.75622],[130.84191,31.75619],[130.84257,31.75576],[130.84361,31.75567],[130.84463,31.75578],[130.84542,31.75612],[130.84573,31.75586],[130.84653,31.75578],[130.84751,31.75465],[130.84844,31.7542],[130.84906,31.75349],[130.85046,31.75275],[130.85095,31.75226],[130.85138,31.75213],[130.85197,31.75224],[130.8573,31.75495],[130.85908,31.75398],[130.86094,31.75345],[130.86136,31.75315],[130.86132,31.75266],[130.862,31.75228],[130.8625,31.75068],[130.86423,31.74879],[130.86444,31.74793],[130.86416,31.74646],[130.86397,31.74614],[130.86303,31.74552],[130.86115,31.74484],[130.86018,31.745],[130.85895,31.74552],[130.85925,31.74572],[130.85926,31.74601],[130.85862,31.74527],[130.85877,31.74452],[130.85926,31.74362],[130.85899,31.74298],[130.85913,31.74244],[130.85883,31.74207],[130.85812,31.74175],[130.86478,31.74032],[130.86521,31.73831],[130.86493,31.73809],[130.86449,31.73726],[130.86359,31.73636],[130.86365,31.73558],[130.86332,31.73457],[130.86342,31.73402],[130.86389,31.73332],[130.86538,31.73249],[130.86606,31.73185],[130.8654,31.73156],[130.86505,31.73122],[130.86483,31.73049],[130.86477,31.72932],[130.86375,31.7293],[130.86209,31.72996],[130.86082,31.72958],[130.85828,31.7296],[130.85644,31.72894],[130.8548,31.72895],[130.85288,31.72836],[130.85191,31.72843],[130.85044,31.72802],[130.84979,31.72704],[130.84897,31.72665],[130.84769,31.7265],[130.84728,31.72613],[130.8461,31.7262],[130.84608,31.72666],[130.84591,31.72691],[130.84506,31.72731],[130.84485,31.72779],[130.84461,31.7279],[130.84354,31.72774],[130.84286,31.72799],[130.84223,31.72854],[130.84115,31.72907],[130.8403,31.72882],[130.8394,31.72902],[130.83892,31.72934],[130.83827,31.7293],[130.83747,31.72882],[130.83665,31.72933],[130.8349,31.72947],[130.83387,31.73083],[130.83387,31.73131],[130.83465,31.73145],[130.83486,31.73162],[130.83481,31.7319],[130.83437,31.73251],[130.83396,31.73269],[130.83332,31.73338],[130.83247,31.73309],[130.83135,31.73346],[130.82964,31.73347],[130.82946,31.73361],[130.82838,31.73322],[130.82811,31.7334],[130.8277,31.73406],[130.82599,31.73345],[130.82447,31.73383],[130.82325,31.73375],[130.82285,31.73473],[130.82154,31.73073],[130.81301,31.72981],[130.81199,31.73016],[130.81224,31.73057],[130.81221,31.73166],[130.81209,31.7319],[130.81153,31.73212],[130.81138,31.73243],[130.81134,31.73289],[130.81153,31.73337],[130.80699,31.73629],[130.80615,31.73663],[130.80601,31.73687],[130.80615,31.73726],[130.80528,31.7381],[130.80499,31.73791],[130.80482,31.73719],[130.80462,31.73694],[130.80397,31.73662],[130.80302,31.73665],[130.80225,31.73595],[130.80112,31.73596],[130.80095,31.73581],[130.80078,31.73497],[130.79965,31.73461],[130.79898,31.73471],[130.79845,31.73439],[130.79727,31.73519],[130.79532,31.73534],[130.79564,31.73629],[130.79518,31.73666],[130.7947,31.73679],[130.79563,31.73721],[130.79579,31.73786],[130.7965,31.73859],[130.79638,31.73905],[130.79692,31.73939],[130.79641,31.74031],[130.79604,31.74022],[130.79587,31.74072],[130.79532,31.74074],[130.79536,31.74315],[130.79516,31.74312],[130.79524,31.74353],[130.79503,31.74432],[130.79436,31.74436],[130.79395,31.7438],[130.79325,31.74357],[130.79343,31.74305],[130.79246,31.74234],[130.79101,31.74359],[130.79092,31.74335],[130.7905,31.74328],[130.78995,31.74282],[130.7903,31.74233],[130.78888,31.74151],[130.78851,31.74167],[130.78816,31.74229],[130.78882,31.74219],[130.78912,31.74237],[130.78931,31.74284],[130.78889,31.74352],[130.78965,31.74394],[130.78963,31.74441],[130.79008,31.74491],[130.79013,31.7452],[130.78816,31.74365],[130.78758,31.74339],[130.7865,31.74328],[130.78608,31.74355],[130.78589,31.74399],[130.78647,31.7442],[130.78661,31.74443],[130.78656,31.7449],[130.78694,31.74515],[130.78668,31.74549],[130.78654,31.7467],[130.78778,31.74754],[130.78786,31.74746],[130.78761,31.74703],[130.78793,31.74701],[130.78824,31.74738],[130.78878,31.74758],[130.78906,31.74797],[130.78997,31.74823],[130.79101,31.75001],[130.79161,31.75009],[130.79206,31.75181],[130.79241,31.75235],[130.79277,31.75225],[130.79246,31.7513],[130.79251,31.75085],[130.79291,31.75084],[130.79345,31.75115],[130.79418,31.75103],[130.79424,31.7517],[130.7945,31.752],[130.79457,31.75241],[130.7941,31.75288],[130.79441,31.75392],[130.795,31.75434],[130.79507,31.75456],[130.79545,31.7547],[130.79563,31.75497],[130.79594,31.75498],[130.79676,31.75411],[130.79757,31.75406],[130.79709,31.75286],[130.79718,31.75263],[130.79754,31.75252],[130.79797,31.75303],[130.79834,31.75313],[130.79847,31.75305],[130.79845,31.75248],[130.79859,31.75222],[130.79951,31.75214],[130.79986,31.75257],[130.80057,31.7525],[130.80064,31.75357],[130.80162,31.75428],[130.80187,31.75407],[130.8018,31.75292],[130.80206,31.75261],[130.80235,31.75272],[130.80233,31.75341],[130.80263,31.75413],[130.80352,31.75461],[130.80407,31.75383],[130.80448,31.75369],[130.8052,31.75417],[130.80484,31.75453],[130.80509,31.75488],[130.80707,31.75473],[130.80783,31.75416],[130.80837,31.75402],[130.80899,31.75402],[130.81024,31.75456],[130.81081,31.75421],[130.81253,31.75401],[130.81344,31.75427],[130.81408,31.75427],[130.81535,31.75485],[130.81568,31.75574],[130.81591,31.7559],[130.81625,31.75594],[130.81719,31.75567],[130.81802,31.75598],[130.81871,31.75571],[130.81936,31.7557],[130.82099,31.75642],[130.82168,31.75735],[130.82169,31.75638],[130.82108,31.75575],[130.82223,31.75643],[130.82281,31.75651],[130.82366,31.75726],[130.82486,31.75749],[130.82508,31.75768],[130.82513,31.75814]]]},"properties":{"key":"462180060","name":"国分川原","pref":"鹿児島県","prefCode":"46","municipality":"霧島市","areaM2":17225071.901,"population":326,"toponymIds":["46-54390aa7fa"]}},{"type":"Feature","geometry":{"type":"Polygon","coordinates":[[[130.2682,31.71206],[130.26726,31.71155],[130.26713,31.71193],[130.2667,31.71171],[130.26638,31.71177],[130.26674,31.71246],[130.2666,31.71309],[130.26669,31.7136],[130.26705,31.71395],[130.26659,31.71494],[130.26711,31.71531],[130.267,31.71545],[130.26752,31.71579],[130.26766,31.71538],[130.26966,31.71294],[130.2682,31.71206]]]},"properties":{"key":"462190120","name":"御倉町","pref":"鹿児島県","prefCode":"46","municipality":"いちき串木野市","areaM2":75613.776,"population":353,"toponymIds":["46-6f30c85811"]}},{"type":"Feature","geometry":{"type":"Polygon","coordinates":[[[130.31246,31.76336],[130.31278,31.76274],[130.31357,31.76216],[130.31336,31.76108],[130.31393,31.75927],[130.31549,31.75934],[130.31591,31.75886],[130.31604,31.75789],[130.31734,31.75627],[130.31736,31.75596],[130.3167,31.75417],[130.31683,31.75391],[130.31773,31.75336],[130.31817,31.7529],[130.31823,31.75129],[130.3197,31.75041],[130.31454,31.74812],[130.31364,31.74751],[130.30986,31.74615],[130.30848,31.74524],[130.30699,31.74578],[130.306,31.74658],[130.30473,31.74873],[130.30399,31.75083],[130.30313,31.75186],[130.30298,31.75435],[130.30372,31.75568],[130.30241,31.75616],[130.30223,31.7561],[130.302,31.75595],[130.3014,31.75469],[130.30003,31.75341],[130.29983,31.7535],[130.29924,31.75309],[130.2987,31.75324],[130.29887,31.75413],[130.29931,31.75463],[130.29991,31.75492],[130.29974,31.7553],[130.30038,31.75593],[130.2999,31.75599],[130.29971,31.75634],[130.29964,31.75662],[130.30007,31.75668],[130.3,31.75705],[130.29877,31.75745],[130.29841,31.75775],[130.29835,31.75828],[130.29797,31.75896],[130.29661,31.76019],[130.29769,31.76094],[130.29964,31.761],[130.30132,31.7615],[130.30316,31.76277],[130.30354,31.76328],[130.3053,31.76344],[130.30703,31.76338],[130.30745,31.76317],[130.30745,31.76345],[130.30875,31.76325],[130.31193,31.76378],[130.31217,31.76371],[130.31246,31.76336]]]},"properties":{"key":"462190630","name":"芹ケ野","pref":"鹿児島県","prefCode":"46","municipality":"いちき串木野市","areaM2":2539330.287,"population":223,"toponymIds":["46-6dbfb4e0d5"]}},{"type":"Feature","geometry":{"type":"Polygon","coordinates":[[[130.27238,31.74522],[130.27273,31.74529],[130.27334,31.74588],[130.27369,31.74489],[130.27405,31.74533],[130.2748,31.74577],[130.27604,31.74585],[130.27715,31.74545],[130.27843,31.74444],[130.27893,31.74432],[130.27853,31.74353],[130.27645,31.74169],[130.27639,31.74153],[130.27667,31.74089],[130.27642,31.74035],[130.27505,31.74002],[130.27495,31.73976],[130.27528,31.73897],[130.27494,31.73862],[130.27448,31.73845],[130.27454,31.73799],[130.27408,31.73764],[130.27339,31.73797],[130.27285,31.73857],[130.27234,31.73976],[130.27032,31.73986],[130.26939,31.74018],[130.26849,31.74027],[130.26763,31.73988],[130.26749,31.74041],[130.2678,31.7405],[130.26813,31.74133],[130.26773,31.74234],[130.26804,31.74296],[130.26796,31.74356],[130.26816,31.74391],[130.26799,31.744],[130.26842,31.7449],[130.27068,31.7458],[130.2713,31.7466],[130.27162,31.74647],[130.27197,31.7457],[130.27238,31.74522]]]},"properties":{"key":"46219056002","name":"深田上","pref":"鹿児島県","prefCode":"46","municipality":"いちき串木野市","areaM2":604838.117,"population":0,"toponymIds":["46-6337107ad8"]}},{"type":"Feature","geometry":{"type":"Polygon","coordinates":[[[130.2713,31.7466],[130.27068,31.7458],[130.26866,31.74507],[130.26827,31.74472],[130.26799,31.744],[130.26816,31.74391],[130.26796,31.74356],[130.26804,31.74294],[130.26773,31.74231],[130.26813,31.74137],[130.2678,31.7405],[130.26749,31.74041],[130.26763,31.73988],[130.26706,31.73968],[130.26688,31.73924],[130.26653,31.73906],[130.26608,31.73851],[130.26575,31.7379],[130.26583,31.73747],[130.26541,31.73705],[130.26537,31.7367],[130.26471,31.73617],[130.26428,31.73604],[130.26371,31.73547],[130.26291,31.73523],[130.26255,31.73466],[130.2605,31.73494],[130.26169,31.73575],[130.26146,31.73612],[130.26094,31.73591],[130.26084,31.73604],[130.26115,31.73675],[130.26002,31.73622],[130.25946,31.73614],[130.25937,31.73581],[130.25884,31.73597],[130.25836,31.73676],[130.25765,31.73732],[130.2578,31.73804],[130.2577,31.73838],[130.25642,31.73938],[130.25581,31.74051],[130.25603,31.7417],[130.25573,31.74199],[130.25745,31.74249],[130.25946,31.74402],[130.26082,31.74451],[130.26625,31.74839],[130.26689,31.7479],[130.26729,31.7482],[130.26809,31.74814],[130.26835,31.74795],[130.27049,31.74752],[130.2703,31.74733],[130.27118,31.74695],[130.27114,31.74671],[130.2713,31.7466]]]},"properties":{"key":"462190550","name":"深田下","pref":"鹿児島県","prefCode":"46","municipality":"いちき串木野市","areaM2":1132360.187,"population":21,"toponymIds":["46-b644b7e4fe"]}},{"type":"Feature","geometry":{"type":"Polygon","coordinates":[[[131.02612,31.51949],[131.02803,31.51837],[131.02959,31.51781],[131.03256,31.51637],[131.03286,31.51597],[131.03258,31.515],[131.03282,31.51428],[131.03274,31.51374],[131.03285,31.51342],[131.0333,31.51291],[131.03386,31.51295],[131.03422,31.51268],[131.03428,31.5125],[131.03407,31.51224],[131.03449,31.51119],[131.03525,31.51031],[131.0358,31.51012],[131.0367,31.5092],[131.03778,31.50865],[131.03969,31.5088],[131.04144,31.50778],[131.04242,31.50647],[131.04417,31.50506],[131.04487,31.50469],[131.05172,31.50978],[131.05237,31.50998],[131.05246,31.51099],[131.05297,31.51213],[131.05322,31.51237],[131.05382,31.5126],[131.05541,31.51259],[131.05606,31.5127],[131.05633,31.51291],[131.05644,31.51313],[131.05634,31.51369],[131.05574,31.51428],[131.05592,31.51554],[131.05798,31.5152],[131.06194,31.5135],[131.06406,31.51194],[131.06512,31.5114],[131.07033,31.51095],[131.06943,31.50905],[131.06798,31.50749],[131.06817,31.50694],[131.06703,31.50583],[131.0667,31.50525],[131.0653,31.50559],[131.06465,31.50546],[131.06392,31.50559],[131.06363,31.50538],[131.0639,31.50453],[131.0638,31.50301],[131.06558,31.50155],[131.06544,31.50083],[131.06573,31.50061],[131.06469,31.49885],[131.06459,31.49839],[131.0624,31.49932],[131.06237,31.49828],[131.06283,31.49763],[131.06309,31.49655],[131.06377,31.49653],[131.06439,31.49673],[131.06411,31.49596],[131.06411,31.4953],[131.06478,31.49268],[131.06009,31.49189],[131.06028,31.49107],[131.05988,31.49013],[131.05929,31.49009],[131.05794,31.49057],[131.05801,31.48987],[131.05773,31.48912],[131.05734,31.48862],[131.05655,31.48816],[131.05596,31.48753],[131.05521,31.48746],[131.05481,31.48715],[131.05523,31.48689],[131.05548,31.48651],[131.05587,31.4868],[131.0566,31.48675],[131.05726,31.48611],[131.05905,31.48501],[131.05895,31.48452],[131.05967,31.48452],[131.05995,31.48315],[131.06041,31.48251],[131.06126,31.48273],[131.06164,31.48253],[131.06098,31.48129],[131.06135,31.48037],[131.06094,31.48011],[131.06072,31.47911],[131.05973,31.47756],[131.061,31.47665],[131.06228,31.47602],[131.06208,31.47575],[131.06249,31.47491],[131.06339,31.47428],[131.06387,31.47367],[131.06494,31.47277],[131.06589,31.47145],[131.06606,31.47145],[131.06626,31.47104],[131.06758,31.46975],[131.06722,31.46897],[131.06637,31.4684],[131.06599,31.46792],[131.06584,31.46746],[131.06628,31.46672],[131.06532,31.46652],[131.06559,31.46527],[131.065,31.46516],[131.06532,31.46349],[131.06419,31.46329],[131.06494,31.45955],[131.06663,31.46018],[131.06711,31.46113],[131.06697,31.46173],[131.06716,31.46194],[131.06769,31.46154],[131.06836,31.46146],[131.06918,31.46162],[131.06951,31.46103],[131.0697,31.46106],[131.07,31.4608],[131.07178,31.45871],[131.07274,31.45806],[131.07307,31.45744],[131.07474,31.45601],[131.07014,31.45336],[131.06473,31.44953],[131.06345,31.44851],[131.06282,31.44778],[131.06062,31.44641],[131.06043,31.44612],[131.0561,31.44927],[131.05567,31.44829],[131.05357,31.44601],[131.05274,31.44719],[131.05165,31.44933],[131.05097,31.45141],[131.05042,31.4514],[131.05015,31.45157],[131.04909,31.45262],[131.04973,31.45293],[131.04995,31.45265],[131.05117,31.45302],[131.05184,31.45292],[131.05181,31.45317],[131.05376,31.45303],[131.0538,31.45349],[131.05399,31.45348],[131.05411,31.4549],[131.05455,31.45488],[131.05462,31.4558],[131.05438,31.45582],[131.05443,31.45631],[131.05364,31.45637],[131.05368,31.45687],[131.0526,31.45692],[131.05243,31.455],[131.05195,31.45503],[131.05188,31.45461],[131.04995,31.45496],[131.04914,31.45456],[131.04922,31.45443],[131.04872,31.45417],[131.04881,31.45404],[131.04834,31.45381],[131.04826,31.45391],[131.04804,31.4538],[131.04726,31.45459],[131.04706,31.45451],[131.04647,31.45539],[131.04681,31.45556],[131.0462,31.45645],[131.04598,31.45633],[131.04577,31.45681],[131.04617,31.45702],[131.04627,31.45686],[131.04724,31.45734],[131.04744,31.45705],[131.04647,31.45657],[131.04679,31.45609],[131.04784,31.45662],[131.04812,31.45618],[131.04858,31.45641],[131.04881,31.4561],[131.05029,31.45686],[131.05153,31.4582],[131.051,31.45873],[131.05071,31.45863],[131.04973,31.45916],[131.04783,31.46153],[131.04619,31.46305],[131.04563,31.46396],[131.04531,31.46519],[131.04538,31.4666],[131.04567,31.46724],[131.04632,31.46784],[131.04648,31.46835],[131.04645,31.46951],[131.04623,31.47021],[131.0463,31.47114],[131.04688,31.47207],[131.04781,31.47299],[131.04825,31.47385],[131.04865,31.47424],[131.0487,31.47469],[131.04799,31.47547],[131.04651,31.47631],[131.04408,31.47697],[131.04347,31.4768],[131.04375,31.47581],[131.04351,31.47548],[131.04314,31.47532],[131.04159,31.4752],[131.03975,31.47555],[131.03935,31.47604],[131.03941,31.478],[131.03868,31.48028],[131.03822,31.48109],[131.03774,31.48131],[131.03722,31.48133],[131.03503,31.48039],[131.03434,31.48061],[131.03377,31.48114],[131.03328,31.48468],[131.03274,31.4855],[131.03071,31.48729],[131.0299,31.48896],[131.02989,31.49003],[131.03019,31.49132],[131.03072,31.49229],[131.0314,31.49278],[131.03157,31.49342],[131.03069,31.49419],[131.03041,31.49469],[131.0307,31.4964],[131.03021,31.49682],[131.02924,31.49716],[131.02852,31.49764],[131.02838,31.49824],[131.02868,31.49926],[131.02865,31.49991],[131.02689,31.50186],[131.02616,31.50298],[131.02568,31.50859],[131.02531,31.50907],[131.02491,31.5093],[131.0221,31.51041],[131.02,31.51218],[131.01737,31.51308],[131.01636,31.51366],[131.01615,31.51397],[131.01593,31.51524],[131.01658,31.51552],[131.01681,31.51613],[131.01726,31.51606],[131.0178,31.51678],[131.01818,31.5169],[131.01826,31.51728],[131.01922,31.51755],[131.01932,31.51781],[131.01912,31.51819],[131.01921,31.51833],[131.02134,31.51893],[131.02171,31.51881],[131.02245,31.51922],[131.02282,31.51917],[131.02311,31.51875],[131.02406,31.51852],[131.02472,31.51922],[131.02553,31.51953],[131.02612,31.51949]]]},"properties":{"key":"462210010","name":"有明町野井倉","pref":"鹿児島県","prefCode":"46","municipality":"志布志市","areaM2":18402714.572,"population":4097,"toponymIds":["46-5b415c4cce"]}},{"type":"Feature","geometry":{"type":"Polygon","coordinates":[[[131.20295,31.58529],[131.20526,31.58099],[131.2054,31.57991],[131.2047,31.57837],[131.20395,31.57407],[131.20364,31.57342],[131.20309,31.57284],[131.20323,31.57231],[131.20295,31.57134],[131.20218,31.5705],[131.20133,31.57057],[131.20092,31.56977],[131.20012,31.56915],[131.20012,31.56899],[131.20086,31.56857],[131.20173,31.56776],[131.20196,31.56704],[131.20114,31.56652],[131.19972,31.5642],[131.19897,31.56377],[131.19635,31.5633],[131.19558,31.56276],[131.19459,31.56152],[131.19381,31.56001],[131.19228,31.55869],[131.19101,31.55801],[131.19,31.55774],[131.18893,31.55768],[131.19051,31.55671],[131.19118,31.55581],[131.19154,31.55475],[131.19189,31.55445],[131.19422,31.5533],[131.19553,31.55215],[131.19629,31.55106],[131.19681,31.54967],[131.19674,31.5487],[131.19606,31.54735],[131.19608,31.54665],[131.19623,31.54641],[131.19747,31.54576],[131.19767,31.54549],[131.19783,31.544],[131.19866,31.54247],[131.19885,31.5418],[131.19879,31.54137],[131.19764,31.53904],[131.19765,31.53796],[131.19918,31.53537],[131.20138,31.53113],[131.20123,31.53061],[131.20016,31.52958],[131.20006,31.52913],[131.20036,31.52781],[131.20074,31.5273],[131.20079,31.52694],[131.20021,31.52474],[131.20002,31.52308],[131.19999,31.52217],[131.2006,31.5196],[131.20049,31.51751],[131.1998,31.51552],[131.19887,31.51426],[131.19734,31.51286],[131.19676,31.51186],[131.19576,31.51163],[131.19257,31.50959],[131.19077,31.50929],[131.18958,31.50866],[131.18765,31.50843],[131.18479,31.50708],[131.18235,31.50708],[131.17932,31.50619],[131.17749,31.50508],[131.17625,31.50335],[131.17564,31.50297],[131.17468,31.50253],[131.17291,31.50224],[131.17197,31.50179],[131.17128,31.50121],[131.16951,31.49918],[131.16962,31.50282],[131.16935,31.50432],[131.16875,31.50487],[131.16794,31.50527],[131.16574,31.50786],[131.16474,31.50828],[131.16462,31.50872],[131.16359,31.50948],[131.16171,31.50975],[131.16109,31.51063],[131.16028,31.51063],[131.15836,31.51022],[131.15762,31.51041],[131.15664,31.51043],[131.15594,31.51084],[131.15522,31.51055],[131.15391,31.51059],[131.15211,31.5112],[131.15188,31.51193],[131.15096,31.51215],[131.15101,31.51258],[131.15197,31.51302],[131.15205,31.51312],[131.15173,31.51347],[131.1523,31.51355],[131.15288,31.51334],[131.15301,31.51357],[131.15356,31.51376],[131.15359,31.51399],[131.15276,31.51464],[131.15217,31.51431],[131.15184,31.51466],[131.15079,31.51453],[131.1503,31.51471],[131.14895,31.51477],[131.14736,31.51463],[131.1464,31.51486],[131.1444,31.51451],[131.14405,31.51423],[131.14409,31.51406],[131.14466,31.51378],[131.14496,31.5134],[131.14489,31.51312],[131.14442,31.51283],[131.14396,31.51158],[131.14328,31.51107],[131.14297,31.51101],[131.14232,31.51136],[131.14098,31.51112],[131.14071,31.51122],[131.14055,31.51148],[131.14098,31.51193],[131.14039,31.51248],[131.13967,31.51385],[131.13913,31.51419],[131.13653,31.51408],[131.13607,31.51386],[131.13421,31.51421],[131.13088,31.51454],[131.12757,31.51454],[131.12683,31.51401],[131.12601,31.51391],[131.12505,31.51329],[131.12444,31.51258],[131.12332,31.51273],[131.12097,31.51239],[131.12082,31.51315],[131.11982,31.51301],[131.11873,31.51189],[131.11871,31.51165],[131.11507,31.51136],[131.11378,31.51173],[131.11349,31.51163],[131.10998,31.51201],[131.10942,31.51181],[131.10902,31.51066],[131.10934,31.51001],[131.10906,31.5092],[131.10936,31.5085],[131.10893,31.50834],[131.10871,31.50806],[131.1083,31.50827],[131.10798,31.50805],[131.10748,31.508],[131.10536,31.50881],[131.10354,31.50889],[131.10273,31.50932],[131.10044,31.50921],[131.10006,31.5096],[131.0994,31.50934],[131.09821,31.50947],[131.09806,31.50964],[131.09771,31.50965],[131.09757,31.50931],[131.09694,31.50949],[131.09717,31.51073],[131.09696,31.51609],[131.09627,31.51916],[131.09627,31.52006],[131.09588,31.52085],[131.09609,31.52154],[131.09589,31.52164],[131.09594,31.52217],[131.09633,31.52238],[131.09641,31.5231],[131.0977,31.52321],[131.0973,31.52401],[131.09759,31.52428],[131.09896,31.52478],[131.09936,31.5245],[131.09971,31.52452],[131.10046,31.52512],[131.10151,31.5252],[131.10195,31.52624],[131.10223,31.52643],[131.10324,31.52651],[131.10397,31.52695],[131.10475,31.52893],[131.10586,31.53033],[131.10784,31.53034],[131.10918,31.52938],[131.1102,31.5289],[131.11165,31.52721],[131.11277,31.5274],[131.11316,31.52776],[131.11374,31.52786],[131.11366,31.52821],[131.11383,31.52847],[131.11531,31.53008],[131.11563,31.53142],[131.11665,31.53409],[131.11748,31.53396],[131.11806,31.53716],[131.1183,31.53779],[131.12016,31.54067],[131.12063,31.54093],[131.12212,31.54027],[131.122,31.5401],[131.12216,31.53942],[131.12254,31.53919],[131.12289,31.53813],[131.12316,31.53786],[131.12323,31.5371],[131.12554,31.53638],[131.12562,31.5367],[131.12677,31.53705],[131.12674,31.5375],[131.12742,31.53774],[131.12743,31.53788],[131.12689,31.53826],[131.12764,31.53929],[131.12807,31.53944],[131.12905,31.53933],[131.12946,31.53942],[131.12953,31.53963],[131.13,31.53962],[131.13103,31.53932],[131.1311,31.53947],[131.13189,31.53971],[131.13255,31.53979],[131.13328,31.53949],[131.13366,31.53959],[131.13442,31.53918],[131.13467,31.53834],[131.13494,31.5382],[131.13631,31.53854],[131.13638,31.53903],[131.13693,31.53922],[131.13677,31.5398],[131.13825,31.54],[131.13952,31.53962],[131.13943,31.54025],[131.13956,31.5403],[131.13991,31.54007],[131.13993,31.53941],[131.14099,31.53869],[131.14146,31.53932],[131.14225,31.53954],[131.14233,31.54037],[131.14318,31.54087],[131.14268,31.54176],[131.14288,31.54206],[131.14366,31.54199],[131.14394,31.54182],[131.14393,31.54087],[131.14438,31.54041],[131.14473,31.54095],[131.14489,31.54158],[131.14538,31.54203],[131.14676,31.54199],[131.14681,31.54181],[131.14655,31.5414],[131.14555,31.541],[131.14521,31.54022],[131.1455,31.53995],[131.14571,31.53928],[131.14675,31.53875],[131.14695,31.53793],[131.14797,31.53732],[131.14802,31.53761],[131.14824,31.53767],[131.14902,31.53712],[131.14948,31.53704],[131.15136,31.53712],[131.15341,31.537],[131.15452,31.53716],[131.15581,31.53761],[131.15664,31.53765],[131.15817,31.5371],[131.16093,31.53518],[131.16292,31.53466],[131.16445,31.53459],[131.16519,31.53472],[131.16634,31.53563],[131.16699,31.53655],[131.1683,31.53721],[131.16859,31.53753],[131.16942,31.54131],[131.16931,31.54222],[131.16905,31.54248],[131.16864,31.54256],[131.16546,31.5403],[131.16503,31.54013],[131.16456,31.54011],[131.16416,31.54073],[131.16441,31.54138],[131.16534,31.54275],[131.16965,31.54767],[131.16986,31.54814],[131.16993,31.5489],[131.16973,31.55049],[131.1693,31.55175],[131.16813,31.55441],[131.16667,31.55683],[131.1686,31.55746],[131.16931,31.55818],[131.16948,31.55891],[131.16976,31.56084],[131.16962,31.56261],[131.16832,31.56675],[131.17072,31.56784],[131.1726,31.56677],[131.17344,31.56669],[131.17538,31.56768],[131.17585,31.56811],[131.17594,31.56859],[131.17581,31.56937],[131.17535,31.57025],[131.17355,31.57187],[131.17333,31.57308],[131.17297,31.57375],[131.1724,31.57433],[131.16931,31.57731],[131.16816,31.57822],[131.16565,31.57961],[131.16452,31.57964],[131.16496,31.57988],[131.16493,31.58054],[131.16465,31.581],[131.16399,31.58157],[131.16311,31.58202],[131.16245,31.58279],[131.16208,31.58338],[131.16208,31.58427],[131.16377,31.58744],[131.16417,31.58763],[131.16506,31.58763],[131.16792,31.58723],[131.1686,31.58699],[131.17032,31.58592],[131.17241,31.58505],[131.17592,31.58467],[131.17817,31.58275],[131.17887,31.58241],[131.17928,31.58228],[131.18068,31.5823],[131.18307,31.58161],[131.18354,31.58161],[131.18315,31.5825],[131.18282,31.58274],[131.18161,31.58284],[131.1813,31.58311],[131.18115,31.58371],[131.18132,31.58445],[131.18113,31.58532],[131.18118,31.58595],[131.18179,31.58744],[131.18352,31.58846],[131.18415,31.58989],[131.18406,31.59049],[131.18438,31.59116],[131.18444,31.5919],[131.18393,31.59261],[131.18327,31.59287],[131.18331,31.59347],[131.18296,31.59433],[131.18376,31.5947],[131.18402,31.59518],[131.18366,31.59533],[131.18311,31.59617],[131.18341,31.59654],[131.18461,31.59699],[131.18491,31.59738],[131.18489,31.59782],[131.18453,31.59829],[131.18471,31.59888],[131.1847,31.59971],[131.18452,31.59999],[131.18349,31.60022],[131.18267,31.60084],[131.18213,31.60169],[131.18179,31.60284],[131.18184,31.60335],[131.18148,31.60491],[131.18019,31.60555],[131.17981,31.6062],[131.17984,31.60667],[131.18078,31.60762],[131.18581,31.60862],[131.18637,31.60577],[131.18745,31.60344],[131.19116,31.60029],[131.1916,31.59934],[131.19201,31.59885],[131.195,31.59721],[131.19645,31.59611],[131.19745,31.59491],[131.19839,31.59339],[131.19863,31.59144],[131.1988,31.59114],[131.20016,31.59003],[131.20082,31.58918],[131.20148,31.58826],[131.20295,31.58529]]]},"properties":{"key":"462210110","name":"志布志町内之倉","pref":"鹿児島県","prefCode":"46","municipality":"志布志市","areaM2":45746932.063,"population":853,"toponymIds":["46-c6abb4670a"]}},{"type":"Feature","geometry":{"type":"Polygon","coordinates":[[[131.13179,31.46593],[131.13174,31.4659],[131.13155,31.46617],[131.13127,31.46663],[131.13097,31.46708],[131.13109,31.46708],[131.13157,31.46628],[131.13179,31.46593]]]},"properties":{"key":"462210130","name":"志布志町夏井","pref":"鹿児島県","prefCode":"46","municipality":"志布志市","areaM2":1128.107,"population":0,"toponymIds":["46-64b7d4f532"]}},{"type":"Feature","geometry":{"type":"Polygon","coordinates":[[[129.54475,28.45468],[129.54595,28.4533],[129.5461,28.45174],[129.54709,28.45033],[129.54774,28.44829],[129.54869,28.44727],[129.54861,28.44594],[129.54824,28.44522],[129.54824,28.4449],[129.54891,28.44372],[129.55007,28.44256],[129.54997,28.43992],[129.55025,28.43823],[129.54985,28.43712],[129.54976,28.4349],[129.54871,28.43255],[129.54785,28.43224],[129.5466,28.43051],[129.54611,28.42862],[129.54561,28.42797],[129.54531,28.42717],[129.54528,28.42652],[129.54504,28.42605],[129.54511,28.42531],[129.54534,28.42492],[129.54512,28.42467],[129.54521,28.42438],[129.5465,28.42327],[129.54686,28.42272],[129.54717,28.42193],[129.54742,28.42043],[129.54857,28.41876],[129.54885,28.41729],[129.54877,28.4155],[129.54855,28.41499],[129.54836,28.41245],[129.54817,28.41184],[129.54653,28.41125],[129.54563,28.40911],[129.54504,28.40877],[129.5442,28.40856],[129.54339,28.40798],[129.54273,28.40684],[129.54255,28.40603],[129.54257,28.40498],[129.54168,28.40442],[129.54141,28.40381],[129.54052,28.40324],[129.53894,28.403],[129.53863,28.4024],[129.53845,28.40238],[129.53824,28.40278],[129.53775,28.40304],[129.53623,28.40309],[129.53394,28.40412],[129.53212,28.40471],[129.53153,28.40472],[129.53238,28.40777],[129.53172,28.40875],[129.53036,28.40891],[129.5301,28.40959],[129.53117,28.40997],[129.53126,28.41027],[129.53101,28.41054],[129.53223,28.41155],[129.53248,28.41295],[129.53384,28.4138],[129.53411,28.41446],[129.53453,28.41495],[129.5348,28.41572],[129.53562,28.41656],[129.53677,28.41897],[129.53773,28.42056],[129.53814,28.42167],[129.53813,28.42317],[129.53785,28.42451],[129.53712,28.42615],[129.53713,28.42666],[129.53782,28.42901],[129.53871,28.4309],[129.5393,28.43296],[129.5391,28.43375],[129.53853,28.43454],[129.53751,28.43789],[129.53499,28.44284],[129.53425,28.44459],[129.53322,28.44647],[129.53162,28.44844],[129.5333,28.4482],[129.53576,28.45021],[129.53609,28.45082],[129.53582,28.45132],[129.53499,28.4521],[129.53425,28.45249],[129.53419,28.45299],[129.5346,28.45398],[129.53521,28.45421],[129.53541,28.45382],[129.5365,28.45432],[129.53847,28.45448],[129.53971,28.4552],[129.54012,28.45576],[129.53991,28.45693],[129.54052,28.45876],[129.54127,28.45963],[129.54154,28.45924],[129.5436,28.4575],[129.54416,28.45581],[129.54475,28.45468]]]},"properties":{"key":"462220330","name":"名瀬大字芦花部","pref":"鹿児島県","prefCode":"46","municipality":"奄美市","areaM2":6698468.484,"population":153,"toponymIds":["46-a88d98d425"]}},{"type":"Feature","geometry":{"type":"Polygon","coordinates":[[[130.61005,32.0179],[130.61174,32.01697],[130.61399,32.01529],[130.61613,32.0141],[130.61861,32.01309],[130.62059,32.0119],[130.62273,32.00963],[130.62495,32.0077],[130.62567,32.00732],[130.62761,32.00679],[130.63197,32.00627],[130.63491,32.00559],[130.63743,32.00417],[130.63774,32.00386],[130.63988,32.00002],[130.64155,31.99538],[130.64203,31.99442],[130.64277,31.99345],[130.64378,31.99261],[130.64368,31.99219],[130.63388,31.99192],[130.63293,31.99155],[130.63263,31.99128],[130.63169,31.99191],[130.63092,31.99008],[130.6311,31.98938],[130.6303,31.9895],[130.63024,31.98916],[130.62826,31.98772],[130.62815,31.98705],[130.62831,31.98671],[130.62864,31.98659],[130.62864,31.98614],[130.62728,31.98552],[130.62637,31.9855],[130.62655,31.98463],[130.62641,31.98434],[130.6255,31.98389],[130.62547,31.98341],[130.62531,31.98321],[130.62512,31.98318],[130.6249,31.98348],[130.62453,31.98313],[130.6243,31.98249],[130.62418,31.98104],[130.62457,31.97954],[130.62538,31.97899],[130.6243,31.97768],[130.62399,31.977],[130.62342,31.97675],[130.62342,31.97662],[130.62292,31.97658],[130.62246,31.97621],[130.62179,31.97615],[130.62137,31.97573],[130.61922,31.97585],[130.61876,31.97559],[130.61811,31.97551],[130.61738,31.97509],[130.61738,31.97471],[130.61721,31.9746],[130.61533,31.974],[130.61517,31.97365],[130.61417,31.97278],[130.61411,31.97238],[130.61373,31.97194],[130.61296,31.97142],[130.61206,31.97033],[130.61169,31.97022],[130.61085,31.9696],[130.60952,31.96824],[130.60818,31.96761],[130.6081,31.9673],[130.60792,31.96724],[130.60744,31.96739],[130.60691,31.96787],[130.60516,31.96844],[130.60502,31.9688],[130.60401,31.96804],[130.6035,31.9703],[130.60363,31.97139],[130.60335,31.9721],[130.60243,31.9735],[130.60195,31.97524],[130.60188,31.97594],[130.60219,31.97726],[130.60567,31.98036],[130.60606,31.98144],[130.6068,31.98198],[130.6074,31.98301],[130.60795,31.98318],[130.60903,31.98407],[130.60938,31.98456],[130.60966,31.98549],[130.61012,31.98588],[130.61001,31.98764],[130.61035,31.98806],[130.61121,31.98858],[130.61182,31.98951],[130.61216,31.98967],[130.614,31.98987],[130.6148,31.99046],[130.61592,31.99062],[130.61633,31.99054],[130.61672,31.9895],[130.6173,31.989],[130.61838,31.98977],[130.61917,31.98996],[130.62004,31.99186],[130.62069,31.99269],[130.62038,31.99321],[130.61961,31.99357],[130.61939,31.99436],[130.61888,31.99458],[130.61884,31.99523],[130.61973,31.99546],[130.61982,31.99565],[130.61927,31.99587],[130.6191,31.99637],[130.61755,31.99614],[130.61694,31.99574],[130.61662,31.99577],[130.61562,31.99606],[130.61538,31.99682],[130.61501,31.99736],[130.61401,31.99734],[130.61367,31.99748],[130.61302,31.9995],[130.61387,32.0],[130.61395,32.00059],[130.6116,32.00218],[130.61146,32.00294],[130.6112,32.00341],[130.61017,32.00358],[130.60971,32.00413],[130.609,32.00395],[130.60868,32.00409],[130.60822,32.00444],[130.60793,32.00509],[130.60738,32.00561],[130.60801,32.00597],[130.60832,32.00636],[130.60933,32.01038],[130.61018,32.01108],[130.61084,32.01367],[130.61062,32.01478],[130.61083,32.01539],[130.61133,32.01609],[130.61124,32.01672],[130.61094,32.01705],[130.60965,32.01734],[130.60524,32.0163],[130.60411,32.01644],[130.60282,32.01692],[130.60506,32.01816],[130.60639,32.01854],[130.60733,32.01864],[130.6085,32.01844],[130.61005,32.0179]]]},"properties":{"key":"462240280","name":"菱刈荒田","pref":"鹿児島県","prefCode":"46","municipality":"伊佐市","areaM2":8985850.948,"population":727,"toponymIds":["46-a7ddee29ad"]}},{"type":"Feature","geometry":{"type":"Polygon","coordinates":[[[130.68499,32.07092],[130.6873,32.07084],[130.68831,32.06999],[130.6892,32.06951],[130.69119,32.06941],[130.69218,32.06864],[130.69331,32.06846],[130.69408,32.06714],[130.69466,32.06688],[130.69644,32.06734],[130.69815,32.06715],[130.69911,32.06775],[130.69995,32.06859],[130.70237,32.06992],[130.70311,32.06975],[130.70349,32.06944],[130.70335,32.0601],[130.70346,32.05876],[130.70264,32.05798],[130.70227,32.05646],[130.70274,32.0557],[130.70407,32.05552],[130.70425,32.05516],[130.70374,32.05404],[130.70399,32.05328],[130.70375,32.05189],[130.70319,32.05052],[130.70251,32.05015],[130.70231,32.04987],[130.69503,32.04736],[130.69024,32.04626],[130.68365,32.04576],[130.67158,32.04551],[130.6658,32.04514],[130.65652,32.04315],[130.65202,32.04191],[130.65013,32.04103],[130.64835,32.042],[130.64751,32.04207],[130.64865,32.04367],[130.64932,32.04408],[130.64997,32.04526],[130.65108,32.04537],[130.65034,32.04562],[130.6494,32.04556],[130.64884,32.04569],[130.64844,32.04552],[130.64766,32.04471],[130.64754,32.04405],[130.64712,32.04348],[130.64626,32.04288],[130.64464,32.04234],[130.64391,32.04233],[130.64206,32.0428],[130.64095,32.04286],[130.6402,32.04345],[130.63976,32.04416],[130.63758,32.0447],[130.63687,32.04195],[130.63593,32.04199],[130.63498,32.04178],[130.63218,32.042],[130.63213,32.04072],[130.63089,32.04049],[130.62851,32.04055],[130.62848,32.03959],[130.62794,32.03959],[130.62655,32.04159],[130.62643,32.04198],[130.62675,32.04346],[130.62648,32.04438],[130.62693,32.0449],[130.62805,32.04557],[130.62971,32.0458],[130.63011,32.04607],[130.63084,32.04683],[130.63137,32.04768],[130.63197,32.04922],[130.63246,32.04977],[130.63346,32.0505],[130.63499,32.05103],[130.63836,32.05067],[130.64038,32.04931],[130.64254,32.04932],[130.64336,32.04951],[130.64396,32.04985],[130.64432,32.05044],[130.64468,32.052],[130.64459,32.05297],[130.64411,32.05406],[130.6449,32.05468],[130.64603,32.05476],[130.64625,32.05512],[130.64607,32.05581],[130.64534,32.05698],[130.64494,32.05796],[130.64527,32.05873],[130.64578,32.05912],[130.64645,32.05933],[130.64773,32.05939],[130.65477,32.05892],[130.6589,32.06001],[130.65934,32.06046],[130.65977,32.06144],[130.66021,32.06178],[130.66209,32.06161],[130.66409,32.06208],[130.66495,32.06212],[130.66629,32.06164],[130.66731,32.06064],[130.66964,32.06071],[130.6698,32.06045],[130.66977,32.05999],[130.66944,32.05925],[130.66971,32.05874],[130.67029,32.05837],[130.6732,32.05867],[130.67371,32.05898],[130.67377,32.05932],[130.67312,32.05977],[130.67295,32.06046],[130.67222,32.061],[130.6721,32.06178],[130.67246,32.06319],[130.67342,32.06381],[130.6734,32.06472],[130.6739,32.06526],[130.67396,32.06616],[130.67453,32.06676],[130.67504,32.06777],[130.67504,32.06813],[130.67574,32.06842],[130.6765,32.0684],[130.68023,32.06942],[130.68278,32.06937],[130.68351,32.06982],[130.68436,32.07112],[130.68499,32.07092]]]},"properties":{"key":"462240370","name":"菱刈市山","pref":"鹿児島県","prefCode":"46","municipality":"伊佐市","areaM2":13079297.881,"population":492,"toponymIds":["46-32711deabb"]}},{"type":"Feature","geometry":{"type":"Polygon","coordinates":[[[130.70733,32.00443],[130.70671,32.00291],[130.70699,32.0027],[130.70621,32.00266],[130.70544,32.00241],[130.70492,32.00189],[130.70555,32.00054],[130.7057,31.99944],[130.70546,31.99905],[130.70335,31.99822],[130.70276,31.99846],[130.70206,31.99836],[130.69927,31.99746],[130.69741,31.99791],[130.69673,31.99768],[130.69557,31.99768],[130.69488,31.99721],[130.69429,31.99627],[130.69361,31.9957],[130.69273,31.99523],[130.69226,31.99478],[130.69183,31.99482],[130.69107,31.99418],[130.6905,31.99316],[130.69,31.99283],[130.69013,31.99224],[130.68993,31.99174],[130.69015,31.99148],[130.6901,31.99109],[130.69122,31.99052],[130.69124,31.98992],[130.68908,31.98848],[130.68828,31.98827],[130.68522,31.98649],[130.68446,31.98491],[130.6846,31.9841],[130.68451,31.9834],[130.68375,31.98178],[130.68257,31.98139],[130.68235,31.98143],[130.68209,31.98179],[130.68158,31.98182],[130.68134,31.98142],[130.68125,31.97945],[130.68097,31.97889],[130.67894,31.97708],[130.6765,31.97653],[130.67512,31.97683],[130.67507,31.97729],[130.67536,31.97817],[130.67542,31.97905],[130.67539,31.97952],[130.67491,31.98021],[130.67235,31.98135],[130.67197,31.98157],[130.67151,31.98219],[130.67132,31.98262],[130.67094,31.98534],[130.67039,31.98638],[130.668,31.98677],[130.66637,31.98664],[130.66542,31.98624],[130.66427,31.9855],[130.66201,31.98372],[130.66041,31.98331],[130.65963,31.98329],[130.65913,31.98347],[130.65863,31.98387],[130.65837,31.98434],[130.65815,31.98502],[130.65809,31.98601],[130.6585,31.98877],[130.65945,31.99295],[130.65922,31.99346],[130.65893,31.99356],[130.65726,31.99331],[130.64919,31.99162],[130.64648,31.9917],[130.64544,31.99193],[130.64346,31.99278],[130.64203,31.99442],[130.64155,31.99538],[130.63988,32.00002],[130.6406,32.00026],[130.64114,31.99935],[130.64491,32.00188],[130.64782,31.99876],[130.65149,31.99896],[130.65156,31.99849],[130.65263,31.99854],[130.65543,31.99516],[130.65676,31.99514],[130.65852,31.99544],[130.65941,31.99509],[130.65984,31.9951],[130.66075,31.9952],[130.66125,31.99558],[130.66228,31.9952],[130.66294,31.99463],[130.66389,31.99496],[130.66514,31.99485],[130.66539,31.99536],[130.66522,31.9958],[130.66669,31.99695],[130.66758,31.9971],[130.66806,31.99703],[130.66859,31.99644],[130.66787,32.00088],[130.66718,32.00207],[130.66609,32.00291],[130.6669,32.00291],[130.66864,32.00407],[130.66997,32.00462],[130.67117,32.00489],[130.67202,32.00443],[130.6726,32.0035],[130.67416,32.00325],[130.67416,32.00209],[130.67517,32.0015],[130.67573,32.00077],[130.67628,32.00062],[130.67652,32.00023],[130.67789,31.99969],[130.67995,31.99854],[130.6802,31.99825],[130.68056,31.99726],[130.68116,31.99695],[130.68143,31.99653],[130.68173,31.99647],[130.68163,31.996],[130.68238,31.99591],[130.68333,31.99552],[130.68454,31.99608],[130.68438,31.99671],[130.68447,31.9974],[130.68478,31.99784],[130.68531,31.99757],[130.68552,31.99846],[130.68645,31.99886],[130.68703,31.99935],[130.68959,32.00073],[130.69,32.00066],[130.69083,32.00105],[130.69123,32.00104],[130.69168,32.00149],[130.69293,32.00166],[130.69455,32.00235],[130.69567,32.00226],[130.69751,32.00318],[130.69818,32.00301],[130.69967,32.00312],[130.70096,32.00353],[130.70212,32.0037],[130.7031,32.00446],[130.70448,32.00413],[130.70775,32.00522],[130.70733,32.00443]]]},"properties":{"key":"462240300","name":"菱刈川北","pref":"鹿児島県","prefCode":"46","municipality":"伊佐市","areaM2":7239910.99,"population":884,"toponymIds":["46-a4ddb6fe97"]}},{"type":"Feature","geometry":{"type":"Polygon","coordinates":[[[130.66819,31.966],[130.66725,31.96413],[130.6663,31.96337],[130.66573,31.96171],[130.66509,31.96083],[130.66508,31.96034],[130.66448,31.96093],[130.66453,31.96164],[130.66382,31.96391],[130.6626,31.96448],[130.66195,31.96537],[130.66218,31.96587],[130.66178,31.96584],[130.66123,31.96551],[130.66082,31.96721],[130.66239,31.96813],[130.66364,31.96917],[130.66269,31.9697],[130.66201,31.9706],[130.66113,31.97112],[130.66032,31.97132],[130.65988,31.97175],[130.65969,31.97247],[130.65899,31.97269],[130.65889,31.97308],[130.65859,31.97332],[130.6575,31.97346],[130.65664,31.9738],[130.65642,31.97434],[130.65673,31.97479],[130.6567,31.97498],[130.65598,31.97514],[130.65578,31.97551],[130.65591,31.97597],[130.6563,31.97625],[130.65683,31.97721],[130.65684,31.9783],[130.65716,31.9787],[130.65827,31.97919],[130.65848,31.97984],[130.65871,31.98005],[130.65847,31.98037],[130.65839,31.98096],[130.65893,31.98166],[130.6593,31.98184],[130.65944,31.9823],[130.6592,31.98268],[130.65963,31.98329],[130.66135,31.98347],[130.66201,31.98372],[130.66542,31.98624],[130.66692,31.98677],[130.668,31.98677],[130.67039,31.98638],[130.67094,31.98534],[130.67132,31.98262],[130.67151,31.98219],[130.67197,31.98157],[130.67235,31.98135],[130.67491,31.98021],[130.67539,31.97952],[130.67542,31.97905],[130.67536,31.97817],[130.67507,31.97729],[130.67512,31.97683],[130.6765,31.97653],[130.67596,31.97626],[130.67428,31.97481],[130.67298,31.97278],[130.6727,31.97211],[130.67141,31.97101],[130.67099,31.97031],[130.66945,31.96984],[130.66904,31.96904],[130.66836,31.96833],[130.66854,31.9676],[130.66819,31.966]]]},"properties":{"key":"462240290","name":"菱刈川南","pref":"鹿児島県","prefCode":"46","municipality":"伊佐市","areaM2":2850600.376,"population":0,"toponymIds":["46-c48f1ce9bf"]}},{"type":"Feature","geometry":{"type":"Polygon","coordinates":[[[130.63933,32.04196],[130.64069,32.04184],[130.6405,32.04143],[130.64056,32.04083],[130.64006,32.04049],[130.63912,32.04028],[130.63934,32.0396],[130.63918,32.03915],[130.63968,32.03855],[130.64072,32.03818],[130.64277,32.03793],[130.64254,32.03695],[130.64199,32.03572],[130.64239,32.03555],[130.64408,32.03586],[130.64404,32.0353],[130.64127,32.0344],[130.64013,32.03296],[130.63953,32.03249],[130.63783,32.03207],[130.63612,32.03199],[130.6395,32.02846],[130.64078,32.02788],[130.64181,32.02797],[130.64254,32.0284],[130.64279,32.02867],[130.64348,32.03029],[130.64389,32.03058],[130.64491,32.03074],[130.64472,32.03011],[130.64477,32.02698],[130.64399,32.02523],[130.64379,32.02404],[130.64384,32.02146],[130.64071,32.02161],[130.63832,32.0204],[130.63665,32.01916],[130.63374,32.01839],[130.63352,32.01864],[130.63352,32.0192],[130.63327,32.0196],[130.6326,32.01941],[130.6316,32.01972],[130.63074,32.01966],[130.62994,32.02001],[130.6294,32.02128],[130.62802,32.02267],[130.62705,32.02314],[130.62559,32.02537],[130.6245,32.0259],[130.62393,32.0267],[130.62262,32.02671],[130.62281,32.02962],[130.62227,32.03103],[130.62301,32.03162],[130.62309,32.0327],[130.62398,32.03486],[130.62745,32.03307],[130.62902,32.03265],[130.63101,32.03249],[130.63366,32.03292],[130.63463,32.03284],[130.63421,32.034],[130.63285,32.036],[130.63117,32.03692],[130.62923,32.03828],[130.62834,32.03901],[130.62794,32.03959],[130.62848,32.03959],[130.62851,32.04055],[130.63089,32.04049],[130.63213,32.04072],[130.63218,32.042],[130.63498,32.04178],[130.63593,32.04199],[130.63687,32.04195],[130.6382,32.04227],[130.63933,32.04196]]]},"properties":{"key":"462240350","name":"菱刈重留","pref":"鹿児島県","prefCode":"46","municipality":"伊佐市","areaM2":3250169.086,"population":734,"toponymIds":["46-de1b1fa9e6"]}},{"type":"Feature","geometry":{"type":"Polygon","coordinates":[[[130.61921,32.03095],[130.62234,32.02745],[130.62262,32.02671],[130.62393,32.0267],[130.6245,32.0259],[130.62573,32.02523],[130.62705,32.02314],[130.62789,32.0227],[130.62789,32.02212],[130.62663,32.02181],[130.62618,32.02141],[130.62523,32.02095],[130.625,32.02033],[130.6254,32.01992],[130.62542,32.01949],[130.62417,32.01855],[130.62355,32.01841],[130.62349,32.01804],[130.62597,32.01785],[130.62248,32.00992],[130.62113,32.01146],[130.61946,32.01263],[130.61613,32.0141],[130.61399,32.01529],[130.61174,32.01697],[130.61005,32.0179],[130.6085,32.01844],[130.60733,32.01864],[130.60639,32.01854],[130.60506,32.01816],[130.60282,32.01692],[130.60214,32.01732],[130.60081,32.01938],[130.60031,32.02052],[130.59999,32.02158],[130.59996,32.02279],[130.60068,32.02485],[130.60249,32.02779],[130.60289,32.02881],[130.60322,32.03051],[130.60365,32.0314],[130.60409,32.0319],[130.6051,32.03223],[130.60636,32.03194],[130.60734,32.03093],[130.60834,32.02889],[130.60869,32.02847],[130.60946,32.0281],[130.61045,32.02812],[130.61109,32.02849],[130.61399,32.03186],[130.6148,32.03308],[130.61523,32.0343],[130.61621,32.035],[130.61684,32.03309],[130.61795,32.03181],[130.61867,32.03165],[130.61884,32.03125],[130.61921,32.03095]]]},"properties":{"key":"462240330","name":"菱刈下手","pref":"鹿児島県","prefCode":"46","municipality":"伊佐市","areaM2":3782814.986,"population":220,"toponymIds":["46-d050695d53"]}},{"type":"Feature","geometry":{"type":"Polygon","coordinates":[[[130.6494,32.04556],[130.65034,32.04562],[130.65108,32.04537],[130.64997,32.04526],[130.64932,32.04408],[130.64865,32.04367],[130.64751,32.04207],[130.64835,32.042],[130.65013,32.04103],[130.65202,32.04191],[130.65652,32.04315],[130.66511,32.04499],[130.66513,32.04285],[130.66535,32.04182],[130.66719,32.03456],[130.66785,32.03325],[130.66745,32.03238],[130.66658,32.03183],[130.66581,32.03177],[130.66521,32.032],[130.66258,32.03195],[130.66159,32.03221],[130.66128,32.03268],[130.66192,32.03415],[130.66143,32.03471],[130.66139,32.03525],[130.66118,32.03539],[130.66046,32.03545],[130.65807,32.03485],[130.65692,32.03416],[130.65644,32.03429],[130.65554,32.03185],[130.65461,32.03094],[130.65503,32.03022],[130.65498,32.0281],[130.65445,32.02723],[130.65361,32.02635],[130.65309,32.02314],[130.65207,32.02336],[130.65102,32.02251],[130.65088,32.02359],[130.65052,32.02427],[130.64992,32.02499],[130.64904,32.02562],[130.64709,32.0262],[130.64586,32.02615],[130.64416,32.02567],[130.64477,32.02698],[130.64472,32.03011],[130.64491,32.03074],[130.64389,32.03058],[130.64348,32.03029],[130.64279,32.02867],[130.64254,32.0284],[130.64181,32.02797],[130.64078,32.02788],[130.6395,32.02846],[130.63612,32.03199],[130.63783,32.03207],[130.63953,32.03249],[130.64013,32.03296],[130.64127,32.0344],[130.64404,32.0353],[130.64408,32.03586],[130.64239,32.03555],[130.64199,32.03572],[130.64254,32.03695],[130.64277,32.03793],[130.64072,32.03818],[130.63968,32.03855],[130.63918,32.03915],[130.63934,32.0396],[130.63912,32.04028],[130.64006,32.04049],[130.64056,32.04083],[130.6405,32.04143],[130.64069,32.04184],[130.63933,32.04196],[130.6382,32.04227],[130.63687,32.04195],[130.63758,32.0447],[130.63976,32.04416],[130.6402,32.04345],[130.64095,32.04286],[130.64206,32.0428],[130.64391,32.04233],[130.64464,32.04234],[130.64626,32.04288],[130.64712,32.04348],[130.64754,32.04405],[130.64756,32.04457],[130.64844,32.04552],[130.64884,32.04569],[130.6494,32.04556]]]},"properties":{"key":"462240360","name":"菱刈田中","pref":"鹿児島県","prefCode":"46","municipality":"伊佐市","areaM2":3847287.005,"population":428,"toponymIds":["46-b6fcf3c1f2"]}},{"type":"Feature","geometry":{"type":"Polygon","coordinates":[[[130.68459,32.04584],[130.6844,32.04555],[130.68451,32.04451],[130.68425,32.04349],[130.68153,32.04041],[130.68146,32.04022],[130.68166,32.03976],[130.68081,32.03919],[130.67939,32.03945],[130.67875,32.03912],[130.67822,32.03817],[130.67824,32.03784],[130.67847,32.03762],[130.67824,32.0375],[130.67775,32.0365],[130.67724,32.03667],[130.67676,32.03645],[130.67601,32.03506],[130.67503,32.03397],[130.67459,32.03296],[130.67482,32.03205],[130.67508,32.03164],[130.67517,32.03065],[130.67102,32.03048],[130.66963,32.03017],[130.66885,32.02972],[130.67409,32.02628],[130.67375,32.02609],[130.67192,32.02575],[130.67117,32.0258],[130.67071,32.02616],[130.67012,32.02593],[130.66818,32.02585],[130.66872,32.02565],[130.66927,32.02424],[130.67006,32.0243],[130.67208,32.02389],[130.67306,32.0241],[130.6738,32.02464],[130.67383,32.02379],[130.67347,32.02254],[130.6723,32.02227],[130.67217,32.02187],[130.67232,32.02125],[130.67184,32.02115],[130.67139,32.02079],[130.67061,32.02088],[130.67006,32.02076],[130.67094,32.02017],[130.67105,32.01986],[130.67223,32.01972],[130.67275,32.0199],[130.67342,32.01989],[130.67456,32.01956],[130.67607,32.01937],[130.6767,32.01908],[130.67717,32.01921],[130.67906,32.02052],[130.67959,32.02059],[130.68059,32.02008],[130.68171,32.02005],[130.68259,32.01949],[130.68353,32.01822],[130.68454,32.01745],[130.68521,32.01526],[130.68474,32.01527],[130.68316,32.0147],[130.68253,32.01522],[130.67843,32.01497],[130.67562,32.01506],[130.67361,32.01468],[130.67131,32.01364],[130.66919,32.0121],[130.66726,32.01097],[130.66656,32.00994],[130.66642,32.00888],[130.6658,32.00872],[130.6655,32.00893],[130.66559,32.00873],[130.66546,32.0085],[130.66601,32.00736],[130.66604,32.00687],[130.66587,32.00633],[130.6655,32.00593],[130.66298,32.00793],[130.663,32.00686],[130.66264,32.00601],[130.66267,32.00522],[130.66219,32.00554],[130.66202,32.00602],[130.66168,32.00628],[130.6616,32.00664],[130.66115,32.00703],[130.66088,32.00817],[130.66045,32.00783],[130.65862,32.00756],[130.65799,32.00763],[130.65648,32.00733],[130.65579,32.00888],[130.65531,32.00924],[130.65514,32.01012],[130.65479,32.01074],[130.6539,32.0115],[130.65309,32.01176],[130.64784,32.01548],[130.64759,32.0162],[130.64779,32.01641],[130.64856,32.01638],[130.64941,32.01679],[130.65127,32.01686],[130.65222,32.01714],[130.65325,32.01694],[130.65404,32.01782],[130.6544,32.01789],[130.65355,32.01882],[130.65135,32.02063],[130.65108,32.02147],[130.65102,32.02251],[130.65207,32.02336],[130.65309,32.02314],[130.65361,32.02635],[130.65445,32.02723],[130.65498,32.0281],[130.65503,32.03022],[130.65461,32.03094],[130.65554,32.03185],[130.65644,32.03429],[130.65692,32.03416],[130.65807,32.03485],[130.66046,32.03545],[130.66104,32.03543],[130.66139,32.03525],[130.66143,32.03471],[130.66192,32.03423],[130.66186,32.03383],[130.66126,32.03276],[130.66173,32.03214],[130.66258,32.03195],[130.66521,32.032],[130.66596,32.03177],[130.66674,32.03188],[130.66752,32.03246],[130.66785,32.03325],[130.66719,32.03456],[130.66535,32.04182],[130.66513,32.04285],[130.66511,32.04499],[130.67158,32.04551],[130.68459,32.04584]]]},"properties":{"key":"462240310","name":"菱刈徳辺","pref":"鹿児島県","prefCode":"46","municipality":"伊佐市","areaM2":7286925.451,"population":529,"toponymIds":["46-6962176fe7"]}},{"type":"Feature","geometry":{"type":"Polygon","coordinates":[[[130.62657,32.04246],[130.62643,32.04198],[130.62655,32.04159],[130.62834,32.03901],[130.63076,32.03719],[130.63285,32.036],[130.63421,32.034],[130.63463,32.03284],[130.63366,32.03292],[130.63101,32.03249],[130.62902,32.03265],[130.62745,32.03307],[130.62398,32.03486],[130.62309,32.0327],[130.62301,32.03162],[130.62227,32.03103],[130.62281,32.02962],[130.62262,32.02671],[130.62234,32.02745],[130.61884,32.03125],[130.61882,32.0315],[130.61795,32.03181],[130.61678,32.03318],[130.61621,32.035],[130.61663,32.03542],[130.61708,32.0366],[130.6171,32.04094],[130.61751,32.04161],[130.6182,32.04205],[130.61989,32.04228],[130.62144,32.04226],[130.62437,32.04281],[130.62574,32.04364],[130.62648,32.04438],[130.62675,32.04346],[130.62657,32.04246]]]},"properties":{"key":"462240340","name":"菱刈花北","pref":"鹿児島県","prefCode":"46","municipality":"伊佐市","areaM2":1495517.208,"population":327,"toponymIds":["46-c4181fb74e"]}},{"type":"Feature","geometry":{"type":"Polygon","coordinates":[[[130.70176,32.02972],[130.70179,32.02711],[130.70248,32.02537],[130.70233,32.02345],[130.70396,32.01964],[130.70353,32.0189],[130.70386,32.01806],[130.70387,32.0176],[130.70283,32.01647],[130.70246,32.01559],[130.70247,32.01505],[130.70291,32.0146],[130.70321,32.01351],[130.70359,32.01291],[130.70385,32.01168],[130.70462,32.00996],[130.70507,32.00957],[130.7069,32.00875],[130.70837,32.00748],[130.70865,32.00705],[130.70867,32.00648],[130.70775,32.00522],[130.70462,32.00415],[130.70367,32.00423],[130.7031,32.00446],[130.70212,32.0037],[130.70096,32.00353],[130.69967,32.00312],[130.69818,32.00301],[130.69751,32.00318],[130.69567,32.00226],[130.69455,32.00235],[130.69293,32.00166],[130.69168,32.00149],[130.69123,32.00104],[130.69083,32.00105],[130.69,32.00066],[130.68959,32.00073],[130.68703,31.99935],[130.68645,31.99886],[130.68552,31.99846],[130.68531,31.99757],[130.68474,31.9978],[130.68443,31.99731],[130.68438,31.99671],[130.68454,31.99608],[130.68343,31.99554],[130.68163,31.996],[130.68173,31.99647],[130.68143,31.99653],[130.68116,31.99695],[130.68056,31.99726],[130.6802,31.99825],[130.67995,31.99854],[130.67789,31.99969],[130.67652,32.00023],[130.67628,32.00062],[130.67573,32.00077],[130.67517,32.0015],[130.67416,32.00209],[130.67416,32.00325],[130.6726,32.0035],[130.67202,32.00443],[130.67117,32.00489],[130.66997,32.00462],[130.66864,32.00407],[130.6669,32.00291],[130.66609,32.00291],[130.66718,32.00207],[130.66787,32.00088],[130.66859,31.99644],[130.66806,31.99703],[130.66758,31.9971],[130.66669,31.99695],[130.66522,31.9958],[130.66539,31.99536],[130.66521,31.99487],[130.66389,31.99496],[130.66345,31.99489],[130.66308,31.99462],[130.66228,31.9952],[130.66167,31.99533],[130.66135,31.99558],[130.66063,31.99516],[130.65984,31.9951],[130.65941,31.99509],[130.65852,31.99544],[130.65676,31.99514],[130.65543,31.99516],[130.65263,31.99854],[130.65156,31.99849],[130.65149,31.99896],[130.64782,31.99876],[130.64491,32.00188],[130.64105,31.99937],[130.6406,32.00026],[130.63988,32.00002],[130.63774,32.00386],[130.63587,32.00514],[130.63491,32.00559],[130.63197,32.00627],[130.62761,32.00679],[130.62567,32.00732],[130.62495,32.0077],[130.62248,32.00992],[130.62597,32.01785],[130.62347,32.01812],[130.62363,32.01849],[130.62417,32.01855],[130.62542,32.01949],[130.6254,32.01992],[130.625,32.02037],[130.62531,32.02103],[130.62618,32.02141],[130.62682,32.02189],[130.62782,32.02207],[130.62781,32.02259],[130.62795,32.0227],[130.6294,32.02128],[130.62994,32.02001],[130.63074,32.01966],[130.6316,32.01972],[130.6326,32.01941],[130.63327,32.0196],[130.6335,32.01927],[130.63343,32.01892],[130.63367,32.01842],[130.63464,32.01856],[130.6351,32.01884],[130.63695,32.01931],[130.63832,32.0204],[130.64071,32.02161],[130.64384,32.02146],[130.64379,32.02404],[130.64416,32.02567],[130.64586,32.02615],[130.64709,32.0262],[130.64904,32.02562],[130.65037,32.02449],[130.65088,32.02359],[130.65108,32.02147],[130.65135,32.02063],[130.65355,32.01882],[130.6544,32.01789],[130.65404,32.01782],[130.65325,32.01694],[130.65222,32.01714],[130.65127,32.01686],[130.64941,32.01679],[130.64832,32.01633],[130.64766,32.01637],[130.64759,32.0162],[130.64784,32.01548],[130.65309,32.01176],[130.6539,32.0115],[130.65479,32.01074],[130.65514,32.01012],[130.65531,32.00924],[130.65579,32.00888],[130.65648,32.00733],[130.65799,32.00763],[130.65862,32.00756],[130.66045,32.00783],[130.66088,32.00817],[130.66115,32.00703],[130.6616,32.00664],[130.66168,32.00628],[130.66202,32.00602],[130.66219,32.00554],[130.66267,32.00522],[130.66264,32.00601],[130.663,32.00686],[130.66298,32.00793],[130.6655,32.00593],[130.66587,32.00633],[130.66604,32.00687],[130.66601,32.00736],[130.66546,32.0085],[130.66559,32.00873],[130.6655,32.00893],[130.6658,32.00872],[130.66642,32.00888],[130.66656,32.00994],[130.66698,32.01066],[130.67062,32.01322],[130.67268,32.01428],[130.67361,32.01468],[130.67562,32.01506],[130.67843,32.01497],[130.68253,32.01522],[130.68316,32.0147],[130.68474,32.01527],[130.68521,32.01526],[130.68454,32.01745],[130.68353,32.01822],[130.68259,32.01949],[130.68171,32.02005],[130.68059,32.02008],[130.67959,32.02059],[130.67906,32.02052],[130.67717,32.01921],[130.6767,32.01908],[130.67607,32.01937],[130.67456,32.01956],[130.67342,32.01989],[130.67275,32.0199],[130.67223,32.01972],[130.67105,32.01986],[130.67094,32.02017],[130.67006,32.02076],[130.67061,32.02088],[130.67139,32.02079],[130.67184,32.02115],[130.67232,32.02125],[130.67217,32.02187],[130.6723,32.02227],[130.67347,32.02254],[130.67383,32.02379],[130.6738,32.02464],[130.67306,32.0241],[130.67208,32.02389],[130.67006,32.0243],[130.66927,32.02424],[130.66872,32.02565],[130.66818,32.02585],[130.67012,32.02593],[130.67071,32.02616],[130.67117,32.0258],[130.67192,32.02575],[130.67387,32.02613],[130.675,32.02728],[130.67545,32.02749],[130.67687,32.02765],[130.67818,32.02876],[130.67924,32.02926],[130.68063,32.03091],[130.68277,32.0321],[130.68469,32.03286],[130.6849,32.03227],[130.68458,32.03187],[130.68464,32.03147],[130.68521,32.03158],[130.68581,32.03105],[130.68661,32.03066],[130.68676,32.0301],[130.68637,32.02949],[130.68958,32.02872],[130.68971,32.02916],[130.69048,32.02949],[130.69292,32.02946],[130.69445,32.03046],[130.69513,32.03114],[130.69645,32.03187],[130.69867,32.0336],[130.70222,32.035],[130.70326,32.03519],[130.70385,32.0352],[130.70377,32.03439],[130.70176,32.02972]]]},"properties":{"key":"462240320","name":"菱刈前目","pref":"鹿児島県","prefCode":"46","municipality":"伊佐市","areaM2":17143851.359,"population":1507,"toponymIds":["46-9b3c0190bf"]}},{"type":"Feature","geometry":{"type":"Polygon","coordinates":[[[130.6436,31.99145],[130.64352,31.98993],[130.64209,31.98606],[130.64226,31.98569],[130.64304,31.98535],[130.64346,31.98396],[130.64351,31.98373],[130.64314,31.98366],[130.64285,31.98333],[130.6432,31.98182],[130.64354,31.98131],[130.64359,31.98094],[130.64386,31.98091],[130.64474,31.98119],[130.646,31.98129],[130.6466,31.98154],[130.6469,31.98189],[130.6472,31.98185],[130.64749,31.98021],[130.64792,31.97969],[130.6482,31.9783],[130.64901,31.97795],[130.65018,31.97852],[130.64993,31.97954],[130.64955,31.98028],[130.65086,31.98004],[130.65204,31.97913],[130.65402,31.97923],[130.65513,31.97952],[130.65642,31.98036],[130.65688,31.98104],[130.65719,31.98111],[130.65721,31.9813],[130.65812,31.98166],[130.65835,31.98249],[130.659,31.98358],[130.65963,31.98329],[130.6592,31.98268],[130.65944,31.9823],[130.6593,31.98184],[130.65893,31.98166],[130.65839,31.98096],[130.65847,31.98037],[130.65871,31.98005],[130.65848,31.97984],[130.65827,31.97919],[130.65716,31.9787],[130.65684,31.9783],[130.65683,31.97721],[130.6563,31.97625],[130.65591,31.97597],[130.65578,31.97551],[130.65598,31.97514],[130.6567,31.97498],[130.65673,31.97479],[130.65642,31.97434],[130.65664,31.9738],[130.6575,31.97346],[130.65859,31.97332],[130.65889,31.97308],[130.65899,31.97269],[130.65969,31.97247],[130.65988,31.97175],[130.66032,31.97132],[130.66113,31.97112],[130.66201,31.9706],[130.66269,31.9697],[130.66364,31.96917],[130.66239,31.96813],[130.66082,31.96721],[130.66123,31.96551],[130.66178,31.96584],[130.66218,31.96587],[130.66195,31.96537],[130.6626,31.96448],[130.66382,31.96391],[130.66453,31.96164],[130.66448,31.96093],[130.66508,31.96034],[130.665,31.9588],[130.66576,31.95742],[130.66478,31.95638],[130.66494,31.95597],[130.66466,31.95569],[130.66442,31.95509],[130.66459,31.95458],[130.6639,31.9539],[130.66401,31.95345],[130.66454,31.95286],[130.66415,31.95242],[130.66424,31.95169],[130.66247,31.95062],[130.6624,31.94974],[130.66219,31.94975],[130.66211,31.94949],[130.6615,31.94927],[130.66027,31.94813],[130.65988,31.94819],[130.6596,31.94783],[130.65836,31.94811],[130.65815,31.94775],[130.65692,31.94783],[130.65667,31.947],[130.65574,31.94605],[130.65591,31.94544],[130.65557,31.94501],[130.65453,31.94481],[130.65343,31.94409],[130.65313,31.94341],[130.65236,31.94299],[130.65177,31.9422],[130.65142,31.94219],[130.65039,31.94132],[130.65006,31.94075],[130.64851,31.94003],[130.64779,31.94026],[130.64744,31.9402],[130.64616,31.93927],[130.64531,31.93949],[130.6447,31.93941],[130.64383,31.93854],[130.64281,31.93849],[130.64227,31.93803],[130.64179,31.93791],[130.64089,31.93801],[130.63897,31.93881],[130.63844,31.93873],[130.63692,31.93832],[130.63352,31.93675],[130.62802,31.93575],[130.62735,31.93548],[130.6264,31.93472],[130.62584,31.93551],[130.62587,31.93593],[130.62516,31.93684],[130.6248,31.93871],[130.625,31.93983],[130.62437,31.94053],[130.62423,31.9411],[130.62281,31.94125],[130.62175,31.94188],[130.62072,31.94368],[130.61986,31.94471],[130.61978,31.94596],[130.61945,31.94658],[130.61944,31.94713],[130.61916,31.94794],[130.6192,31.94908],[130.61897,31.94932],[130.61708,31.9501],[130.61616,31.95104],[130.61469,31.951],[130.61371,31.95305],[130.61309,31.95367],[130.61201,31.9531],[130.6116,31.95245],[130.61105,31.95212],[130.61056,31.95152],[130.60829,31.95146],[130.60752,31.9508],[130.60669,31.95051],[130.60653,31.95022],[130.60677,31.94981],[130.60668,31.94915],[130.60712,31.9488],[130.60706,31.94857],[130.60561,31.94745],[130.60352,31.94643],[130.60206,31.9466],[130.60123,31.94702],[130.60062,31.94672],[130.59992,31.94669],[130.59917,31.9463],[130.59855,31.94661],[130.59783,31.94663],[130.5972,31.94705],[130.59637,31.94695],[130.59604,31.94615],[130.59541,31.94587],[130.5949,31.94587],[130.59491,31.94644],[130.59318,31.94873],[130.59288,31.94991],[130.59251,31.95062],[130.59243,31.95128],[130.59209,31.95178],[130.59168,31.95292],[130.59092,31.95352],[130.5907,31.95444],[130.59112,31.95511],[130.59133,31.95595],[130.59132,31.95676],[130.59111,31.95731],[130.59193,31.95874],[130.59305,31.95965],[130.59377,31.95984],[130.59465,31.96042],[130.5956,31.96047],[130.59785,31.96096],[130.59814,31.96112],[130.59842,31.96156],[130.59845,31.96201],[130.59827,31.96241],[130.5966,31.96423],[130.5965,31.96458],[130.59672,31.96532],[130.59694,31.96552],[130.59742,31.96559],[130.59968,31.96519],[130.60296,31.96627],[130.60359,31.96671],[130.60401,31.96804],[130.60502,31.9688],[130.60516,31.96844],[130.60691,31.96787],[130.60756,31.96733],[130.60806,31.96726],[130.60818,31.96761],[130.60952,31.96824],[130.61085,31.9696],[130.61169,31.97022],[130.61206,31.97033],[130.61296,31.97142],[130.61373,31.97194],[130.61411,31.97238],[130.61417,31.97278],[130.61517,31.97365],[130.61533,31.974],[130.61721,31.9746],[130.61738,31.97471],[130.61738,31.97509],[130.61811,31.97551],[130.61876,31.97559],[130.61922,31.97585],[130.62137,31.97573],[130.62179,31.97615],[130.62246,31.97621],[130.62292,31.97658],[130.62342,31.97662],[130.62342,31.97675],[130.62399,31.977],[130.6243,31.97768],[130.62538,31.97899],[130.62457,31.97954],[130.62418,31.98104],[130.6243,31.98249],[130.62453,31.98313],[130.6249,31.98348],[130.62512,31.98318],[130.62531,31.98321],[130.62547,31.98341],[130.6255,31.98389],[130.62641,31.98434],[130.62655,31.98463],[130.62637,31.9855],[130.62728,31.98552],[130.62864,31.98614],[130.62864,31.98659],[130.62831,31.98671],[130.62815,31.98705],[130.62826,31.98772],[130.63024,31.98916],[130.6303,31.9895],[130.6311,31.98938],[130.63092,31.99008],[130.63169,31.99191],[130.63263,31.99128],[130.63293,31.99155],[130.63388,31.99192],[130.64368,31.99219],[130.6436,31.99145]]]},"properties":{"key":"462240270","name":"菱刈南浦","pref":"鹿児島県","prefCode":"46","municipality":"伊佐市","areaM2":24665386.414,"population":774,"toponymIds":["46-b213deffa0"]}},{"type":"Feature","geometry":{"type":"Polygon","coordinates":[[[130.63371,31.75616],[130.63452,31.75681],[130.63509,31.75665],[130.63613,31.75672],[130.63673,31.75659],[130.63721,31.75588],[130.63759,31.75475],[130.63825,31.75432],[130.63881,31.75348],[130.63877,31.75312],[130.63924,31.7528],[130.63927,31.75223],[130.64008,31.75196],[130.64207,31.74999],[130.6419,31.74966],[130.64093,31.74943],[130.64035,31.74942],[130.63893,31.74985],[130.63882,31.74966],[130.6389,31.74925],[130.63864,31.74805],[130.63877,31.74702],[130.63851,31.74512],[130.63799,31.74492],[130.63792,31.74406],[130.63763,31.74375],[130.63763,31.74296],[130.63814,31.74271],[130.63844,31.74207],[130.63913,31.74199],[130.63922,31.74024],[130.63944,31.73958],[130.63853,31.73929],[130.63835,31.73901],[130.63838,31.73869],[130.63805,31.73824],[130.63799,31.73759],[130.63729,31.73677],[130.63142,31.74031],[130.62967,31.74088],[130.62672,31.74104],[130.6235,31.74163],[130.62336,31.74262],[130.62352,31.74432],[130.62403,31.74412],[130.62489,31.74429],[130.62444,31.74538],[130.62507,31.74709],[130.62503,31.74889],[130.6246,31.75065],[130.62463,31.75133],[130.62436,31.75156],[130.62487,31.75179],[130.62566,31.7518],[130.62545,31.75252],[130.62566,31.75316],[130.62545,31.75368],[130.62542,31.75487],[130.6302,31.75935],[130.63193,31.76056],[130.63225,31.76043],[130.63175,31.75915],[130.63225,31.75859],[130.63297,31.75812],[130.63407,31.75689],[130.63338,31.7564],[130.63345,31.75622],[130.63371,31.75616]]]},"properties":{"key":"462250250","name":"鍋倉","pref":"鹿児島県","prefCode":"46","municipality":"姶良市","areaM2":2628949.578,"population":878,"toponymIds":["46-5f8a9e5c48"]}}]}
