{"type":"FeatureCollection","features":[{"type":"Feature","geometry":{"type":"Polygon","coordinates":[[[127.69357,26.19865],[127.69339,26.1982],[127.69308,26.19833],[127.69271,26.19783],[127.69271,26.19751],[127.69232,26.19751],[127.69238,26.19716],[127.69195,26.19694],[127.69259,26.19578],[127.69173,26.19606],[127.69017,26.19707],[127.69028,26.19769],[127.69007,26.19801],[127.6905,26.1985],[127.689,26.19963],[127.68826,26.2005],[127.68816,26.20114],[127.6869,26.20199],[127.68828,26.20266],[127.68928,26.20386],[127.69077,26.20106],[127.69397,26.1997],[127.69357,26.19865]]]},"properties":{"key":"47201059001","name":"古波蔵一丁目","pref":"沖縄県","prefCode":"47","municipality":"那覇市","areaM2":224756.965,"population":2730,"toponymIds":["47-334f389ab2"]}},{"type":"Feature","geometry":{"type":"Polygon","coordinates":[[[127.72276,26.21633],[127.72253,26.2157],[127.72124,26.21589],[127.72074,26.21617],[127.72061,26.21655],[127.72105,26.21672],[127.72123,26.21722],[127.72217,26.21764],[127.72283,26.2183],[127.72302,26.21795],[127.72292,26.21751],[127.72317,26.21717],[127.72276,26.21633]]]},"properties":{"key":"47201029001","name":"首里赤田町一丁目","pref":"沖縄県","prefCode":"47","municipality":"那覇市","areaM2":38306.527,"population":344,"toponymIds":["47-ee3ed1493b"]}},{"type":"Feature","geometry":{"type":"Polygon","coordinates":[[[127.71876,26.22252],[127.71916,26.22252],[127.71933,26.22233],[127.71927,26.22157],[127.71945,26.22051],[127.71934,26.21933],[127.71882,26.21825],[127.71821,26.21791],[127.71761,26.21806],[127.71824,26.21864],[127.71775,26.21983],[127.71815,26.21986],[127.71821,26.22026],[127.71811,26.22179],[127.71785,26.22283],[127.71876,26.22252]]]},"properties":{"key":"47201043001","name":"首里当蔵町一丁目","pref":"沖縄県","prefCode":"47","municipality":"那覇市","areaM2":62779.286,"population":613,"toponymIds":["47-0072ad2986"]}},{"type":"Feature","geometry":{"type":"Polygon","coordinates":[[[124.15551,24.42703],[124.18337,24.42721],[124.17616,24.41028],[124.17589,24.41005],[124.17528,24.40879],[124.17431,24.4088],[124.17406,24.40987],[124.17377,24.41016],[124.17251,24.40966],[124.17185,24.41057],[124.1715,24.41073],[124.17075,24.4105],[124.17007,24.40966],[124.16914,24.40956],[124.1686,24.40752],[124.16836,24.40724],[124.1674,24.40686],[124.16727,24.40634],[124.16648,24.40503],[124.16639,24.40449],[124.16591,24.40444],[124.16527,24.40255],[124.16475,24.40205],[124.16462,24.40151],[124.16715,24.39612],[124.16829,24.39508],[124.16879,24.39409],[124.16874,24.39313],[124.16776,24.39136],[124.16707,24.39087],[124.16875,24.3901],[124.1674,24.38362],[124.16692,24.38349],[124.16669,24.38305],[124.16582,24.38279],[124.16532,24.38191],[124.16274,24.38228],[124.16141,24.38225],[124.1603,24.3825],[124.15909,24.38248],[124.1564,24.38275],[124.15562,24.38251],[124.15494,24.38261],[124.15422,24.38242],[124.15319,24.38243],[124.15296,24.38329],[124.15221,24.3848],[124.15176,24.38361],[124.15128,24.38355],[124.15079,24.38311],[124.15079,24.38177],[124.15025,24.38148],[124.14974,24.38173],[124.14868,24.38303],[124.14808,24.38351],[124.1471,24.38297],[124.14518,24.38239],[124.14428,24.38241],[124.14352,24.38205],[124.14275,24.38226],[124.1411,24.38457],[124.13622,24.38446],[124.13887,24.3873],[124.13947,24.38831],[124.14077,24.39148],[124.14113,24.39198],[124.14139,24.39181],[124.14166,24.39254],[124.1414,24.39261],[124.14123,24.39344],[124.14117,24.39529],[124.1409,24.39651],[124.13953,24.40029],[124.1395,24.4007],[124.13994,24.40156],[124.14066,24.40179],[124.14124,24.40285],[124.14108,24.40293],[124.14114,24.40319],[124.14156,24.40408],[124.14283,24.40527],[124.14358,24.4064],[124.14411,24.40807],[124.14406,24.40951],[124.14431,24.41085],[124.14379,24.41161],[124.1436,24.41295],[124.14319,24.41372],[124.14187,24.4143],[124.14178,24.41447],[124.13796,24.41496],[124.13696,24.41447],[124.13409,24.41558],[124.13332,24.41662],[124.13493,24.41675],[124.13539,24.41702],[124.13774,24.41754],[124.13817,24.41892],[124.13746,24.41983],[124.13774,24.4201],[124.13582,24.42235],[124.13465,24.42335],[124.13368,24.42447],[124.13147,24.42544],[124.1305,24.42545],[124.12936,24.42641],[124.12851,24.42623],[124.12606,24.42772],[124.12507,24.42854],[124.1303,24.4311],[124.14155,24.42694],[124.15551,24.42703]]]},"properties":{"key":"472070070","name":"字名蔵","pref":"沖縄県","prefCode":"47","municipality":"石垣市","areaM2":16690279.916,"population":342,"toponymIds":["47-ab98726d96"]}},{"type":"Feature","geometry":{"type":"Polygon","coordinates":[[[127.98191,26.62299],[127.98295,26.62321],[127.9851,26.62161],[127.98568,26.62155],[127.98569,26.62069],[127.98542,26.62004],[127.98555,26.61975],[127.98588,26.61947],[127.98646,26.61982],[127.98695,26.61963],[127.98756,26.6198],[127.98828,26.61881],[127.98925,26.61826],[127.98858,26.6177],[127.98788,26.61805],[127.9879,26.61786],[127.98709,26.61817],[127.9867,26.61813],[127.98682,26.61764],[127.98726,26.6175],[127.98761,26.61691],[127.98833,26.61678],[127.9888,26.61726],[127.99016,26.61733],[127.99043,26.61701],[127.99134,26.61696],[127.99179,26.61668],[127.99244,26.61555],[127.9927,26.61439],[127.99466,26.61238],[127.99502,26.61126],[127.99699,26.61007],[127.99732,26.6085],[127.99796,26.60809],[127.9956,26.60858],[127.9939,26.60873],[127.99242,26.60852],[127.98963,26.60774],[127.9884,26.60785],[127.98615,26.6085],[127.98469,26.60855],[127.98388,26.6084],[127.98385,26.6094],[127.98321,26.61011],[127.98202,26.61029],[127.98237,26.61041],[127.98267,26.61097],[127.98372,26.611],[127.98424,26.61121],[127.98528,26.61286],[127.98515,26.61342],[127.98475,26.61368],[127.984,26.61374],[127.98411,26.61514],[127.98301,26.61526],[127.98269,26.61448],[127.98236,26.61509],[127.98158,26.61412],[127.98063,26.61497],[127.9803,26.61536],[127.98027,26.61561],[127.97946,26.61562],[127.97961,26.6165],[127.9791,26.61643],[127.97918,26.61693],[127.98007,26.61756],[127.98056,26.61816],[127.98053,26.61884],[127.98104,26.61979],[127.98161,26.62031],[127.98167,26.62139],[127.98079,26.6223],[127.98051,26.62372],[127.98136,26.62367],[127.98191,26.62299]]]},"properties":{"key":"472090550","name":"字名護","pref":"沖縄県","prefCode":"47","municipality":"名護市","areaM2":1468499.695,"population":143,"toponymIds":["47-edc50cd514"]}},{"type":"Feature","geometry":{"type":"Polygon","coordinates":[[[127.67146,26.108],[127.67225,26.10802],[127.67285,26.10765],[127.67334,26.10769],[127.67466,26.10733],[127.6749,26.10683],[127.67647,26.10629],[127.67772,26.10621],[127.67833,26.10572],[127.67613,26.10484],[127.67513,26.10366],[127.67256,26.10448],[127.67091,26.10223],[127.67039,26.10247],[127.67129,26.10152],[127.6718,26.09955],[127.67278,26.09893],[127.67263,26.09872],[127.67119,26.09857],[127.67042,26.09826],[127.6657,26.09502],[127.66447,26.09499],[127.66532,26.09566],[127.66559,26.09625],[127.66555,26.09821],[127.66572,26.09925],[127.66562,26.10042],[127.66672,26.10267],[127.66658,26.10472],[127.66618,26.105],[127.66637,26.10541],[127.66621,26.10605],[127.66632,26.10682],[127.66795,26.10751],[127.66992,26.10761],[127.67044,26.10804],[127.67146,26.108]]]},"properties":{"key":"472100220","name":"字小波蔵","pref":"沖縄県","prefCode":"47","municipality":"糸満市","areaM2":838461.623,"population":307,"toponymIds":["47-3f9d9332df"]}},{"type":"Feature","geometry":{"type":"Polygon","coordinates":[[[127.80701,26.38428],[127.80674,26.38385],[127.80684,26.38323],[127.80653,26.38261],[127.80609,26.3803],[127.80632,26.37963],[127.80631,26.37902],[127.80534,26.3779],[127.80545,26.37721],[127.80527,26.37636],[127.80541,26.37609],[127.80536,26.37569],[127.80523,26.37571],[127.80444,26.37612],[127.80433,26.3796],[127.80386,26.37996],[127.80224,26.3799],[127.80182,26.38493],[127.80297,26.38548],[127.80518,26.38699],[127.80524,26.38564],[127.80548,26.38547],[127.80593,26.38548],[127.80606,26.38504],[127.80691,26.38488],[127.80706,26.38471],[127.80701,26.38428]]]},"properties":{"key":"472110350","name":"字倉敷","pref":"沖縄県","prefCode":"47","municipality":"沖縄市","areaM2":352094.649,"population":0,"toponymIds":["47-6f34bad69e"]}}]}
