{"type":"FeatureCollection","features":[{"type":"Feature","geometry":{"type":"Point","coordinates":[141.363488,43.042028]},"properties":{"id":"01-1745a243b7","name":"平岸一条一丁目","reading":"ヒラギシ1ジョウ 1","pref":"北海道","prefCode":"01","municipality":"札幌市豊平区","hazardTypes":["slope_failure"],"evidenceLevel":0,"status":"current","disputed":false,"precision":"oaza","areaKey":"01105050101","elements":["kake"],"summary":"要素辞書に一致（kake）。出典による裏づけは未確認。","zones":[],"dataset":"candidates"}},{"type":"Feature","geometry":{"type":"Point","coordinates":[141.36823,43.042245]},"properties":{"id":"01-5285e3436c","name":"平岸二条一丁目","reading":"ヒラギシ2ジョウ 1","pref":"北海道","prefCode":"01","municipality":"札幌市豊平区","hazardTypes":["slope_failure"],"evidenceLevel":0,"status":"current","disputed":false,"precision":"oaza","areaKey":"01105050201","elements":["kake"],"summary":"要素辞書に一致（kake）。出典による裏づけは未確認。","zones":[],"dataset":"candidates"}},{"type":"Feature","geometry":{"type":"Point","coordinates":[141.371189,43.041969]},"properties":{"id":"01-cb5dcf4125","name":"平岸三条一丁目","reading":"ヒラギシ3ジョウ 1","pref":"北海道","prefCode":"01","municipality":"札幌市豊平区","hazardTypes":["slope_failure"],"evidenceLevel":0,"status":"current","disputed":false,"precision":"oaza","areaKey":"01105050301","elements":["kake"],"summary":"要素辞書に一致（kake）。出典による裏づけは未確認。","zones":[],"dataset":"candidates"}},{"type":"Feature","geometry":{"type":"Point","coordinates":[141.373671,43.042083]},"properties":{"id":"01-58e79e1b59","name":"平岸四条一丁目","reading":"ヒラギシ4ジョウ 1","pref":"北海道","prefCode":"01","municipality":"札幌市豊平区","hazardTypes":["slope_failure"],"evidenceLevel":0,"status":"current","disputed":false,"precision":"oaza","areaKey":"01105050401","elements":["kake"],"summary":"要素辞書に一致（kake）。出典による裏づけは未確認。","zones":[],"dataset":"candidates"}},{"type":"Feature","geometry":{"type":"Point","coordinates":[141.378087,43.030623]},"properties":{"id":"01-9ff560764c","name":"平岸五条十丁目","reading":"ヒラギシ5ジョウ 10","pref":"北海道","prefCode":"01","municipality":"札幌市豊平区","hazardTypes":["slope_failure"],"evidenceLevel":0,"status":"current","disputed":false,"precision":"oaza","areaKey":"01105050510","elements":["kake"],"summary":"要素辞書に一致（kake）。出典による裏づけは未確認。","zones":[],"dataset":"candidates"}},{"type":"Feature","geometry":{"type":"Point","coordinates":[141.38046,43.030965]},"properties":{"id":"01-e1773edea1","name":"平岸六条十丁目","reading":"ヒラギシ6ジョウ 10","pref":"北海道","prefCode":"01","municipality":"札幌市豊平区","hazardTypes":["slope_failure"],"evidenceLevel":0,"status":"current","disputed":false,"precision":"oaza","areaKey":"01105050610","elements":["kake"],"summary":"要素辞書に一致（kake）。出典による裏づけは未確認。","zones":[],"dataset":"candidates"}},{"type":"Feature","geometry":{"type":"Point","coordinates":[141.382057,43.027595]},"properties":{"id":"01-41a58c1afd","name":"平岸七条十二丁目","reading":"ヒラギシ7ジョウ 12","pref":"北海道","prefCode":"01","municipality":"札幌市豊平区","hazardTypes":["slope_failure"],"evidenceLevel":0,"status":"current","disputed":false,"precision":"oaza","areaKey":"01105050712","elements":["kake"],"summary":"要素辞書に一致（kake）。出典による裏づけは未確認。","zones":[],"dataset":"candidates"}},{"type":"Feature","geometry":{"type":"Point","coordinates":[141.384314,43.027449]},"properties":{"id":"01-10abda7223","name":"平岸八条十二丁目","reading":"ヒラギシ8ジョウ 12","pref":"北海道","prefCode":"01","municipality":"札幌市豊平区","hazardTypes":["slope_failure"],"evidenceLevel":0,"status":"current","disputed":false,"precision":"oaza","areaKey":"01105050812","elements":["kake"],"summary":"要素辞書に一致（kake）。出典による裏づけは未確認。","zones":[],"dataset":"candidates"}},{"type":"Feature","geometry":{"type":"Point","coordinates":[140.850854,41.77275]},"properties":{"id":"01-d425c2408c","name":"石倉町","reading":"イシクラチョウ","pref":"北海道","prefCode":"01","municipality":"函館市","hazardTypes":["slope_failure","rockfall"],"evidenceLevel":0,"status":"current","disputed":false,"precision":"oaza","areaKey":"012021030","elements":["kura"],"summary":"要素辞書に一致（kura）。出典による裏づけは未確認。","zones":[],"dataset":"candidates"}},{"type":"Feature","geometry":{"type":"Point","coordinates":[140.729485,41.78133]},"properties":{"id":"01-745fa7b112","name":"海岸町","reading":"カイガンチョウ","pref":"北海道","prefCode":"01","municipality":"函館市","hazardTypes":["slope_failure"],"evidenceLevel":0,"status":"current","disputed":false,"precision":"oaza","areaKey":"012020240","elements":["kake"],"summary":"要素辞書に一致（kake）。出典による裏づけは未確認。","zones":[],"dataset":"candidates"}},{"type":"Feature","geometry":{"type":"Point","coordinates":[140.773504,41.791411]},"properties":{"id":"01-2a3bae62f3","name":"川原町","reading":"カワハラチョウ","pref":"北海道","prefCode":"01","municipality":"函館市","hazardTypes":["flood"],"evidenceLevel":0,"status":"current","disputed":false,"precision":"oaza","areaKey":"012020590","elements":["kawara"],"summary":"要素辞書に一致（kawara）。出典による裏づけは未確認。","zones":[],"dataset":"candidates"}},{"type":"Feature","geometry":{"type":"Point","coordinates":[140.801868,41.782669]},"properties":{"id":"01-031e618d09","name":"戸倉町","reading":"トクラチョウ","pref":"北海道","prefCode":"01","municipality":"函館市","hazardTypes":["slope_failure","rockfall"],"evidenceLevel":0,"status":"current","disputed":false,"precision":"oaza","areaKey":"012020670","elements":["kura"],"summary":"要素辞書に一致（kura）。出典による裏づけは未確認。","zones":[],"dataset":"candidates"}},{"type":"Feature","geometry":{"type":"Point","coordinates":[140.865703,41.76159]},"properties":{"id":"01-2cc6911b8f","name":"古川町","reading":"フルカワチョウ","pref":"北海道","prefCode":"01","municipality":"函館市","hazardTypes":["flood","inundation"],"evidenceLevel":0,"status":"current","disputed":false,"precision":"oaza","areaKey":"012021040","elements":["furukawa"],"summary":"要素辞書に一致（furukawa）。出典による裏づけは未確認。","zones":[],"dataset":"candidates"}},{"type":"Feature","geometry":{"type":"Point","coordinates":[140.991841,43.215446]},"properties":{"id":"01-089619d1e1","name":"梅ケ枝町","reading":"ウメガエチョウ","pref":"北海道","prefCode":"01","municipality":"小樽市","hazardTypes":["landslide","slope_failure"],"evidenceLevel":0,"status":"current","disputed":false,"precision":"oaza","areaKey":"012030600","elements":["ume"],"summary":"要素辞書に一致（ume）。出典による裏づけは未確認。","zones":[],"dataset":"candidates"}},{"type":"Feature","geometry":{"type":"Point","coordinates":[142.486761,43.759669]},"properties":{"id":"01-044c04b0d2","name":"東旭川町倉沼","reading":"ヒガシアサヒカワチョウクラヌマ","pref":"北海道","prefCode":"01","municipality":"旭川市","hazardTypes":["slope_failure","rockfall","soft_ground","inundation"],"evidenceLevel":0,"status":"current","disputed":false,"precision":"oaza","areaKey":"012045920","elements":["kura","numa_kata"],"summary":"要素辞書に一致（kura・numa_kata）。出典による裏づけは未確認。","zones":[],"dataset":"candidates"}},{"type":"Feature","geometry":{"type":"Point","coordinates":[140.97072,42.324044]},"properties":{"id":"01-37a379160c","name":"海岸町一丁目","reading":"カイガンチョウ 1","pref":"北海道","prefCode":"01","municipality":"室蘭市","hazardTypes":["slope_failure"],"evidenceLevel":0,"status":"current","disputed":false,"precision":"oaza","areaKey":null,"elements":["kake"],"summary":"要素辞書に一致（kake）。出典による裏づけは未確認。","zones":[],"dataset":"candidates"}},{"type":"Feature","geometry":{"type":"Point","coordinates":[144.367638,43.060789]},"properties":{"id":"01-da3928deeb","name":"安原","reading":null,"pref":"北海道","prefCode":"01","municipality":"釧路市","hazardTypes":["inundation","flood"],"evidenceLevel":0,"status":"current","disputed":false,"precision":"oaza","areaKey":"012060820","elements":["awara"],"summary":"要素辞書に一致（awara）。出典による裏づけは未確認。","zones":[],"dataset":"candidates"}},{"type":"Feature","geometry":{"type":"Point","coordinates":[143.803603,42.947063]},"properties":{"id":"01-38ead428b4","name":"音別町シベツ川右岸","reading":null,"pref":"北海道","prefCode":"01","municipality":"釧路市","hazardTypes":["slope_failure"],"evidenceLevel":0,"status":"current","disputed":false,"precision":"oaza","areaKey":null,"elements":["kake"],"summary":"要素辞書に一致（kake）。出典による裏づけは未確認。","zones":[],"dataset":"candidates"}},{"type":"Feature","geometry":{"type":"Point","coordinates":[143.879439,43.002629]},"properties":{"id":"01-f3510da0b5","name":"音別町チャンベツ右岸","reading":null,"pref":"北海道","prefCode":"01","municipality":"釧路市","hazardTypes":["slope_failure"],"evidenceLevel":0,"status":"current","disputed":false,"precision":"oaza","areaKey":null,"elements":["kake"],"summary":"要素辞書に一致（kake）。出典による裏づけは未確認。","zones":[],"dataset":"candidates"}},{"type":"Feature","geometry":{"type":"Point","coordinates":[144.399733,43.012097]},"properties":{"id":"01-0349d48ef9","name":"芦野一丁目","reading":"アシノ 1","pref":"北海道","prefCode":"01","municipality":"釧路市","hazardTypes":["flood","inundation"],"evidenceLevel":0,"status":"current","disputed":false,"precision":"oaza","areaKey":"01206111001","elements":["ashi"],"summary":"要素辞書に一致（ashi）。出典による裏づけは未確認。","zones":[],"dataset":"candidates"}},{"type":"Feature","geometry":{"type":"Point","coordinates":[144.401651,42.998514]},"properties":{"id":"01-4a54d98e61","name":"古川町","reading":"フルカワチョウ","pref":"北海道","prefCode":"01","municipality":"釧路市","hazardTypes":["flood","inundation"],"evidenceLevel":0,"status":"current","disputed":false,"precision":"oaza","areaKey":"012060240","elements":["furukawa"],"summary":"要素辞書に一致（furukawa）。出典による裏づけは未確認。","zones":[],"dataset":"candidates"}},{"type":"Feature","geometry":{"type":"Point","coordinates":[142.118687,43.065126]},"properties":{"id":"01-aea5f37213","name":"鹿島常盤町","reading":null,"pref":"北海道","prefCode":"01","municipality":"夕張市","hazardTypes":["landslide","soft_ground"],"evidenceLevel":0,"status":"current","disputed":false,"precision":"oaza","areaKey":"01209020008","elements":["shishi"],"summary":"要素辞書に一致（shishi）。出典による裏づけは未確認。","zones":[],"dataset":"candidates"}},{"type":"Feature","geometry":{"type":"Point","coordinates":[142.107424,43.080908]},"properties":{"id":"01-4fb539ffc7","name":"鹿島弥生町","reading":null,"pref":"北海道","prefCode":"01","municipality":"夕張市","hazardTypes":["landslide","soft_ground"],"evidenceLevel":0,"status":"current","disputed":false,"precision":"oaza","areaKey":null,"elements":["shishi"],"summary":"要素辞書に一致（shishi）。出典による裏づけは未確認。","zones":[],"dataset":"candidates"}},{"type":"Feature","geometry":{"type":"Point","coordinates":[142.128347,43.091686]},"properties":{"id":"01-c3df9808e2","name":"鹿島春日町","reading":null,"pref":"北海道","prefCode":"01","municipality":"夕張市","hazardTypes":["landslide","soft_ground"],"evidenceLevel":0,"status":"current","disputed":false,"precision":"oaza","areaKey":null,"elements":["shishi"],"summary":"要素辞書に一致（shishi）。出典による裏づけは未確認。","zones":[],"dataset":"candidates"}},{"type":"Feature","geometry":{"type":"Point","coordinates":[142.089205,43.046341]},"properties":{"id":"01-f5ce518b8d","name":"鹿島明石町","reading":"カシマアカシチョウ","pref":"北海道","prefCode":"01","municipality":"夕張市","hazardTypes":["landslide","soft_ground"],"evidenceLevel":0,"status":"current","disputed":false,"precision":"oaza","areaKey":"01209020001","elements":["shishi"],"summary":"要素辞書に一致（shishi）。出典による裏づけは未確認。","zones":[],"dataset":"candidates"}},{"type":"Feature","geometry":{"type":"Point","coordinates":[142.101889,43.084769]},"properties":{"id":"01-566c773d59","name":"鹿島栄町","reading":"カシマサカエチョウ","pref":"北海道","prefCode":"01","municipality":"夕張市","hazardTypes":["landslide","soft_ground"],"evidenceLevel":0,"status":"current","disputed":false,"precision":"oaza","areaKey":"01209020007","elements":["shishi"],"summary":"要素辞書に一致（shishi）。出典による裏づけは未確認。","zones":[],"dataset":"candidates"}},{"type":"Feature","geometry":{"type":"Point","coordinates":[142.195201,43.053709]},"properties":{"id":"01-24135b37a6","name":"鹿島白金","reading":"カシマシロガネ","pref":"北海道","prefCode":"01","municipality":"夕張市","hazardTypes":["landslide","soft_ground"],"evidenceLevel":0,"status":"current","disputed":false,"precision":"oaza","areaKey":"01209020013","elements":["shishi"],"summary":"要素辞書に一致（shishi）。出典による裏づけは未確認。","zones":[],"dataset":"candidates"}},{"type":"Feature","geometry":{"type":"Point","coordinates":[142.104442,43.076552]},"properties":{"id":"01-c8ef5a3e79","name":"鹿島宝町","reading":"カシマタカラチョウ","pref":"北海道","prefCode":"01","municipality":"夕張市","hazardTypes":["landslide","soft_ground"],"evidenceLevel":0,"status":"current","disputed":false,"precision":"oaza","areaKey":"01209020004","elements":["shishi"],"summary":"要素辞書に一致（shishi）。出典による裏づけは未確認。","zones":[],"dataset":"candidates"}},{"type":"Feature","geometry":{"type":"Point","coordinates":[142.091757,43.068548]},"properties":{"id":"01-97c5fd7ef0","name":"鹿島千年町","reading":"カシマチトセチョウ","pref":"北海道","prefCode":"01","municipality":"夕張市","hazardTypes":["landslide","soft_ground"],"evidenceLevel":0,"status":"current","disputed":false,"precision":"oaza","areaKey":"01209020002","elements":["shishi"],"summary":"要素辞書に一致（shishi）。出典による裏づけは未確認。","zones":[],"dataset":"candidates"}},{"type":"Feature","geometry":{"type":"Point","coordinates":[142.088077,43.079447]},"properties":{"id":"01-0c9739a413","name":"鹿島錦町","reading":"カシマニシキチョウ","pref":"北海道","prefCode":"01","municipality":"夕張市","hazardTypes":["landslide","soft_ground"],"evidenceLevel":0,"status":"current","disputed":false,"precision":"oaza","areaKey":"01209020003","elements":["shishi"],"summary":"要素辞書に一致（shishi）。出典による裏づけは未確認。","zones":[],"dataset":"candidates"}},{"type":"Feature","geometry":{"type":"Point","coordinates":[142.08798,43.083591]},"properties":{"id":"01-6d48f81402","name":"鹿島富士見町","reading":"カシマフジミチョウ","pref":"北海道","prefCode":"01","municipality":"夕張市","hazardTypes":["landslide","soft_ground"],"evidenceLevel":0,"status":"current","disputed":false,"precision":"oaza","areaKey":"01209020005","elements":["shishi"],"summary":"要素辞書に一致（shishi）。出典による裏づけは未確認。","zones":[],"dataset":"candidates"}},{"type":"Feature","geometry":{"type":"Point","coordinates":[142.158559,43.155637]},"properties":{"id":"01-d5b0b87c69","name":"鹿島北栄町","reading":"カシマホクエイチョウ","pref":"北海道","prefCode":"01","municipality":"夕張市","hazardTypes":["landslide","soft_ground"],"evidenceLevel":0,"status":"current","disputed":false,"precision":"oaza","areaKey":"01209020011","elements":["shishi"],"summary":"要素辞書に一致（shishi）。出典による裏づけは未確認。","zones":[],"dataset":"candidates"}},{"type":"Feature","geometry":{"type":"Point","coordinates":[142.104638,43.079366]},"properties":{"id":"01-5107ec11d0","name":"鹿島緑町","reading":"カシマミドリチョウ","pref":"北海道","prefCode":"01","municipality":"夕張市","hazardTypes":["landslide","soft_ground"],"evidenceLevel":0,"status":"current","disputed":false,"precision":"oaza","areaKey":"01209020006","elements":["shishi"],"summary":"要素辞書に一致（shishi）。出典による裏づけは未確認。","zones":[],"dataset":"candidates"}},{"type":"Feature","geometry":{"type":"Point","coordinates":[142.105189,43.084695]},"properties":{"id":"01-a9dbad655c","name":"鹿島代々木町","reading":"カシマヨヨギチョウ","pref":"北海道","prefCode":"01","municipality":"夕張市","hazardTypes":["landslide","soft_ground"],"evidenceLevel":0,"status":"current","disputed":false,"precision":"oaza","areaKey":"01209020009","elements":["shishi"],"summary":"要素辞書に一致（shishi）。出典による裏づけは未確認。","zones":[],"dataset":"candidates"}},{"type":"Feature","geometry":{"type":"Point","coordinates":[141.962165,43.042139]},"properties":{"id":"01-eb02dca4d4","name":"鹿の谷一丁目","reading":"シカノタニ 1","pref":"北海道","prefCode":"01","municipality":"夕張市","hazardTypes":["landslide","soft_ground"],"evidenceLevel":0,"status":"current","disputed":false,"precision":"oaza","areaKey":"01209010002","elements":["shishi"],"summary":"要素辞書に一致（shishi）。出典による裏づけは未確認。","zones":[],"dataset":"candidates"}},{"type":"Feature","geometry":{"type":"Point","coordinates":[141.966811,43.040579]},"properties":{"id":"01-83c63e2599","name":"鹿の谷東丘町","reading":"シカノタニヒガシオカチョウ","pref":"北海道","prefCode":"01","municipality":"夕張市","hazardTypes":["landslide","soft_ground"],"evidenceLevel":0,"status":"current","disputed":false,"precision":"oaza","areaKey":"01209010005","elements":["shishi"],"summary":"要素辞書に一致（shishi）。出典による裏づけは未確認。","zones":[],"dataset":"candidates"}},{"type":"Feature","geometry":{"type":"Point","coordinates":[141.959229,43.044654]},"properties":{"id":"01-7f9ce25dda","name":"鹿の谷山手町","reading":"シカノタニヤマテチョウ","pref":"北海道","prefCode":"01","municipality":"夕張市","hazardTypes":["landslide","soft_ground"],"evidenceLevel":0,"status":"current","disputed":false,"precision":"oaza","areaKey":"01209010001","elements":["shishi"],"summary":"要素辞書に一致（shishi）。出典による裏づけは未確認。","zones":[],"dataset":"candidates"}},{"type":"Feature","geometry":{"type":"Point","coordinates":[144.258825,44.033588]},"properties":{"id":"01-dbe4d4b21a","name":"海岸町","reading":"カイガンチョウ","pref":"北海道","prefCode":"01","municipality":"網走市","hazardTypes":["slope_failure"],"evidenceLevel":0,"status":"current","disputed":false,"precision":"oaza","areaKey":"012110520","elements":["kake"],"summary":"要素辞書に一致（kake）。出典による裏づけは未確認。","zones":[],"dataset":"candidates"}},{"type":"Feature","geometry":{"type":"Point","coordinates":[141.665065,45.256226]},"properties":{"id":"01-a1894ba2c3","name":"大字抜海村","reading":null,"pref":"北海道","prefCode":"01","municipality":"稚内市","hazardTypes":["slope_failure"],"evidenceLevel":0,"status":"current","disputed":false,"precision":"oaza","areaKey":null,"elements":["nuke"],"summary":"要素辞書に一致（nuke）。出典による裏づけは未確認。","zones":[],"dataset":"candidates"}},{"type":"Feature","geometry":{"type":"Point","coordinates":[141.797538,43.295432]},"properties":{"id":"01-b31cbb0d89","name":"豊葦町","reading":"トヨアシチョウ","pref":"北海道","prefCode":"01","municipality":"美唄市","hazardTypes":["flood","inundation"],"evidenceLevel":0,"status":"current","disputed":false,"precision":"oaza","areaKey":null,"elements":["ashi"],"summary":"要素辞書に一致（ashi）。出典による裏づけは未確認。","zones":[],"dataset":"candidates"}},{"type":"Feature","geometry":{"type":"Point","coordinates":[142.191518,43.370082]},"properties":{"id":"01-3d111b80a4","name":"芦別","reading":null,"pref":"北海道","prefCode":"01","municipality":"芦別市","hazardTypes":["flood","inundation"],"evidenceLevel":0,"status":"current","disputed":false,"precision":"oaza","areaKey":"012160370","elements":["ashi"],"summary":"要素辞書に一致（ashi）。出典による裏づけは未確認。","zones":[],"dataset":"candidates"}},{"type":"Feature","geometry":{"type":"Point","coordinates":[142.202046,43.493035]},"properties":{"id":"01-3cd62b2360","name":"上芦別町","reading":"カミアシベツチョウ","pref":"北海道","prefCode":"01","municipality":"芦別市","hazardTypes":["flood","inundation"],"evidenceLevel":0,"status":"current","disputed":false,"precision":"oaza","areaKey":"012160220","elements":["ashi"],"summary":"要素辞書に一致（ashi）。出典による裏づけは未確認。","zones":[],"dataset":"candidates"}},{"type":"Feature","geometry":{"type":"Point","coordinates":[142.163049,43.427426]},"properties":{"id":"01-ead29f106c","name":"川岸","reading":"カワギシ","pref":"北海道","prefCode":"01","municipality":"芦別市","hazardTypes":["slope_failure"],"evidenceLevel":0,"status":"current","disputed":false,"precision":"oaza","areaKey":"012160360","elements":["kake"],"summary":"要素辞書に一致（kake）。出典による裏づけは未確認。","zones":[],"dataset":"candidates"}},{"type":"Feature","geometry":{"type":"Point","coordinates":[142.174188,43.488072]},"properties":{"id":"01-a804a263b9","name":"西芦別町","reading":"ニシアシベツチョウ","pref":"北海道","prefCode":"01","municipality":"芦別市","hazardTypes":["flood","inundation"],"evidenceLevel":0,"status":"current","disputed":false,"precision":"oaza","areaKey":"012160310","elements":["ashi"],"summary":"要素辞書に一致（ashi）。出典による裏づけは未確認。","zones":[],"dataset":"candidates"}},{"type":"Feature","geometry":{"type":"Point","coordinates":[142.118276,43.540383]},"properties":{"id":"01-54e998318d","name":"平岸曙町一丁目","reading":"ヒラギシアケボノチョウ 1","pref":"北海道","prefCode":"01","municipality":"赤平市","hazardTypes":["slope_failure"],"evidenceLevel":0,"status":"current","disputed":false,"precision":"oaza","areaKey":"01218046001","elements":["kake"],"summary":"要素辞書に一致（kake）。出典による裏づけは未確認。","zones":[],"dataset":"candidates"}},{"type":"Feature","geometry":{"type":"Point","coordinates":[142.102049,43.537099]},"properties":{"id":"01-ecedd1ea67","name":"平岸桂町","reading":"ヒラギシカツラチョウ","pref":"北海道","prefCode":"01","municipality":"赤平市","hazardTypes":["slope_failure"],"evidenceLevel":0,"status":"current","disputed":false,"precision":"oaza","areaKey":"012180430","elements":["kake"],"summary":"要素辞書に一致（kake）。出典による裏づけは未確認。","zones":[],"dataset":"candidates"}},{"type":"Feature","geometry":{"type":"Point","coordinates":[142.116512,43.541181]},"properties":{"id":"01-2b7a54d6db","name":"平岸新光町一丁目","reading":"ヒラギシシンコウチョウ 1","pref":"北海道","prefCode":"01","municipality":"赤平市","hazardTypes":["slope_failure"],"evidenceLevel":0,"status":"current","disputed":false,"precision":"oaza","areaKey":"01218045001","elements":["kake"],"summary":"要素辞書に一致（kake）。出典による裏づけは未確認。","zones":[],"dataset":"candidates"}},{"type":"Feature","geometry":{"type":"Point","coordinates":[142.123888,43.541364]},"properties":{"id":"01-ec19cf2e5b","name":"平岸仲町一丁目","reading":"ヒラギシナカマチ 1","pref":"北海道","prefCode":"01","municipality":"赤平市","hazardTypes":["slope_failure"],"evidenceLevel":0,"status":"current","disputed":false,"precision":"oaza","areaKey":"01218047001","elements":["kake"],"summary":"要素辞書に一致（kake）。出典による裏づけは未確認。","zones":[],"dataset":"candidates"}},{"type":"Feature","geometry":{"type":"Point","coordinates":[142.109585,43.540462]},"properties":{"id":"01-f8478b52c6","name":"平岸西町一丁目","reading":"ヒラギシニシマチ 1","pref":"北海道","prefCode":"01","municipality":"赤平市","hazardTypes":["slope_failure"],"evidenceLevel":0,"status":"current","disputed":false,"precision":"oaza","areaKey":"01218044001","elements":["kake"],"summary":"要素辞書に一致（kake）。出典による裏づけは未確認。","zones":[],"dataset":"candidates"}},{"type":"Feature","geometry":{"type":"Point","coordinates":[142.129008,43.543612]},"properties":{"id":"01-a766cb431a","name":"平岸東町一丁目","reading":"ヒラギシヒガシマチ 1","pref":"北海道","prefCode":"01","municipality":"赤平市","hazardTypes":["slope_failure"],"evidenceLevel":0,"status":"current","disputed":false,"precision":"oaza","areaKey":"01218048001","elements":["kake"],"summary":"要素辞書に一致（kake）。出典による裏づけは未確認。","zones":[],"dataset":"candidates"}},{"type":"Feature","geometry":{"type":"Point","coordinates":[142.11674,43.513675]},"properties":{"id":"01-b2475d3c42","name":"平岸南町","reading":"ヒラギシミナミマチ","pref":"北海道","prefCode":"01","municipality":"赤平市","hazardTypes":["slope_failure"],"evidenceLevel":0,"status":"current","disputed":false,"precision":"oaza","areaKey":"012180490","elements":["kake"],"summary":"要素辞書に一致（kake）。出典による裏づけは未確認。","zones":[],"dataset":"candidates"}},{"type":"Feature","geometry":{"type":"Point","coordinates":[145.587562,43.333212]},"properties":{"id":"01-3e97d2c692","name":"有磯町一丁目","reading":"アリイソチョウ 1","pref":"北海道","prefCode":"01","municipality":"根室市","hazardTypes":["rockfall","debris_flow"],"evidenceLevel":0,"status":"current","disputed":false,"precision":"oaza","areaKey":"01223013001","elements":["iso_ishi"],"summary":"要素辞書に一致（iso_ishi）。出典による裏づけは未確認。","zones":[],"dataset":"candidates"}},{"type":"Feature","geometry":{"type":"Point","coordinates":[145.578379,43.333507]},"properties":{"id":"01-eaa6a4f554","name":"梅ケ枝町一丁目","reading":"ウメガエチョウ 1","pref":"北海道","prefCode":"01","municipality":"根室市","hazardTypes":["landslide","slope_failure"],"evidenceLevel":0,"status":"current","disputed":false,"precision":"oaza","areaKey":"01223024001","elements":["ume"],"summary":"要素辞書に一致（ume）。出典による裏づけは未確認。","zones":[],"dataset":"candidates"}},{"type":"Feature","geometry":{"type":"Point","coordinates":[145.586694,43.339983]},"properties":{"id":"01-0931e3dd53","name":"海岸町一丁目","reading":"カイガンチョウ 1","pref":"北海道","prefCode":"01","municipality":"根室市","hazardTypes":["slope_failure"],"evidenceLevel":0,"status":"current","disputed":false,"precision":"oaza","areaKey":"01223003001","elements":["kake"],"summary":"要素辞書に一致（kake）。出典による裏づけは未確認。","zones":[],"dataset":"candidates"}},{"type":"Feature","geometry":{"type":"Point","coordinates":[145.495311,43.243556]},"properties":{"id":"01-44a2aee593","name":"東梅","reading":"トウバイ","pref":"北海道","prefCode":"01","municipality":"根室市","hazardTypes":["landslide","slope_failure"],"evidenceLevel":0,"status":"current","disputed":false,"precision":"oaza","areaKey":"012230460","elements":["ume"],"summary":"要素辞書に一致（ume）。出典による裏づけは未確認。","zones":[],"dataset":"candidates"}},{"type":"Feature","geometry":{"type":"Point","coordinates":[141.677367,42.829659]},"properties":{"id":"01-16690e9343","name":"梅ケ丘一丁目","reading":"ウメガオカ 1","pref":"北海道","prefCode":"01","municipality":"千歳市","hazardTypes":["landslide","slope_failure"],"evidenceLevel":0,"status":"current","disputed":false,"precision":"oaza","areaKey":"01224068001","elements":["ume"],"summary":"要素辞書に一致（ume）。出典による裏づけは未確認。","zones":[],"dataset":"candidates"}},{"type":"Feature","geometry":{"type":"Point","coordinates":[141.710365,42.839914]},"properties":{"id":"01-546cf12dfb","name":"祝梅","reading":"シュクバイ","pref":"北海道","prefCode":"01","municipality":"千歳市","hazardTypes":["landslide","slope_failure"],"evidenceLevel":0,"status":"current","disputed":false,"precision":"oaza","areaKey":"012240292","elements":["ume"],"summary":"要素辞書に一致（ume）。出典による裏づけは未確認。","zones":[],"dataset":"candidates"}},{"type":"Feature","geometry":{"type":"Point","coordinates":[141.642268,42.814369]},"properties":{"id":"01-ad73b5bfb5","name":"真々地一丁目","reading":"ママチ 1","pref":"北海道","prefCode":"01","municipality":"千歳市","hazardTypes":["slope_failure","erosion"],"evidenceLevel":0,"status":"current","disputed":false,"precision":"oaza","areaKey":"01224011001","elements":["mama"],"summary":"要素辞書に一致（mama）。出典による裏づけは未確認。","zones":[],"dataset":"candidates"}},{"type":"Feature","geometry":{"type":"Point","coordinates":[141.089114,42.418279]},"properties":{"id":"01-9dfd8bf565","name":"片倉町一丁目","reading":"カタクラチョウ 1","pref":"北海道","prefCode":"01","municipality":"登別市","hazardTypes":["slope_failure","rockfall"],"evidenceLevel":0,"status":"current","disputed":false,"precision":"oaza","areaKey":"01230024001","elements":["kura"],"summary":"要素辞書に一致（kura）。出典による裏づけは未確認。","zones":[],"dataset":"candidates"}},{"type":"Feature","geometry":{"type":"Point","coordinates":[141.060836,42.401494]},"properties":{"id":"01-5114c2e27e","name":"富岸町","reading":"トンケシチョウ","pref":"北海道","prefCode":"01","municipality":"登別市","hazardTypes":["slope_failure"],"evidenceLevel":0,"status":"current","disputed":false,"precision":"oaza","areaKey":"01230034000","elements":["kake"],"summary":"要素辞書に一致（kake）。出典による裏づけは未確認。","zones":[],"dataset":"candidates"}},{"type":"Feature","geometry":{"type":"Point","coordinates":[141.606348,42.873988]},"properties":{"id":"01-4c3893b116","name":"戸磯","reading":"トイソ","pref":"北海道","prefCode":"01","municipality":"恵庭市","hazardTypes":["rockfall","debris_flow"],"evidenceLevel":0,"status":"current","disputed":false,"precision":"oaza","areaKey":"012310520","elements":["iso_ishi"],"summary":"要素辞書に一致（iso_ishi）。出典による裏づけは未確認。","zones":[],"dataset":"candidates"}},{"type":"Feature","geometry":{"type":"Point","coordinates":[140.871703,42.472823]},"properties":{"id":"01-02887901c8","name":"梅本町","reading":"ウメモトチョウ","pref":"北海道","prefCode":"01","municipality":"伊達市","hazardTypes":["landslide","slope_failure"],"evidenceLevel":0,"status":"current","disputed":false,"precision":"oaza","areaKey":"012330040","elements":["ume"],"summary":"要素辞書に一致（ume）。出典による裏づけは未確認。","zones":[],"dataset":"candidates"}},{"type":"Feature","geometry":{"type":"Point","coordinates":[140.864831,42.471054]},"properties":{"id":"01-c396cbdf36","name":"鹿島町","reading":"カシマチョウ","pref":"北海道","prefCode":"01","municipality":"伊達市","hazardTypes":["landslide","soft_ground"],"evidenceLevel":0,"status":"current","disputed":false,"precision":"oaza","areaKey":"012330010","elements":["shishi"],"summary":"要素辞書に一致（shishi）。出典による裏づけは未確認。","zones":[],"dataset":"candidates"}},{"type":"Feature","geometry":{"type":"Point","coordinates":[141.466526,43.208715]},"properties":{"id":"01-4c8ae3d2f1","name":"獅子内","reading":"シシナイ","pref":"北海道","prefCode":"01","municipality":"石狩郡当別町","hazardTypes":["landslide","soft_ground"],"evidenceLevel":0,"status":"current","disputed":false,"precision":"oaza","areaKey":null,"elements":["shishi"],"summary":"要素辞書に一致（shishi）。出典による裏づけは未確認。","zones":[],"dataset":"candidates"}},{"type":"Feature","geometry":{"type":"Point","coordinates":[140.094634,41.426343]},"properties":{"id":"01-698f4e383c","name":"字大磯","reading":null,"pref":"北海道","prefCode":"01","municipality":"松前郡松前町","hazardTypes":["rockfall","debris_flow"],"evidenceLevel":0,"status":"current","disputed":false,"precision":"oaza","areaKey":null,"elements":["iso_ishi"],"summary":"要素辞書に一致（iso_ishi）。出典による裏づけは未確認。","zones":[],"dataset":"candidates"}},{"type":"Feature","geometry":{"type":"Point","coordinates":[140.205175,41.517468]},"properties":{"id":"01-a455c2405f","name":"字桧倉","reading":null,"pref":"北海道","prefCode":"01","municipality":"松前郡福島町","hazardTypes":["slope_failure","rockfall"],"evidenceLevel":0,"status":"current","disputed":false,"precision":"oaza","areaKey":null,"elements":["kura"],"summary":"要素辞書に一致（kura）。出典による裏づけは未確認。","zones":[],"dataset":"candidates"}},{"type":"Feature","geometry":{"type":"Point","coordinates":[140.81967,42.011153]},"properties":{"id":"01-504917bd92","name":"字鹿部","reading":null,"pref":"北海道","prefCode":"01","municipality":"茅部郡鹿部町","hazardTypes":["landslide","soft_ground"],"evidenceLevel":0,"status":"current","disputed":false,"precision":"oaza","areaKey":null,"elements":["shishi"],"summary":"要素辞書に一致（shishi）。出典による裏づけは未確認。","zones":[],"dataset":"candidates"}},{"type":"Feature","geometry":{"type":"Point","coordinates":[140.461086,42.158605]},"properties":{"id":"01-45c1286c6c","name":"字石倉町","reading":null,"pref":"北海道","prefCode":"01","municipality":"茅部郡森町","hazardTypes":["slope_failure","rockfall"],"evidenceLevel":0,"status":"current","disputed":false,"precision":"oaza","areaKey":null,"elements":["kura"],"summary":"要素辞書に一致（kura）。出典による裏づけは未確認。","zones":[],"dataset":"candidates"}},{"type":"Feature","geometry":{"type":"Point","coordinates":[140.125623,41.857086]},"properties":{"id":"01-70222df11d","name":"字海岸町","reading":null,"pref":"北海道","prefCode":"01","municipality":"檜山郡江差町","hazardTypes":["slope_failure"],"evidenceLevel":0,"status":"current","disputed":false,"precision":"oaza","areaKey":null,"elements":["kake"],"summary":"要素辞書に一致（kake）。出典による裏づけは未確認。","zones":[],"dataset":"candidates"}},{"type":"Feature","geometry":{"type":"Point","coordinates":[140.092476,42.050501]},"properties":{"id":"01-3b57ec4ea7","name":"字花磯","reading":null,"pref":"北海道","prefCode":"01","municipality":"爾志郡乙部町","hazardTypes":["rockfall","debris_flow"],"evidenceLevel":0,"status":"current","disputed":false,"precision":"oaza","areaKey":null,"elements":["iso_ishi"],"summary":"要素辞書に一致（iso_ishi）。出典による裏づけは未確認。","zones":[],"dataset":"candidates"}},{"type":"Feature","geometry":{"type":"Point","coordinates":[139.49527,42.129595]},"properties":{"id":"01-335c2e55db","name":"字赤石","reading":null,"pref":"北海道","prefCode":"01","municipality":"奥尻郡奥尻町","hazardTypes":["landslide"],"evidenceLevel":0,"status":"current","disputed":false,"precision":"oaza","areaKey":null,"elements":["geology_names"],"summary":"要素辞書に一致（geology_names）。出典による裏づけは未確認。","zones":[],"dataset":"candidates"}},{"type":"Feature","geometry":{"type":"Point","coordinates":[139.955842,42.525187]},"properties":{"id":"01-1c423b6423","name":"北檜山区小倉山","reading":"キタヒヤマクオグラヤマ","pref":"北海道","prefCode":"01","municipality":"久遠郡せたな町","hazardTypes":["slope_failure","rockfall"],"evidenceLevel":0,"status":"current","disputed":false,"precision":"oaza","areaKey":null,"elements":["kura"],"summary":"要素辞書に一致（kura）。出典による裏づけは未確認。","zones":[],"dataset":"candidates"}},{"type":"Feature","geometry":{"type":"Point","coordinates":[139.794813,42.247575]},"properties":{"id":"01-f4bdbafb0b","name":"大成区富磯","reading":"タイセイクトミイソ","pref":"北海道","prefCode":"01","municipality":"久遠郡せたな町","hazardTypes":["rockfall","debris_flow","landslide"],"evidenceLevel":0,"status":"current","disputed":false,"precision":"oaza","areaKey":null,"elements":["iso_ishi","nari"],"summary":"要素辞書に一致（iso_ishi・nari）。出典による裏づけは未確認。","zones":[],"dataset":"candidates"}},{"type":"Feature","geometry":{"type":"Point","coordinates":[139.920909,42.156389]},"properties":{"id":"01-a97ac5b0ba","name":"大成区長磯","reading":"タイセイクナガイソ","pref":"北海道","prefCode":"01","municipality":"久遠郡せたな町","hazardTypes":["rockfall","debris_flow","landslide"],"evidenceLevel":0,"status":"current","disputed":false,"precision":"oaza","areaKey":null,"elements":["iso_ishi","nari"],"summary":"要素辞書に一致（iso_ishi・nari）。出典による裏づけは未確認。","zones":[],"dataset":"candidates"}},{"type":"Feature","geometry":{"type":"Point","coordinates":[140.10546,42.730177]},"properties":{"id":"01-d6c103e343","name":"字栄磯","reading":null,"pref":"北海道","prefCode":"01","municipality":"島牧郡島牧村","hazardTypes":["rockfall","debris_flow"],"evidenceLevel":0,"status":"current","disputed":false,"precision":"oaza","areaKey":null,"elements":["iso_ishi"],"summary":"要素辞書に一致（iso_ishi）。出典による裏づけは未確認。","zones":[],"dataset":"candidates"}},{"type":"Feature","geometry":{"type":"Point","coordinates":[140.230735,42.795629]},"properties":{"id":"01-d690a5660a","name":"字大磯町","reading":null,"pref":"北海道","prefCode":"01","municipality":"寿都郡寿都町","hazardTypes":["rockfall","debris_flow"],"evidenceLevel":0,"status":"current","disputed":false,"precision":"oaza","areaKey":null,"elements":["iso_ishi"],"summary":"要素辞書に一致（iso_ishi）。出典による裏づけは未確認。","zones":[],"dataset":"candidates"}},{"type":"Feature","geometry":{"type":"Point","coordinates":[140.25428,42.75074]},"properties":{"id":"01-1548f7aef8","name":"字樽岸町","reading":null,"pref":"北海道","prefCode":"01","municipality":"寿都郡寿都町","hazardTypes":["slope_failure"],"evidenceLevel":0,"status":"current","disputed":false,"precision":"oaza","areaKey":null,"elements":["kake"],"summary":"要素辞書に一致（kake）。出典による裏づけは未確認。","zones":[],"dataset":"candidates"}},{"type":"Feature","geometry":{"type":"Point","coordinates":[140.352911,42.820506]},"properties":{"id":"01-b913ac8d53","name":"字磯谷町","reading":null,"pref":"北海道","prefCode":"01","municipality":"寿都郡寿都町","hazardTypes":["rockfall","debris_flow"],"evidenceLevel":0,"status":"current","disputed":false,"precision":"oaza","areaKey":null,"elements":["iso_ishi"],"summary":"要素辞書に一致（iso_ishi）。出典による裏づけは未確認。","zones":[],"dataset":"candidates"}},{"type":"Feature","geometry":{"type":"Point","coordinates":[140.601954,43.03574]},"properties":{"id":"01-a6d2159203","name":"発足","reading":"ハッタリ","pref":"北海道","prefCode":"01","municipality":"岩内郡共和町","hazardTypes":["flood","inundation"],"evidenceLevel":0,"status":"current","disputed":false,"precision":"oaza","areaKey":null,"elements":["ashi"],"summary":"要素辞書に一致（ashi）。出典による裏づけは未確認。","zones":[],"dataset":"candidates"}},{"type":"Feature","geometry":{"type":"Point","coordinates":[140.400361,43.172175]},"properties":{"id":"01-047bd59629","name":"大字赤石村","reading":null,"pref":"北海道","prefCode":"01","municipality":"古宇郡神恵内村","hazardTypes":["landslide"],"evidenceLevel":0,"status":"current","disputed":false,"precision":"oaza","areaKey":null,"elements":["geology_names"],"summary":"要素辞書に一致（geology_names）。出典による裏づけは未確認。","zones":[],"dataset":"candidates"}},{"type":"Feature","geometry":{"type":"Point","coordinates":[140.399926,43.290317]},"properties":{"id":"01-1d37c278cd","name":"大字来岸町","reading":null,"pref":"北海道","prefCode":"01","municipality":"積丹郡積丹町","hazardTypes":["slope_failure"],"evidenceLevel":0,"status":"current","disputed":false,"precision":"oaza","areaKey":null,"elements":["kake"],"summary":"要素辞書に一致（kake）。出典による裏づけは未確認。","zones":[],"dataset":"candidates"}},{"type":"Feature","geometry":{"type":"Point","coordinates":[140.754001,43.206264]},"properties":{"id":"01-7bbc062356","name":"梅川町","reading":"ウメカワチョウ","pref":"北海道","prefCode":"01","municipality":"余市郡余市町","hazardTypes":["landslide","slope_failure"],"evidenceLevel":0,"status":"current","disputed":false,"precision":"oaza","areaKey":null,"elements":["ume"],"summary":"要素辞書に一致（ume）。出典による裏づけは未確認。","zones":[],"dataset":"candidates"}},{"type":"Feature","geometry":{"type":"Point","coordinates":[141.801566,43.016065]},"properties":{"id":"01-a658af3e63","name":"古川","reading":"フルカワ","pref":"北海道","prefCode":"01","municipality":"夕張郡由仁町","hazardTypes":["flood","inundation"],"evidenceLevel":0,"status":"current","disputed":false,"precision":"oaza","areaKey":null,"elements":["furukawa"],"summary":"要素辞書に一致（furukawa）。出典による裏づけは未確認。","zones":[],"dataset":"candidates"}},{"type":"Feature","geometry":{"type":"Point","coordinates":[142.394897,43.389565]},"properties":{"id":"01-af9c1b9870","name":"字中富良野鹿討農場","reading":null,"pref":"北海道","prefCode":"01","municipality":"空知郡中富良野町","hazardTypes":["landslide","soft_ground"],"evidenceLevel":0,"status":"current","disputed":false,"precision":"oaza","areaKey":null,"elements":["shishi"],"summary":"要素辞書に一致（shishi）。出典による裏づけは未確認。","zones":[],"dataset":"candidates"}},{"type":"Feature","geometry":{"type":"Point","coordinates":[142.500727,43.145356]},"properties":{"id":"01-e3ae52727d","name":"字東鹿越","reading":null,"pref":"北海道","prefCode":"01","municipality":"空知郡南富良野町","hazardTypes":["landslide","soft_ground"],"evidenceLevel":0,"status":"current","disputed":false,"precision":"oaza","areaKey":null,"elements":["shishi"],"summary":"要素辞書に一致（shishi）。出典による裏づけは未確認。","zones":[],"dataset":"candidates"}},{"type":"Feature","geometry":{"type":"Point","coordinates":[142.050235,44.747182]},"properties":{"id":"01-db6257da90","name":"字佐久","reading":null,"pref":"北海道","prefCode":"01","municipality":"中川郡中川町","hazardTypes":["flood"],"evidenceLevel":0,"status":"current","disputed":false,"precision":"oaza","areaKey":null,"elements":["sake"],"summary":"要素辞書に一致（sake）。出典による裏づけは未確認。","zones":[],"dataset":"candidates"}},{"type":"Feature","geometry":{"type":"Point","coordinates":[141.522866,43.858628]},"properties":{"id":"01-99f379a3f6","name":"稲葉海岸町","reading":"イナバカイガンチョウ","pref":"北海道","prefCode":"01","municipality":"増毛郡増毛町","hazardTypes":["slope_failure"],"evidenceLevel":0,"status":"current","disputed":false,"precision":"oaza","areaKey":null,"elements":["kake"],"summary":"要素辞書に一致（kake）。出典による裏づけは未確認。","zones":[],"dataset":"candidates"}},{"type":"Feature","geometry":{"type":"Point","coordinates":[141.514692,43.8563]},"properties":{"id":"01-62c115976e","name":"暑寒海岸町","reading":"ショカンカイガンチョウ","pref":"北海道","prefCode":"01","municipality":"増毛郡増毛町","hazardTypes":["slope_failure"],"evidenceLevel":0,"status":"current","disputed":false,"precision":"oaza","areaKey":null,"elements":["kake"],"summary":"要素辞書に一致（kake）。出典による裏づけは未確認。","zones":[],"dataset":"candidates"}},{"type":"Feature","geometry":{"type":"Point","coordinates":[141.672133,44.168296]},"properties":{"id":"01-aa6e31e5df","name":"字鬼鹿元浜","reading":null,"pref":"北海道","prefCode":"01","municipality":"留萌郡小平町","hazardTypes":["landslide","soft_ground"],"evidenceLevel":0,"status":"current","disputed":false,"precision":"oaza","areaKey":null,"elements":["shishi"],"summary":"要素辞書に一致（shishi）。出典による裏づけは未確認。","zones":[],"dataset":"candidates"}},{"type":"Feature","geometry":{"type":"Point","coordinates":[141.692923,44.183968]},"properties":{"id":"01-9dc2a62d60","name":"字鬼鹿千松","reading":null,"pref":"北海道","prefCode":"01","municipality":"留萌郡小平町","hazardTypes":["landslide","soft_ground"],"evidenceLevel":0,"status":"current","disputed":false,"precision":"oaza","areaKey":null,"elements":["shishi"],"summary":"要素辞書に一致（shishi）。出典による裏づけは未確認。","zones":[],"dataset":"candidates"}},{"type":"Feature","geometry":{"type":"Point","coordinates":[141.716997,44.106396]},"properties":{"id":"01-454604eb8a","name":"字鬼鹿富岡","reading":null,"pref":"北海道","prefCode":"01","municipality":"留萌郡小平町","hazardTypes":["landslide","soft_ground"],"evidenceLevel":0,"status":"current","disputed":false,"precision":"oaza","areaKey":null,"elements":["shishi"],"summary":"要素辞書に一致（shishi）。出典による裏づけは未確認。","zones":[],"dataset":"candidates"}},{"type":"Feature","geometry":{"type":"Point","coordinates":[141.676584,44.137954]},"properties":{"id":"01-ee80f3fad5","name":"字鬼鹿広富","reading":null,"pref":"北海道","prefCode":"01","municipality":"留萌郡小平町","hazardTypes":["landslide","soft_ground"],"evidenceLevel":0,"status":"current","disputed":false,"precision":"oaza","areaKey":null,"elements":["shishi"],"summary":"要素辞書に一致（shishi）。出典による裏づけは未確認。","zones":[],"dataset":"candidates"}},{"type":"Feature","geometry":{"type":"Point","coordinates":[141.657404,44.153607]},"properties":{"id":"01-095b72d006","name":"字鬼鹿港町","reading":null,"pref":"北海道","prefCode":"01","municipality":"留萌郡小平町","hazardTypes":["landslide","soft_ground"],"evidenceLevel":0,"status":"current","disputed":false,"precision":"oaza","areaKey":null,"elements":["shishi"],"summary":"要素辞書に一致（shishi）。出典による裏づけは未確認。","zones":[],"dataset":"candidates"}},{"type":"Feature","geometry":{"type":"Point","coordinates":[141.727827,44.144757]},"properties":{"id":"01-d3350459b4","name":"字鬼鹿田代","reading":null,"pref":"北海道","prefCode":"01","municipality":"留萌郡小平町","hazardTypes":["landslide","soft_ground"],"evidenceLevel":0,"status":"current","disputed":false,"precision":"oaza","areaKey":null,"elements":["shishi"],"summary":"要素辞書に一致（shishi）。出典による裏づけは未確認。","zones":[],"dataset":"candidates"}},{"type":"Feature","geometry":{"type":"Point","coordinates":[141.672687,44.119459]},"properties":{"id":"01-1a4a0cbd27","name":"字鬼鹿秀浦","reading":null,"pref":"北海道","prefCode":"01","municipality":"留萌郡小平町","hazardTypes":["landslide","soft_ground"],"evidenceLevel":0,"status":"current","disputed":false,"precision":"oaza","areaKey":null,"elements":["shishi"],"summary":"要素辞書に一致（shishi）。出典による裏づけは未確認。","zones":[],"dataset":"candidates"}},{"type":"Feature","geometry":{"type":"Point","coordinates":[141.684842,44.200389]},"properties":{"id":"01-465a0b0cf8","name":"字鬼鹿豊浜","reading":null,"pref":"北海道","prefCode":"01","municipality":"留萌郡小平町","hazardTypes":["landslide","soft_ground"],"evidenceLevel":0,"status":"current","disputed":false,"precision":"oaza","areaKey":null,"elements":["shishi"],"summary":"要素辞書に一致（shishi）。出典による裏づけは未確認。","zones":[],"dataset":"candidates"}},{"type":"Feature","geometry":{"type":"Point","coordinates":[141.774519,44.845232]},"properties":{"id":"01-24942ea3f5","name":"字更岸","reading":null,"pref":"北海道","prefCode":"01","municipality":"天塩郡天塩町","hazardTypes":["slope_failure"],"evidenceLevel":0,"status":"current","disputed":false,"precision":"oaza","areaKey":null,"elements":["kake"],"summary":"要素辞書に一致（kake）。出典による裏づけは未確認。","zones":[],"dataset":"candidates"}},{"type":"Feature","geometry":{"type":"Point","coordinates":[141.743386,44.880136]},"properties":{"id":"01-8ea978acab","name":"海岸通一丁目","reading":"カイガンドオリ 1","pref":"北海道","prefCode":"01","municipality":"天塩郡天塩町","hazardTypes":["slope_failure"],"evidenceLevel":0,"status":"current","disputed":false,"precision":"oaza","areaKey":null,"elements":["kake"],"summary":"要素辞書に一致（kake）。出典による裏づけは未確認。","zones":[],"dataset":"candidates"}},{"type":"Feature","geometry":{"type":"Point","coordinates":[142.175485,45.288713]},"properties":{"id":"01-7c69268837","name":"芦野","reading":"アシノ","pref":"北海道","prefCode":"01","municipality":"宗谷郡猿払村","hazardTypes":["flood","inundation"],"evidenceLevel":0,"status":"current","disputed":false,"precision":"oaza","areaKey":null,"elements":["ashi"],"summary":"要素辞書に一致（ashi）。出典による裏づけは未確認。","zones":[],"dataset":"candidates"}},{"type":"Feature","geometry":{"type":"Point","coordinates":[142.088469,45.113531]},"properties":{"id":"01-aaa8035c3f","name":"上猿払","reading":"カミサルフツ","pref":"北海道","prefCode":"01","municipality":"宗谷郡猿払村","hazardTypes":["slope_failure"],"evidenceLevel":0,"status":"current","disputed":false,"precision":"oaza","areaKey":null,"elements":["saru"],"summary":"要素辞書に一致（saru）。出典による裏づけは未確認。","zones":[],"dataset":"candidates"}},{"type":"Feature","geometry":{"type":"Point","coordinates":[142.207753,45.26387]},"properties":{"id":"01-52d535a920","name":"猿払","reading":"サルフツ","pref":"北海道","prefCode":"01","municipality":"宗谷郡猿払村","hazardTypes":["slope_failure"],"evidenceLevel":0,"status":"current","disputed":false,"precision":"oaza","areaKey":null,"elements":["saru"],"summary":"要素辞書に一致（saru）。出典による裏づけは未確認。","zones":[],"dataset":"candidates"}},{"type":"Feature","geometry":{"type":"Point","coordinates":[142.237076,45.262641]},"properties":{"id":"01-b9b92cf375","name":"浜猿払","reading":"ハマサルフツ","pref":"北海道","prefCode":"01","municipality":"宗谷郡猿払村","hazardTypes":["slope_failure"],"evidenceLevel":0,"status":"current","disputed":false,"precision":"oaza","areaKey":null,"elements":["saru"],"summary":"要素辞書に一致（saru）。出典による裏づけは未確認。","zones":[],"dataset":"candidates"}},{"type":"Feature","geometry":{"type":"Point","coordinates":[142.322914,45.058591]},"properties":{"id":"01-c76c1269ae","name":"字下頓別","reading":null,"pref":"北海道","prefCode":"01","municipality":"枝幸郡浜頓別町","hazardTypes":["slope_failure","debris_flow"],"evidenceLevel":0,"status":"current","disputed":false,"precision":"oaza","areaKey":null,"elements":["tobi"],"summary":"要素辞書に一致（tobi）。出典による裏づけは未確認。","zones":[],"dataset":"candidates"}},{"type":"Feature","geometry":{"type":"Point","coordinates":[142.388867,45.120229]},"properties":{"id":"01-e7030683be","name":"字浜頓別","reading":null,"pref":"北海道","prefCode":"01","municipality":"枝幸郡浜頓別町","hazardTypes":["slope_failure","debris_flow"],"evidenceLevel":0,"status":"current","disputed":false,"precision":"oaza","areaKey":null,"elements":["tobi"],"summary":"要素辞書に一致（tobi）。出典による裏づけは未確認。","zones":[],"dataset":"candidates"}},{"type":"Feature","geometry":{"type":"Point","coordinates":[142.365283,45.151447]},"properties":{"id":"01-308499baac","name":"字頓別","reading":null,"pref":"北海道","prefCode":"01","municipality":"枝幸郡浜頓別町","hazardTypes":["slope_failure","debris_flow"],"evidenceLevel":0,"status":"current","disputed":false,"precision":"oaza","areaKey":null,"elements":["tobi"],"summary":"要素辞書に一致（tobi）。出典による裏づけは未確認。","zones":[],"dataset":"candidates"}},{"type":"Feature","geometry":{"type":"Point","coordinates":[142.274425,44.852695]},"properties":{"id":"01-1817f2aed9","name":"字上頓別","reading":null,"pref":"北海道","prefCode":"01","municipality":"枝幸郡中頓別町","hazardTypes":["slope_failure","debris_flow"],"evidenceLevel":0,"status":"current","disputed":false,"precision":"oaza","areaKey":null,"elements":["tobi"],"summary":"要素辞書に一致（tobi）。出典による裏づけは未確認。","zones":[],"dataset":"candidates"}},{"type":"Feature","geometry":{"type":"Point","coordinates":[142.29391,44.972904]},"properties":{"id":"01-e2893ac682","name":"字中頓別","reading":null,"pref":"北海道","prefCode":"01","municipality":"枝幸郡中頓別町","hazardTypes":["slope_failure","debris_flow"],"evidenceLevel":0,"status":"current","disputed":false,"precision":"oaza","areaKey":null,"elements":["tobi"],"summary":"要素辞書に一致（tobi）。出典による裏づけは未確認。","zones":[],"dataset":"candidates"}},{"type":"Feature","geometry":{"type":"Point","coordinates":[142.302348,44.828691]},"properties":{"id":"01-6a3fe705fd","name":"字小頓別","reading":null,"pref":"北海道","prefCode":"01","municipality":"枝幸郡中頓別町","hazardTypes":["slope_failure","debris_flow"],"evidenceLevel":0,"status":"current","disputed":false,"precision":"oaza","areaKey":null,"elements":["tobi"],"summary":"要素辞書に一致（tobi）。出典による裏づけは未確認。","zones":[],"dataset":"candidates"}},{"type":"Feature","geometry":{"type":"Point","coordinates":[142.583062,44.937665]},"properties":{"id":"01-fd45d43f4e","name":"梅ヶ枝町","reading":"ウメガエチョウ","pref":"北海道","prefCode":"01","municipality":"枝幸郡枝幸町","hazardTypes":["landslide","slope_failure"],"evidenceLevel":0,"status":"current","disputed":false,"precision":"oaza","areaKey":null,"elements":["ume"],"summary":"要素辞書に一致（ume）。出典による裏づけは未確認。","zones":[],"dataset":"candidates"}},{"type":"Feature","geometry":{"type":"Point","coordinates":[141.746593,45.191458]},"properties":{"id":"01-ff252eeb8b","name":"字芦川","reading":null,"pref":"北海道","prefCode":"01","municipality":"天塩郡豊富町","hazardTypes":["flood","inundation"],"evidenceLevel":0,"status":"current","disputed":false,"precision":"oaza","areaKey":null,"elements":["ashi"],"summary":"要素辞書に一致（ashi）。出典による裏づけは未確認。","zones":[],"dataset":"candidates"}},{"type":"Feature","geometry":{"type":"Point","coordinates":[144.201849,43.667109]},"properties":{"id":"01-75f4968870","name":"字古梅","reading":null,"pref":"北海道","prefCode":"01","municipality":"網走郡美幌町","hazardTypes":["landslide","slope_failure"],"evidenceLevel":0,"status":"current","disputed":false,"precision":"oaza","areaKey":null,"elements":["ume"],"summary":"要素辞書に一致（ume）。出典による裏づけは未確認。","zones":[],"dataset":"candidates"}},{"type":"Feature","geometry":{"type":"Point","coordinates":[144.670432,43.888641]},"properties":{"id":"01-402be4980c","name":"字豊倉","reading":null,"pref":"北海道","prefCode":"01","municipality":"斜里郡斜里町","hazardTypes":["slope_failure","rockfall"],"evidenceLevel":0,"status":"current","disputed":false,"precision":"oaza","areaKey":null,"elements":["kura"],"summary":"要素辞書に一致（kura）。出典による裏づけは未確認。","zones":[],"dataset":"candidates"}},{"type":"Feature","geometry":{"type":"Point","coordinates":[144.435812,43.904201]},"properties":{"id":"01-3f0d055eb9","name":"字倉栄","reading":null,"pref":"北海道","prefCode":"01","municipality":"斜里郡小清水町","hazardTypes":["slope_failure","rockfall"],"evidenceLevel":0,"status":"current","disputed":false,"precision":"oaza","areaKey":null,"elements":["kura"],"summary":"要素辞書に一致（kura）。出典による裏づけは未確認。","zones":[],"dataset":"candidates"}},{"type":"Feature","geometry":{"type":"Point","coordinates":[143.911214,44.023747]},"properties":{"id":"01-bb4d216745","name":"字仁倉","reading":null,"pref":"北海道","prefCode":"01","municipality":"常呂郡佐呂間町","hazardTypes":["slope_failure","rockfall"],"evidenceLevel":0,"status":"current","disputed":false,"precision":"oaza","areaKey":null,"elements":["kura"],"summary":"要素辞書に一致（kura）。出典による裏づけは未確認。","zones":[],"dataset":"candidates"}},{"type":"Feature","geometry":{"type":"Point","coordinates":[144.288657,43.859721]},"properties":{"id":"01-8ad8e19feb","name":"東藻琴西倉","reading":"ヒガシモコトニシクラ","pref":"北海道","prefCode":"01","municipality":"網走郡大空町","hazardTypes":["slope_failure","rockfall"],"evidenceLevel":0,"status":"current","disputed":false,"precision":"oaza","areaKey":null,"elements":["kura"],"summary":"要素辞書に一致（kura）。出典による裏づけは未確認。","zones":[],"dataset":"candidates"}},{"type":"Feature","geometry":{"type":"Point","coordinates":[140.615547,42.614361]},"properties":{"id":"01-0bc2532bac","name":"字大岸","reading":null,"pref":"北海道","prefCode":"01","municipality":"虻田郡豊浦町","hazardTypes":["slope_failure"],"evidenceLevel":0,"status":"current","disputed":false,"precision":"oaza","areaKey":null,"elements":["kake"],"summary":"要素辞書に一致（kake）。出典による裏づけは未確認。","zones":[],"dataset":"candidates"}},{"type":"Feature","geometry":{"type":"Point","coordinates":[140.712949,42.579277]},"properties":{"id":"01-c5d8e4db2a","name":"字海岸町","reading":null,"pref":"北海道","prefCode":"01","municipality":"虻田郡豊浦町","hazardTypes":["slope_failure"],"evidenceLevel":0,"status":"current","disputed":false,"precision":"oaza","areaKey":null,"elements":["kake"],"summary":"要素辞書に一致（kake）。出典による裏づけは未確認。","zones":[],"dataset":"candidates"}},{"type":"Feature","geometry":{"type":"Point","coordinates":[141.9051,42.624963]},"properties":{"id":"01-17f1df0bbb","name":"字鹿沼","reading":null,"pref":"北海道","prefCode":"01","municipality":"勇払郡厚真町","hazardTypes":["landslide","soft_ground","inundation"],"evidenceLevel":0,"status":"current","disputed":false,"precision":"oaza","areaKey":null,"elements":["shishi","numa_kata"],"summary":"要素辞書に一致（shishi・numa_kata）。出典による裏づけは未確認。","zones":[],"dataset":"candidates"}},{"type":"Feature","geometry":{"type":"Point","coordinates":[140.754106,42.554481]},"properties":{"id":"01-f308b920b1","name":"大磯町","reading":"オオイソチョウ","pref":"北海道","prefCode":"01","municipality":"虻田郡洞爺湖町","hazardTypes":["rockfall","debris_flow"],"evidenceLevel":0,"status":"current","disputed":false,"precision":"oaza","areaKey":null,"elements":["iso_ishi"],"summary":"要素辞書に一致（iso_ishi）。出典による裏づけは未確認。","zones":[],"dataset":"candidates"}},{"type":"Feature","geometry":{"type":"Point","coordinates":[142.092245,42.563924]},"properties":{"id":"01-6ffb1d3a2c","name":"字去場","reading":null,"pref":"北海道","prefCode":"01","municipality":"沙流郡平取町","hazardTypes":["slope_failure"],"evidenceLevel":0,"status":"current","disputed":false,"precision":"oaza","areaKey":null,"elements":["saru"],"summary":"要素辞書に一致（saru）。出典による裏づけは未確認。","zones":[],"dataset":"candidates"}},{"type":"Feature","geometry":{"type":"Point","coordinates":[142.397571,42.439659]},"properties":{"id":"01-468f7675f0","name":"字古岸","reading":null,"pref":"北海道","prefCode":"01","municipality":"新冠郡新冠町","hazardTypes":["slope_failure"],"evidenceLevel":0,"status":"current","disputed":false,"precision":"oaza","areaKey":null,"elements":["kake"],"summary":"要素辞書に一致（kake）。出典による裏づけは未確認。","zones":[],"dataset":"candidates"}},{"type":"Feature","geometry":{"type":"Point","coordinates":[142.674224,42.216457]},"properties":{"id":"01-5f991b92a0","name":"荻伏町","reading":"オギフシチョウ","pref":"北海道","prefCode":"01","municipality":"浦河郡浦河町","hazardTypes":["slope_failure"],"evidenceLevel":0,"status":"current","disputed":false,"precision":"oaza","areaKey":null,"elements":["suki_hagu"],"summary":"要素辞書に一致（suki_hagu）。出典による裏づけは未確認。","zones":[],"dataset":"candidates"}},{"type":"Feature","geometry":{"type":"Point","coordinates":[142.363022,42.334189]},"properties":{"id":"01-d4df787fa9","name":"静内海岸町一丁目","reading":"シズナイカイガンチョウ 1","pref":"北海道","prefCode":"01","municipality":"日高郡新ひだか町","hazardTypes":["slope_failure"],"evidenceLevel":0,"status":"current","disputed":false,"precision":"oaza","areaKey":null,"elements":["kake"],"summary":"要素辞書に一致（kake）。出典による裏づけは未確認。","zones":[],"dataset":"candidates"}},{"type":"Feature","geometry":{"type":"Point","coordinates":[142.424749,42.386226]},"properties":{"id":"01-43b032b23a","name":"静内田原","reading":"シズナイタハラ","pref":"北海道","prefCode":"01","municipality":"日高郡新ひだか町","hazardTypes":["debris_flow","flood"],"evidenceLevel":0,"status":"current","disputed":false,"precision":"oaza","areaKey":null,"elements":["uchide"],"summary":"要素辞書に一致（uchide）。出典による裏づけは未確認。","zones":[],"dataset":"candidates"}},{"type":"Feature","geometry":{"type":"Point","coordinates":[142.366163,42.33468]},"properties":{"id":"01-13f59ef571","name":"静内古川町一丁目","reading":"シズナイフルカワチョウ 1","pref":"北海道","prefCode":"01","municipality":"日高郡新ひだか町","hazardTypes":["flood","inundation"],"evidenceLevel":0,"status":"current","disputed":false,"precision":"oaza","areaKey":null,"elements":["furukawa"],"summary":"要素辞書に一致（furukawa）。出典による裏づけは未確認。","zones":[],"dataset":"candidates"}},{"type":"Feature","geometry":{"type":"Point","coordinates":[143.082779,43.0192]},"properties":{"id":"01-b8937bbe3b","name":"字高倉西七線","reading":null,"pref":"北海道","prefCode":"01","municipality":"河東郡音更町","hazardTypes":["slope_failure","rockfall"],"evidenceLevel":0,"status":"current","disputed":false,"precision":"oaza","areaKey":null,"elements":["kura"],"summary":"要素辞書に一致（kura）。出典による裏づけは未確認。","zones":[],"dataset":"candidates"}},{"type":"Feature","geometry":{"type":"Point","coordinates":[143.110114,43.020755]},"properties":{"id":"01-9cef0e22f0","name":"字高倉西三線","reading":null,"pref":"北海道","prefCode":"01","municipality":"河東郡音更町","hazardTypes":["slope_failure","rockfall"],"evidenceLevel":0,"status":"current","disputed":false,"precision":"oaza","areaKey":null,"elements":["kura"],"summary":"要素辞書に一致（kura）。出典による裏づけは未確認。","zones":[],"dataset":"candidates"}},{"type":"Feature","geometry":{"type":"Point","coordinates":[143.070489,43.021648]},"properties":{"id":"01-04c60a840d","name":"字高倉西九線","reading":null,"pref":"北海道","prefCode":"01","municipality":"河東郡音更町","hazardTypes":["slope_failure","rockfall"],"evidenceLevel":0,"status":"current","disputed":false,"precision":"oaza","areaKey":null,"elements":["kura"],"summary":"要素辞書に一致（kura）。出典による裏づけは未確認。","zones":[],"dataset":"candidates"}},{"type":"Feature","geometry":{"type":"Point","coordinates":[143.11527,43.021138]},"properties":{"id":"01-d762981ae4","name":"字高倉西二線","reading":null,"pref":"北海道","prefCode":"01","municipality":"河東郡音更町","hazardTypes":["slope_failure","rockfall"],"evidenceLevel":0,"status":"current","disputed":false,"precision":"oaza","areaKey":null,"elements":["kura"],"summary":"要素辞書に一致（kura）。出典による裏づけは未確認。","zones":[],"dataset":"candidates"}},{"type":"Feature","geometry":{"type":"Point","coordinates":[143.096444,43.019751]},"properties":{"id":"01-49c17e9433","name":"字高倉西五線","reading":null,"pref":"北海道","prefCode":"01","municipality":"河東郡音更町","hazardTypes":["slope_failure","rockfall"],"evidenceLevel":0,"status":"current","disputed":false,"precision":"oaza","areaKey":null,"elements":["kura"],"summary":"要素辞書に一致（kura）。出典による裏づけは未確認。","zones":[],"dataset":"candidates"}},{"type":"Feature","geometry":{"type":"Point","coordinates":[143.075827,43.020204]},"properties":{"id":"01-0453222026","name":"字高倉西八線","reading":null,"pref":"北海道","prefCode":"01","municipality":"河東郡音更町","hazardTypes":["slope_failure","rockfall"],"evidenceLevel":0,"status":"current","disputed":false,"precision":"oaza","areaKey":null,"elements":["kura"],"summary":"要素辞書に一致（kura）。出典による裏づけは未確認。","zones":[],"dataset":"candidates"}},{"type":"Feature","geometry":{"type":"Point","coordinates":[143.089568,43.019443]},"properties":{"id":"01-df48dd9767","name":"字高倉西六線","reading":null,"pref":"北海道","prefCode":"01","municipality":"河東郡音更町","hazardTypes":["slope_failure","rockfall"],"evidenceLevel":0,"status":"current","disputed":false,"precision":"oaza","areaKey":null,"elements":["kura"],"summary":"要素辞書に一致（kura）。出典による裏づけは未確認。","zones":[],"dataset":"candidates"}},{"type":"Feature","geometry":{"type":"Point","coordinates":[143.10326,43.020252]},"properties":{"id":"01-2a46dacd1e","name":"字高倉西四線","reading":null,"pref":"北海道","prefCode":"01","municipality":"河東郡音更町","hazardTypes":["slope_failure","rockfall"],"evidenceLevel":0,"status":"current","disputed":false,"precision":"oaza","areaKey":null,"elements":["kura"],"summary":"要素辞書に一致（kura）。出典による裏づけは未確認。","zones":[],"dataset":"candidates"}},{"type":"Feature","geometry":{"type":"Point","coordinates":[143.193982,42.99411]},"properties":{"id":"01-490438c7f7","name":"雄飛が丘","reading":"ユウヒガオカ","pref":"北海道","prefCode":"01","municipality":"河東郡音更町","hazardTypes":["slope_failure","debris_flow"],"evidenceLevel":0,"status":"current","disputed":false,"precision":"oaza","areaKey":null,"elements":["tobi"],"summary":"要素辞書に一致（tobi）。出典による裏づけは未確認。","zones":[],"dataset":"candidates"}},{"type":"Feature","geometry":{"type":"Point","coordinates":[143.189555,43.002837]},"properties":{"id":"01-cc6f417921","name":"雄飛が丘北区","reading":"ユウヒガオカキタク","pref":"北海道","prefCode":"01","municipality":"河東郡音更町","hazardTypes":["slope_failure","debris_flow"],"evidenceLevel":0,"status":"current","disputed":false,"precision":"oaza","areaKey":null,"elements":["tobi"],"summary":"要素辞書に一致（tobi）。出典による裏づけは未確認。","zones":[],"dataset":"candidates"}},{"type":"Feature","geometry":{"type":"Point","coordinates":[143.190233,42.998582]},"properties":{"id":"01-3d8b4d5d85","name":"雄飛が丘仲区","reading":"ユウヒガオカナカク","pref":"北海道","prefCode":"01","municipality":"河東郡音更町","hazardTypes":["slope_failure","debris_flow"],"evidenceLevel":0,"status":"current","disputed":false,"precision":"oaza","areaKey":null,"elements":["tobi"],"summary":"要素辞書に一致（tobi）。出典による裏づけは未確認。","zones":[],"dataset":"candidates"}},{"type":"Feature","geometry":{"type":"Point","coordinates":[143.190605,42.993858]},"properties":{"id":"01-306845951f","name":"雄飛が丘南区","reading":"ユウヒガオカミナミク","pref":"北海道","prefCode":"01","municipality":"河東郡音更町","hazardTypes":["slope_failure","debris_flow"],"evidenceLevel":0,"status":"current","disputed":false,"precision":"oaza","areaKey":null,"elements":["tobi"],"summary":"要素辞書に一致（tobi）。出典による裏づけは未確認。","zones":[],"dataset":"candidates"}},{"type":"Feature","geometry":{"type":"Point","coordinates":[143.251373,43.349983]},"properties":{"id":"01-e81fa7d23c","name":"字黒石平","reading":null,"pref":"北海道","prefCode":"01","municipality":"河東郡上士幌町","hazardTypes":["landslide"],"evidenceLevel":0,"status":"current","disputed":false,"precision":"oaza","areaKey":null,"elements":["geology_names"],"summary":"要素辞書に一致（geology_names）。出典による裏づけは未確認。","zones":[],"dataset":"candidates"}},{"type":"Feature","geometry":{"type":"Point","coordinates":[143.038781,43.113864]},"properties":{"id":"01-c5c1ef02e6","name":"北鹿追北七線","reading":null,"pref":"北海道","prefCode":"01","municipality":"河東郡鹿追町","hazardTypes":["landslide","soft_ground"],"evidenceLevel":0,"status":"current","disputed":false,"precision":"oaza","areaKey":null,"elements":["shishi"],"summary":"要素辞書に一致（shishi）。出典による裏づけは未確認。","zones":[],"dataset":"candidates"}},{"type":"Feature","geometry":{"type":"Point","coordinates":[143.041928,43.123477]},"properties":{"id":"01-b8d67bd86c","name":"北鹿追北九線","reading":null,"pref":"北海道","prefCode":"01","municipality":"河東郡鹿追町","hazardTypes":["landslide","soft_ground"],"evidenceLevel":0,"status":"current","disputed":false,"precision":"oaza","areaKey":null,"elements":["shishi"],"summary":"要素辞書に一致（shishi）。出典による裏づけは未確認。","zones":[],"dataset":"candidates"}},{"type":"Feature","geometry":{"type":"Point","coordinates":[143.040051,43.118651]},"properties":{"id":"01-6ae8fc6ad7","name":"北鹿追北八線","reading":null,"pref":"北海道","prefCode":"01","municipality":"河東郡鹿追町","hazardTypes":["landslide","soft_ground"],"evidenceLevel":0,"status":"current","disputed":false,"precision":"oaza","areaKey":null,"elements":["shishi"],"summary":"要素辞書に一致（shishi）。出典による裏づけは未確認。","zones":[],"dataset":"candidates"}},{"type":"Feature","geometry":{"type":"Point","coordinates":[143.037185,43.109145]},"properties":{"id":"01-77f58a22f0","name":"北鹿追北六線","reading":null,"pref":"北海道","prefCode":"01","municipality":"河東郡鹿追町","hazardTypes":["landslide","soft_ground"],"evidenceLevel":0,"status":"current","disputed":false,"precision":"oaza","areaKey":null,"elements":["shishi"],"summary":"要素辞書に一致（shishi）。出典による裏づけは未確認。","zones":[],"dataset":"candidates"}},{"type":"Feature","geometry":{"type":"Point","coordinates":[143.048527,43.132801]},"properties":{"id":"01-337f4cac9a","name":"北鹿追北十一線","reading":null,"pref":"北海道","prefCode":"01","municipality":"河東郡鹿追町","hazardTypes":["landslide","soft_ground"],"evidenceLevel":0,"status":"current","disputed":false,"precision":"oaza","areaKey":null,"elements":["shishi"],"summary":"要素辞書に一致（shishi）。出典による裏づけは未確認。","zones":[],"dataset":"candidates"}},{"type":"Feature","geometry":{"type":"Point","coordinates":[143.048619,43.14283]},"properties":{"id":"01-ca07147cc0","name":"北鹿追北十三線","reading":null,"pref":"北海道","prefCode":"01","municipality":"河東郡鹿追町","hazardTypes":["landslide","soft_ground"],"evidenceLevel":0,"status":"current","disputed":false,"precision":"oaza","areaKey":null,"elements":["shishi"],"summary":"要素辞書に一致（shishi）。出典による裏づけは未確認。","zones":[],"dataset":"candidates"}},{"type":"Feature","geometry":{"type":"Point","coordinates":[143.046914,43.138025]},"properties":{"id":"01-36627a626c","name":"北鹿追北十二線","reading":null,"pref":"北海道","prefCode":"01","municipality":"河東郡鹿追町","hazardTypes":["landslide","soft_ground"],"evidenceLevel":0,"status":"current","disputed":false,"precision":"oaza","areaKey":null,"elements":["shishi"],"summary":"要素辞書に一致（shishi）。出典による裏づけは未確認。","zones":[],"dataset":"candidates"}},{"type":"Feature","geometry":{"type":"Point","coordinates":[143.051161,43.150955]},"properties":{"id":"01-171774873c","name":"北鹿追北十五線","reading":null,"pref":"北海道","prefCode":"01","municipality":"河東郡鹿追町","hazardTypes":["landslide","soft_ground"],"evidenceLevel":0,"status":"current","disputed":false,"precision":"oaza","areaKey":null,"elements":["shishi"],"summary":"要素辞書に一致（shishi）。出典による裏づけは未確認。","zones":[],"dataset":"candidates"}},{"type":"Feature","geometry":{"type":"Point","coordinates":[143.050446,43.147657]},"properties":{"id":"01-676ec803b8","name":"北鹿追北十四線","reading":null,"pref":"北海道","prefCode":"01","municipality":"河東郡鹿追町","hazardTypes":["landslide","soft_ground"],"evidenceLevel":0,"status":"current","disputed":false,"precision":"oaza","areaKey":null,"elements":["shishi"],"summary":"要素辞書に一致（shishi）。出典による裏づけは未確認。","zones":[],"dataset":"candidates"}},{"type":"Feature","geometry":{"type":"Point","coordinates":[143.043642,43.128309]},"properties":{"id":"01-c8238e4776","name":"北鹿追北十線","reading":null,"pref":"北海道","prefCode":"01","municipality":"河東郡鹿追町","hazardTypes":["landslide","soft_ground"],"evidenceLevel":0,"status":"current","disputed":false,"precision":"oaza","areaKey":null,"elements":["shishi"],"summary":"要素辞書に一致（shishi）。出典による裏づけは未確認。","zones":[],"dataset":"candidates"}},{"type":"Feature","geometry":{"type":"Point","coordinates":[143.018051,43.086735]},"properties":{"id":"01-05b7ec66a3","name":"鹿追北一線","reading":null,"pref":"北海道","prefCode":"01","municipality":"河東郡鹿追町","hazardTypes":["landslide","soft_ground"],"evidenceLevel":0,"status":"current","disputed":false,"precision":"oaza","areaKey":null,"elements":["shishi"],"summary":"要素辞書に一致（shishi）。出典による裏づけは未確認。","zones":[],"dataset":"candidates"}},{"type":"Feature","geometry":{"type":"Point","coordinates":[143.022984,43.096556]},"properties":{"id":"01-176cac7870","name":"鹿追北三線","reading":null,"pref":"北海道","prefCode":"01","municipality":"河東郡鹿追町","hazardTypes":["landslide","soft_ground"],"evidenceLevel":0,"status":"current","disputed":false,"precision":"oaza","areaKey":null,"elements":["shishi"],"summary":"要素辞書に一致（shishi）。出典による裏づけは未確認。","zones":[],"dataset":"candidates"}},{"type":"Feature","geometry":{"type":"Point","coordinates":[143.01871,43.091922]},"properties":{"id":"01-20a4f37f21","name":"鹿追北二線","reading":null,"pref":"北海道","prefCode":"01","municipality":"河東郡鹿追町","hazardTypes":["landslide","soft_ground"],"evidenceLevel":0,"status":"current","disputed":false,"precision":"oaza","areaKey":null,"elements":["shishi"],"summary":"要素辞書に一致（shishi）。出典による裏づけは未確認。","zones":[],"dataset":"candidates"}},{"type":"Feature","geometry":{"type":"Point","coordinates":[143.026177,43.106333]},"properties":{"id":"01-ac36640904","name":"鹿追北五線","reading":null,"pref":"北海道","prefCode":"01","municipality":"河東郡鹿追町","hazardTypes":["landslide","soft_ground"],"evidenceLevel":0,"status":"current","disputed":false,"precision":"oaza","areaKey":null,"elements":["shishi"],"summary":"要素辞書に一致（shishi）。出典による裏づけは未確認。","zones":[],"dataset":"candidates"}},{"type":"Feature","geometry":{"type":"Point","coordinates":[143.022211,43.101571]},"properties":{"id":"01-2a2af91845","name":"鹿追北四線","reading":null,"pref":"北海道","prefCode":"01","municipality":"河東郡鹿追町","hazardTypes":["landslide","soft_ground"],"evidenceLevel":0,"status":"current","disputed":false,"precision":"oaza","areaKey":null,"elements":["shishi"],"summary":"要素辞書に一致（shishi）。出典による裏づけは未確認。","zones":[],"dataset":"candidates"}},{"type":"Feature","geometry":{"type":"Point","coordinates":[143.01423,43.077455]},"properties":{"id":"01-2126c7a98a","name":"鹿追南一線","reading":null,"pref":"北海道","prefCode":"01","municipality":"河東郡鹿追町","hazardTypes":["landslide","soft_ground"],"evidenceLevel":0,"status":"current","disputed":false,"precision":"oaza","areaKey":null,"elements":["shishi"],"summary":"要素辞書に一致（shishi）。出典による裏づけは未確認。","zones":[],"dataset":"candidates"}},{"type":"Feature","geometry":{"type":"Point","coordinates":[143.013966,43.072704]},"properties":{"id":"01-3f1002ec81","name":"鹿追南二線","reading":null,"pref":"北海道","prefCode":"01","municipality":"河東郡鹿追町","hazardTypes":["landslide","soft_ground"],"evidenceLevel":0,"status":"current","disputed":false,"precision":"oaza","areaKey":null,"elements":["shishi"],"summary":"要素辞書に一致（shishi）。出典による裏づけは未確認。","zones":[],"dataset":"candidates"}},{"type":"Feature","geometry":{"type":"Point","coordinates":[143.013604,43.082463]},"properties":{"id":"01-37f0b8c018","name":"鹿追基線","reading":"シカオイキセン","pref":"北海道","prefCode":"01","municipality":"河東郡鹿追町","hazardTypes":["landslide","soft_ground"],"evidenceLevel":0,"status":"current","disputed":false,"precision":"oaza","areaKey":null,"elements":["shishi"],"summary":"要素辞書に一致（shishi）。出典による裏づけは未確認。","zones":[],"dataset":"candidates"}},{"type":"Feature","geometry":{"type":"Point","coordinates":[142.893258,43.193546]},"properties":{"id":"01-6ffce9fa17","name":"字屈足","reading":null,"pref":"北海道","prefCode":"01","municipality":"上川郡新得町","hazardTypes":["flood","inundation"],"evidenceLevel":0,"status":"current","disputed":false,"precision":"oaza","areaKey":null,"elements":["ashi"],"summary":"要素辞書に一致（ashi）。出典による裏づけは未確認。","zones":[],"dataset":"candidates"}},{"type":"Feature","geometry":{"type":"Point","coordinates":[142.968387,43.341363]},"properties":{"id":"01-1c7c3ea321","name":"字屈足トムラウシ","reading":null,"pref":"北海道","prefCode":"01","municipality":"上川郡新得町","hazardTypes":["flood","inundation"],"evidenceLevel":0,"status":"current","disputed":false,"precision":"oaza","areaKey":null,"elements":["ashi"],"summary":"要素辞書に一致（ashi）。出典による裏づけは未確認。","zones":[],"dataset":"candidates"}},{"type":"Feature","geometry":{"type":"Point","coordinates":[142.920435,43.148687]},"properties":{"id":"01-eb92090eb1","name":"字屈足二基線","reading":null,"pref":"北海道","prefCode":"01","municipality":"上川郡新得町","hazardTypes":["flood","inundation"],"evidenceLevel":0,"status":"current","disputed":false,"precision":"oaza","areaKey":null,"elements":["ashi"],"summary":"要素辞書に一致（ashi）。出典による裏づけは未確認。","zones":[],"dataset":"candidates"}},{"type":"Feature","geometry":{"type":"Point","coordinates":[142.90059,43.15267]},"properties":{"id":"01-5bfeb8d999","name":"字屈足基線","reading":null,"pref":"北海道","prefCode":"01","municipality":"上川郡新得町","hazardTypes":["flood","inundation"],"evidenceLevel":0,"status":"current","disputed":false,"precision":"oaza","areaKey":null,"elements":["ashi"],"summary":"要素辞書に一致（ashi）。出典による裏づけは未確認。","zones":[],"dataset":"candidates"}},{"type":"Feature","geometry":{"type":"Point","coordinates":[142.902112,43.128881]},"properties":{"id":"01-e0575cc53c","name":"字屈足東一線","reading":null,"pref":"北海道","prefCode":"01","municipality":"上川郡新得町","hazardTypes":["flood","inundation"],"evidenceLevel":0,"status":"current","disputed":false,"precision":"oaza","areaKey":null,"elements":["ashi"],"summary":"要素辞書に一致（ashi）。出典による裏づけは未確認。","zones":[],"dataset":"candidates"}},{"type":"Feature","geometry":{"type":"Point","coordinates":[142.913002,43.128435]},"properties":{"id":"01-35b6a82267","name":"字屈足東三線","reading":null,"pref":"北海道","prefCode":"01","municipality":"上川郡新得町","hazardTypes":["flood","inundation"],"evidenceLevel":0,"status":"current","disputed":false,"precision":"oaza","areaKey":null,"elements":["ashi"],"summary":"要素辞書に一致（ashi）。出典による裏づけは未確認。","zones":[],"dataset":"candidates"}},{"type":"Feature","geometry":{"type":"Point","coordinates":[142.911649,43.120335]},"properties":{"id":"01-770459a0fe","name":"字屈足東二線","reading":null,"pref":"北海道","prefCode":"01","municipality":"上川郡新得町","hazardTypes":["flood","inundation"],"evidenceLevel":0,"status":"current","disputed":false,"precision":"oaza","areaKey":null,"elements":["ashi"],"summary":"要素辞書に一致（ashi）。出典による裏づけは未確認。","zones":[],"dataset":"candidates"}},{"type":"Feature","geometry":{"type":"Point","coordinates":[142.887897,43.129079]},"properties":{"id":"01-bdf6c56408","name":"字屈足西一線","reading":null,"pref":"北海道","prefCode":"01","municipality":"上川郡新得町","hazardTypes":["flood","inundation"],"evidenceLevel":0,"status":"current","disputed":false,"precision":"oaza","areaKey":null,"elements":["ashi"],"summary":"要素辞書に一致（ashi）。出典による裏づけは未確認。","zones":[],"dataset":"candidates"}},{"type":"Feature","geometry":{"type":"Point","coordinates":[142.883386,43.107776]},"properties":{"id":"01-d57ffa1cf0","name":"字屈足西三線","reading":null,"pref":"北海道","prefCode":"01","municipality":"上川郡新得町","hazardTypes":["flood","inundation"],"evidenceLevel":0,"status":"current","disputed":false,"precision":"oaza","areaKey":null,"elements":["ashi"],"summary":"要素辞書に一致（ashi）。出典による裏づけは未確認。","zones":[],"dataset":"candidates"}},{"type":"Feature","geometry":{"type":"Point","coordinates":[142.885444,43.112679]},"properties":{"id":"01-231e2b757b","name":"字屈足西二線","reading":null,"pref":"北海道","prefCode":"01","municipality":"上川郡新得町","hazardTypes":["flood","inundation"],"evidenceLevel":0,"status":"current","disputed":false,"precision":"oaza","areaKey":null,"elements":["ashi"],"summary":"要素辞書に一致（ashi）。出典による裏づけは未確認。","zones":[],"dataset":"candidates"}},{"type":"Feature","geometry":{"type":"Point","coordinates":[142.905593,43.100208]},"properties":{"id":"01-d8a44b2fd1","name":"屈足旭町一丁目","reading":"クッタリアサヒマチ 1","pref":"北海道","prefCode":"01","municipality":"上川郡新得町","hazardTypes":["flood","inundation"],"evidenceLevel":0,"status":"current","disputed":false,"precision":"oaza","areaKey":null,"elements":["ashi"],"summary":"要素辞書に一致（ashi）。出典による裏づけは未確認。","zones":[],"dataset":"candidates"}},{"type":"Feature","geometry":{"type":"Point","coordinates":[142.908495,43.100319]},"properties":{"id":"01-92b617fde1","name":"屈足旭町東一丁目","reading":"クッタリアサヒマチヒガシ 1","pref":"北海道","prefCode":"01","municipality":"上川郡新得町","hazardTypes":["flood","inundation"],"evidenceLevel":0,"status":"current","disputed":false,"precision":"oaza","areaKey":null,"elements":["ashi"],"summary":"要素辞書に一致（ashi）。出典による裏づけは未確認。","zones":[],"dataset":"candidates"}},{"type":"Feature","geometry":{"type":"Point","coordinates":[142.905168,43.101672]},"properties":{"id":"01-3686206973","name":"屈足柏町一丁目","reading":"クッタリカシワマチ 1","pref":"北海道","prefCode":"01","municipality":"上川郡新得町","hazardTypes":["flood","inundation"],"evidenceLevel":0,"status":"current","disputed":false,"precision":"oaza","areaKey":null,"elements":["ashi"],"summary":"要素辞書に一致（ashi）。出典による裏づけは未確認。","zones":[],"dataset":"candidates"}},{"type":"Feature","geometry":{"type":"Point","coordinates":[142.908486,43.10223]},"properties":{"id":"01-5dd8a8bebd","name":"屈足柏町東一丁目","reading":"クッタリカシワマチヒガシ 1","pref":"北海道","prefCode":"01","municipality":"上川郡新得町","hazardTypes":["flood","inundation"],"evidenceLevel":0,"status":"current","disputed":false,"precision":"oaza","areaKey":null,"elements":["ashi"],"summary":"要素辞書に一致（ashi）。出典による裏づけは未確認。","zones":[],"dataset":"candidates"}},{"type":"Feature","geometry":{"type":"Point","coordinates":[142.902331,43.099486]},"properties":{"id":"01-f6fd4afcd3","name":"屈足幸町一丁目","reading":"クッタリサイワイマチ 1","pref":"北海道","prefCode":"01","municipality":"上川郡新得町","hazardTypes":["flood","inundation"],"evidenceLevel":0,"status":"current","disputed":false,"precision":"oaza","areaKey":null,"elements":["ashi"],"summary":"要素辞書に一致（ashi）。出典による裏づけは未確認。","zones":[],"dataset":"candidates"}},{"type":"Feature","geometry":{"type":"Point","coordinates":[142.899072,43.098872]},"properties":{"id":"01-8eda65682f","name":"屈足幸町西一丁目","reading":"クッタリサイワイマチニシ 1","pref":"北海道","prefCode":"01","municipality":"上川郡新得町","hazardTypes":["flood","inundation"],"evidenceLevel":0,"status":"current","disputed":false,"precision":"oaza","areaKey":null,"elements":["ashi"],"summary":"要素辞書に一致（ashi）。出典による裏づけは未確認。","zones":[],"dataset":"candidates"}},{"type":"Feature","geometry":{"type":"Point","coordinates":[142.901839,43.101099]},"properties":{"id":"01-5abc5c9e0c","name":"屈足緑町一丁目","reading":"クッタリミドリマチ 1","pref":"北海道","prefCode":"01","municipality":"上川郡新得町","hazardTypes":["flood","inundation"],"evidenceLevel":0,"status":"current","disputed":false,"precision":"oaza","areaKey":null,"elements":["ashi"],"summary":"要素辞書に一致（ashi）。出典による裏づけは未確認。","zones":[],"dataset":"candidates"}},{"type":"Feature","geometry":{"type":"Point","coordinates":[142.898562,43.100561]},"properties":{"id":"01-d5df8d4c92","name":"屈足緑町西一丁目","reading":"クッタリミドリマチニシ 1","pref":"北海道","prefCode":"01","municipality":"上川郡新得町","hazardTypes":["flood","inundation"],"evidenceLevel":0,"status":"current","disputed":false,"precision":"oaza","areaKey":null,"elements":["ashi"],"summary":"要素辞書に一致（ashi）。出典による裏づけは未確認。","zones":[],"dataset":"candidates"}},{"type":"Feature","geometry":{"type":"Point","coordinates":[142.904274,43.093249]},"properties":{"id":"01-8c9e05b248","name":"屈足南町","reading":"クッタリミナミマチ","pref":"北海道","prefCode":"01","municipality":"上川郡新得町","hazardTypes":["flood","inundation"],"evidenceLevel":0,"status":"current","disputed":false,"precision":"oaza","areaKey":null,"elements":["ashi"],"summary":"要素辞書に一致（ashi）。出典による裏づけは未確認。","zones":[],"dataset":"candidates"}},{"type":"Feature","geometry":{"type":"Point","coordinates":[143.333938,42.877577]},"properties":{"id":"01-b7106103f3","name":"字猿別","reading":null,"pref":"北海道","prefCode":"01","municipality":"中川郡幕別町","hazardTypes":["slope_failure"],"evidenceLevel":0,"status":"current","disputed":false,"precision":"oaza","areaKey":null,"elements":["saru"],"summary":"要素辞書に一致（saru）。出典による裏づけは未確認。","zones":[],"dataset":"candidates"}},{"type":"Feature","geometry":{"type":"Point","coordinates":[143.492998,43.102285]},"properties":{"id":"01-cabaa4c25a","name":"西勇足","reading":null,"pref":"北海道","prefCode":"01","municipality":"中川郡本別町","hazardTypes":["flood","inundation"],"evidenceLevel":0,"status":"current","disputed":false,"precision":"oaza","areaKey":null,"elements":["ashi"],"summary":"要素辞書に一致（ashi）。出典による裏づけは未確認。","zones":[],"dataset":"candidates"}},{"type":"Feature","geometry":{"type":"Point","coordinates":[143.543562,43.088765]},"properties":{"id":"01-da41a6e24b","name":"勇足","reading":"ユウタリ","pref":"北海道","prefCode":"01","municipality":"中川郡本別町","hazardTypes":["flood","inundation"],"evidenceLevel":0,"status":"current","disputed":false,"precision":"oaza","areaKey":null,"elements":["ashi"],"summary":"要素辞書に一致（ashi）。出典による裏づけは未確認。","zones":[],"dataset":"candidates"}},{"type":"Feature","geometry":{"type":"Point","coordinates":[143.515354,43.090548]},"properties":{"id":"01-1da9f56c73","name":"勇足元町","reading":"ユウタリモトマチ","pref":"北海道","prefCode":"01","municipality":"中川郡本別町","hazardTypes":["flood","inundation"],"evidenceLevel":0,"status":"current","disputed":false,"precision":"oaza","areaKey":null,"elements":["ashi"],"summary":"要素辞書に一致（ashi）。出典による裏づけは未確認。","zones":[],"dataset":"candidates"}},{"type":"Feature","geometry":{"type":"Point","coordinates":[143.616552,43.269898]},"properties":{"id":"01-78d52396d7","name":"字足寄太","reading":null,"pref":"北海道","prefCode":"01","municipality":"足寄郡足寄町","hazardTypes":["flood","inundation"],"evidenceLevel":0,"status":"current","disputed":false,"precision":"oaza","areaKey":null,"elements":["ashi"],"summary":"要素辞書に一致（ashi）。出典による裏づけは未確認。","zones":[],"dataset":"candidates"}},{"type":"Feature","geometry":{"type":"Point","coordinates":[143.877484,43.418536]},"properties":{"id":"01-b8d8b4fecd","name":"上足寄","reading":"カミアショロ","pref":"北海道","prefCode":"01","municipality":"足寄郡足寄町","hazardTypes":["flood","inundation"],"evidenceLevel":0,"status":"current","disputed":false,"precision":"oaza","areaKey":null,"elements":["ashi"],"summary":"要素辞書に一致（ashi）。出典による裏づけは未確認。","zones":[],"dataset":"candidates"}},{"type":"Feature","geometry":{"type":"Point","coordinates":[143.786803,43.356799]},"properties":{"id":"01-4309fe5be5","name":"上足寄本町","reading":"カミアショロモトマチ","pref":"北海道","prefCode":"01","municipality":"足寄郡足寄町","hazardTypes":["flood","inundation"],"evidenceLevel":0,"status":"current","disputed":false,"precision":"oaza","areaKey":null,"elements":["ashi"],"summary":"要素辞書に一致（ashi）。出典による裏づけは未確認。","zones":[],"dataset":"candidates"}},{"type":"Feature","geometry":{"type":"Point","coordinates":[143.6215,43.288045]},"properties":{"id":"01-d67f2bc10f","name":"中足寄","reading":"ナカアショロ","pref":"北海道","prefCode":"01","municipality":"足寄郡足寄町","hazardTypes":["flood","inundation"],"evidenceLevel":0,"status":"current","disputed":false,"precision":"oaza","areaKey":null,"elements":["ashi"],"summary":"要素辞書に一致（ashi）。出典による裏づけは未確認。","zones":[],"dataset":"candidates"}},{"type":"Feature","geometry":{"type":"Point","coordinates":[143.965398,43.417095]},"properties":{"id":"01-73f748c789","name":"茂足寄","reading":"モアショロ","pref":"北海道","prefCode":"01","municipality":"足寄郡足寄町","hazardTypes":["flood","inundation"],"evidenceLevel":0,"status":"current","disputed":false,"precision":"oaza","areaKey":null,"elements":["ashi"],"summary":"要素辞書に一致（ashi）。出典による裏づけは未確認。","zones":[],"dataset":"candidates"}},{"type":"Feature","geometry":{"type":"Point","coordinates":[143.821197,43.531256]},"properties":{"id":"01-f1fd0c4033","name":"字鹿山","reading":null,"pref":"北海道","prefCode":"01","municipality":"足寄郡陸別町","hazardTypes":["landslide","soft_ground"],"evidenceLevel":0,"status":"current","disputed":false,"precision":"oaza","areaKey":null,"elements":["shishi"],"summary":"要素辞書に一致（shishi）。出典による裏づけは未確認。","zones":[],"dataset":"candidates"}},{"type":"Feature","geometry":{"type":"Point","coordinates":[143.750098,42.782378]},"properties":{"id":"01-618a2d05cf","name":"字昆布刈石","reading":null,"pref":"北海道","prefCode":"01","municipality":"十勝郡浦幌町","hazardTypes":["slope_failure"],"evidenceLevel":0,"status":"current","disputed":false,"precision":"oaza","areaKey":null,"elements":["kake"],"summary":"要素辞書に一致（kake）。出典による裏づけは未確認。","zones":[],"dataset":"candidates"}},{"type":"Feature","geometry":{"type":"Point","coordinates":[144.709174,43.110377]},"properties":{"id":"01-679160e1b7","name":"片無去","reading":"カタムサリ","pref":"北海道","prefCode":"01","municipality":"厚岸郡厚岸町","hazardTypes":["slope_failure"],"evidenceLevel":0,"status":"current","disputed":false,"precision":"oaza","areaKey":null,"elements":["saru"],"summary":"要素辞書に一致（saru）。出典による裏づけは未確認。","zones":[],"dataset":"candidates"}},{"type":"Feature","geometry":{"type":"Point","coordinates":[144.918276,43.019521]},"properties":{"id":"01-4e2b570083","name":"東梅","reading":"トウバイ","pref":"北海道","prefCode":"01","municipality":"厚岸郡厚岸町","hazardTypes":["landslide","slope_failure"],"evidenceLevel":0,"status":"current","disputed":false,"precision":"oaza","areaKey":null,"elements":["ume"],"summary":"要素辞書に一致（ume）。出典による裏づけは未確認。","zones":[],"dataset":"candidates"}},{"type":"Feature","geometry":{"type":"Point","coordinates":[144.849453,43.032988]},"properties":{"id":"01-5288e07f8b","name":"梅香一丁目","reading":"バイカ 1","pref":"北海道","prefCode":"01","municipality":"厚岸郡厚岸町","hazardTypes":["landslide","slope_failure"],"evidenceLevel":0,"status":"current","disputed":false,"precision":"oaza","areaKey":null,"elements":["ume"],"summary":"要素辞書に一致（ume）。出典による裏づけは未確認。","zones":[],"dataset":"candidates"}},{"type":"Feature","geometry":{"type":"Point","coordinates":[145.234096,44.056747]},"properties":{"id":"01-9bc704adec","name":"海岸町","reading":"カイガンチョウ","pref":"北海道","prefCode":"01","municipality":"目梨郡羅臼町","hazardTypes":["slope_failure"],"evidenceLevel":0,"status":"current","disputed":false,"precision":"oaza","areaKey":null,"elements":["kake"],"summary":"要素辞書に一致（kake）。出典による裏づけは未確認。","zones":[],"dataset":"candidates"}},{"type":"Feature","geometry":{"type":"Point","coordinates":[145.333125,44.208649]},"properties":{"id":"01-2103627fab","name":"崩浜","reading":"クズレハマ","pref":"北海道","prefCode":"01","municipality":"目梨郡羅臼町","hazardTypes":["slope_failure","landslide"],"evidenceLevel":0,"status":"current","disputed":false,"precision":"oaza","areaKey":null,"elements":["kuzure"],"summary":"要素辞書に一致（kuzure）。出典による裏づけは未確認。","zones":[],"dataset":"candidates"}}]}
