{"type":"FeatureCollection","features":[{"type":"Feature","geometry":{"type":"Point","coordinates":[140.278769,38.23179]},"properties":{"id":"06-90294f3ea0","name":"佐倉宿","reading":null,"pref":"山形県","prefCode":"06","municipality":"山形市","hazardTypes":["slope_failure","rockfall"],"evidenceLevel":0,"status":"current","disputed":false,"precision":"oaza","areaKey":null,"elements":["kura"],"summary":"要素辞書に一致（kura）。出典による裏づけは未確認。","zones":[],"dataset":"candidates"}},{"type":"Feature","geometry":{"type":"Point","coordinates":[140.262429,38.267735]},"properties":{"id":"06-6b4247ac81","name":"土屋倉","reading":null,"pref":"山形県","prefCode":"06","municipality":"山形市","hazardTypes":["slope_failure","rockfall"],"evidenceLevel":0,"status":"current","disputed":false,"precision":"oaza","areaKey":null,"elements":["kura"],"summary":"要素辞書に一致（kura）。出典による裏づけは未確認。","zones":[],"dataset":"candidates"}},{"type":"Feature","geometry":{"type":"Point","coordinates":[140.269507,38.249953]},"properties":{"id":"06-1abeda6d1d","name":"河原田","reading":null,"pref":"山形県","prefCode":"06","municipality":"山形市","hazardTypes":["flood"],"evidenceLevel":0,"status":"current","disputed":false,"precision":"koaza","areaKey":null,"elements":["kawara"],"summary":"要素辞書に一致（kawara）。出典による裏づけは未確認。","zones":[],"dataset":"candidates"}},{"type":"Feature","geometry":{"type":"Point","coordinates":[140.307313,38.200936]},"properties":{"id":"06-aaadb69fb3","name":"東河原","reading":null,"pref":"山形県","prefCode":"06","municipality":"山形市","hazardTypes":["flood"],"evidenceLevel":0,"status":"current","disputed":false,"precision":"koaza","areaKey":"062011600","elements":["kawara"],"summary":"要素辞書に一致（kawara）。出典による裏づけは未確認。","zones":[],"dataset":"candidates"}},{"type":"Feature","geometry":{"type":"Point","coordinates":[140.232111,38.221614]},"properties":{"id":"06-b071b5f359","name":"大字柏倉","reading":null,"pref":"山形県","prefCode":"06","municipality":"山形市","hazardTypes":["slope_failure","rockfall"],"evidenceLevel":0,"status":"current","disputed":false,"precision":"oaza","areaKey":null,"elements":["kura"],"summary":"要素辞書に一致（kura）。出典による裏づけは未確認。","zones":[],"dataset":"candidates"}},{"type":"Feature","geometry":{"type":"Point","coordinates":[140.272772,38.225443]},"properties":{"id":"06-285122f976","name":"大字菅沢","reading":null,"pref":"山形県","prefCode":"06","municipality":"山形市","hazardTypes":["landslide","soft_ground"],"evidenceLevel":0,"status":"current","disputed":false,"precision":"oaza","areaKey":"062011690","elements":["wetland_plants"],"summary":"要素辞書に一致（wetland_plants）。出典による裏づけは未確認。","zones":[],"dataset":"candidates"}},{"type":"Feature","geometry":{"type":"Point","coordinates":[140.310365,38.271976]},"properties":{"id":"06-a3cd43825f","name":"菅原","reading":null,"pref":"山形県","prefCode":"06","municipality":"山形市","hazardTypes":["landslide","soft_ground"],"evidenceLevel":0,"status":"current","disputed":false,"precision":"oaza","areaKey":null,"elements":["wetland_plants"],"summary":"要素辞書に一致（wetland_plants）。出典による裏づけは未確認。","zones":[],"dataset":"candidates"}},{"type":"Feature","geometry":{"type":"Point","coordinates":[140.310476,38.198763]},"properties":{"id":"06-6293ea07e0","name":"蔵王美原","reading":null,"pref":"山形県","prefCode":"06","municipality":"山形市","hazardTypes":["slope_failure","rockfall"],"evidenceLevel":0,"status":"current","disputed":false,"precision":"oaza","areaKey":null,"elements":["kura"],"summary":"要素辞書に一致（kura）。出典による裏づけは未確認。","zones":[],"dataset":"candidates"}},{"type":"Feature","geometry":{"type":"Point","coordinates":[140.327525,38.198376]},"properties":{"id":"06-32554256e5","name":"蔵王野際","reading":null,"pref":"山形県","prefCode":"06","municipality":"山形市","hazardTypes":["slope_failure","rockfall"],"evidenceLevel":0,"status":"current","disputed":false,"precision":"oaza","areaKey":null,"elements":["kura"],"summary":"要素辞書に一致（kura）。出典による裏づけは未確認。","zones":[],"dataset":"candidates"}},{"type":"Feature","geometry":{"type":"Point","coordinates":[140.312931,38.282696]},"properties":{"id":"06-4279f4a3c6","name":"梅野木前","reading":"ウメノキマエ","pref":"山形県","prefCode":"06","municipality":"山形市","hazardTypes":["landslide","slope_failure"],"evidenceLevel":0,"status":"current","disputed":false,"precision":"oaza","areaKey":"062011830","elements":["ume"],"summary":"要素辞書に一致（ume）。出典による裏づけは未確認。","zones":[],"dataset":"candidates"}},{"type":"Feature","geometry":{"type":"Point","coordinates":[140.312742,38.18924]},"properties":{"id":"06-ac09365a5b","name":"表蔵王","reading":"オモテザオウ","pref":"山形県","prefCode":"06","municipality":"山形市","hazardTypes":["slope_failure","rockfall"],"evidenceLevel":0,"status":"current","disputed":false,"precision":"oaza","areaKey":null,"elements":["kura"],"summary":"要素辞書に一致（kura）。出典による裏づけは未確認。","zones":[],"dataset":"candidates"}},{"type":"Feature","geometry":{"type":"Point","coordinates":[140.332877,38.209064]},"properties":{"id":"06-607a957b37","name":"蔵王飯田","reading":"ザオウイイダ","pref":"山形県","prefCode":"06","municipality":"山形市","hazardTypes":["slope_failure","rockfall"],"evidenceLevel":0,"status":"current","disputed":false,"precision":"oaza","areaKey":null,"elements":["kura"],"summary":"要素辞書に一致（kura）。出典による裏づけは未確認。","zones":[],"dataset":"candidates"}},{"type":"Feature","geometry":{"type":"Point","coordinates":[140.330987,38.175729]},"properties":{"id":"06-92866391db","name":"蔵王上野","reading":"ザオウウワノ","pref":"山形県","prefCode":"06","municipality":"山形市","hazardTypes":["slope_failure","rockfall"],"evidenceLevel":0,"status":"current","disputed":false,"precision":"oaza","areaKey":"062011500","elements":["kura"],"summary":"要素辞書に一致（kura）。出典による裏づけは未確認。","zones":[],"dataset":"candidates"}},{"type":"Feature","geometry":{"type":"Point","coordinates":[140.41791,38.174319]},"properties":{"id":"06-c50e935220","name":"蔵王温泉","reading":"ザオウオンセン","pref":"山形県","prefCode":"06","municipality":"山形市","hazardTypes":["slope_failure","rockfall"],"evidenceLevel":0,"status":"current","disputed":false,"precision":"oaza","areaKey":"062011520","elements":["kura"],"summary":"要素辞書に一致（kura）。出典による裏づけは未確認。","zones":[],"dataset":"candidates"}},{"type":"Feature","geometry":{"type":"Point","coordinates":[140.328794,38.200878]},"properties":{"id":"06-eec6a04097","name":"蔵王成沢","reading":"ザオウナリサワ","pref":"山形県","prefCode":"06","municipality":"山形市","hazardTypes":["slope_failure","rockfall","landslide"],"evidenceLevel":0,"status":"current","disputed":false,"precision":"oaza","areaKey":"062011560","elements":["kura","nari"],"summary":"要素辞書に一致（kura・nari）。出典による裏づけは未確認。","zones":[],"dataset":"candidates"}},{"type":"Feature","geometry":{"type":"Point","coordinates":[140.32526,38.187585]},"properties":{"id":"06-ea69bead19","name":"蔵王半郷","reading":"ザオウハンゴウ","pref":"山形県","prefCode":"06","municipality":"山形市","hazardTypes":["slope_failure","rockfall"],"evidenceLevel":0,"status":"current","disputed":false,"precision":"oaza","areaKey":"062011580","elements":["kura"],"summary":"要素辞書に一致（kura）。出典による裏づけは未確認。","zones":[],"dataset":"candidates"}},{"type":"Feature","geometry":{"type":"Point","coordinates":[140.353699,38.172013]},"properties":{"id":"06-775b1f8bd3","name":"蔵王堀田","reading":"ザオウホッタ","pref":"山形県","prefCode":"06","municipality":"山形市","hazardTypes":["slope_failure","rockfall"],"evidenceLevel":0,"status":"current","disputed":false,"precision":"oaza","areaKey":"062011510","elements":["kura"],"summary":"要素辞書に一致（kura）。出典による裏づけは未確認。","zones":[],"dataset":"candidates"}},{"type":"Feature","geometry":{"type":"Point","coordinates":[140.309506,38.19637]},"properties":{"id":"06-52069210a0","name":"蔵王松ケ丘","reading":"ザオウマツガオカ","pref":"山形県","prefCode":"06","municipality":"山形市","hazardTypes":["slope_failure","rockfall"],"evidenceLevel":0,"status":"current","disputed":false,"precision":"oaza","areaKey":null,"elements":["kura"],"summary":"要素辞書に一致（kura）。出典による裏づけは未確認。","zones":[],"dataset":"candidates"}},{"type":"Feature","geometry":{"type":"Point","coordinates":[140.31593,38.196714]},"properties":{"id":"06-61cff3150a","name":"蔵王南成沢","reading":"ザオウミナミナリサワ","pref":"山形県","prefCode":"06","municipality":"山形市","hazardTypes":["slope_failure","rockfall","landslide"],"evidenceLevel":0,"status":"current","disputed":false,"precision":"oaza","areaKey":null,"elements":["kura","nari"],"summary":"要素辞書に一致（kura・nari）。出典による裏づけは未確認。","zones":[],"dataset":"candidates"}},{"type":"Feature","geometry":{"type":"Point","coordinates":[140.33207,38.191007]},"properties":{"id":"06-eca3f4cad1","name":"蔵王山田","reading":"ザオウヤマダ","pref":"山形県","prefCode":"06","municipality":"山形市","hazardTypes":["slope_failure","rockfall"],"evidenceLevel":0,"status":"current","disputed":false,"precision":"oaza","areaKey":"062011570","elements":["kura"],"summary":"要素辞書に一致（kura）。出典による裏づけは未確認。","zones":[],"dataset":"candidates"}},{"type":"Feature","geometry":{"type":"Point","coordinates":[140.321145,38.298104]},"properties":{"id":"06-5892f07840","name":"七十刈","reading":"ナナジュウガリ","pref":"山形県","prefCode":"06","municipality":"山形市","hazardTypes":["slope_failure"],"evidenceLevel":0,"status":"current","disputed":false,"precision":"oaza","areaKey":null,"elements":["kake"],"summary":"要素辞書に一致（kake）。出典による裏づけは未確認。","zones":[],"dataset":"candidates"}},{"type":"Feature","geometry":{"type":"Point","coordinates":[140.317202,38.23516]},"properties":{"id":"06-da22d8a3c2","name":"深町一丁目","reading":"フカマチ 1","pref":"山形県","prefCode":"06","municipality":"山形市","hazardTypes":["soft_ground","inundation"],"evidenceLevel":0,"status":"current","disputed":false,"precision":"oaza","areaKey":"06201050001","elements":["fuke"],"summary":"要素辞書に一致（fuke）。出典による裏づけは未確認。","zones":[],"dataset":"candidates"}},{"type":"Feature","geometry":{"type":"Point","coordinates":[140.331541,38.30144]},"properties":{"id":"06-3a6f3ab9ff","name":"見崎川原","reading":"ミサキカワラ","pref":"山形県","prefCode":"06","municipality":"山形市","hazardTypes":["flood"],"evidenceLevel":0,"status":"current","disputed":false,"precision":"oaza","areaKey":null,"elements":["kawara"],"summary":"要素辞書に一致（kawara）。出典による裏づけは未確認。","zones":[],"dataset":"candidates"}},{"type":"Feature","geometry":{"type":"Point","coordinates":[140.10439,37.870421]},"properties":{"id":"06-e102b263bc","name":"大字南原猪苗代町","reading":null,"pref":"山形県","prefCode":"06","municipality":"米沢市","hazardTypes":["landslide","soft_ground"],"evidenceLevel":0,"status":"current","disputed":false,"precision":"oaza","areaKey":"062021010","elements":["shishi"],"summary":"要素辞書に一致（shishi）。出典による裏づけは未確認。","zones":[],"dataset":"candidates"}},{"type":"Feature","geometry":{"type":"Point","coordinates":[140.163808,37.816373]},"properties":{"id":"06-28b8b94341","name":"大字赤崩","reading":null,"pref":"山形県","prefCode":"06","municipality":"米沢市","hazardTypes":["slope_failure","landslide"],"evidenceLevel":0,"status":"current","disputed":false,"precision":"oaza","areaKey":"062020870","elements":["kuzure"],"summary":"要素辞書に一致（kuzure）。出典による裏づけは未確認。","zones":[],"dataset":"candidates"}},{"type":"Feature","geometry":{"type":"Point","coordinates":[140.11473,37.915353]},"properties":{"id":"06-c9451799c6","name":"鍛冶町","reading":"カジマチ","pref":"山形県","prefCode":"06","municipality":"米沢市","hazardTypes":["slope_failure"],"evidenceLevel":0,"status":"current","disputed":false,"precision":"oaza","areaKey":"062020390","elements":["kaji_kamu"],"summary":"要素辞書に一致（kaji_kamu）。出典による裏づけは未確認。","zones":[],"dataset":"candidates"}},{"type":"Feature","geometry":{"type":"Point","coordinates":[140.068836,37.962115]},"properties":{"id":"06-49297d8278","name":"下小菅","reading":"シモコスゲ","pref":"山形県","prefCode":"06","municipality":"米沢市","hazardTypes":["landslide","soft_ground"],"evidenceLevel":0,"status":"current","disputed":false,"precision":"oaza","areaKey":null,"elements":["wetland_plants"],"summary":"要素辞書に一致（wetland_plants）。出典による裏づけは未確認。","zones":[],"dataset":"candidates"}},{"type":"Feature","geometry":{"type":"Point","coordinates":[140.21338,37.861054]},"properties":{"id":"06-e45fec5608","name":"万世町刈安","reading":"バンセイチョウカリヤス","pref":"山形県","prefCode":"06","municipality":"米沢市","hazardTypes":["slope_failure"],"evidenceLevel":0,"status":"current","disputed":false,"precision":"oaza","areaKey":"062020470","elements":["kake"],"summary":"要素辞書に一致（kake）。出典による裏づけは未確認。","zones":[],"dataset":"candidates"}},{"type":"Feature","geometry":{"type":"Point","coordinates":[140.073916,37.949614]},"properties":{"id":"06-5955af245d","name":"広幡町上小菅","reading":"ヒロハタマチカミコスゲ","pref":"山形県","prefCode":"06","municipality":"米沢市","hazardTypes":["landslide","soft_ground"],"evidenceLevel":0,"status":"current","disputed":false,"precision":"oaza","areaKey":"062020580","elements":["wetland_plants"],"summary":"要素辞書に一致（wetland_plants）。出典による裏づけは未確認。","zones":[],"dataset":"candidates"}},{"type":"Feature","geometry":{"type":"Point","coordinates":[139.593292,38.617805]},"properties":{"id":"06-02ae1a653b","name":"荻田","reading":null,"pref":"山形県","prefCode":"06","municipality":"鶴岡市","hazardTypes":["slope_failure"],"evidenceLevel":0,"status":"current","disputed":false,"precision":"koaza","areaKey":null,"elements":["suki_hagu"],"summary":"要素辞書に一致（suki_hagu）。出典による裏づけは未確認。","zones":[],"dataset":"candidates"}},{"type":"Feature","geometry":{"type":"Point","coordinates":[139.885744,38.733771]},"properties":{"id":"06-f7e6614aa5","name":"仲川原","reading":null,"pref":"山形県","prefCode":"06","municipality":"鶴岡市","hazardTypes":["flood"],"evidenceLevel":0,"status":"current","disputed":false,"precision":"koaza","areaKey":null,"elements":["kawara"],"summary":"要素辞書に一致（kawara）。出典による裏づけは未確認。","zones":[],"dataset":"candidates"}},{"type":"Feature","geometry":{"type":"Point","coordinates":[139.854049,38.713094]},"properties":{"id":"06-e8bb9f0185","name":"前川原","reading":null,"pref":"山形県","prefCode":"06","municipality":"鶴岡市","hazardTypes":["flood"],"evidenceLevel":0,"status":"current","disputed":false,"precision":"koaza","areaKey":null,"elements":["kawara"],"summary":"要素辞書に一致（kawara）。出典による裏づけは未確認。","zones":[],"dataset":"candidates"}},{"type":"Feature","geometry":{"type":"Point","coordinates":[139.85495,38.716761]},"properties":{"id":"06-a22314bac3","name":"大場川原","reading":null,"pref":"山形県","prefCode":"06","municipality":"鶴岡市","hazardTypes":["flood"],"evidenceLevel":0,"status":"current","disputed":false,"precision":"koaza","areaKey":null,"elements":["kawara"],"summary":"要素辞書に一致（kawara）。出典による裏づけは未確認。","zones":[],"dataset":"candidates"}},{"type":"Feature","geometry":{"type":"Point","coordinates":[139.724774,38.761768]},"properties":{"id":"06-5758f03c13","name":"大久保","reading":null,"pref":"山形県","prefCode":"06","municipality":"鶴岡市","hazardTypes":["slope_failure","inundation","landslide"],"evidenceLevel":0,"status":"current","disputed":false,"precision":"koaza","areaKey":"06203126051","elements":["afu_oo","kubo"],"summary":"要素辞書に一致（afu_oo・kubo）。出典による裏づけは未確認。","zones":[],"dataset":"candidates"}},{"type":"Feature","geometry":{"type":"Point","coordinates":[139.766895,38.762903]},"properties":{"id":"06-229e925ef6","name":"枇杷川原","reading":null,"pref":"山形県","prefCode":"06","municipality":"鶴岡市","hazardTypes":["flood"],"evidenceLevel":0,"status":"current","disputed":false,"precision":"koaza","areaKey":null,"elements":["kawara"],"summary":"要素辞書に一致（kawara）。出典による裏づけは未確認。","zones":[],"dataset":"candidates"}},{"type":"Feature","geometry":{"type":"Point","coordinates":[139.76757,38.758308]},"properties":{"id":"06-7148460238","name":"諏訪岸","reading":null,"pref":"山形県","prefCode":"06","municipality":"鶴岡市","hazardTypes":["slope_failure"],"evidenceLevel":0,"status":"current","disputed":false,"precision":"koaza","areaKey":null,"elements":["kake"],"summary":"要素辞書に一致（kake）。出典による裏づけは未確認。","zones":[],"dataset":"candidates"}},{"type":"Feature","geometry":{"type":"Point","coordinates":[139.909645,38.747038]},"properties":{"id":"06-4c6e7014ba","name":"前千刈","reading":null,"pref":"山形県","prefCode":"06","municipality":"鶴岡市","hazardTypes":["slope_failure"],"evidenceLevel":0,"status":"current","disputed":false,"precision":"koaza","areaKey":"062031650","elements":["kake"],"summary":"要素辞書に一致（kake）。出典による裏づけは未確認。","zones":[],"dataset":"candidates"}},{"type":"Feature","geometry":{"type":"Point","coordinates":[139.838054,38.707266]},"properties":{"id":"06-1536dd16fd","name":"芦原","reading":null,"pref":"山形県","prefCode":"06","municipality":"鶴岡市","hazardTypes":["flood","inundation"],"evidenceLevel":0,"status":"current","disputed":false,"precision":"koaza","areaKey":null,"elements":["ashi"],"summary":"要素辞書に一致（ashi）。出典による裏づけは未確認。","zones":[],"dataset":"candidates"}},{"type":"Feature","geometry":{"type":"Point","coordinates":[139.820288,38.750561]},"properties":{"id":"06-7fe6bf77a0","name":"覚岸寺","reading":"カクガンジ","pref":"山形県","prefCode":"06","municipality":"鶴岡市","hazardTypes":["slope_failure"],"evidenceLevel":0,"status":"current","disputed":false,"precision":"oaza","areaKey":null,"elements":["kake"],"summary":"要素辞書に一致（kake）。出典による裏づけは未確認。","zones":[],"dataset":"candidates"}},{"type":"Feature","geometry":{"type":"Point","coordinates":[139.81799,38.752796]},"properties":{"id":"06-c2df6289e5","name":"菅谷地","reading":null,"pref":"山形県","prefCode":"06","municipality":"鶴岡市","hazardTypes":["landslide","soft_ground","inundation"],"evidenceLevel":0,"status":"current","disputed":false,"precision":"koaza","areaKey":null,"elements":["wetland_plants","yato"],"summary":"要素辞書に一致（wetland_plants・yato）。出典による裏づけは未確認。","zones":[],"dataset":"candidates"}},{"type":"Feature","geometry":{"type":"Point","coordinates":[139.755445,38.706597]},"properties":{"id":"06-6acc9fd31b","name":"蔵王前","reading":null,"pref":"山形県","prefCode":"06","municipality":"鶴岡市","hazardTypes":["slope_failure","rockfall"],"evidenceLevel":0,"status":"current","disputed":false,"precision":"koaza","areaKey":"06203085052","elements":["kura"],"summary":"要素辞書に一致（kura）。出典による裏づけは未確認。","zones":[],"dataset":"candidates"}},{"type":"Feature","geometry":{"type":"Point","coordinates":[139.890691,38.760848]},"properties":{"id":"06-29f6a0e967","name":"上川原","reading":null,"pref":"山形県","prefCode":"06","municipality":"鶴岡市","hazardTypes":["flood"],"evidenceLevel":0,"status":"current","disputed":false,"precision":"koaza","areaKey":null,"elements":["kawara"],"summary":"要素辞書に一致（kawara）。出典による裏づけは未確認。","zones":[],"dataset":"candidates"}},{"type":"Feature","geometry":{"type":"Point","coordinates":[139.730602,38.760641]},"properties":{"id":"06-97d0db6e6e","name":"大崩","reading":null,"pref":"山形県","prefCode":"06","municipality":"鶴岡市","hazardTypes":["slope_failure","landslide"],"evidenceLevel":0,"status":"current","disputed":false,"precision":"koaza","areaKey":null,"elements":["kuzure"],"summary":"要素辞書に一致（kuzure）。出典による裏づけは未確認。","zones":[],"dataset":"candidates"}},{"type":"Feature","geometry":{"type":"Point","coordinates":[139.735723,38.759598]},"properties":{"id":"06-a1b3e5778a","name":"岩倉","reading":null,"pref":"山形県","prefCode":"06","municipality":"鶴岡市","hazardTypes":["slope_failure","rockfall"],"evidenceLevel":0,"status":"current","disputed":false,"precision":"koaza","areaKey":null,"elements":["kura"],"summary":"要素辞書に一致（kura）。出典による裏づけは未確認。","zones":[],"dataset":"candidates"}},{"type":"Feature","geometry":{"type":"Point","coordinates":[139.934674,38.750981]},"properties":{"id":"06-bc7088b4cc","name":"蔵ノ下","reading":null,"pref":"山形県","prefCode":"06","municipality":"鶴岡市","hazardTypes":["slope_failure","rockfall"],"evidenceLevel":0,"status":"current","disputed":false,"precision":"koaza","areaKey":null,"elements":["kura"],"summary":"要素辞書に一致（kura）。出典による裏づけは未確認。","zones":[],"dataset":"candidates"}},{"type":"Feature","geometry":{"type":"Point","coordinates":[139.852509,38.70383]},"properties":{"id":"06-050eea4c1e","name":"下川原","reading":null,"pref":"山形県","prefCode":"06","municipality":"鶴岡市","hazardTypes":["flood"],"evidenceLevel":0,"status":"current","disputed":false,"precision":"koaza","areaKey":null,"elements":["kawara"],"summary":"要素辞書に一致（kawara）。出典による裏づけは未確認。","zones":[],"dataset":"candidates"}},{"type":"Feature","geometry":{"type":"Point","coordinates":[139.85495,38.698039]},"properties":{"id":"06-e596089381","name":"向川原","reading":null,"pref":"山形県","prefCode":"06","municipality":"鶴岡市","hazardTypes":["flood"],"evidenceLevel":0,"status":"current","disputed":false,"precision":"koaza","areaKey":null,"elements":["kawara"],"summary":"要素辞書に一致（kawara）。出典による裏づけは未確認。","zones":[],"dataset":"candidates"}},{"type":"Feature","geometry":{"type":"Point","coordinates":[139.857233,38.701042]},"properties":{"id":"06-929cf9a1a9","name":"東川原","reading":null,"pref":"山形県","prefCode":"06","municipality":"鶴岡市","hazardTypes":["flood"],"evidenceLevel":0,"status":"current","disputed":false,"precision":"koaza","areaKey":null,"elements":["kawara"],"summary":"要素辞書に一致（kawara）。出典による裏づけは未確認。","zones":[],"dataset":"candidates"}},{"type":"Feature","geometry":{"type":"Point","coordinates":[139.848046,38.704914]},"properties":{"id":"06-5e8ab1897d","name":"野中川原","reading":null,"pref":"山形県","prefCode":"06","municipality":"鶴岡市","hazardTypes":["flood"],"evidenceLevel":0,"status":"current","disputed":false,"precision":"koaza","areaKey":null,"elements":["kawara"],"summary":"要素辞書に一致（kawara）。出典による裏づけは未確認。","zones":[],"dataset":"candidates"}},{"type":"Feature","geometry":{"type":"Point","coordinates":[139.778817,38.523652]},"properties":{"id":"06-b0ec7baee2","name":"倉沢","reading":"クラサワ","pref":"山形県","prefCode":"06","municipality":"鶴岡市","hazardTypes":["slope_failure","rockfall"],"evidenceLevel":0,"status":"current","disputed":false,"precision":"oaza","areaKey":"062032550","elements":["kura"],"summary":"要素辞書に一致（kura）。出典による裏づけは未確認。","zones":[],"dataset":"candidates"}},{"type":"Feature","geometry":{"type":"Point","coordinates":[139.862699,38.678446]},"properties":{"id":"06-b653e81b4e","name":"大杉川原","reading":null,"pref":"山形県","prefCode":"06","municipality":"鶴岡市","hazardTypes":["flood"],"evidenceLevel":0,"status":"current","disputed":false,"precision":"koaza","areaKey":null,"elements":["kawara"],"summary":"要素辞書に一致（kawara）。出典による裏づけは未確認。","zones":[],"dataset":"candidates"}},{"type":"Feature","geometry":{"type":"Point","coordinates":[139.627934,38.639875]},"properties":{"id":"06-a375449f6a","name":"小菅野代","reading":"コスガノダイ","pref":"山形県","prefCode":"06","municipality":"鶴岡市","hazardTypes":["landslide","soft_ground"],"evidenceLevel":0,"status":"current","disputed":false,"precision":"oaza","areaKey":"062032780","elements":["wetland_plants"],"summary":"要素辞書に一致（wetland_plants）。出典による裏づけは未確認。","zones":[],"dataset":"candidates"}},{"type":"Feature","geometry":{"type":"Point","coordinates":[139.844058,38.706595]},"properties":{"id":"06-66098a491d","name":"斎藤川原","reading":"サイトウガワラ","pref":"山形県","prefCode":"06","municipality":"鶴岡市","hazardTypes":["flood"],"evidenceLevel":0,"status":"current","disputed":false,"precision":"oaza","areaKey":null,"elements":["kawara"],"summary":"要素辞書に一致（kawara）。出典による裏づけは未確認。","zones":[],"dataset":"candidates"}},{"type":"Feature","geometry":{"type":"Point","coordinates":[139.844857,38.707913]},"properties":{"id":"06-e3d2448b96","name":"間々下","reading":null,"pref":"山形県","prefCode":"06","municipality":"鶴岡市","hazardTypes":["slope_failure","erosion"],"evidenceLevel":0,"status":"current","disputed":false,"precision":"koaza","areaKey":null,"elements":["mama"],"summary":"要素辞書に一致（mama）。出典による裏づけは未確認。","zones":[],"dataset":"candidates"}},{"type":"Feature","geometry":{"type":"Point","coordinates":[139.854732,38.679388]},"properties":{"id":"06-6e2373b8da","name":"三千刈","reading":"サンゼンガリ","pref":"山形県","prefCode":"06","municipality":"鶴岡市","hazardTypes":["slope_failure"],"evidenceLevel":0,"status":"current","disputed":false,"precision":"oaza","areaKey":"062032460","elements":["kake"],"summary":"要素辞書に一致（kake）。出典による裏づけは未確認。","zones":[],"dataset":"candidates"}},{"type":"Feature","geometry":{"type":"Point","coordinates":[139.786129,38.77747]},"properties":{"id":"06-ae118aefc6","name":"五百刈","reading":null,"pref":"山形県","prefCode":"06","municipality":"鶴岡市","hazardTypes":["slope_failure"],"evidenceLevel":0,"status":"current","disputed":false,"precision":"koaza","areaKey":null,"elements":["kake"],"summary":"要素辞書に一致（kake）。出典による裏づけは未確認。","zones":[],"dataset":"candidates"}},{"type":"Feature","geometry":{"type":"Point","coordinates":[139.765939,38.717315]},"properties":{"id":"06-9a674ad92f","name":"内田元","reading":null,"pref":"山形県","prefCode":"06","municipality":"鶴岡市","hazardTypes":["debris_flow","flood"],"evidenceLevel":0,"status":"current","disputed":false,"precision":"koaza","areaKey":null,"elements":["uchide"],"summary":"要素辞書に一致（uchide）。出典による裏づけは未確認。","zones":[],"dataset":"candidates"}},{"type":"Feature","geometry":{"type":"Point","coordinates":[139.837013,38.686583]},"properties":{"id":"06-6c7405851c","name":"茶屋川原","reading":null,"pref":"山形県","prefCode":"06","municipality":"鶴岡市","hazardTypes":["flood"],"evidenceLevel":0,"status":"current","disputed":false,"precision":"koaza","areaKey":null,"elements":["kawara"],"summary":"要素辞書に一致（kawara）。出典による裏づけは未確認。","zones":[],"dataset":"candidates"}},{"type":"Feature","geometry":{"type":"Point","coordinates":[139.734177,38.618948]},"properties":{"id":"06-f05e8c0e09","name":"菅野代","reading":"スガノダイ","pref":"山形県","prefCode":"06","municipality":"鶴岡市","hazardTypes":["landslide","soft_ground"],"evidenceLevel":0,"status":"current","disputed":false,"precision":"oaza","areaKey":"062032810","elements":["wetland_plants"],"summary":"要素辞書に一致（wetland_plants）。出典による裏づけは未確認。","zones":[],"dataset":"candidates"}},{"type":"Feature","geometry":{"type":"Point","coordinates":[139.835072,38.718829]},"properties":{"id":"06-3c93ab1996","name":"長者町","reading":"チョウジャマチ","pref":"山形県","prefCode":"06","municipality":"鶴岡市","hazardTypes":["slope_failure"],"evidenceLevel":0,"status":"current","disputed":false,"precision":"oaza","areaKey":"062030080","elements":["tsubu_chou"],"summary":"要素辞書に一致（tsubu_chou）。出典による裏づけは未確認。","zones":[],"dataset":"candidates"}},{"type":"Feature","geometry":{"type":"Point","coordinates":[139.832366,38.70299]},"properties":{"id":"06-6f6b3e499c","name":"信州川原","reading":null,"pref":"山形県","prefCode":"06","municipality":"鶴岡市","hazardTypes":["flood"],"evidenceLevel":0,"status":"current","disputed":false,"precision":"koaza","areaKey":null,"elements":["kawara"],"summary":"要素辞書に一致（kawara）。出典による裏づけは未確認。","zones":[],"dataset":"candidates"}},{"type":"Feature","geometry":{"type":"Point","coordinates":[139.833857,38.702617]},"properties":{"id":"06-895a0a9398","name":"古川","reading":null,"pref":"山形県","prefCode":"06","municipality":"鶴岡市","hazardTypes":["flood","inundation"],"evidenceLevel":0,"status":"current","disputed":false,"precision":"koaza","areaKey":null,"elements":["furukawa"],"summary":"要素辞書に一致（furukawa）。出典による裏づけは未確認。","zones":[],"dataset":"candidates"}},{"type":"Feature","geometry":{"type":"Point","coordinates":[139.833744,38.707308]},"properties":{"id":"06-f144cb7ff2","name":"明神川原","reading":null,"pref":"山形県","prefCode":"06","municipality":"鶴岡市","hazardTypes":["flood"],"evidenceLevel":0,"status":"current","disputed":false,"precision":"koaza","areaKey":null,"elements":["kawara"],"summary":"要素辞書に一致（kawara）。出典による裏づけは未確認。","zones":[],"dataset":"candidates"}},{"type":"Feature","geometry":{"type":"Point","coordinates":[139.773472,38.708689]},"properties":{"id":"06-2c2326e817","name":"柿木沢","reading":null,"pref":"山形県","prefCode":"06","municipality":"鶴岡市","hazardTypes":["slope_failure"],"evidenceLevel":0,"status":"current","disputed":false,"precision":"koaza","areaKey":null,"elements":["kake"],"summary":"要素辞書に一致（kake）。出典による裏づけは未確認。","zones":[],"dataset":"candidates"}},{"type":"Feature","geometry":{"type":"Point","coordinates":[139.827565,38.696586]},"properties":{"id":"06-bb440ec133","name":"大川原","reading":null,"pref":"山形県","prefCode":"06","municipality":"鶴岡市","hazardTypes":["flood"],"evidenceLevel":0,"status":"current","disputed":false,"precision":"koaza","areaKey":null,"elements":["kawara"],"summary":"要素辞書に一致（kawara）。出典による裏づけは未確認。","zones":[],"dataset":"candidates"}},{"type":"Feature","geometry":{"type":"Point","coordinates":[139.848101,38.656559]},"properties":{"id":"06-2fb6841f05","name":"川原田","reading":null,"pref":"山形県","prefCode":"06","municipality":"鶴岡市","hazardTypes":["flood"],"evidenceLevel":0,"status":"current","disputed":false,"precision":"koaza","areaKey":null,"elements":["kawara"],"summary":"要素辞書に一致（kawara）。出典による裏づけは未確認。","zones":[],"dataset":"candidates"}},{"type":"Feature","geometry":{"type":"Point","coordinates":[139.815912,38.802409]},"properties":{"id":"06-ce6af80cef","name":"三百刈","reading":null,"pref":"山形県","prefCode":"06","municipality":"鶴岡市","hazardTypes":["slope_failure"],"evidenceLevel":0,"status":"current","disputed":false,"precision":"koaza","areaKey":null,"elements":["kake"],"summary":"要素辞書に一致（kake）。出典による裏づけは未確認。","zones":[],"dataset":"candidates"}},{"type":"Feature","geometry":{"type":"Point","coordinates":[139.817559,38.799167]},"properties":{"id":"06-d771a91ed3","name":"深田","reading":null,"pref":"山形県","prefCode":"06","municipality":"鶴岡市","hazardTypes":["soft_ground","inundation"],"evidenceLevel":0,"status":"current","disputed":false,"precision":"koaza","areaKey":null,"elements":["fuke"],"summary":"要素辞書に一致（fuke）。出典による裏づけは未確認。","zones":[],"dataset":"candidates"}},{"type":"Feature","geometry":{"type":"Point","coordinates":[139.857674,38.724122]},"properties":{"id":"06-a7161a2fac","name":"地蔵俣","reading":null,"pref":"山形県","prefCode":"06","municipality":"鶴岡市","hazardTypes":["slope_failure","rockfall"],"evidenceLevel":0,"status":"current","disputed":false,"precision":"koaza","areaKey":"062032330","elements":["kura"],"summary":"要素辞書に一致（kura）。出典による裏づけは未確認。","zones":[],"dataset":"candidates"}},{"type":"Feature","geometry":{"type":"Point","coordinates":[139.864559,38.706495]},"properties":{"id":"06-3d3941d5be","name":"中川原","reading":null,"pref":"山形県","prefCode":"06","municipality":"鶴岡市","hazardTypes":["flood"],"evidenceLevel":0,"status":"current","disputed":false,"precision":"koaza","areaKey":"062032270","elements":["kawara"],"summary":"要素辞書に一致（kawara）。出典による裏づけは未確認。","zones":[],"dataset":"candidates"}},{"type":"Feature","geometry":{"type":"Point","coordinates":[139.925696,38.712102]},"properties":{"id":"06-92c8b13dfa","name":"猿田","reading":null,"pref":"山形県","prefCode":"06","municipality":"鶴岡市","hazardTypes":["slope_failure"],"evidenceLevel":0,"status":"current","disputed":false,"precision":"koaza","areaKey":null,"elements":["saru"],"summary":"要素辞書に一致（saru）。出典による裏づけは未確認。","zones":[],"dataset":"candidates"}},{"type":"Feature","geometry":{"type":"Point","coordinates":[139.895056,38.700569]},"properties":{"id":"06-2b0450c8f0","name":"羽黒町猪俣新田","reading":"ハグロマチイノマタシンデン","pref":"山形県","prefCode":"06","municipality":"鶴岡市","hazardTypes":["landslide","soft_ground"],"evidenceLevel":0,"status":"current","disputed":false,"precision":"oaza","areaKey":null,"elements":["shishi"],"summary":"要素辞書に一致（shishi）。出典による裏づけは未確認。","zones":[],"dataset":"candidates"}},{"type":"Feature","geometry":{"type":"Point","coordinates":[139.875279,38.720866]},"properties":{"id":"06-bec2069e9b","name":"南川原","reading":null,"pref":"山形県","prefCode":"06","municipality":"鶴岡市","hazardTypes":["flood"],"evidenceLevel":0,"status":"current","disputed":false,"precision":"koaza","areaKey":"062032310","elements":["kawara"],"summary":"要素辞書に一致（kawara）。出典による裏づけは未確認。","zones":[],"dataset":"candidates"}},{"type":"Feature","geometry":{"type":"Point","coordinates":[139.909138,38.729709]},"properties":{"id":"06-c48cb89a41","name":"川原","reading":null,"pref":"山形県","prefCode":"06","municipality":"鶴岡市","hazardTypes":["flood"],"evidenceLevel":0,"status":"current","disputed":false,"precision":"koaza","areaKey":"062032190","elements":["kawara"],"summary":"要素辞書に一致（kawara）。出典による裏づけは未確認。","zones":[],"dataset":"candidates"}},{"type":"Feature","geometry":{"type":"Point","coordinates":[139.825478,38.727324]},"properties":{"id":"06-f084d5d96b","name":"馬場町","reading":"ババチョウ","pref":"山形県","prefCode":"06","municipality":"鶴岡市","hazardTypes":["slope_failure"],"evidenceLevel":0,"status":"current","disputed":false,"precision":"oaza","areaKey":"062030240","elements":["baba"],"summary":"要素辞書に一致（baba）。出典による裏づけは未確認。","zones":[],"dataset":"candidates"}},{"type":"Feature","geometry":{"type":"Point","coordinates":[139.941917,38.738903]},"properties":{"id":"06-59c5555bcf","name":"人足田","reading":null,"pref":"山形県","prefCode":"06","municipality":"鶴岡市","hazardTypes":["flood","inundation"],"evidenceLevel":0,"status":"current","disputed":false,"precision":"koaza","areaKey":null,"elements":["ashi"],"summary":"要素辞書に一致（ashi）。出典による裏づけは未確認。","zones":[],"dataset":"candidates"}},{"type":"Feature","geometry":{"type":"Point","coordinates":[139.901822,38.769689]},"properties":{"id":"06-5a5364744e","name":"西川原","reading":null,"pref":"山形県","prefCode":"06","municipality":"鶴岡市","hazardTypes":["flood"],"evidenceLevel":0,"status":"current","disputed":false,"precision":"koaza","areaKey":null,"elements":["kawara"],"summary":"要素辞書に一致（kawara）。出典による裏づけは未確認。","zones":[],"dataset":"candidates"}},{"type":"Feature","geometry":{"type":"Point","coordinates":[139.926643,38.753056]},"properties":{"id":"06-ae84e5af42","name":"平足","reading":"ヘイソク","pref":"山形県","prefCode":"06","municipality":"鶴岡市","hazardTypes":["flood","inundation"],"evidenceLevel":0,"status":"current","disputed":false,"precision":"oaza","areaKey":"062031780","elements":["ashi"],"summary":"要素辞書に一致（ashi）。出典による裏づけは未確認。","zones":[],"dataset":"candidates"}},{"type":"Feature","geometry":{"type":"Point","coordinates":[139.849076,38.766621]},"properties":{"id":"06-314d5e28c2","name":"家岸","reading":null,"pref":"山形県","prefCode":"06","municipality":"鶴岡市","hazardTypes":["slope_failure"],"evidenceLevel":0,"status":"current","disputed":false,"precision":"koaza","areaKey":null,"elements":["kake"],"summary":"要素辞書に一致（kake）。出典による裏づけは未確認。","zones":[],"dataset":"candidates"}},{"type":"Feature","geometry":{"type":"Point","coordinates":[139.828744,38.765925]},"properties":{"id":"06-3265fac6d0","name":"馬場添","reading":null,"pref":"山形県","prefCode":"06","municipality":"鶴岡市","hazardTypes":["slope_failure"],"evidenceLevel":0,"status":"current","disputed":false,"precision":"koaza","areaKey":null,"elements":["baba"],"summary":"要素辞書に一致（baba）。出典による裏づけは未確認。","zones":[],"dataset":"candidates"}},{"type":"Feature","geometry":{"type":"Point","coordinates":[139.903808,38.791667]},"properties":{"id":"06-6a5dba0511","name":"四百刈","reading":null,"pref":"山形県","prefCode":"06","municipality":"鶴岡市","hazardTypes":["slope_failure"],"evidenceLevel":0,"status":"current","disputed":false,"precision":"koaza","areaKey":null,"elements":["kake"],"summary":"要素辞書に一致（kake）。出典による裏づけは未確認。","zones":[],"dataset":"candidates"}},{"type":"Feature","geometry":{"type":"Point","coordinates":[139.957982,38.857272]},"properties":{"id":"06-091e1af61b","name":"字蔵小路","reading":null,"pref":"山形県","prefCode":"06","municipality":"酒田市","hazardTypes":["slope_failure","rockfall"],"evidenceLevel":0,"status":"current","disputed":false,"precision":"oaza","areaKey":"06204232010","elements":["kura"],"summary":"要素辞書に一致（kura）。出典による裏づけは未確認。","zones":[],"dataset":"candidates"}},{"type":"Feature","geometry":{"type":"Point","coordinates":[139.925645,38.885965]},"properties":{"id":"06-101ca6c4d7","name":"飛鳥","reading":"アスカ","pref":"山形県","prefCode":"06","municipality":"酒田市","hazardTypes":["slope_failure","debris_flow"],"evidenceLevel":0,"status":"current","disputed":false,"precision":"oaza","areaKey":"062042290","elements":["tobi"],"summary":"要素辞書に一致（tobi）。出典による裏づけは未確認。","zones":[],"dataset":"candidates"}},{"type":"Feature","geometry":{"type":"Point","coordinates":[139.940803,38.966113]},"properties":{"id":"06-8be80b310e","name":"上川原","reading":null,"pref":"山形県","prefCode":"06","municipality":"酒田市","hazardTypes":["flood"],"evidenceLevel":0,"status":"current","disputed":false,"precision":"koaza","areaKey":null,"elements":["kawara"],"summary":"要素辞書に一致（kawara）。出典による裏づけは未確認。","zones":[],"dataset":"candidates"}},{"type":"Feature","geometry":{"type":"Point","coordinates":[139.918779,38.976945]},"properties":{"id":"06-f281ce202f","name":"大久保","reading":"オオクボ","pref":"山形県","prefCode":"06","municipality":"酒田市","hazardTypes":["slope_failure","inundation","landslide"],"evidenceLevel":0,"status":"current","disputed":false,"precision":"oaza","areaKey":"062041610","elements":["afu_oo","kubo"],"summary":"要素辞書に一致（afu_oo・kubo）。出典による裏づけは未確認。","zones":[],"dataset":"candidates"}},{"type":"Feature","geometry":{"type":"Point","coordinates":[139.886674,38.918312]},"properties":{"id":"06-a056aac011","name":"荻島","reading":"オギジマ","pref":"山形県","prefCode":"06","municipality":"酒田市","hazardTypes":["slope_failure"],"evidenceLevel":0,"status":"current","disputed":false,"precision":"oaza","areaKey":"062041050","elements":["suki_hagu"],"summary":"要素辞書に一致（suki_hagu）。出典による裏づけは未確認。","zones":[],"dataset":"candidates"}},{"type":"Feature","geometry":{"type":"Point","coordinates":[139.8703,38.874075]},"properties":{"id":"06-88ab0913eb","name":"刈分","reading":null,"pref":"山形県","prefCode":"06","municipality":"酒田市","hazardTypes":["slope_failure"],"evidenceLevel":0,"status":"current","disputed":false,"precision":"koaza","areaKey":"06204085000","elements":["kake"],"summary":"要素辞書に一致（kake）。出典による裏づけは未確認。","zones":[],"dataset":"candidates"}},{"type":"Feature","geometry":{"type":"Point","coordinates":[139.908372,38.959374]},"properties":{"id":"06-d315f35ef3","name":"刈穂","reading":"カリホ","pref":"山形県","prefCode":"06","municipality":"酒田市","hazardTypes":["slope_failure"],"evidenceLevel":0,"status":"current","disputed":false,"precision":"oaza","areaKey":"062041270","elements":["kake"],"summary":"要素辞書に一致（kake）。出典による裏づけは未確認。","zones":[],"dataset":"candidates"}},{"type":"Feature","geometry":{"type":"Point","coordinates":[139.906463,38.97474]},"properties":{"id":"06-013434de6a","name":"刈屋","reading":"カリヤ","pref":"山形県","prefCode":"06","municipality":"酒田市","hazardTypes":["slope_failure"],"evidenceLevel":0,"status":"current","disputed":false,"precision":"oaza","areaKey":null,"elements":["kake"],"summary":"要素辞書に一致（kake）。出典による裏づけは未確認。","zones":[],"dataset":"candidates"}},{"type":"Feature","geometry":{"type":"Point","coordinates":[139.932568,38.977397]},"properties":{"id":"06-e53d3f3440","name":"川除","reading":null,"pref":"山形県","prefCode":"06","municipality":"酒田市","hazardTypes":["flood"],"evidenceLevel":0,"status":"current","disputed":false,"precision":"koaza","areaKey":"062041640","elements":["kawayoke"],"summary":"要素辞書に一致（kawayoke）。出典による裏づけは未確認。","zones":[],"dataset":"candidates"}},{"type":"Feature","geometry":{"type":"Point","coordinates":[139.819579,38.849853]},"properties":{"id":"06-85b2684ff3","name":"草刈谷地","reading":null,"pref":"山形県","prefCode":"06","municipality":"酒田市","hazardTypes":["slope_failure","inundation"],"evidenceLevel":0,"status":"current","disputed":false,"precision":"koaza","areaKey":"06204094000","elements":["kake","yato"],"summary":"要素辞書に一致（kake・yato）。出典による裏づけは未確認。","zones":[],"dataset":"candidates"}},{"type":"Feature","geometry":{"type":"Point","coordinates":[139.8126,38.855977]},"properties":{"id":"06-1130feaf6e","name":"葭葉山","reading":null,"pref":"山形県","prefCode":"06","municipality":"酒田市","hazardTypes":["landslide","soft_ground"],"evidenceLevel":0,"status":"current","disputed":false,"precision":"koaza","areaKey":"06204094000","elements":["wetland_plants"],"summary":"要素辞書に一致（wetland_plants）。出典による裏づけは未確認。","zones":[],"dataset":"candidates"}},{"type":"Feature","geometry":{"type":"Point","coordinates":[139.828516,38.874625]},"properties":{"id":"06-dc544df999","name":"古川","reading":null,"pref":"山形県","prefCode":"06","municipality":"酒田市","hazardTypes":["flood","inundation"],"evidenceLevel":0,"status":"current","disputed":false,"precision":"koaza","areaKey":null,"elements":["furukawa"],"summary":"要素辞書に一致（furukawa）。出典による裏づけは未確認。","zones":[],"dataset":"candidates"}},{"type":"Feature","geometry":{"type":"Point","coordinates":[139.926284,38.981823]},"properties":{"id":"06-c73d147cbd","name":"芹田","reading":"セツダ","pref":"山形県","prefCode":"06","municipality":"酒田市","hazardTypes":["landslide","soft_ground"],"evidenceLevel":0,"status":"current","disputed":false,"precision":"oaza","areaKey":"062041630","elements":["wetland_plants"],"summary":"要素辞書に一致（wetland_plants）。出典による裏づけは未確認。","zones":[],"dataset":"candidates"}},{"type":"Feature","geometry":{"type":"Point","coordinates":[139.907025,38.912252]},"properties":{"id":"06-4a11bceb88","name":"手蔵田","reading":"テグラダ","pref":"山形県","prefCode":"06","municipality":"酒田市","hazardTypes":["slope_failure","rockfall"],"evidenceLevel":0,"status":"current","disputed":false,"precision":"oaza","areaKey":null,"elements":["kura"],"summary":"要素辞書に一致（kura）。出典による裏づけは未確認。","zones":[],"dataset":"candidates"}},{"type":"Feature","geometry":{"type":"Point","coordinates":[139.54973,39.195004]},"properties":{"id":"06-27430f224e","name":"飛島","reading":"トビシマ","pref":"山形県","prefCode":"06","municipality":"酒田市","hazardTypes":["slope_failure","debris_flow"],"evidenceLevel":0,"status":"current","disputed":false,"precision":"oaza","areaKey":null,"elements":["tobi"],"summary":"要素辞書に一致（tobi）。出典による裏づけは未確認。","zones":[],"dataset":"candidates"}},{"type":"Feature","geometry":{"type":"Point","coordinates":[139.839347,38.944381]},"properties":{"id":"06-4769192632","name":"芦原","reading":null,"pref":"山形県","prefCode":"06","municipality":"酒田市","hazardTypes":["flood","inundation"],"evidenceLevel":0,"status":"current","disputed":false,"precision":"koaza","areaKey":null,"elements":["ashi"],"summary":"要素辞書に一致（ashi）。出典による裏づけは未確認。","zones":[],"dataset":"candidates"}},{"type":"Feature","geometry":{"type":"Point","coordinates":[140.018514,38.986999]},"properties":{"id":"06-58da480a72","name":"泥沢","reading":"ドロザワ","pref":"山形県","prefCode":"06","municipality":"酒田市","hazardTypes":["landslide","soft_ground","inundation"],"evidenceLevel":0,"status":"current","disputed":false,"precision":"oaza","areaKey":"062041730","elements":["geology_names","numa_kata"],"summary":"要素辞書に一致（geology_names・numa_kata）。出典による裏づけは未確認。","zones":[],"dataset":"candidates"}},{"type":"Feature","geometry":{"type":"Point","coordinates":[139.839852,38.974802]},"properties":{"id":"06-9277abe48a","name":"砂飛","reading":null,"pref":"山形県","prefCode":"06","municipality":"酒田市","hazardTypes":["slope_failure","debris_flow"],"evidenceLevel":0,"status":"current","disputed":false,"precision":"koaza","areaKey":null,"elements":["tobi"],"summary":"要素辞書に一致（tobi）。出典による裏づけは未確認。","zones":[],"dataset":"candidates"}},{"type":"Feature","geometry":{"type":"Point","coordinates":[140.261687,38.760626]},"properties":{"id":"06-ce423b68ae","name":"大字飛田","reading":null,"pref":"山形県","prefCode":"06","municipality":"新庄市","hazardTypes":["slope_failure","debris_flow"],"evidenceLevel":0,"status":"current","disputed":false,"precision":"oaza","areaKey":"062050450","elements":["tobi"],"summary":"要素辞書に一致（tobi）。出典による裏づけは未確認。","zones":[],"dataset":"candidates"}},{"type":"Feature","geometry":{"type":"Point","coordinates":[140.264253,38.400278]},"properties":{"id":"06-31c1a83478","name":"川原","reading":null,"pref":"山形県","prefCode":"06","municipality":"寒河江市","hazardTypes":["flood"],"evidenceLevel":0,"status":"current","disputed":false,"precision":"koaza","areaKey":"06206031000","elements":["kawara"],"summary":"要素辞書に一致（kawara）。出典による裏づけは未確認。","zones":[],"dataset":"candidates"}},{"type":"Feature","geometry":{"type":"Point","coordinates":[140.258332,38.396439]},"properties":{"id":"06-2c4d88a022","name":"鹿島","reading":null,"pref":"山形県","prefCode":"06","municipality":"寒河江市","hazardTypes":["landslide","soft_ground"],"evidenceLevel":0,"status":"current","disputed":false,"precision":"koaza","areaKey":"06206031000","elements":["shishi"],"summary":"要素辞書に一致（shishi）。出典による裏づけは未確認。","zones":[],"dataset":"candidates"}},{"type":"Feature","geometry":{"type":"Point","coordinates":[140.288367,38.376637]},"properties":{"id":"06-5424f91a56","name":"亀ケ泓","reading":null,"pref":"山形県","prefCode":"06","municipality":"寒河江市","hazardTypes":["soft_ground","inundation"],"evidenceLevel":0,"status":"current","disputed":false,"precision":"koaza","areaKey":null,"elements":["fuke"],"summary":"要素辞書に一致（fuke）。出典による裏づけは未確認。","zones":[],"dataset":"candidates"}},{"type":"Feature","geometry":{"type":"Point","coordinates":[140.281422,38.361927]},"properties":{"id":"06-066456bea6","name":"古河江","reading":null,"pref":"山形県","prefCode":"06","municipality":"寒河江市","hazardTypes":["flood","inundation"],"evidenceLevel":0,"status":"current","disputed":false,"precision":"koaza","areaKey":null,"elements":["furukawa"],"summary":"要素辞書に一致（furukawa）。出典による裏づけは未確認。","zones":[],"dataset":"candidates"}},{"type":"Feature","geometry":{"type":"Point","coordinates":[140.274576,38.384354]},"properties":{"id":"06-f474a12be2","name":"山岸","reading":null,"pref":"山形県","prefCode":"06","municipality":"寒河江市","hazardTypes":["slope_failure"],"evidenceLevel":0,"status":"current","disputed":false,"precision":"koaza","areaKey":null,"elements":["kake"],"summary":"要素辞書に一致（kake）。出典による裏づけは未確認。","zones":[],"dataset":"candidates"}},{"type":"Feature","geometry":{"type":"Point","coordinates":[140.294279,38.359067]},"properties":{"id":"06-f92fcdbe70","name":"砂川原","reading":null,"pref":"山形県","prefCode":"06","municipality":"寒河江市","hazardTypes":["flood"],"evidenceLevel":0,"status":"current","disputed":false,"precision":"koaza","areaKey":null,"elements":["kawara"],"summary":"要素辞書に一致（kawara）。出典による裏づけは未確認。","zones":[],"dataset":"candidates"}},{"type":"Feature","geometry":{"type":"Point","coordinates":[140.26448,38.390045]},"properties":{"id":"06-08b5fca209","name":"菖蒲沼","reading":null,"pref":"山形県","prefCode":"06","municipality":"寒河江市","hazardTypes":["landslide","soft_ground","inundation"],"evidenceLevel":0,"status":"current","disputed":false,"precision":"koaza","areaKey":null,"elements":["wetland_plants","numa_kata"],"summary":"要素辞書に一致（wetland_plants・numa_kata）。出典による裏づけは未確認。","zones":[],"dataset":"candidates"}},{"type":"Feature","geometry":{"type":"Point","coordinates":[140.288157,38.374937]},"properties":{"id":"06-52d9f2b904","name":"赤田","reading":null,"pref":"山形県","prefCode":"06","municipality":"寒河江市","hazardTypes":["landslide"],"evidenceLevel":0,"status":"current","disputed":false,"precision":"koaza","areaKey":null,"elements":["geology_names"],"summary":"要素辞書に一致（geology_names）。出典による裏づけは未確認。","zones":[],"dataset":"candidates"}},{"type":"Feature","geometry":{"type":"Point","coordinates":[140.277157,38.39627]},"properties":{"id":"06-84f1f8b630","name":"上川原","reading":null,"pref":"山形県","prefCode":"06","municipality":"寒河江市","hazardTypes":["flood"],"evidenceLevel":0,"status":"current","disputed":false,"precision":"koaza","areaKey":null,"elements":["kawara"],"summary":"要素辞書に一致（kawara）。出典による裏づけは未確認。","zones":[],"dataset":"candidates"}},{"type":"Feature","geometry":{"type":"Point","coordinates":[140.291956,38.390906]},"properties":{"id":"06-fe2e40d8b9","name":"下川原","reading":null,"pref":"山形県","prefCode":"06","municipality":"寒河江市","hazardTypes":["flood"],"evidenceLevel":0,"status":"current","disputed":false,"precision":"koaza","areaKey":null,"elements":["kawara"],"summary":"要素辞書に一致（kawara）。出典による裏づけは未確認。","zones":[],"dataset":"candidates"}},{"type":"Feature","geometry":{"type":"Point","coordinates":[140.284387,38.393392]},"properties":{"id":"06-802b19293d","name":"中川原","reading":null,"pref":"山形県","prefCode":"06","municipality":"寒河江市","hazardTypes":["flood"],"evidenceLevel":0,"status":"current","disputed":false,"precision":"koaza","areaKey":null,"elements":["kawara"],"summary":"要素辞書に一致（kawara）。出典による裏づけは未確認。","zones":[],"dataset":"candidates"}},{"type":"Feature","geometry":{"type":"Point","coordinates":[140.284615,38.391753]},"properties":{"id":"06-a64d790767","name":"前川原","reading":null,"pref":"山形県","prefCode":"06","municipality":"寒河江市","hazardTypes":["flood"],"evidenceLevel":0,"status":"current","disputed":false,"precision":"koaza","areaKey":null,"elements":["kawara"],"summary":"要素辞書に一致（kawara）。出典による裏づけは未確認。","zones":[],"dataset":"candidates"}},{"type":"Feature","geometry":{"type":"Point","coordinates":[140.301317,38.385536]},"properties":{"id":"06-5f8dd55d76","name":"外川原","reading":null,"pref":"山形県","prefCode":"06","municipality":"寒河江市","hazardTypes":["flood"],"evidenceLevel":0,"status":"current","disputed":false,"precision":"koaza","areaKey":null,"elements":["kawara"],"summary":"要素辞書に一致（kawara）。出典による裏づけは未確認。","zones":[],"dataset":"candidates"}},{"type":"Feature","geometry":{"type":"Point","coordinates":[140.279237,38.401377]},"properties":{"id":"06-4d3756b601","name":"字上河原","reading":null,"pref":"山形県","prefCode":"06","municipality":"寒河江市","hazardTypes":["flood"],"evidenceLevel":0,"status":"current","disputed":false,"precision":"oaza","areaKey":"062060450","elements":["kawara"],"summary":"要素辞書に一致（kawara）。出典による裏づけは未確認。","zones":[],"dataset":"candidates"}},{"type":"Feature","geometry":{"type":"Point","coordinates":[140.286476,38.399341]},"properties":{"id":"06-c05fedf960","name":"字下河原","reading":null,"pref":"山形県","prefCode":"06","municipality":"寒河江市","hazardTypes":["flood"],"evidenceLevel":0,"status":"current","disputed":false,"precision":"oaza","areaKey":"062060430","elements":["kawara"],"summary":"要素辞書に一致（kawara）。出典による裏づけは未確認。","zones":[],"dataset":"candidates"}},{"type":"Feature","geometry":{"type":"Point","coordinates":[140.284123,38.401846]},"properties":{"id":"06-9cf4c8e3c6","name":"字中河原","reading":null,"pref":"山形県","prefCode":"06","municipality":"寒河江市","hazardTypes":["flood"],"evidenceLevel":0,"status":"current","disputed":false,"precision":"oaza","areaKey":"062060440","elements":["kawara"],"summary":"要素辞書に一致（kawara）。出典による裏づけは未確認。","zones":[],"dataset":"candidates"}},{"type":"Feature","geometry":{"type":"Point","coordinates":[140.284114,38.4081]},"properties":{"id":"06-ae005c307c","name":"字入倉","reading":null,"pref":"山形県","prefCode":"06","municipality":"寒河江市","hazardTypes":["slope_failure","rockfall"],"evidenceLevel":0,"status":"current","disputed":false,"precision":"oaza","areaKey":"062060480","elements":["kura"],"summary":"要素辞書に一致（kura）。出典による裏づけは未確認。","zones":[],"dataset":"candidates"}},{"type":"Feature","geometry":{"type":"Point","coordinates":[140.277476,38.407616]},"properties":{"id":"06-5b14142bdb","name":"字雲河原","reading":null,"pref":"山形県","prefCode":"06","municipality":"寒河江市","hazardTypes":["flood"],"evidenceLevel":0,"status":"current","disputed":false,"precision":"oaza","areaKey":"062060470","elements":["kawara"],"summary":"要素辞書に一致（kawara）。出典による裏づけは未確認。","zones":[],"dataset":"candidates"}},{"type":"Feature","geometry":{"type":"Point","coordinates":[140.273951,38.381465]},"properties":{"id":"06-4a25fce31d","name":"山岸町","reading":"ヤマギシチョウ","pref":"山形県","prefCode":"06","municipality":"寒河江市","hazardTypes":["slope_failure"],"evidenceLevel":0,"status":"current","disputed":false,"precision":"oaza","areaKey":"062060110","elements":["kake"],"summary":"要素辞書に一致（kake）。出典による裏づけは未確認。","zones":[],"dataset":"candidates"}},{"type":"Feature","geometry":{"type":"Point","coordinates":[140.292116,38.164106]},"properties":{"id":"06-a93c462712","name":"下河原","reading":null,"pref":"山形県","prefCode":"06","municipality":"上山市","hazardTypes":["flood"],"evidenceLevel":0,"status":"current","disputed":false,"precision":"koaza","areaKey":"06207040000","elements":["kawara"],"summary":"要素辞書に一致（kawara）。出典による裏づけは未確認。","zones":[],"dataset":"candidates"}},{"type":"Feature","geometry":{"type":"Point","coordinates":[140.292358,38.163739]},"properties":{"id":"06-4cc2fff486","name":"中河原","reading":null,"pref":"山形県","prefCode":"06","municipality":"上山市","hazardTypes":["flood"],"evidenceLevel":0,"status":"current","disputed":false,"precision":"koaza","areaKey":"06207040000","elements":["kawara"],"summary":"要素辞書に一致（kawara）。出典による裏づけは未確認。","zones":[],"dataset":"candidates"}},{"type":"Feature","geometry":{"type":"Point","coordinates":[140.287123,38.160247]},"properties":{"id":"06-2c6de7cf14","name":"東河原","reading":null,"pref":"山形県","prefCode":"06","municipality":"上山市","hazardTypes":["flood"],"evidenceLevel":0,"status":"current","disputed":false,"precision":"koaza","areaKey":"06207040000","elements":["kawara"],"summary":"要素辞書に一致（kawara）。出典による裏づけは未確認。","zones":[],"dataset":"candidates"}},{"type":"Feature","geometry":{"type":"Point","coordinates":[140.291557,38.161979]},"properties":{"id":"06-e6e71fbed9","name":"流田","reading":null,"pref":"山形県","prefCode":"06","municipality":"上山市","hazardTypes":["flood","tsunami"],"evidenceLevel":0,"status":"current","disputed":false,"precision":"koaza","areaKey":"06207040000","elements":["nagare","tsunami_drift"],"summary":"要素辞書に一致（nagare・tsunami_drift）。出典による裏づけは未確認。","zones":[],"dataset":"candidates"}},{"type":"Feature","geometry":{"type":"Point","coordinates":[140.351364,38.158971]},"properties":{"id":"06-b22d08c237","name":"小倉","reading":"オグラ","pref":"山形県","prefCode":"06","municipality":"上山市","hazardTypes":["slope_failure","rockfall"],"evidenceLevel":0,"status":"current","disputed":false,"precision":"oaza","areaKey":"062070370","elements":["kura"],"summary":"要素辞書に一致（kura）。出典による裏づけは未確認。","zones":[],"dataset":"candidates"}},{"type":"Feature","geometry":{"type":"Point","coordinates":[140.299696,38.163132]},"properties":{"id":"06-fe3f02379a","name":"土矢倉","reading":null,"pref":"山形県","prefCode":"06","municipality":"上山市","hazardTypes":["slope_failure","rockfall"],"evidenceLevel":0,"status":"current","disputed":false,"precision":"koaza","areaKey":"06207034000","elements":["kura"],"summary":"要素辞書に一致（kura）。出典による裏づけは未確認。","zones":[],"dataset":"candidates"}},{"type":"Feature","geometry":{"type":"Point","coordinates":[140.313281,38.162451]},"properties":{"id":"06-5c963d6948","name":"水神河原","reading":null,"pref":"山形県","prefCode":"06","municipality":"上山市","hazardTypes":["flood"],"evidenceLevel":0,"status":"current","disputed":false,"precision":"koaza","areaKey":"06207034000","elements":["kawara"],"summary":"要素辞書に一致（kawara）。出典による裏づけは未確認。","zones":[],"dataset":"candidates"}},{"type":"Feature","geometry":{"type":"Point","coordinates":[140.308411,38.170991]},"properties":{"id":"06-7c5740b073","name":"犬馬場","reading":null,"pref":"山形県","prefCode":"06","municipality":"上山市","hazardTypes":["slope_failure"],"evidenceLevel":0,"status":"current","disputed":false,"precision":"koaza","areaKey":"06207034000","elements":["baba"],"summary":"要素辞書に一致（baba）。出典による裏づけは未確認。","zones":[],"dataset":"candidates"}},{"type":"Feature","geometry":{"type":"Point","coordinates":[140.279188,38.16993]},"properties":{"id":"06-4afce58cea","name":"三千刈","reading":null,"pref":"山形県","prefCode":"06","municipality":"上山市","hazardTypes":["slope_failure"],"evidenceLevel":0,"status":"current","disputed":false,"precision":"koaza","areaKey":null,"elements":["kake"],"summary":"要素辞書に一致（kake）。出典による裏づけは未確認。","zones":[],"dataset":"candidates"}},{"type":"Feature","geometry":{"type":"Point","coordinates":[140.400497,38.133159]},"properties":{"id":"06-5ba0acbf46","name":"蔵王","reading":"ザオウ","pref":"山形県","prefCode":"06","municipality":"上山市","hazardTypes":["slope_failure","rockfall"],"evidenceLevel":0,"status":"current","disputed":false,"precision":"oaza","areaKey":"062070460","elements":["kura"],"summary":"要素辞書に一致（kura）。出典による裏づけは未確認。","zones":[],"dataset":"candidates"}},{"type":"Feature","geometry":{"type":"Point","coordinates":[140.304133,38.162121]},"properties":{"id":"06-90480dacbc","name":"蔵王の森","reading":"ザオウノモリ","pref":"山形県","prefCode":"06","municipality":"上山市","hazardTypes":["slope_failure","rockfall"],"evidenceLevel":0,"status":"current","disputed":false,"precision":"oaza","areaKey":"062070390","elements":["kura"],"summary":"要素辞書に一致（kura）。出典による裏づけは未確認。","zones":[],"dataset":"candidates"}},{"type":"Feature","geometry":{"type":"Point","coordinates":[140.389498,38.097746]},"properties":{"id":"06-97215f4a2e","name":"菖蒲","reading":"ショウブ","pref":"山形県","prefCode":"06","municipality":"上山市","hazardTypes":["landslide","soft_ground"],"evidenceLevel":0,"status":"current","disputed":false,"precision":"oaza","areaKey":"062070500","elements":["wetland_plants"],"summary":"要素辞書に一致（wetland_plants）。出典による裏づけは未確認。","zones":[],"dataset":"candidates"}},{"type":"Feature","geometry":{"type":"Point","coordinates":[140.289679,38.151444]},"properties":{"id":"06-103d0ff4f1","name":"梅ノ木","reading":null,"pref":"山形県","prefCode":"06","municipality":"上山市","hazardTypes":["landslide","slope_failure"],"evidenceLevel":0,"status":"current","disputed":false,"precision":"koaza","areaKey":"062070410","elements":["ume"],"summary":"要素辞書に一致（ume）。出典による裏づけは未確認。","zones":[],"dataset":"candidates"}},{"type":"Feature","geometry":{"type":"Point","coordinates":[140.331967,38.467999]},"properties":{"id":"06-f62984c9ea","name":"大字大久保","reading":null,"pref":"山形県","prefCode":"06","municipality":"村山市","hazardTypes":["slope_failure","inundation","landslide"],"evidenceLevel":0,"status":"current","disputed":false,"precision":"oaza","areaKey":"062080330","elements":["afu_oo","kubo"],"summary":"要素辞書に一致（afu_oo・kubo）。出典による裏づけは未確認。","zones":[],"dataset":"candidates"}},{"type":"Feature","geometry":{"type":"Point","coordinates":[140.397788,38.480885]},"properties":{"id":"06-dc397c1bf6","name":"楯岡馬場","reading":"タテオカババ","pref":"山形県","prefCode":"06","municipality":"村山市","hazardTypes":["slope_failure"],"evidenceLevel":0,"status":"current","disputed":false,"precision":"oaza","areaKey":"062080140","elements":["baba"],"summary":"要素辞書に一致（baba）。出典による裏づけは未確認。","zones":[],"dataset":"candidates"}},{"type":"Feature","geometry":{"type":"Point","coordinates":[140.082349,38.087402]},"properties":{"id":"06-7cb82a33b2","name":"芦沢","reading":"アシザワ","pref":"山形県","prefCode":"06","municipality":"長井市","hazardTypes":["flood","inundation"],"evidenceLevel":0,"status":"current","disputed":false,"precision":"oaza","areaKey":null,"elements":["ashi"],"summary":"要素辞書に一致（ashi）。出典による裏づけは未確認。","zones":[],"dataset":"candidates"}},{"type":"Feature","geometry":{"type":"Point","coordinates":[139.930123,38.182688]},"properties":{"id":"06-ee921929c9","name":"川原沢","reading":"カワラザワ","pref":"山形県","prefCode":"06","municipality":"長井市","hazardTypes":["flood"],"evidenceLevel":0,"status":"current","disputed":false,"precision":"oaza","areaKey":null,"elements":["kawara"],"summary":"要素辞書に一致（kawara）。出典による裏づけは未確認。","zones":[],"dataset":"candidates"}},{"type":"Feature","geometry":{"type":"Point","coordinates":[140.404957,38.319732]},"properties":{"id":"06-22cb324a29","name":"大字上荻野戸","reading":null,"pref":"山形県","prefCode":"06","municipality":"天童市","hazardTypes":["slope_failure"],"evidenceLevel":0,"status":"current","disputed":false,"precision":"oaza","areaKey":"062100510","elements":["suki_hagu"],"summary":"要素辞書に一致（suki_hagu）。出典による裏づけは未確認。","zones":[],"dataset":"candidates"}},{"type":"Feature","geometry":{"type":"Point","coordinates":[140.421039,38.323709]},"properties":{"id":"06-7c75195fe7","name":"大字下荻野戸","reading":null,"pref":"山形県","prefCode":"06","municipality":"天童市","hazardTypes":["slope_failure"],"evidenceLevel":0,"status":"current","disputed":false,"precision":"oaza","areaKey":"062100520","elements":["suki_hagu"],"summary":"要素辞書に一致（suki_hagu）。出典による裏づけは未確認。","zones":[],"dataset":"candidates"}},{"type":"Feature","geometry":{"type":"Point","coordinates":[140.429561,38.389479]},"properties":{"id":"06-7ee4706e6e","name":"大字川原子","reading":null,"pref":"山形県","prefCode":"06","municipality":"天童市","hazardTypes":["flood"],"evidenceLevel":0,"status":"current","disputed":false,"precision":"oaza","areaKey":"062100370","elements":["kawara"],"summary":"要素辞書に一致（kawara）。出典による裏づけは未確認。","zones":[],"dataset":"candidates"}},{"type":"Feature","geometry":{"type":"Point","coordinates":[140.330726,38.368217]},"properties":{"id":"06-07d0b796c1","name":"大字蔵増","reading":null,"pref":"山形県","prefCode":"06","municipality":"天童市","hazardTypes":["slope_failure","rockfall"],"evidenceLevel":0,"status":"current","disputed":false,"precision":"oaza","areaKey":"062100250","elements":["kura"],"summary":"要素辞書に一致（kura）。出典による裏づけは未確認。","zones":[],"dataset":"candidates"}},{"type":"Feature","geometry":{"type":"Point","coordinates":[140.33565,38.328885]},"properties":{"id":"06-a5926df936","name":"立谷川原北","reading":null,"pref":"山形県","prefCode":"06","municipality":"天童市","hazardTypes":["flood"],"evidenceLevel":0,"status":"current","disputed":false,"precision":"koaza","areaKey":"062100410","elements":["kawara"],"summary":"要素辞書に一致（kawara）。出典による裏づけは未確認。","zones":[],"dataset":"candidates"}},{"type":"Feature","geometry":{"type":"Point","coordinates":[140.474606,38.377946]},"properties":{"id":"06-90b537184d","name":"大字猪野沢","reading":null,"pref":"山形県","prefCode":"06","municipality":"東根市","hazardTypes":["landslide","soft_ground"],"evidenceLevel":0,"status":"current","disputed":false,"precision":"oaza","areaKey":"062110220","elements":["shishi"],"summary":"要素辞書に一致（shishi）。出典による裏づけは未確認。","zones":[],"dataset":"candidates"}},{"type":"Feature","geometry":{"type":"Point","coordinates":[140.391155,38.443022]},"properties":{"id":"06-b6b85ba94d","name":"下川原一丁目","reading":"シモガワラ 1","pref":"山形県","prefCode":"06","municipality":"東根市","hazardTypes":["flood"],"evidenceLevel":0,"status":"current","disputed":false,"precision":"oaza","areaKey":null,"elements":["kawara"],"summary":"要素辞書に一致（kawara）。出典による裏づけは未確認。","zones":[],"dataset":"candidates"}},{"type":"Feature","geometry":{"type":"Point","coordinates":[140.364453,38.652203]},"properties":{"id":"06-17d6eec1a8","name":"大字芦沢","reading":null,"pref":"山形県","prefCode":"06","municipality":"尾花沢市","hazardTypes":["flood","inundation"],"evidenceLevel":0,"status":"current","disputed":false,"precision":"oaza","areaKey":null,"elements":["ashi"],"summary":"要素辞書に一致（ashi）。出典による裏づけは未確認。","zones":[],"dataset":"candidates"}},{"type":"Feature","geometry":{"type":"Point","coordinates":[140.396354,38.624433]},"properties":{"id":"06-aed803b571","name":"大字荻袋","reading":null,"pref":"山形県","prefCode":"06","municipality":"尾花沢市","hazardTypes":["slope_failure"],"evidenceLevel":0,"status":"current","disputed":false,"precision":"oaza","areaKey":null,"elements":["suki_hagu"],"summary":"要素辞書に一致（suki_hagu）。出典による裏づけは未確認。","zones":[],"dataset":"candidates"}},{"type":"Feature","geometry":{"type":"Point","coordinates":[140.181108,38.15484]},"properties":{"id":"06-ebb53d3411","name":"荻","reading":"オギ","pref":"山形県","prefCode":"06","municipality":"南陽市","hazardTypes":["slope_failure"],"evidenceLevel":0,"status":"current","disputed":false,"precision":"oaza","areaKey":null,"elements":["suki_hagu"],"summary":"要素辞書に一致（suki_hagu）。出典による裏づけは未確認。","zones":[],"dataset":"candidates"}},{"type":"Feature","geometry":{"type":"Point","coordinates":[140.140902,38.058045]},"properties":{"id":"06-aae0f5b391","name":"蒲生田","reading":"カモウダ","pref":"山形県","prefCode":"06","municipality":"南陽市","hazardTypes":["landslide","soft_ground"],"evidenceLevel":0,"status":"current","disputed":false,"precision":"oaza","areaKey":"062130380","elements":["wetland_plants"],"summary":"要素辞書に一致（wetland_plants）。出典による裏づけは未確認。","zones":[],"dataset":"candidates"}},{"type":"Feature","geometry":{"type":"Point","coordinates":[140.146195,38.151762]},"properties":{"id":"06-91a84cbc92","name":"下荻","reading":"シモオギ","pref":"山形県","prefCode":"06","municipality":"南陽市","hazardTypes":["slope_failure"],"evidenceLevel":0,"status":"current","disputed":false,"precision":"oaza","areaKey":null,"elements":["suki_hagu"],"summary":"要素辞書に一致（suki_hagu）。出典による裏づけは未確認。","zones":[],"dataset":"candidates"}},{"type":"Feature","geometry":{"type":"Point","coordinates":[140.315683,38.442246]},"properties":{"id":"06-e69dbd765d","name":"馬場","reading":null,"pref":"山形県","prefCode":"06","municipality":"西村山郡河北町","hazardTypes":["slope_failure"],"evidenceLevel":0,"status":"current","disputed":false,"precision":"koaza","areaKey":null,"elements":["baba"],"summary":"要素辞書に一致（baba）。出典による裏づけは未確認。","zones":[],"dataset":"candidates"}},{"type":"Feature","geometry":{"type":"Point","coordinates":[140.164691,38.284929]},"properties":{"id":"06-3170300af7","name":"大字下芦沢","reading":null,"pref":"山形県","prefCode":"06","municipality":"西村山郡朝日町","hazardTypes":["flood","inundation"],"evidenceLevel":0,"status":"current","disputed":false,"precision":"oaza","areaKey":null,"elements":["ashi"],"summary":"要素辞書に一致（ashi）。出典による裏づけは未確認。","zones":[],"dataset":"candidates"}},{"type":"Feature","geometry":{"type":"Point","coordinates":[139.995482,38.277067]},"properties":{"id":"06-f4885fb17a","name":"大字白倉","reading":null,"pref":"山形県","prefCode":"06","municipality":"西村山郡朝日町","hazardTypes":["slope_failure","rockfall"],"evidenceLevel":0,"status":"current","disputed":false,"precision":"oaza","areaKey":null,"elements":["kura"],"summary":"要素辞書に一致（kura）。出典による裏づけは未確認。","zones":[],"dataset":"candidates"}},{"type":"Feature","geometry":{"type":"Point","coordinates":[140.180655,38.365428]},"properties":{"id":"06-14bb8fd5af","name":"大字荻野","reading":null,"pref":"山形県","prefCode":"06","municipality":"西村山郡大江町","hazardTypes":["slope_failure"],"evidenceLevel":0,"status":"current","disputed":false,"precision":"oaza","areaKey":null,"elements":["suki_hagu"],"summary":"要素辞書に一致（suki_hagu）。出典による裏づけは未確認。","zones":[],"dataset":"candidates"}},{"type":"Feature","geometry":{"type":"Point","coordinates":[140.293144,38.919969]},"properties":{"id":"06-def0a2240a","name":"大字飛森","reading":null,"pref":"山形県","prefCode":"06","municipality":"最上郡金山町","hazardTypes":["slope_failure","debris_flow"],"evidenceLevel":0,"status":"current","disputed":false,"precision":"oaza","areaKey":null,"elements":["tobi"],"summary":"要素辞書に一致（tobi）。出典による裏づけは未確認。","zones":[],"dataset":"candidates"}},{"type":"Feature","geometry":{"type":"Point","coordinates":[140.279473,38.693674]},"properties":{"id":"06-8abe8ce3c1","name":"長者原","reading":"チョウジャハラ","pref":"山形県","prefCode":"06","municipality":"最上郡舟形町","hazardTypes":["slope_failure"],"evidenceLevel":0,"status":"current","disputed":false,"precision":"oaza","areaKey":null,"elements":["tsubu_chou"],"summary":"要素辞書に一致（tsubu_chou）。出典による裏づけは未確認。","zones":[],"dataset":"candidates"}},{"type":"Feature","geometry":{"type":"Point","coordinates":[140.180829,38.711294]},"properties":{"id":"06-d895e93d7e","name":"大字蔵岡","reading":null,"pref":"山形県","prefCode":"06","municipality":"最上郡戸沢村","hazardTypes":["slope_failure","rockfall"],"evidenceLevel":0,"status":"current","disputed":false,"precision":"oaza","areaKey":null,"elements":["kura"],"summary":"要素辞書に一致（kura）。出典による裏づけは未確認。","zones":[],"dataset":"candidates"}},{"type":"Feature","geometry":{"type":"Point","coordinates":[140.143387,38.013384]},"properties":{"id":"06-162047119a","name":"大字夏茂","reading":null,"pref":"山形県","prefCode":"06","municipality":"東置賜郡高畠町","hazardTypes":["debris_flow","slope_failure"],"evidenceLevel":0,"status":"current","disputed":false,"precision":"oaza","areaKey":null,"elements":["nazu_natsu"],"summary":"要素辞書に一致（nazu_natsu）。出典による裏づけは未確認。","zones":[],"dataset":"candidates"}},{"type":"Feature","geometry":{"type":"Point","coordinates":[140.190647,38.012449]},"properties":{"id":"06-28ea5559c7","name":"大字根岸","reading":null,"pref":"山形県","prefCode":"06","municipality":"東置賜郡高畠町","hazardTypes":["slope_failure"],"evidenceLevel":0,"status":"current","disputed":false,"precision":"oaza","areaKey":null,"elements":["kake"],"summary":"要素辞書に一致（kake）。出典による裏づけは未確認。","zones":[],"dataset":"candidates"}},{"type":"Feature","geometry":{"type":"Point","coordinates":[140.123995,37.994095]},"properties":{"id":"06-f679ac3a83","name":"大字蛇口","reading":null,"pref":"山形県","prefCode":"06","municipality":"東置賜郡高畠町","hazardTypes":["slope_failure","debris_flow"],"evidenceLevel":0,"status":"current","disputed":false,"precision":"oaza","areaKey":null,"elements":["ja"],"summary":"要素辞書に一致（ja）。出典による裏づけは未確認。","zones":[],"dataset":"candidates"}},{"type":"Feature","geometry":{"type":"Point","coordinates":[139.76106,38.003754]},"properties":{"id":"06-7ba0bc4597","name":"大字小倉","reading":null,"pref":"山形県","prefCode":"06","municipality":"西置賜郡小国町","hazardTypes":["slope_failure","rockfall"],"evidenceLevel":0,"status":"current","disputed":false,"precision":"oaza","areaKey":null,"elements":["kura"],"summary":"要素辞書に一致（kura）。出典による裏づけは未確認。","zones":[],"dataset":"candidates"}},{"type":"Feature","geometry":{"type":"Point","coordinates":[139.737337,38.138098]},"properties":{"id":"06-a9a6fa2170","name":"大字栃倉","reading":null,"pref":"山形県","prefCode":"06","municipality":"西置賜郡小国町","hazardTypes":["slope_failure","rockfall"],"evidenceLevel":0,"status":"current","disputed":false,"precision":"oaza","areaKey":null,"elements":["kura"],"summary":"要素辞書に一致（kura）。出典による裏づけは未確認。","zones":[],"dataset":"candidates"}},{"type":"Feature","geometry":{"type":"Point","coordinates":[139.773457,37.978471]},"properties":{"id":"06-7077799d6c","name":"大字河原角","reading":null,"pref":"山形県","prefCode":"06","municipality":"西置賜郡小国町","hazardTypes":["flood"],"evidenceLevel":0,"status":"current","disputed":false,"precision":"oaza","areaKey":null,"elements":["kawara"],"summary":"要素辞書に一致（kawara）。出典による裏づけは未確認。","zones":[],"dataset":"candidates"}},{"type":"Feature","geometry":{"type":"Point","coordinates":[139.719067,37.997236]},"properties":{"id":"06-4bea95803d","name":"大字滝倉","reading":null,"pref":"山形県","prefCode":"06","municipality":"西置賜郡小国町","hazardTypes":["slope_failure","rockfall"],"evidenceLevel":0,"status":"current","disputed":false,"precision":"oaza","areaKey":null,"elements":["kura"],"summary":"要素辞書に一致（kura）。出典による裏づけは未確認。","zones":[],"dataset":"candidates"}},{"type":"Feature","geometry":{"type":"Point","coordinates":[139.775505,38.040551]},"properties":{"id":"06-707fba7f42","name":"大字芹出","reading":null,"pref":"山形県","prefCode":"06","municipality":"西置賜郡小国町","hazardTypes":["landslide","soft_ground"],"evidenceLevel":0,"status":"current","disputed":false,"precision":"oaza","areaKey":null,"elements":["wetland_plants"],"summary":"要素辞書に一致（wetland_plants）。出典による裏づけは未確認。","zones":[],"dataset":"candidates"}},{"type":"Feature","geometry":{"type":"Point","coordinates":[139.723135,38.003162]},"properties":{"id":"06-fe18e03640","name":"大字菅沼","reading":null,"pref":"山形県","prefCode":"06","municipality":"西置賜郡小国町","hazardTypes":["landslide","soft_ground","inundation"],"evidenceLevel":0,"status":"current","disputed":false,"precision":"oaza","areaKey":null,"elements":["wetland_plants","numa_kata"],"summary":"要素辞書に一致（wetland_plants・numa_kata）。出典による裏づけは未確認。","zones":[],"dataset":"candidates"}},{"type":"Feature","geometry":{"type":"Point","coordinates":[139.724286,38.007372]},"properties":{"id":"06-797f9a7cd6","name":"大字足水中里","reading":null,"pref":"山形県","prefCode":"06","municipality":"西置賜郡小国町","hazardTypes":["flood","inundation"],"evidenceLevel":0,"status":"current","disputed":false,"precision":"oaza","areaKey":null,"elements":["ashi"],"summary":"要素辞書に一致（ashi）。出典による裏づけは未確認。","zones":[],"dataset":"candidates"}},{"type":"Feature","geometry":{"type":"Point","coordinates":[139.712214,38.036951]},"properties":{"id":"06-3814ab6bcb","name":"大字足野水","reading":null,"pref":"山形県","prefCode":"06","municipality":"西置賜郡小国町","hazardTypes":["flood","inundation"],"evidenceLevel":0,"status":"current","disputed":false,"precision":"oaza","areaKey":null,"elements":["ashi"],"summary":"要素辞書に一致（ashi）。出典による裏づけは未確認。","zones":[],"dataset":"candidates"}},{"type":"Feature","geometry":{"type":"Point","coordinates":[140.105593,38.198535]},"properties":{"id":"06-8637ef1152","name":"大字菖蒲","reading":null,"pref":"山形県","prefCode":"06","municipality":"西置賜郡白鷹町","hazardTypes":["landslide","soft_ground"],"evidenceLevel":0,"status":"current","disputed":false,"precision":"oaza","areaKey":null,"elements":["wetland_plants"],"summary":"要素辞書に一致（wetland_plants）。出典による裏づけは未確認。","zones":[],"dataset":"candidates"}},{"type":"Feature","geometry":{"type":"Point","coordinates":[139.810091,37.870791]},"properties":{"id":"06-84c6e67b93","name":"大字岩倉","reading":null,"pref":"山形県","prefCode":"06","municipality":"西置賜郡飯豊町","hazardTypes":["slope_failure","rockfall"],"evidenceLevel":0,"status":"current","disputed":false,"precision":"oaza","areaKey":null,"elements":["kura"],"summary":"要素辞書に一致（kura）。出典による裏づけは未確認。","zones":[],"dataset":"candidates"}},{"type":"Feature","geometry":{"type":"Point","coordinates":[139.871697,37.858494]},"properties":{"id":"06-d295dede3e","name":"大字広河原","reading":null,"pref":"山形県","prefCode":"06","municipality":"西置賜郡飯豊町","hazardTypes":["flood"],"evidenceLevel":0,"status":"current","disputed":false,"precision":"oaza","areaKey":null,"elements":["kawara"],"summary":"要素辞書に一致（kawara）。出典による裏づけは未確認。","zones":[],"dataset":"candidates"}},{"type":"Feature","geometry":{"type":"Point","coordinates":[139.844485,38.821915]},"properties":{"id":"06-29daf393d5","name":"前川原","reading":null,"pref":"山形県","prefCode":"06","municipality":"東田川郡三川町","hazardTypes":["flood"],"evidenceLevel":0,"status":"current","disputed":false,"precision":"koaza","areaKey":null,"elements":["kawara"],"summary":"要素辞書に一致（kawara）。出典による裏づけは未確認。","zones":[],"dataset":"candidates"}},{"type":"Feature","geometry":{"type":"Point","coordinates":[139.83634,38.815747]},"properties":{"id":"06-61b5963b25","name":"大字猪子","reading":null,"pref":"山形県","prefCode":"06","municipality":"東田川郡三川町","hazardTypes":["landslide","soft_ground"],"evidenceLevel":0,"status":"current","disputed":false,"precision":"oaza","areaKey":null,"elements":["shishi"],"summary":"要素辞書に一致（shishi）。出典による裏づけは未確認。","zones":[],"dataset":"candidates"}},{"type":"Feature","geometry":{"type":"Point","coordinates":[139.838546,38.792002]},"properties":{"id":"06-7a1cb98d72","name":"外川原","reading":null,"pref":"山形県","prefCode":"06","municipality":"東田川郡三川町","hazardTypes":["flood"],"evidenceLevel":0,"status":"current","disputed":false,"precision":"koaza","areaKey":null,"elements":["kawara"],"summary":"要素辞書に一致（kawara）。出典による裏づけは未確認。","zones":[],"dataset":"candidates"}},{"type":"Feature","geometry":{"type":"Point","coordinates":[139.895493,38.858262]},"properties":{"id":"06-812eed0deb","name":"梅木","reading":null,"pref":"山形県","prefCode":"06","municipality":"東田川郡庄内町","hazardTypes":["landslide","slope_failure"],"evidenceLevel":0,"status":"current","disputed":false,"precision":"koaza","areaKey":null,"elements":["ume"],"summary":"要素辞書に一致（ume）。出典による裏づけは未確認。","zones":[],"dataset":"candidates"}},{"type":"Feature","geometry":{"type":"Point","coordinates":[139.907159,38.845757]},"properties":{"id":"06-a7ddbc17eb","name":"上猿田","reading":null,"pref":"山形県","prefCode":"06","municipality":"東田川郡庄内町","hazardTypes":["slope_failure"],"evidenceLevel":0,"status":"current","disputed":false,"precision":"koaza","areaKey":null,"elements":["saru"],"summary":"要素辞書に一致（saru）。出典による裏づけは未確認。","zones":[],"dataset":"candidates"}},{"type":"Feature","geometry":{"type":"Point","coordinates":[139.90187,38.857909]},"properties":{"id":"06-048500479e","name":"梅ノ木","reading":null,"pref":"山形県","prefCode":"06","municipality":"東田川郡庄内町","hazardTypes":["landslide","slope_failure"],"evidenceLevel":0,"status":"current","disputed":false,"precision":"koaza","areaKey":null,"elements":["ume"],"summary":"要素辞書に一致（ume）。出典による裏づけは未確認。","zones":[],"dataset":"candidates"}},{"type":"Feature","geometry":{"type":"Point","coordinates":[139.901046,38.847287]},"properties":{"id":"06-e7c34411f1","name":"猿田","reading":null,"pref":"山形県","prefCode":"06","municipality":"東田川郡庄内町","hazardTypes":["slope_failure"],"evidenceLevel":0,"status":"current","disputed":false,"precision":"koaza","areaKey":null,"elements":["saru"],"summary":"要素辞書に一致（saru）。出典による裏づけは未確認。","zones":[],"dataset":"candidates"}},{"type":"Feature","geometry":{"type":"Point","coordinates":[139.925979,38.869807]},"properties":{"id":"06-37061b5157","name":"千河原","reading":"チガワラ","pref":"山形県","prefCode":"06","municipality":"東田川郡庄内町","hazardTypes":["flood"],"evidenceLevel":0,"status":"current","disputed":false,"precision":"oaza","areaKey":null,"elements":["kawara"],"summary":"要素辞書に一致（kawara）。出典による裏づけは未確認。","zones":[],"dataset":"candidates"}},{"type":"Feature","geometry":{"type":"Point","coordinates":[139.928645,39.014781]},"properties":{"id":"06-653e0675ff","name":"上川原","reading":null,"pref":"山形県","prefCode":"06","municipality":"飽海郡遊佐町","hazardTypes":["flood"],"evidenceLevel":0,"status":"current","disputed":false,"precision":"koaza","areaKey":null,"elements":["kawara"],"summary":"要素辞書に一致（kawara）。出典による裏づけは未確認。","zones":[],"dataset":"candidates"}},{"type":"Feature","geometry":{"type":"Point","coordinates":[139.922683,39.011923]},"properties":{"id":"06-692be61c77","name":"御所ノ馬場","reading":null,"pref":"山形県","prefCode":"06","municipality":"飽海郡遊佐町","hazardTypes":["slope_failure"],"evidenceLevel":0,"status":"current","disputed":false,"precision":"koaza","areaKey":null,"elements":["baba"],"summary":"要素辞書に一致（baba）。出典による裏づけは未確認。","zones":[],"dataset":"candidates"}},{"type":"Feature","geometry":{"type":"Point","coordinates":[139.943507,39.00645]},"properties":{"id":"06-c9cab73a92","name":"鹿野沢","reading":"カノサワ","pref":"山形県","prefCode":"06","municipality":"飽海郡遊佐町","hazardTypes":["landslide","soft_ground"],"evidenceLevel":0,"status":"current","disputed":false,"precision":"oaza","areaKey":null,"elements":["shishi"],"summary":"要素辞書に一致（shishi）。出典による裏づけは未確認。","zones":[],"dataset":"candidates"}},{"type":"Feature","geometry":{"type":"Point","coordinates":[139.888429,39.062526]},"properties":{"id":"06-3a0c07135a","name":"菅野谷地","reading":null,"pref":"山形県","prefCode":"06","municipality":"飽海郡遊佐町","hazardTypes":["landslide","soft_ground","inundation"],"evidenceLevel":0,"status":"current","disputed":false,"precision":"koaza","areaKey":null,"elements":["wetland_plants","yato"],"summary":"要素辞書に一致（wetland_plants・yato）。出典による裏づけは未確認。","zones":[],"dataset":"candidates"}},{"type":"Feature","geometry":{"type":"Point","coordinates":[139.873628,39.044777]},"properties":{"id":"06-26abf12b9f","name":"菅里","reading":"スガサト","pref":"山形県","prefCode":"06","municipality":"飽海郡遊佐町","hazardTypes":["landslide","soft_ground"],"evidenceLevel":0,"status":"current","disputed":false,"precision":"oaza","areaKey":null,"elements":["wetland_plants"],"summary":"要素辞書に一致（wetland_plants）。出典による裏づけは未確認。","zones":[],"dataset":"candidates"}},{"type":"Feature","geometry":{"type":"Point","coordinates":[139.876802,39.058492]},"properties":{"id":"06-fca4271f2a","name":"菅野","reading":null,"pref":"山形県","prefCode":"06","municipality":"飽海郡遊佐町","hazardTypes":["landslide","soft_ground"],"evidenceLevel":0,"status":"current","disputed":false,"precision":"koaza","areaKey":null,"elements":["wetland_plants"],"summary":"要素辞書に一致（wetland_plants）。出典による裏づけは未確認。","zones":[],"dataset":"candidates"}},{"type":"Feature","geometry":{"type":"Point","coordinates":[139.880727,39.049264]},"properties":{"id":"06-8f2df9b26a","name":"菅野南山","reading":null,"pref":"山形県","prefCode":"06","municipality":"飽海郡遊佐町","hazardTypes":["landslide","soft_ground"],"evidenceLevel":0,"status":"current","disputed":false,"precision":"koaza","areaKey":null,"elements":["wetland_plants"],"summary":"要素辞書に一致（wetland_plants）。出典による裏づけは未確認。","zones":[],"dataset":"candidates"}},{"type":"Feature","geometry":{"type":"Point","coordinates":[139.878474,39.071217]},"properties":{"id":"06-1baede28a3","name":"下川原","reading":null,"pref":"山形県","prefCode":"06","municipality":"飽海郡遊佐町","hazardTypes":["flood"],"evidenceLevel":0,"status":"current","disputed":false,"precision":"koaza","areaKey":null,"elements":["kawara"],"summary":"要素辞書に一致（kawara）。出典による裏づけは未確認。","zones":[],"dataset":"candidates"}},{"type":"Feature","geometry":{"type":"Point","coordinates":[139.87951,39.07044]},"properties":{"id":"06-20e7a5548a","name":"中川原","reading":null,"pref":"山形県","prefCode":"06","municipality":"飽海郡遊佐町","hazardTypes":["flood"],"evidenceLevel":0,"status":"current","disputed":false,"precision":"koaza","areaKey":null,"elements":["kawara"],"summary":"要素辞書に一致（kawara）。出典による裏づけは未確認。","zones":[],"dataset":"candidates"}},{"type":"Feature","geometry":{"type":"Point","coordinates":[139.880449,39.075157]},"properties":{"id":"06-3fcaca042a","name":"布倉","reading":null,"pref":"山形県","prefCode":"06","municipality":"飽海郡遊佐町","hazardTypes":["slope_failure","rockfall"],"evidenceLevel":0,"status":"current","disputed":false,"precision":"koaza","areaKey":null,"elements":["kura"],"summary":"要素辞書に一致（kura）。出典による裏づけは未確認。","zones":[],"dataset":"candidates"}},{"type":"Feature","geometry":{"type":"Point","coordinates":[139.918053,39.011572]},"properties":{"id":"06-4ac890634e","name":"五所ノ馬場","reading":null,"pref":"山形県","prefCode":"06","municipality":"飽海郡遊佐町","hazardTypes":["slope_failure"],"evidenceLevel":0,"status":"current","disputed":false,"precision":"koaza","areaKey":null,"elements":["baba"],"summary":"要素辞書に一致（baba）。出典による裏づけは未確認。","zones":[],"dataset":"candidates"}},{"type":"Feature","geometry":{"type":"Point","coordinates":[139.91378,39.012249]},"properties":{"id":"06-ee202ee0a2","name":"倉ノ町","reading":null,"pref":"山形県","prefCode":"06","municipality":"飽海郡遊佐町","hazardTypes":["slope_failure","rockfall"],"evidenceLevel":0,"status":"current","disputed":false,"precision":"koaza","areaKey":null,"elements":["kura"],"summary":"要素辞書に一致（kura）。出典による裏づけは未確認。","zones":[],"dataset":"candidates"}},{"type":"Feature","geometry":{"type":"Point","coordinates":[139.911618,39.018338]},"properties":{"id":"06-fb1599de8c","name":"古川","reading":null,"pref":"山形県","prefCode":"06","municipality":"飽海郡遊佐町","hazardTypes":["flood","inundation"],"evidenceLevel":0,"status":"current","disputed":false,"precision":"koaza","areaKey":null,"elements":["furukawa"],"summary":"要素辞書に一致（furukawa）。出典による裏づけは未確認。","zones":[],"dataset":"candidates"}},{"type":"Feature","geometry":{"type":"Point","coordinates":[139.920685,39.020177]},"properties":{"id":"06-2cb84e9baa","name":"郷蔵続","reading":null,"pref":"山形県","prefCode":"06","municipality":"飽海郡遊佐町","hazardTypes":["slope_failure","rockfall"],"evidenceLevel":0,"status":"current","disputed":false,"precision":"koaza","areaKey":null,"elements":["kura"],"summary":"要素辞書に一致（kura）。出典による裏づけは未確認。","zones":[],"dataset":"candidates"}}]}
