{"type":"FeatureCollection","features":[{"type":"Feature","geometry":{"type":"Point","coordinates":[140.369684,36.382292]},"properties":{"id":"08-e9b0bc028f","name":"大足町","reading":"オオダラチョウ","pref":"茨城県","prefCode":"08","municipality":"水戸市","hazardTypes":["flood","inundation"],"evidenceLevel":0,"status":"current","disputed":false,"precision":"oaza","areaKey":"082011350","elements":["ashi"],"summary":"要素辞書に一致（ashi）。出典による裏づけは未確認。","zones":[],"dataset":"candidates"}},{"type":"Feature","geometry":{"type":"Point","coordinates":[140.381962,36.393644]},"properties":{"id":"08-138c4c00e8","name":"加倉井町","reading":"カクライチョウ","pref":"茨城県","prefCode":"08","municipality":"水戸市","hazardTypes":["slope_failure","rockfall"],"evidenceLevel":0,"status":"current","disputed":false,"precision":"oaza","areaKey":"082010160","elements":["kura"],"summary":"要素辞書に一致（kura）。出典による裏づけは未確認。","zones":[],"dataset":"candidates"}},{"type":"Feature","geometry":{"type":"Point","coordinates":[140.359433,36.391537]},"properties":{"id":"08-4a667b3bd3","name":"黒磯町","reading":"クロイソチョウ","pref":"茨城県","prefCode":"08","municipality":"水戸市","hazardTypes":["rockfall","debris_flow"],"evidenceLevel":0,"status":"current","disputed":false,"precision":"oaza","areaKey":"082011370","elements":["iso_ishi"],"summary":"要素辞書に一致（iso_ishi）。出典による裏づけは未確認。","zones":[],"dataset":"candidates"}},{"type":"Feature","geometry":{"type":"Point","coordinates":[140.473815,36.363128]},"properties":{"id":"08-4eece1bca7","name":"白梅一丁目","reading":"シラウメ 1","pref":"茨城県","prefCode":"08","municipality":"水戸市","hazardTypes":["landslide","slope_failure"],"evidenceLevel":0,"status":"current","disputed":false,"precision":"oaza","areaKey":"08201042001","elements":["ume"],"summary":"要素辞書に一致（ume）。出典による裏づけは未確認。","zones":[],"dataset":"candidates"}},{"type":"Feature","geometry":{"type":"Point","coordinates":[140.468425,36.373038]},"properties":{"id":"08-8e2f3c3e33","name":"梅香一丁目","reading":"バイコウ 1","pref":"茨城県","prefCode":"08","municipality":"水戸市","hazardTypes":["landslide","slope_failure"],"evidenceLevel":0,"status":"current","disputed":false,"precision":"oaza","areaKey":"08201065001","elements":["ume"],"summary":"要素辞書に一致（ume）。出典による裏づけは未確認。","zones":[],"dataset":"candidates"}},{"type":"Feature","geometry":{"type":"Point","coordinates":[140.459685,36.327757]},"properties":{"id":"08-57e93fd7e6","name":"吉沢町","reading":"ヨシザワチョウ","pref":"茨城県","prefCode":"08","municipality":"水戸市","hazardTypes":["landslide","soft_ground"],"evidenceLevel":0,"status":"current","disputed":false,"precision":"oaza","areaKey":"082011030","elements":["wetland_plants"],"summary":"要素辞書に一致（wetland_plants）。出典による裏づけは未確認。","zones":[],"dataset":"candidates"}},{"type":"Feature","geometry":{"type":"Point","coordinates":[140.597518,36.559534]},"properties":{"id":"08-3b292403b1","name":"大久保町","reading":"オオクボチョウ","pref":"茨城県","prefCode":"08","municipality":"日立市","hazardTypes":["slope_failure","inundation","landslide"],"evidenceLevel":0,"status":"current","disputed":false,"precision":"oaza","areaKey":"08202037000","elements":["afu_oo","kubo"],"summary":"要素辞書に一致（afu_oo・kubo）。出典による裏づけは未確認。","zones":[],"dataset":"candidates"}},{"type":"Feature","geometry":{"type":"Point","coordinates":[140.651817,36.594729]},"properties":{"id":"08-2d1481d3d8","name":"鹿島町一丁目","reading":"カシマチョウ 1","pref":"茨城県","prefCode":"08","municipality":"日立市","hazardTypes":["landslide","soft_ground"],"evidenceLevel":0,"status":"current","disputed":false,"precision":"oaza","areaKey":"08202017001","elements":["shishi"],"summary":"要素辞書に一致（shishi）。出典による裏づけは未確認。","zones":[],"dataset":"candidates"}},{"type":"Feature","geometry":{"type":"Point","coordinates":[140.642995,36.549263]},"properties":{"id":"08-c06c9083fc","name":"河原子町一丁目","reading":"カワラゴチョウ 1","pref":"茨城県","prefCode":"08","municipality":"日立市","hazardTypes":["flood"],"evidenceLevel":0,"status":"current","disputed":false,"precision":"oaza","areaKey":"08202040001","elements":["kawara"],"summary":"要素辞書に一致（kawara）。出典による裏づけは未確認。","zones":[],"dataset":"candidates"}},{"type":"Feature","geometry":{"type":"Point","coordinates":[140.53128,36.644623]},"properties":{"id":"08-ea2392e8ee","name":"下深荻町","reading":"シモフカオギチョウ","pref":"茨城県","prefCode":"08","municipality":"日立市","hazardTypes":["slope_failure"],"evidenceLevel":0,"status":"current","disputed":false,"precision":"oaza","areaKey":"082020090","elements":["suki_hagu"],"summary":"要素辞書に一致（suki_hagu）。出典による裏づけは未確認。","zones":[],"dataset":"candidates"}},{"type":"Feature","geometry":{"type":"Point","coordinates":[140.558837,36.670606]},"properties":{"id":"08-e6d506e212","name":"中深荻町","reading":"ナカフカオギチョウ","pref":"茨城県","prefCode":"08","municipality":"日立市","hazardTypes":["slope_failure"],"evidenceLevel":0,"status":"current","disputed":false,"precision":"oaza","areaKey":"082020080","elements":["suki_hagu"],"summary":"要素辞書に一致（suki_hagu）。出典による裏づけは未確認。","zones":[],"dataset":"candidates"}},{"type":"Feature","geometry":{"type":"Point","coordinates":[140.1644,36.080624]},"properties":{"id":"08-4918cbec31","name":"宍塚","reading":"シシツカ","pref":"茨城県","prefCode":"08","municipality":"土浦市","hazardTypes":["landslide","soft_ground"],"evidenceLevel":0,"status":"current","disputed":false,"precision":"oaza","areaKey":"082030430","elements":["shishi"],"summary":"要素辞書に一致（shishi）。出典による裏づけは未確認。","zones":[],"dataset":"candidates"}},{"type":"Feature","geometry":{"type":"Point","coordinates":[140.273074,36.10465]},"properties":{"id":"08-0c1a154ac2","name":"菅谷町","reading":"スゲノヤマチ","pref":"茨城県","prefCode":"08","municipality":"土浦市","hazardTypes":["landslide","soft_ground"],"evidenceLevel":0,"status":"current","disputed":false,"precision":"oaza","areaKey":"082030480","elements":["wetland_plants"],"summary":"要素辞書に一致（wetland_plants）。出典による裏づけは未確認。","zones":[],"dataset":"candidates"}},{"type":"Feature","geometry":{"type":"Point","coordinates":[140.207759,36.072643]},"properties":{"id":"08-1bb41ebc15","name":"蓮河原新町","reading":"ハスカワラシンマチ","pref":"茨城県","prefCode":"08","municipality":"土浦市","hazardTypes":["flood"],"evidenceLevel":0,"status":"current","disputed":false,"precision":"oaza","areaKey":"082030730","elements":["kawara"],"summary":"要素辞書に一致（kawara）。出典による裏づけは未確認。","zones":[],"dataset":"candidates"}},{"type":"Feature","geometry":{"type":"Point","coordinates":[140.215565,36.072391]},"properties":{"id":"08-47f4470f47","name":"蓮河原町","reading":"ハスカワラマチ","pref":"茨城県","prefCode":"08","municipality":"土浦市","hazardTypes":["flood"],"evidenceLevel":0,"status":"current","disputed":false,"precision":"oaza","areaKey":"082030720","elements":["kawara"],"summary":"要素辞書に一致（kawara）。出典による裏づけは未確認。","zones":[],"dataset":"candidates"}},{"type":"Feature","geometry":{"type":"Point","coordinates":[139.741191,36.165322]},"properties":{"id":"08-d5fb021de2","name":"磯部","reading":"イソベ","pref":"茨城県","prefCode":"08","municipality":"古河市","hazardTypes":["rockfall","debris_flow"],"evidenceLevel":0,"status":"current","disputed":false,"precision":"oaza","areaKey":"082040520","elements":["iso_ishi"],"summary":"要素辞書に一致（iso_ishi）。出典による裏づけは未確認。","zones":[],"dataset":"candidates"}},{"type":"Feature","geometry":{"type":"Point","coordinates":[139.692996,36.195124]},"properties":{"id":"08-80282fb0a2","name":"古河","reading":"コガ","pref":"茨城県","prefCode":"08","municipality":"古河市","hazardTypes":["flood","inundation"],"evidenceLevel":0,"status":"current","disputed":false,"precision":"oaza","areaKey":"082040010","elements":["furukawa"],"summary":"要素辞書に一致（furukawa）。出典による裏づけは未確認。","zones":[],"dataset":"candidates"}},{"type":"Feature","geometry":{"type":"Point","coordinates":[140.166925,36.255381]},"properties":{"id":"08-fb1150fee9","name":"芦穂中部","reading":null,"pref":"茨城県","prefCode":"08","municipality":"石岡市","hazardTypes":["flood","inundation"],"evidenceLevel":0,"status":"current","disputed":false,"precision":"oaza","areaKey":"082050950","elements":["ashi"],"summary":"要素辞書に一致（ashi）。出典による裏づけは未確認。","zones":[],"dataset":"candidates"}},{"type":"Feature","geometry":{"type":"Point","coordinates":[140.175381,36.240304]},"properties":{"id":"08-0674b883d6","name":"小倉","reading":"オグラ","pref":"茨城県","prefCode":"08","municipality":"石岡市","hazardTypes":["slope_failure","rockfall"],"evidenceLevel":0,"status":"current","disputed":false,"precision":"oaza","areaKey":"082050600","elements":["kura"],"summary":"要素辞書に一致（kura）。出典による裏づけは未確認。","zones":[],"dataset":"candidates"}},{"type":"Feature","geometry":{"type":"Point","coordinates":[140.19185,36.243397]},"properties":{"id":"08-1e7816ab85","name":"柿岡","reading":"カキオカ","pref":"茨城県","prefCode":"08","municipality":"石岡市","hazardTypes":["slope_failure"],"evidenceLevel":0,"status":"current","disputed":false,"precision":"oaza","areaKey":"082050460","elements":["kake"],"summary":"要素辞書に一致（kake）。出典による裏づけは未確認。","zones":[],"dataset":"candidates"}},{"type":"Feature","geometry":{"type":"Point","coordinates":[140.26217,36.203871]},"properties":{"id":"08-2bc03bd04b","name":"鹿の子一丁目","reading":"カノコ 1","pref":"茨城県","prefCode":"08","municipality":"石岡市","hazardTypes":["landslide","soft_ground"],"evidenceLevel":0,"status":"current","disputed":false,"precision":"oaza","areaKey":"08205006001","elements":["shishi"],"summary":"要素辞書に一致（shishi）。出典による裏づけは未確認。","zones":[],"dataset":"candidates"}},{"type":"Feature","geometry":{"type":"Point","coordinates":[140.200354,36.261929]},"properties":{"id":"08-5af80c241f","name":"佐久","reading":"サク","pref":"茨城県","prefCode":"08","municipality":"石岡市","hazardTypes":["flood"],"evidenceLevel":0,"status":"current","disputed":false,"precision":"oaza","areaKey":"082050710","elements":["sake"],"summary":"要素辞書に一致（sake）。出典による裏づけは未確認。","zones":[],"dataset":"candidates"}},{"type":"Feature","geometry":{"type":"Point","coordinates":[140.164158,36.187173]},"properties":{"id":"08-760d2bbdce","name":"菖蒲沢","reading":"ショウブザワ","pref":"茨城県","prefCode":"08","municipality":"石岡市","hazardTypes":["landslide","soft_ground"],"evidenceLevel":0,"status":"current","disputed":false,"precision":"oaza","areaKey":"082050911","elements":["wetland_plants"],"summary":"要素辞書に一致（wetland_plants）。出典による裏づけは未確認。","zones":[],"dataset":"candidates"}},{"type":"Feature","geometry":{"type":"Point","coordinates":[139.881635,36.276192]},"properties":{"id":"08-32ed3c36a5","name":"大字鹿窪","reading":null,"pref":"茨城県","prefCode":"08","municipality":"結城市","hazardTypes":["landslide","soft_ground","inundation"],"evidenceLevel":0,"status":"current","disputed":false,"precision":"oaza","areaKey":"082070110","elements":["shishi","kubo"],"summary":"要素辞書に一致（shishi・kubo）。出典による裏づけは未確認。","zones":[],"dataset":"candidates"}},{"type":"Feature","geometry":{"type":"Point","coordinates":[140.221621,35.933057]},"properties":{"id":"08-c3dcb8f6ee","name":"薄倉町","reading":"ウスグラマチ","pref":"茨城県","prefCode":"08","municipality":"龍ヶ崎市","hazardTypes":["slope_failure","rockfall"],"evidenceLevel":0,"status":"current","disputed":false,"precision":"oaza","areaKey":"082080050","elements":["kura"],"summary":"要素辞書に一致（kura）。出典による裏づけは未確認。","zones":[],"dataset":"candidates"}},{"type":"Feature","geometry":{"type":"Point","coordinates":[140.167254,35.912645]},"properties":{"id":"08-ff2241d34a","name":"門倉新田町","reading":"カドクラシンデンマチ","pref":"茨城県","prefCode":"08","municipality":"龍ヶ崎市","hazardTypes":["slope_failure","rockfall"],"evidenceLevel":0,"status":"current","disputed":false,"precision":"oaza","areaKey":"082080101","elements":["kura"],"summary":"要素辞書に一致（kura）。出典による裏づけは未確認。","zones":[],"dataset":"candidates"}},{"type":"Feature","geometry":{"type":"Point","coordinates":[140.152982,35.912865]},"properties":{"id":"08-be33feb3d2","name":"川原代町","reading":"カワラシロマチ","pref":"茨城県","prefCode":"08","municipality":"龍ヶ崎市","hazardTypes":["flood"],"evidenceLevel":0,"status":"current","disputed":false,"precision":"oaza","areaKey":"082080102","elements":["kawara"],"summary":"要素辞書に一致（kawara）。出典による裏づけは未確認。","zones":[],"dataset":"candidates"}},{"type":"Feature","geometry":{"type":"Point","coordinates":[139.932741,36.200512]},"properties":{"id":"08-d8c2fe72b9","name":"前河原","reading":"マエガワラ","pref":"茨城県","prefCode":"08","municipality":"下妻市","hazardTypes":["flood"],"evidenceLevel":0,"status":"current","disputed":false,"precision":"oaza","areaKey":"082100350","elements":["kawara"],"summary":"要素辞書に一致（kawara）。出典による裏づけは未確認。","zones":[],"dataset":"candidates"}},{"type":"Feature","geometry":{"type":"Point","coordinates":[139.953651,36.108563]},"properties":{"id":"08-b82f6d23f2","name":"蔵持","reading":"クラモチ","pref":"茨城県","prefCode":"08","municipality":"常総市","hazardTypes":["slope_failure","rockfall"],"evidenceLevel":0,"status":"current","disputed":false,"precision":"oaza","areaKey":"082110750","elements":["kura"],"summary":"要素辞書に一致（kura）。出典による裏づけは未確認。","zones":[],"dataset":"candidates"}},{"type":"Feature","geometry":{"type":"Point","coordinates":[139.950582,36.105582]},"properties":{"id":"08-cb8b898c78","name":"蔵持新田","reading":"クラモチシンデン","pref":"茨城県","prefCode":"08","municipality":"常総市","hazardTypes":["slope_failure","rockfall"],"evidenceLevel":0,"status":"current","disputed":false,"precision":"oaza","areaKey":"082110760","elements":["kura"],"summary":"要素辞書に一致（kura）。出典による裏づけは未確認。","zones":[],"dataset":"candidates"}},{"type":"Feature","geometry":{"type":"Point","coordinates":[140.000315,36.073605]},"properties":{"id":"08-ca6d0db4e3","name":"上蛇町","reading":"ジョウジャマチ","pref":"茨城県","prefCode":"08","municipality":"常総市","hazardTypes":["slope_failure","debris_flow"],"evidenceLevel":0,"status":"current","disputed":false,"precision":"oaza","areaKey":null,"elements":["ja"],"summary":"要素辞書に一致（ja）。出典による裏づけは未確認。","zones":[],"dataset":"candidates"}},{"type":"Feature","geometry":{"type":"Point","coordinates":[139.934153,35.988751]},"properties":{"id":"08-7e9510ebcd","name":"菅生町","reading":"スガオマチ","pref":"茨城県","prefCode":"08","municipality":"常総市","hazardTypes":["landslide","soft_ground"],"evidenceLevel":0,"status":"current","disputed":false,"precision":"oaza","areaKey":null,"elements":["wetland_plants"],"summary":"要素辞書に一致（wetland_plants）。出典による裏づけは未確認。","zones":[],"dataset":"candidates"}},{"type":"Feature","geometry":{"type":"Point","coordinates":[139.922239,36.132188]},"properties":{"id":"08-be93c91967","name":"馬場","reading":"ババ","pref":"茨城県","prefCode":"08","municipality":"常総市","hazardTypes":["slope_failure"],"evidenceLevel":0,"status":"current","disputed":false,"precision":"oaza","areaKey":"082110630","elements":["baba"],"summary":"要素辞書に一致（baba）。出典による裏づけは未確認。","zones":[],"dataset":"candidates"}},{"type":"Feature","geometry":{"type":"Point","coordinates":[139.922272,36.106012]},"properties":{"id":"08-d9d5548860","name":"馬場新田","reading":"ババシンデン","pref":"茨城県","prefCode":"08","municipality":"常総市","hazardTypes":["slope_failure"],"evidenceLevel":0,"status":"current","disputed":false,"precision":"oaza","areaKey":"082110640","elements":["baba"],"summary":"要素辞書に一致（baba）。出典による裏づけは未確認。","zones":[],"dataset":"candidates"}},{"type":"Feature","geometry":{"type":"Point","coordinates":[140.450515,36.627376]},"properties":{"id":"08-052585c803","name":"赤土町","reading":"アカヅチチョウ","pref":"茨城県","prefCode":"08","municipality":"常陸太田市","hazardTypes":["landslide"],"evidenceLevel":0,"status":"current","disputed":false,"precision":"oaza","areaKey":"082120790","elements":["geology_names"],"summary":"要素辞書に一致（geology_names）。出典による裏づけは未確認。","zones":[],"dataset":"candidates"}},{"type":"Feature","geometry":{"type":"Point","coordinates":[140.492396,36.569478]},"properties":{"id":"08-0b733e17fd","name":"芦間町","reading":"アシマチョウ","pref":"茨城県","prefCode":"08","municipality":"常陸太田市","hazardTypes":["flood","inundation"],"evidenceLevel":0,"status":"current","disputed":false,"precision":"oaza","areaKey":"082120630","elements":["ashi"],"summary":"要素辞書に一致（ashi）。出典による裏づけは未確認。","zones":[],"dataset":"candidates"}},{"type":"Feature","geometry":{"type":"Point","coordinates":[140.531597,36.518971]},"properties":{"id":"08-5943900220","name":"磯部町","reading":"イソベチョウ","pref":"茨城県","prefCode":"08","municipality":"常陸太田市","hazardTypes":["rockfall","debris_flow"],"evidenceLevel":0,"status":"current","disputed":false,"precision":"oaza","areaKey":"082120350","elements":["iso_ishi"],"summary":"要素辞書に一致（iso_ishi）。出典による裏づけは未確認。","zones":[],"dataset":"candidates"}},{"type":"Feature","geometry":{"type":"Point","coordinates":[140.548392,36.512383]},"properties":{"id":"08-387de9bd89","name":"内田町","reading":"ウチダチョウ","pref":"茨城県","prefCode":"08","municipality":"常陸太田市","hazardTypes":["debris_flow","flood"],"evidenceLevel":0,"status":"current","disputed":false,"precision":"oaza","areaKey":null,"elements":["uchide"],"summary":"要素辞書に一致（uchide）。出典による裏づけは未確認。","zones":[],"dataset":"candidates"}},{"type":"Feature","geometry":{"type":"Point","coordinates":[140.515346,36.680014]},"properties":{"id":"08-f92319b29b","name":"大菅町","reading":"オオスゲチョウ","pref":"茨城県","prefCode":"08","municipality":"常陸太田市","hazardTypes":["landslide","soft_ground"],"evidenceLevel":0,"status":"current","disputed":false,"precision":"oaza","areaKey":"082121020","elements":["wetland_plants"],"summary":"要素辞書に一致（wetland_plants）。出典による裏づけは未確認。","zones":[],"dataset":"candidates"}},{"type":"Feature","geometry":{"type":"Point","coordinates":[140.457119,36.728961]},"properties":{"id":"08-740868eb2e","name":"上高倉町","reading":"カミタカクラチョウ","pref":"茨城県","prefCode":"08","municipality":"常陸太田市","hazardTypes":["slope_failure","rockfall"],"evidenceLevel":0,"status":"current","disputed":false,"precision":"oaza","areaKey":"082120930","elements":["kura"],"summary":"要素辞書に一致（kura）。出典による裏づけは未確認。","zones":[],"dataset":"candidates"}},{"type":"Feature","geometry":{"type":"Point","coordinates":[140.528177,36.665995]},"properties":{"id":"08-eef228c0a2","name":"上深荻町","reading":"カミフカオギチョウ","pref":"茨城県","prefCode":"08","municipality":"常陸太田市","hazardTypes":["slope_failure"],"evidenceLevel":0,"status":"current","disputed":false,"precision":"oaza","areaKey":"082121030","elements":["suki_hagu"],"summary":"要素辞書に一致（suki_hagu）。出典による裏づけは未確認。","zones":[],"dataset":"candidates"}},{"type":"Feature","geometry":{"type":"Point","coordinates":[140.516973,36.700026]},"properties":{"id":"08-460018296a","name":"小菅町","reading":"コスゲチョウ","pref":"茨城県","prefCode":"08","municipality":"常陸太田市","hazardTypes":["landslide","soft_ground"],"evidenceLevel":0,"status":"current","disputed":false,"precision":"oaza","areaKey":"082121010","elements":["wetland_plants"],"summary":"要素辞書に一致（wetland_plants）。出典による裏づけは未確認。","zones":[],"dataset":"candidates"}},{"type":"Feature","geometry":{"type":"Point","coordinates":[140.4669,36.697982]},"properties":{"id":"08-d009ea25ca","name":"下高倉町","reading":"シモタカクラチョウ","pref":"茨城県","prefCode":"08","municipality":"常陸太田市","hazardTypes":["slope_failure","rockfall"],"evidenceLevel":0,"status":"current","disputed":false,"precision":"oaza","areaKey":"082120920","elements":["kura"],"summary":"要素辞書に一致（kura）。出典による裏づけは未確認。","zones":[],"dataset":"candidates"}},{"type":"Feature","geometry":{"type":"Point","coordinates":[140.468873,36.555142]},"properties":{"id":"08-a6abfb911c","name":"高柿町","reading":"タカガキチョウ","pref":"茨城県","prefCode":"08","municipality":"常陸太田市","hazardTypes":["slope_failure"],"evidenceLevel":0,"status":"current","disputed":false,"precision":"oaza","areaKey":"082120690","elements":["kake"],"summary":"要素辞書に一致（kake）。出典による裏づけは未確認。","zones":[],"dataset":"candidates"}},{"type":"Feature","geometry":{"type":"Point","coordinates":[140.523962,36.552701]},"properties":{"id":"08-9bdaa2194b","name":"馬場町","reading":"ババチョウ","pref":"茨城県","prefCode":"08","municipality":"常陸太田市","hazardTypes":["slope_failure"],"evidenceLevel":0,"status":"current","disputed":false,"precision":"oaza","areaKey":null,"elements":["baba"],"summary":"要素辞書に一致（baba）。出典による裏づけは未確認。","zones":[],"dataset":"candidates"}},{"type":"Feature","geometry":{"type":"Point","coordinates":[140.519431,36.515791]},"properties":{"id":"08-7b7b6cd958","name":"谷河原町","reading":"ヤガワラチョウ","pref":"茨城県","prefCode":"08","municipality":"常陸太田市","hazardTypes":["flood"],"evidenceLevel":0,"status":"current","disputed":false,"precision":"oaza","areaKey":"082120360","elements":["kawara"],"summary":"要素辞書に一致（kawara）。出典による裏づけは未確認。","zones":[],"dataset":"candidates"}},{"type":"Feature","geometry":{"type":"Point","coordinates":[140.754685,36.805668]},"properties":{"id":"08-193160828d","name":"磯原町磯原","reading":"イソハラチョウイソハラ","pref":"茨城県","prefCode":"08","municipality":"北茨城市","hazardTypes":["rockfall","debris_flow"],"evidenceLevel":0,"status":"current","disputed":false,"precision":"oaza","areaKey":"08215015000","elements":["iso_ishi"],"summary":"要素辞書に一致（iso_ishi）。出典による裏づけは未確認。","zones":[],"dataset":"candidates"}},{"type":"Feature","geometry":{"type":"Point","coordinates":[140.670919,36.821109]},"properties":{"id":"08-e971cb252a","name":"磯原町内野","reading":"イソハラチョウウツノ","pref":"茨城県","prefCode":"08","municipality":"北茨城市","hazardTypes":["rockfall","debris_flow"],"evidenceLevel":0,"status":"current","disputed":false,"precision":"oaza","areaKey":"082150100","elements":["iso_ishi"],"summary":"要素辞書に一致（iso_ishi）。出典による裏づけは未確認。","zones":[],"dataset":"candidates"}},{"type":"Feature","geometry":{"type":"Point","coordinates":[140.69308,36.798168]},"properties":{"id":"08-8d2f18b959","name":"磯原町大塚","reading":"イソハラチョウオオツカ","pref":"茨城県","prefCode":"08","municipality":"北茨城市","hazardTypes":["rockfall","debris_flow"],"evidenceLevel":0,"status":"current","disputed":false,"precision":"oaza","areaKey":"082150110","elements":["iso_ishi"],"summary":"要素辞書に一致（iso_ishi）。出典による裏づけは未確認。","zones":[],"dataset":"candidates"}},{"type":"Feature","geometry":{"type":"Point","coordinates":[140.717528,36.802754]},"properties":{"id":"08-30021196ca","name":"磯原町上相田","reading":"イソハラチョウカミソウダ","pref":"茨城県","prefCode":"08","municipality":"北茨城市","hazardTypes":["rockfall","debris_flow"],"evidenceLevel":0,"status":"current","disputed":false,"precision":"oaza","areaKey":"082150130","elements":["iso_ishi"],"summary":"要素辞書に一致（iso_ishi）。出典による裏づけは未確認。","zones":[],"dataset":"candidates"}},{"type":"Feature","geometry":{"type":"Point","coordinates":[140.705794,36.806029]},"properties":{"id":"08-0af878396a","name":"磯原町木皿","reading":"イソハラチョウキサラ","pref":"茨城県","prefCode":"08","municipality":"北茨城市","hazardTypes":["rockfall","debris_flow"],"evidenceLevel":0,"status":"current","disputed":false,"precision":"oaza","areaKey":"082150120","elements":["iso_ishi"],"summary":"要素辞書に一致（iso_ishi）。出典による裏づけは未確認。","zones":[],"dataset":"candidates"}},{"type":"Feature","geometry":{"type":"Point","coordinates":[140.727985,36.796398]},"properties":{"id":"08-c7deeb5608","name":"磯原町豊田","reading":"イソハラチョウトヨダ","pref":"茨城県","prefCode":"08","municipality":"北茨城市","hazardTypes":["rockfall","debris_flow"],"evidenceLevel":0,"status":"current","disputed":false,"precision":"oaza","areaKey":"08215014000","elements":["iso_ishi"],"summary":"要素辞書に一致（iso_ishi）。出典による裏づけは未確認。","zones":[],"dataset":"candidates"}},{"type":"Feature","geometry":{"type":"Point","coordinates":[140.744304,36.787899]},"properties":{"id":"08-813f4bf688","name":"磯原町本町一丁目","reading":"イソハラチョウホンチョウ 1","pref":"茨城県","prefCode":"08","municipality":"北茨城市","hazardTypes":["rockfall","debris_flow"],"evidenceLevel":0,"status":"current","disputed":false,"precision":"oaza","areaKey":"08215016001","elements":["iso_ishi"],"summary":"要素辞書に一致（iso_ishi）。出典による裏づけは未確認。","zones":[],"dataset":"candidates"}},{"type":"Feature","geometry":{"type":"Point","coordinates":[140.736669,36.767927]},"properties":{"id":"08-3a2cc973c2","name":"中郷町足洗","reading":"ナカゴウチョウアシアライ","pref":"茨城県","prefCode":"08","municipality":"北茨城市","hazardTypes":["flood","inundation"],"evidenceLevel":0,"status":"current","disputed":false,"precision":"oaza","areaKey":"082150030","elements":["ashi"],"summary":"要素辞書に一致（ashi）。出典による裏づけは未確認。","zones":[],"dataset":"candidates"}},{"type":"Feature","geometry":{"type":"Point","coordinates":[140.693356,36.827926]},"properties":{"id":"08-2370119cbf","name":"華川町小豆畑","reading":"ハナカワチョウアズハタ","pref":"茨城県","prefCode":"08","municipality":"北茨城市","hazardTypes":["debris_flow","slope_failure"],"evidenceLevel":0,"status":"current","disputed":false,"precision":"oaza","areaKey":"082150230","elements":["azu"],"summary":"要素辞書に一致（azu）。出典による裏づけは未確認。","zones":[],"dataset":"candidates"}},{"type":"Feature","geometry":{"type":"Point","coordinates":[140.098176,35.919758]},"properties":{"id":"08-0d0482b21d","name":"小浮気","reading":"コブケ","pref":"茨城県","prefCode":"08","municipality":"取手市","hazardTypes":["soft_ground","inundation"],"evidenceLevel":0,"status":"current","disputed":false,"precision":"oaza","areaKey":"082170470","elements":["fuke"],"summary":"要素辞書に一致（fuke）。出典による裏づけは未確認。","zones":[],"dataset":"candidates"}},{"type":"Feature","geometry":{"type":"Point","coordinates":[140.127715,35.974826]},"properties":{"id":"08-bb51927074","name":"刈谷町一丁目","reading":"カリヤチョウ 1","pref":"茨城県","prefCode":"08","municipality":"牛久市","hazardTypes":["slope_failure"],"evidenceLevel":0,"status":"current","disputed":false,"precision":"oaza","areaKey":"08219024001","elements":["kake"],"summary":"要素辞書に一致（kake）。出典による裏づけは未確認。","zones":[],"dataset":"candidates"}},{"type":"Feature","geometry":{"type":"Point","coordinates":[140.143229,35.997136]},"properties":{"id":"08-5e6f17f692","name":"猪子町","reading":"シシコチョウ","pref":"茨城県","prefCode":"08","municipality":"牛久市","hazardTypes":["landslide","soft_ground"],"evidenceLevel":0,"status":"current","disputed":false,"precision":"oaza","areaKey":"082190070","elements":["shishi"],"summary":"要素辞書に一致（shishi）。出典による裏づけは未確認。","zones":[],"dataset":"candidates"}},{"type":"Feature","geometry":{"type":"Point","coordinates":[140.038812,36.072624]},"properties":{"id":"08-156e05a4b9","name":"上河原崎下河原崎入会地","reading":null,"pref":"茨城県","prefCode":"08","municipality":"つくば市","hazardTypes":["flood"],"evidenceLevel":0,"status":"current","disputed":false,"precision":"oaza","areaKey":"082200231","elements":["kawara"],"summary":"要素辞書に一致（kawara）。出典による裏づけは未確認。","zones":[],"dataset":"candidates"}},{"type":"Feature","geometry":{"type":"Point","coordinates":[140.036447,36.075704]},"properties":{"id":"08-cbdb29e95d","name":"上河原崎元宮本","reading":null,"pref":"茨城県","prefCode":"08","municipality":"つくば市","hazardTypes":["flood"],"evidenceLevel":0,"status":"current","disputed":false,"precision":"oaza","areaKey":null,"elements":["kawara"],"summary":"要素辞書に一致（kawara）。出典による裏づけは未確認。","zones":[],"dataset":"candidates"}},{"type":"Feature","geometry":{"type":"Point","coordinates":[140.05473,36.189798]},"properties":{"id":"08-9b80f00431","name":"磯部","reading":"イソベ","pref":"茨城県","prefCode":"08","municipality":"つくば市","hazardTypes":["rockfall","debris_flow"],"evidenceLevel":0,"status":"current","disputed":false,"precision":"oaza","areaKey":"082201250","elements":["iso_ishi"],"summary":"要素辞書に一致（iso_ishi）。出典による裏づけは未確認。","zones":[],"dataset":"candidates"}},{"type":"Feature","geometry":{"type":"Point","coordinates":[140.039561,36.122246]},"properties":{"id":"08-501fe147d9","name":"今鹿島","reading":"イマカシマ","pref":"茨城県","prefCode":"08","municipality":"つくば市","hazardTypes":["landslide","soft_ground"],"evidenceLevel":0,"status":"current","disputed":false,"precision":"oaza","areaKey":"082200790","elements":["shishi"],"summary":"要素辞書に一致（shishi）。出典による裏づけは未確認。","zones":[],"dataset":"candidates"}},{"type":"Feature","geometry":{"type":"Point","coordinates":[140.091882,35.986514]},"properties":{"id":"08-29c4c727a0","name":"梅ケ丘","reading":"ウメガオカ","pref":"茨城県","prefCode":"08","municipality":"つくば市","hazardTypes":["landslide","slope_failure"],"evidenceLevel":0,"status":"current","disputed":false,"precision":"oaza","areaKey":"082201970","elements":["ume"],"summary":"要素辞書に一致（ume）。出典による裏づけは未確認。","zones":[],"dataset":"candidates"}},{"type":"Feature","geometry":{"type":"Point","coordinates":[140.137532,36.061641]},"properties":{"id":"08-7164346388","name":"梅園一丁目","reading":"ウメゾノ 1","pref":"茨城県","prefCode":"08","municipality":"つくば市","hazardTypes":["landslide","slope_failure"],"evidenceLevel":0,"status":"current","disputed":false,"precision":"oaza","areaKey":"08220165001","elements":["ume"],"summary":"要素辞書に一致（ume）。出典による裏づけは未確認。","zones":[],"dataset":"candidates"}},{"type":"Feature","geometry":{"type":"Point","coordinates":[140.043234,36.149805]},"properties":{"id":"08-e1fcd34852","name":"大久保","reading":"オオクボ","pref":"茨城県","prefCode":"08","municipality":"つくば市","hazardTypes":["slope_failure","inundation","landslide"],"evidenceLevel":0,"status":"current","disputed":false,"precision":"oaza","areaKey":"082201031","elements":["afu_oo","kubo"],"summary":"要素辞書に一致（afu_oo・kubo）。出典による裏づけは未確認。","zones":[],"dataset":"candidates"}},{"type":"Feature","geometry":{"type":"Point","coordinates":[140.09792,36.133493]},"properties":{"id":"08-b2a55e913b","name":"鹿島台","reading":"カシマダイ","pref":"茨城県","prefCode":"08","municipality":"つくば市","hazardTypes":["landslide","soft_ground"],"evidenceLevel":0,"status":"current","disputed":false,"precision":"oaza","areaKey":"082200900","elements":["shishi","tai"],"summary":"要素辞書に一致（shishi・tai）。出典による裏づけは未確認。","zones":[],"dataset":"candidates"}},{"type":"Feature","geometry":{"type":"Point","coordinates":[140.090666,36.109554]},"properties":{"id":"08-de0a4c4164","name":"元猿壁","reading":null,"pref":"茨城県","prefCode":"08","municipality":"つくば市","hazardTypes":["slope_failure"],"evidenceLevel":0,"status":"current","disputed":false,"precision":"koaza","areaKey":"082200990","elements":["saru"],"summary":"要素辞書に一致（saru）。出典による裏づけは未確認。","zones":[],"dataset":"candidates"}},{"type":"Feature","geometry":{"type":"Point","coordinates":[140.03917,36.079024]},"properties":{"id":"08-0d80064b85","name":"上河原崎","reading":"カミカワラザキ","pref":"茨城県","prefCode":"08","municipality":"つくば市","hazardTypes":["flood"],"evidenceLevel":0,"status":"current","disputed":false,"precision":"oaza","areaKey":"082200232","elements":["kawara"],"summary":"要素辞書に一致（kawara）。出典による裏づけは未確認。","zones":[],"dataset":"candidates"}},{"type":"Feature","geometry":{"type":"Point","coordinates":[140.059372,36.207715]},"properties":{"id":"08-924c125b0e","name":"上菅間","reading":"カミスガマ","pref":"茨城県","prefCode":"08","municipality":"つくば市","hazardTypes":["landslide","soft_ground"],"evidenceLevel":0,"status":"current","disputed":false,"precision":"oaza","areaKey":"082201220","elements":["wetland_plants"],"summary":"要素辞書に一致（wetland_plants）。出典による裏づけは未確認。","zones":[],"dataset":"candidates"}},{"type":"Feature","geometry":{"type":"Point","coordinates":[140.129723,36.076707]},"properties":{"id":"08-38092912f9","name":"倉掛","reading":"クラカケ","pref":"茨城県","prefCode":"08","municipality":"つくば市","hazardTypes":["slope_failure","rockfall"],"evidenceLevel":0,"status":"current","disputed":false,"precision":"oaza","areaKey":"082201520","elements":["kura"],"summary":"要素辞書に一致（kura）。出典による裏づけは未確認。","zones":[],"dataset":"candidates"}},{"type":"Feature","geometry":{"type":"Point","coordinates":[140.044421,36.067378]},"properties":{"id":"08-075419ea1c","name":"下河原崎","reading":"シモカワラザキ","pref":"茨城県","prefCode":"08","municipality":"つくば市","hazardTypes":["flood"],"evidenceLevel":0,"status":"current","disputed":false,"precision":"oaza","areaKey":"082200270","elements":["kawara"],"summary":"要素辞書に一致（kawara）。出典による裏づけは未確認。","zones":[],"dataset":"candidates"}},{"type":"Feature","geometry":{"type":"Point","coordinates":[140.121829,36.009972]},"properties":{"id":"08-9c508a5eb9","name":"菅間","reading":"スガマ","pref":"茨城県","prefCode":"08","municipality":"つくば市","hazardTypes":["landslide","soft_ground"],"evidenceLevel":0,"status":"current","disputed":false,"precision":"oaza","areaKey":"082201820","elements":["wetland_plants"],"summary":"要素辞書に一致（wetland_plants）。出典による裏づけは未確認。","zones":[],"dataset":"candidates"}},{"type":"Feature","geometry":{"type":"Point","coordinates":[140.015882,36.121795]},"properties":{"id":"08-c0ae574f16","name":"田倉","reading":"タクラ","pref":"茨城県","prefCode":"08","municipality":"つくば市","hazardTypes":["slope_failure","rockfall"],"evidenceLevel":0,"status":"current","disputed":false,"precision":"oaza","areaKey":"082200860","elements":["kura"],"summary":"要素辞書に一致（kura）。出典による裏づけは未確認。","zones":[],"dataset":"candidates"}},{"type":"Feature","geometry":{"type":"Point","coordinates":[140.065554,36.198639]},"properties":{"id":"08-44a48de3c7","name":"中菅間","reading":"ナカスガマ","pref":"茨城県","prefCode":"08","municipality":"つくば市","hazardTypes":["landslide","soft_ground"],"evidenceLevel":0,"status":"current","disputed":false,"precision":"oaza","areaKey":"082201230","elements":["wetland_plants"],"summary":"要素辞書に一致（wetland_plants）。出典による裏づけは未確認。","zones":[],"dataset":"candidates"}},{"type":"Feature","geometry":{"type":"Point","coordinates":[140.522641,36.375687]},"properties":{"id":"08-8be6e3b976","name":"大字勝倉","reading":null,"pref":"茨城県","prefCode":"08","municipality":"ひたちなか市","hazardTypes":["slope_failure","rockfall"],"evidenceLevel":0,"status":"current","disputed":false,"precision":"oaza","areaKey":"082210120","elements":["kura"],"summary":"要素辞書に一致（kura）。出典による裏づけは未確認。","zones":[],"dataset":"candidates"}},{"type":"Feature","geometry":{"type":"Point","coordinates":[140.565262,36.418294]},"properties":{"id":"08-26851970a5","name":"大字足崎","reading":null,"pref":"茨城県","prefCode":"08","municipality":"ひたちなか市","hazardTypes":["flood","inundation"],"evidenceLevel":0,"status":"current","disputed":false,"precision":"oaza","areaKey":"082210240","elements":["ashi"],"summary":"要素辞書に一致（ashi）。出典による裏づけは未確認。","zones":[],"dataset":"candidates"}},{"type":"Feature","geometry":{"type":"Point","coordinates":[140.582707,36.355074]},"properties":{"id":"08-4bcac22b27","name":"獅子前","reading":null,"pref":"茨城県","prefCode":"08","municipality":"ひたちなか市","hazardTypes":["landslide","soft_ground"],"evidenceLevel":0,"status":"current","disputed":false,"precision":"oaza","areaKey":"082211000","elements":["shishi"],"summary":"要素辞書に一致（shishi）。出典による裏づけは未確認。","zones":[],"dataset":"candidates"}},{"type":"Feature","geometry":{"type":"Point","coordinates":[140.619333,36.376839]},"properties":{"id":"08-c37cd0d1d6","name":"磯崎町","reading":"イソザキチョウ","pref":"茨城県","prefCode":"08","municipality":"ひたちなか市","hazardTypes":["rockfall","debris_flow"],"evidenceLevel":0,"status":"current","disputed":false,"precision":"oaza","areaKey":"082210810","elements":["iso_ishi"],"summary":"要素辞書に一致（iso_ishi）。出典による裏づけは未確認。","zones":[],"dataset":"candidates"}},{"type":"Feature","geometry":{"type":"Point","coordinates":[140.614718,36.365101]},"properties":{"id":"08-208c508e02","name":"平磯町","reading":"ヒライソチョウ","pref":"茨城県","prefCode":"08","municipality":"ひたちなか市","hazardTypes":["rockfall","debris_flow"],"evidenceLevel":0,"status":"current","disputed":false,"precision":"oaza","areaKey":"082210800","elements":["iso_ishi"],"summary":"要素辞書に一致（iso_ishi）。出典による裏づけは未確認。","zones":[],"dataset":"candidates"}},{"type":"Feature","geometry":{"type":"Point","coordinates":[140.607702,36.36195]},"properties":{"id":"08-f0b1755dfd","name":"平磯遠原町","reading":"ヒライソトオハラチョウ","pref":"茨城県","prefCode":"08","municipality":"ひたちなか市","hazardTypes":["rockfall","debris_flow"],"evidenceLevel":0,"status":"current","disputed":false,"precision":"oaza","areaKey":"082210870","elements":["iso_ishi"],"summary":"要素辞書に一致（iso_ishi）。出典による裏づけは未確認。","zones":[],"dataset":"candidates"}},{"type":"Feature","geometry":{"type":"Point","coordinates":[140.632416,35.988592]},"properties":{"id":"08-2620cc2919","name":"大字猿田","reading":null,"pref":"茨城県","prefCode":"08","municipality":"鹿嶋市","hazardTypes":["slope_failure"],"evidenceLevel":0,"status":"current","disputed":false,"precision":"oaza","areaKey":"082220250","elements":["saru"],"summary":"要素辞書に一致（saru）。出典による裏づけは未確認。","zones":[],"dataset":"candidates"}},{"type":"Feature","geometry":{"type":"Point","coordinates":[140.423325,36.565036]},"properties":{"id":"08-a3c1bf8074","name":"小倉","reading":"オグラ","pref":"茨城県","prefCode":"08","municipality":"常陸大宮市","hazardTypes":["slope_failure","rockfall"],"evidenceLevel":0,"status":"current","disputed":false,"precision":"oaza","areaKey":"082250290","elements":["kura"],"summary":"要素辞書に一致（kura）。出典による裏づけは未確認。","zones":[],"dataset":"candidates"}},{"type":"Feature","geometry":{"type":"Point","coordinates":[140.279675,36.571393]},"properties":{"id":"08-bfbd593eaf","name":"長倉","reading":"ナガクラ","pref":"茨城県","prefCode":"08","municipality":"常陸大宮市","hazardTypes":["slope_failure","rockfall"],"evidenceLevel":0,"status":"current","disputed":false,"precision":"oaza","areaKey":"082250730","elements":["kura"],"summary":"要素辞書に一致（kura）。出典による裏づけは未確認。","zones":[],"dataset":"candidates"}},{"type":"Feature","geometry":{"type":"Point","coordinates":[140.464667,36.492352]},"properties":{"id":"08-aca88d21ab","name":"鹿島","reading":"カシマ","pref":"茨城県","prefCode":"08","municipality":"那珂市","hazardTypes":["landslide","soft_ground"],"evidenceLevel":0,"status":"current","disputed":false,"precision":"oaza","areaKey":"082260180","elements":["shishi"],"summary":"要素辞書に一致（shishi）。出典による裏づけは未確認。","zones":[],"dataset":"candidates"}},{"type":"Feature","geometry":{"type":"Point","coordinates":[140.49229,36.449025]},"properties":{"id":"08-549fb20a65","name":"菅谷","reading":"スガヤ","pref":"茨城県","prefCode":"08","municipality":"那珂市","hazardTypes":["landslide","soft_ground"],"evidenceLevel":0,"status":"current","disputed":false,"precision":"oaza","areaKey":null,"elements":["wetland_plants"],"summary":"要素辞書に一致（wetland_plants）。出典による裏づけは未確認。","zones":[],"dataset":"candidates"}},{"type":"Feature","geometry":{"type":"Point","coordinates":[140.493723,36.455652]},"properties":{"id":"08-2dfb34fc6f","name":"字上菅谷","reading":null,"pref":"茨城県","prefCode":"08","municipality":"那珂市","hazardTypes":["landslide","soft_ground"],"evidenceLevel":0,"status":"current","disputed":false,"precision":"koaza","areaKey":null,"elements":["wetland_plants"],"summary":"要素辞書に一致（wetland_plants）。出典による裏づけは未確認。","zones":[],"dataset":"candidates"}},{"type":"Feature","geometry":{"type":"Point","coordinates":[140.461599,36.419249]},"properties":{"id":"08-67033dd8bb","name":"西木倉","reading":"ニシキノクラ","pref":"茨城県","prefCode":"08","municipality":"那珂市","hazardTypes":["slope_failure","rockfall"],"evidenceLevel":0,"status":"current","disputed":false,"precision":"oaza","areaKey":"082260050","elements":["kura"],"summary":"要素辞書に一致（kura）。出典による裏づけは未確認。","zones":[],"dataset":"candidates"}},{"type":"Feature","geometry":{"type":"Point","coordinates":[140.469971,36.415699]},"properties":{"id":"08-fd5dff1a02","name":"東木倉","reading":"ヒガシキノクラ","pref":"茨城県","prefCode":"08","municipality":"那珂市","hazardTypes":["slope_failure","rockfall"],"evidenceLevel":0,"status":"current","disputed":false,"precision":"oaza","areaKey":"082260060","elements":["kura"],"summary":"要素辞書に一致（kura）。出典による裏づけは未確認。","zones":[],"dataset":"candidates"}},{"type":"Feature","geometry":{"type":"Point","coordinates":[139.971006,36.32216]},"properties":{"id":"08-9a35e993a0","name":"岡芹","reading":"オカゼリ","pref":"茨城県","prefCode":"08","municipality":"筑西市","hazardTypes":["landslide","soft_ground"],"evidenceLevel":0,"status":"current","disputed":false,"precision":"oaza","areaKey":"08227026000","elements":["wetland_plants"],"summary":"要素辞書に一致（wetland_plants）。出典による裏づけは未確認。","zones":[],"dataset":"candidates"}},{"type":"Feature","geometry":{"type":"Point","coordinates":[140.034991,36.236039]},"properties":{"id":"08-db63ed170a","name":"倉持","reading":"クラモチ","pref":"茨城県","prefCode":"08","municipality":"筑西市","hazardTypes":["slope_failure","rockfall"],"evidenceLevel":0,"status":"current","disputed":false,"precision":"oaza","areaKey":"082271320","elements":["kura"],"summary":"要素辞書に一致（kura）。出典による裏づけは未確認。","zones":[],"dataset":"candidates"}},{"type":"Feature","geometry":{"type":"Point","coordinates":[139.968156,36.30508]},"properties":{"id":"08-9dbeb5ab69","name":"菅谷","reading":"スガヤ","pref":"茨城県","prefCode":"08","municipality":"筑西市","hazardTypes":["landslide","soft_ground"],"evidenceLevel":0,"status":"current","disputed":false,"precision":"oaza","areaKey":"082270230","elements":["wetland_plants"],"summary":"要素辞書に一致（wetland_plants）。出典による裏づけは未確認。","zones":[],"dataset":"candidates"}},{"type":"Feature","geometry":{"type":"Point","coordinates":[139.850849,36.113845]},"properties":{"id":"08-f2943b8271","name":"菅谷","reading":"スガヤ","pref":"茨城県","prefCode":"08","municipality":"坂東市","hazardTypes":["landslide","soft_ground"],"evidenceLevel":0,"status":"current","disputed":false,"precision":"oaza","areaKey":null,"elements":["wetland_plants"],"summary":"要素辞書に一致（wetland_plants）。出典による裏づけは未確認。","zones":[],"dataset":"candidates"}},{"type":"Feature","geometry":{"type":"Point","coordinates":[140.276817,35.962291]},"properties":{"id":"08-cf64cc2763","name":"蒲ケ山","reading":"カマガヤマ","pref":"茨城県","prefCode":"08","municipality":"稲敷市","hazardTypes":["landslide","soft_ground"],"evidenceLevel":0,"status":"current","disputed":false,"precision":"oaza","areaKey":"082290120","elements":["wetland_plants"],"summary":"要素辞書に一致（wetland_plants）。出典による裏づけは未確認。","zones":[],"dataset":"candidates"}},{"type":"Feature","geometry":{"type":"Point","coordinates":[140.326586,35.984822]},"properties":{"id":"08-71484d6c06","name":"佐倉","reading":"サクラ","pref":"茨城県","prefCode":"08","municipality":"稲敷市","hazardTypes":["slope_failure","rockfall"],"evidenceLevel":0,"status":"current","disputed":false,"precision":"oaza","areaKey":"082290150","elements":["kura"],"summary":"要素辞書に一致（kura）。出典による裏づけは未確認。","zones":[],"dataset":"candidates"}},{"type":"Feature","geometry":{"type":"Point","coordinates":[140.294717,36.119966]},"properties":{"id":"08-b44b696ec1","name":"宍倉","reading":"シシクラ","pref":"茨城県","prefCode":"08","municipality":"かすみがうら市","hazardTypes":["slope_failure","rockfall","landslide","soft_ground"],"evidenceLevel":0,"status":"current","disputed":false,"precision":"oaza","areaKey":"082300440","elements":["kura","shishi"],"summary":"要素辞書に一致（kura・shishi）。出典による裏づけは未確認。","zones":[],"dataset":"candidates"}},{"type":"Feature","geometry":{"type":"Point","coordinates":[140.221894,36.202]},"properties":{"id":"08-2cb61e0889","name":"高倉","reading":"タカクラ","pref":"茨城県","prefCode":"08","municipality":"かすみがうら市","hazardTypes":["slope_failure","rockfall"],"evidenceLevel":0,"status":"current","disputed":false,"precision":"oaza","areaKey":"082300010","elements":["kura"],"summary":"要素辞書に一致（kura）。出典による裏づけは未確認。","zones":[],"dataset":"candidates"}},{"type":"Feature","geometry":{"type":"Point","coordinates":[140.085229,36.348354]},"properties":{"id":"08-15837a76d0","name":"青木","reading":"アオキ","pref":"茨城県","prefCode":"08","municipality":"桜川市","hazardTypes":["slope_failure"],"evidenceLevel":0,"status":"current","disputed":false,"precision":"oaza","areaKey":"082310760","elements":["afu_oo"],"summary":"要素辞書に一致（afu_oo）。出典による裏づけは未確認。","zones":[],"dataset":"candidates"}},{"type":"Feature","geometry":{"type":"Point","coordinates":[140.137651,36.367029]},"properties":{"id":"08-07edec98c1","name":"磯部","reading":"イソベ","pref":"茨城県","prefCode":"08","municipality":"桜川市","hazardTypes":["rockfall","debris_flow"],"evidenceLevel":0,"status":"current","disputed":false,"precision":"oaza","areaKey":"082310130","elements":["iso_ishi"],"summary":"要素辞書に一致（iso_ishi）。出典による裏づけは未確認。","zones":[],"dataset":"candidates"}},{"type":"Feature","geometry":{"type":"Point","coordinates":[140.146896,36.32423]},"properties":{"id":"08-133e743694","name":"猿田","reading":"サルダ","pref":"茨城県","prefCode":"08","municipality":"桜川市","hazardTypes":["slope_failure"],"evidenceLevel":0,"status":"current","disputed":false,"precision":"oaza","areaKey":"082310060","elements":["saru"],"summary":"要素辞書に一致（saru）。出典による裏づけは未確認。","zones":[],"dataset":"candidates"}},{"type":"Feature","geometry":{"type":"Point","coordinates":[140.529096,36.033533]},"properties":{"id":"08-6f6c475beb","name":"蔵川","reading":"クラカワ","pref":"茨城県","prefCode":"08","municipality":"行方市","hazardTypes":["slope_failure","rockfall"],"evidenceLevel":0,"status":"current","disputed":false,"precision":"oaza","areaKey":"082330070","elements":["kura"],"summary":"要素辞書に一致（kura）。出典による裏づけは未確認。","zones":[],"dataset":"candidates"}},{"type":"Feature","geometry":{"type":"Point","coordinates":[140.502129,36.040909]},"properties":{"id":"08-daba6371bf","name":"四鹿","reading":"シロク","pref":"茨城県","prefCode":"08","municipality":"行方市","hazardTypes":["landslide","soft_ground"],"evidenceLevel":0,"status":"current","disputed":false,"precision":"oaza","areaKey":"082330120","elements":["shishi"],"summary":"要素辞書に一致（shishi）。出典による裏づけは未確認。","zones":[],"dataset":"candidates"}},{"type":"Feature","geometry":{"type":"Point","coordinates":[140.438399,36.145625]},"properties":{"id":"08-f95585febb","name":"芹沢","reading":"セリザワ","pref":"茨城県","prefCode":"08","municipality":"行方市","hazardTypes":["landslide","soft_ground"],"evidenceLevel":0,"status":"current","disputed":false,"precision":"oaza","areaKey":"082330550","elements":["wetland_plants"],"summary":"要素辞書に一致（wetland_plants）。出典による裏づけは未確認。","zones":[],"dataset":"candidates"}},{"type":"Feature","geometry":{"type":"Point","coordinates":[140.563009,36.093876]},"properties":{"id":"08-3d936ee43d","name":"大蔵","reading":"オオクラ","pref":"茨城県","prefCode":"08","municipality":"鉾田市","hazardTypes":["slope_failure","rockfall"],"evidenceLevel":0,"status":"current","disputed":false,"precision":"oaza","areaKey":null,"elements":["kura"],"summary":"要素辞書に一致（kura）。出典による裏づけは未確認。","zones":[],"dataset":"candidates"}},{"type":"Feature","geometry":{"type":"Point","coordinates":[140.498703,36.229077]},"properties":{"id":"08-e62e5b1c3d","name":"鹿田","reading":"シカダ","pref":"茨城県","prefCode":"08","municipality":"鉾田市","hazardTypes":["landslide","soft_ground"],"evidenceLevel":0,"status":"current","disputed":false,"precision":"oaza","areaKey":null,"elements":["shishi"],"summary":"要素辞書に一致（shishi）。出典による裏づけは未確認。","zones":[],"dataset":"candidates"}},{"type":"Feature","geometry":{"type":"Point","coordinates":[140.452091,36.219585]},"properties":{"id":"08-7f69beb5d8","name":"菅野谷","reading":"スゲノヤ","pref":"茨城県","prefCode":"08","municipality":"鉾田市","hazardTypes":["landslide","soft_ground"],"evidenceLevel":0,"status":"current","disputed":false,"precision":"oaza","areaKey":null,"elements":["wetland_plants"],"summary":"要素辞書に一致（wetland_plants）。出典による裏づけは未確認。","zones":[],"dataset":"candidates"}},{"type":"Feature","geometry":{"type":"Point","coordinates":[140.011609,35.963058]},"properties":{"id":"08-003dc8641b","name":"青木","reading":"アオキ","pref":"茨城県","prefCode":"08","municipality":"つくばみらい市","hazardTypes":["slope_failure"],"evidenceLevel":0,"status":"current","disputed":false,"precision":"oaza","areaKey":null,"elements":["afu_oo"],"summary":"要素辞書に一致（afu_oo）。出典による裏づけは未確認。","zones":[],"dataset":"candidates"}},{"type":"Feature","geometry":{"type":"Point","coordinates":[140.087803,35.952762]},"properties":{"id":"08-f7c7ff8fcb","name":"足高","reading":"アダカ","pref":"茨城県","prefCode":"08","municipality":"つくばみらい市","hazardTypes":["flood","inundation"],"evidenceLevel":0,"status":"current","disputed":false,"precision":"oaza","areaKey":null,"elements":["ashi"],"summary":"要素辞書に一致（ashi）。出典による裏づけは未確認。","zones":[],"dataset":"candidates"}},{"type":"Feature","geometry":{"type":"Point","coordinates":[140.016255,35.988712]},"properties":{"id":"08-5f626337db","name":"古川","reading":"フルカワ","pref":"茨城県","prefCode":"08","municipality":"つくばみらい市","hazardTypes":["flood","inundation"],"evidenceLevel":0,"status":"current","disputed":false,"precision":"oaza","areaKey":null,"elements":["furukawa"],"summary":"要素辞書に一致（furukawa）。出典による裏づけは未確認。","zones":[],"dataset":"candidates"}},{"type":"Feature","geometry":{"type":"Point","coordinates":[140.349872,36.236288]},"properties":{"id":"08-1c1d5f768a","name":"堅倉","reading":"カタクラ","pref":"茨城県","prefCode":"08","municipality":"小美玉市","hazardTypes":["slope_failure","rockfall"],"evidenceLevel":0,"status":"current","disputed":false,"precision":"oaza","areaKey":null,"elements":["kura"],"summary":"要素辞書に一致（kura）。出典による裏づけは未確認。","zones":[],"dataset":"candidates"}},{"type":"Feature","geometry":{"type":"Point","coordinates":[140.338927,36.198645]},"properties":{"id":"08-bbb92795cc","name":"上馬場","reading":"カミババ","pref":"茨城県","prefCode":"08","municipality":"小美玉市","hazardTypes":["slope_failure"],"evidenceLevel":0,"status":"current","disputed":false,"precision":"oaza","areaKey":null,"elements":["baba"],"summary":"要素辞書に一致（baba）。出典による裏づけは未確認。","zones":[],"dataset":"candidates"}},{"type":"Feature","geometry":{"type":"Point","coordinates":[140.414151,36.151186]},"properties":{"id":"08-b409a18f54","name":"倉数","reading":"クラカズ","pref":"茨城県","prefCode":"08","municipality":"小美玉市","hazardTypes":["slope_failure","rockfall"],"evidenceLevel":0,"status":"current","disputed":false,"precision":"oaza","areaKey":null,"elements":["kura"],"summary":"要素辞書に一致（kura）。出典による裏づけは未確認。","zones":[],"dataset":"candidates"}},{"type":"Feature","geometry":{"type":"Point","coordinates":[140.361848,36.159178]},"properties":{"id":"08-6ac569b7b1","name":"下馬場","reading":"シモババ","pref":"茨城県","prefCode":"08","municipality":"小美玉市","hazardTypes":["slope_failure"],"evidenceLevel":0,"status":"current","disputed":false,"precision":"oaza","areaKey":null,"elements":["baba"],"summary":"要素辞書に一致（baba）。出典による裏づけは未確認。","zones":[],"dataset":"candidates"}},{"type":"Feature","geometry":{"type":"Point","coordinates":[140.301767,36.256716]},"properties":{"id":"08-0b9e21a912","name":"羽刈","reading":"ハカリ","pref":"茨城県","prefCode":"08","municipality":"小美玉市","hazardTypes":["slope_failure"],"evidenceLevel":0,"status":"current","disputed":false,"precision":"oaza","areaKey":null,"elements":["kake"],"summary":"要素辞書に一致（kake）。出典による裏づけは未確認。","zones":[],"dataset":"candidates"}},{"type":"Feature","geometry":{"type":"Point","coordinates":[140.59018,36.321332]},"properties":{"id":"08-fc31c77f96","name":"磯浜町","reading":"イソハマチョウ","pref":"茨城県","prefCode":"08","municipality":"東茨城郡大洗町","hazardTypes":["rockfall","debris_flow"],"evidenceLevel":0,"status":"current","disputed":false,"precision":"oaza","areaKey":null,"elements":["iso_ishi"],"summary":"要素辞書に一致（iso_ishi）。出典による裏づけは未確認。","zones":[],"dataset":"candidates"}},{"type":"Feature","geometry":{"type":"Point","coordinates":[140.580349,36.322669]},"properties":{"id":"08-306c0924d4","name":"磯道","reading":"イソミチ","pref":"茨城県","prefCode":"08","municipality":"東茨城郡大洗町","hazardTypes":["rockfall","debris_flow"],"evidenceLevel":0,"status":"current","disputed":false,"precision":"oaza","areaKey":null,"elements":["iso_ishi"],"summary":"要素辞書に一致（iso_ishi）。出典による裏づけは未確認。","zones":[],"dataset":"candidates"}},{"type":"Feature","geometry":{"type":"Point","coordinates":[140.247316,36.460288]},"properties":{"id":"08-dd645cfb37","name":"大字徳蔵","reading":null,"pref":"茨城県","prefCode":"08","municipality":"東茨城郡城里町","hazardTypes":["slope_failure","rockfall"],"evidenceLevel":0,"status":"current","disputed":false,"precision":"oaza","areaKey":null,"elements":["kura"],"summary":"要素辞書に一致（kura）。出典による裏づけは未確認。","zones":[],"dataset":"candidates"}},{"type":"Feature","geometry":{"type":"Point","coordinates":[140.362696,36.449335]},"properties":{"id":"08-c50679a732","name":"大字磯野","reading":null,"pref":"茨城県","prefCode":"08","municipality":"東茨城郡城里町","hazardTypes":["rockfall","debris_flow"],"evidenceLevel":0,"status":"current","disputed":false,"precision":"oaza","areaKey":null,"elements":["iso_ishi"],"summary":"要素辞書に一致（iso_ishi）。出典による裏づけは未確認。","zones":[],"dataset":"candidates"}},{"type":"Feature","geometry":{"type":"Point","coordinates":[140.363184,36.868371]},"properties":{"id":"08-713dfa042b","name":"大字北吉沢","reading":null,"pref":"茨城県","prefCode":"08","municipality":"久慈郡大子町","hazardTypes":["landslide","soft_ground"],"evidenceLevel":0,"status":"current","disputed":false,"precision":"oaza","areaKey":null,"elements":["wetland_plants"],"summary":"要素辞書に一致（wetland_plants）。出典による裏づけは未確認。","zones":[],"dataset":"candidates"}},{"type":"Feature","geometry":{"type":"Point","coordinates":[140.304022,36.796335]},"properties":{"id":"08-d416702ee6","name":"大字芦野倉","reading":null,"pref":"茨城県","prefCode":"08","municipality":"久慈郡大子町","hazardTypes":["slope_failure","rockfall","flood","inundation"],"evidenceLevel":0,"status":"current","disputed":false,"precision":"oaza","areaKey":null,"elements":["kura","ashi"],"summary":"要素辞書に一致（kura・ashi）。出典による裏づけは未確認。","zones":[],"dataset":"candidates"}},{"type":"Feature","geometry":{"type":"Point","coordinates":[140.249159,35.994174]},"properties":{"id":"08-198d3147d9","name":"大字飯倉","reading":null,"pref":"茨城県","prefCode":"08","municipality":"稲敷郡阿見町","hazardTypes":["slope_failure","rockfall"],"evidenceLevel":0,"status":"current","disputed":false,"precision":"oaza","areaKey":null,"elements":["kura"],"summary":"要素辞書に一致（kura）。出典による裏づけは未確認。","zones":[],"dataset":"candidates"}},{"type":"Feature","geometry":{"type":"Point","coordinates":[140.258607,35.895425]},"properties":{"id":"08-1c7dd1e71c","name":"古河林","reading":"コガバヤシ","pref":"茨城県","prefCode":"08","municipality":"稲敷郡河内町","hazardTypes":["flood","inundation"],"evidenceLevel":0,"status":"current","disputed":false,"precision":"oaza","areaKey":null,"elements":["furukawa"],"summary":"要素辞書に一致（furukawa）。出典による裏づけは未確認。","zones":[],"dataset":"candidates"}},{"type":"Feature","geometry":{"type":"Point","coordinates":[140.248912,35.866542]},"properties":{"id":"08-2e54da3a1c","name":"猿島","reading":"サシマ","pref":"茨城県","prefCode":"08","municipality":"稲敷郡河内町","hazardTypes":["slope_failure"],"evidenceLevel":0,"status":"current","disputed":false,"precision":"oaza","areaKey":null,"elements":["saru"],"summary":"要素辞書に一致（saru）。出典による裏づけは未確認。","zones":[],"dataset":"candidates"}},{"type":"Feature","geometry":{"type":"Point","coordinates":[139.88572,36.163299]},"properties":{"id":"08-83fa99e19a","name":"大字磯","reading":null,"pref":"茨城県","prefCode":"08","municipality":"結城郡八千代町","hazardTypes":["rockfall","debris_flow"],"evidenceLevel":0,"status":"current","disputed":false,"precision":"oaza","areaKey":null,"elements":["iso_ishi"],"summary":"要素辞書に一致（iso_ishi）。出典による裏づけは未確認。","zones":[],"dataset":"candidates"}},{"type":"Feature","geometry":{"type":"Point","coordinates":[139.892432,36.141689]},"properties":{"id":"08-416977d4b7","name":"大字芦ケ谷","reading":null,"pref":"茨城県","prefCode":"08","municipality":"結城郡八千代町","hazardTypes":["flood","inundation"],"evidenceLevel":0,"status":"current","disputed":false,"precision":"oaza","areaKey":null,"elements":["ashi"],"summary":"要素辞書に一致（ashi）。出典による裏づけは未確認。","zones":[],"dataset":"candidates"}},{"type":"Feature","geometry":{"type":"Point","coordinates":[139.883981,36.138623]},"properties":{"id":"08-deb61525cb","name":"大字芦ケ谷新田","reading":null,"pref":"茨城県","prefCode":"08","municipality":"結城郡八千代町","hazardTypes":["flood","inundation"],"evidenceLevel":0,"status":"current","disputed":false,"precision":"oaza","areaKey":null,"elements":["ashi"],"summary":"要素辞書に一致（ashi）。出典による裏づけは未確認。","zones":[],"dataset":"candidates"}},{"type":"Feature","geometry":{"type":"Point","coordinates":[139.881462,36.187741]},"properties":{"id":"08-bb14fa9346","name":"大字菅谷","reading":null,"pref":"茨城県","prefCode":"08","municipality":"結城郡八千代町","hazardTypes":["landslide","soft_ground"],"evidenceLevel":0,"status":"current","disputed":false,"precision":"oaza","areaKey":null,"elements":["wetland_plants"],"summary":"要素辞書に一致（wetland_plants）。出典による裏づけは未確認。","zones":[],"dataset":"candidates"}},{"type":"Feature","geometry":{"type":"Point","coordinates":[139.802469,36.140758]},"properties":{"id":"08-f92f801919","name":"大字猿山","reading":null,"pref":"茨城県","prefCode":"08","municipality":"猿島郡境町","hazardTypes":["slope_failure"],"evidenceLevel":0,"status":"current","disputed":false,"precision":"oaza","areaKey":null,"elements":["saru"],"summary":"要素辞書に一致（saru）。出典による裏づけは未確認。","zones":[],"dataset":"candidates"}},{"type":"Feature","geometry":{"type":"Point","coordinates":[139.812875,36.12993]},"properties":{"id":"08-3b3bae9a69","name":"大字蛇池","reading":null,"pref":"茨城県","prefCode":"08","municipality":"猿島郡境町","hazardTypes":["slope_failure","debris_flow"],"evidenceLevel":0,"status":"current","disputed":false,"precision":"oaza","areaKey":null,"elements":["ja"],"summary":"要素辞書に一致（ja）。出典による裏づけは未確認。","zones":[],"dataset":"candidates"}}]}
