{"type":"FeatureCollection","features":[{"type":"Feature","geometry":{"type":"Point","coordinates":[139.093023,36.361889]},"properties":{"id":"10-6d6ad56193","name":"朝倉町","reading":"アサクラマチ","pref":"群馬県","prefCode":"10","municipality":"前橋市","hazardTypes":["slope_failure","rockfall"],"evidenceLevel":0,"status":"current","disputed":false,"precision":"oaza","areaKey":"10201063000","elements":["kura"],"summary":"要素辞書に一致（kura）。出典による裏づけは未確認。","zones":[],"dataset":"candidates"}},{"type":"Feature","geometry":{"type":"Point","coordinates":[139.081867,36.372891]},"properties":{"id":"10-39f33bb114","name":"天川原町一丁目","reading":"アマガワバラマチ 1","pref":"群馬県","prefCode":"10","municipality":"前橋市","hazardTypes":["flood"],"evidenceLevel":0,"status":"current","disputed":false,"precision":"oaza","areaKey":"10201219001","elements":["kawara"],"summary":"要素辞書に一致（kawara）。出典による裏づけは未確認。","zones":[],"dataset":"candidates"}},{"type":"Feature","geometry":{"type":"Point","coordinates":[139.05203,36.385477]},"properties":{"id":"10-1c30e991e5","name":"石倉町","reading":"イシクラマチ","pref":"群馬県","prefCode":"10","municipality":"前橋市","hazardTypes":["slope_failure","rockfall"],"evidenceLevel":0,"status":"current","disputed":false,"precision":"oaza","areaKey":"10201145000","elements":["kura"],"summary":"要素辞書に一致（kura）。出典による裏づけは未確認。","zones":[],"dataset":"candidates"}},{"type":"Feature","geometry":{"type":"Point","coordinates":[139.128653,36.421848]},"properties":{"id":"10-9887b93e0c","name":"荻窪町","reading":"オギクボマチ","pref":"群馬県","prefCode":"10","municipality":"前橋市","hazardTypes":["slope_failure","inundation","landslide"],"evidenceLevel":0,"status":"current","disputed":false,"precision":"oaza","areaKey":"102011140","elements":["suki_hagu","kubo"],"summary":"要素辞書に一致（suki_hagu・kubo）。出典による裏づけは未確認。","zones":[],"dataset":"candidates"}},{"type":"Feature","geometry":{"type":"Point","coordinates":[139.151764,36.483227]},"properties":{"id":"10-42f57ca406","name":"柏倉町","reading":"カシワグラマチ","pref":"群馬県","prefCode":"10","municipality":"前橋市","hazardTypes":["slope_failure","rockfall"],"evidenceLevel":0,"status":"current","disputed":false,"precision":"oaza","areaKey":"102012310","elements":["kura"],"summary":"要素辞書に一致（kura）。出典による裏づけは未確認。","zones":[],"dataset":"candidates"}},{"type":"Feature","geometry":{"type":"Point","coordinates":[139.120357,36.376108]},"properties":{"id":"10-f60e51eea7","name":"上長磯町","reading":"カミナガイソマチ","pref":"群馬県","prefCode":"10","municipality":"前橋市","hazardTypes":["rockfall","debris_flow"],"evidenceLevel":0,"status":"current","disputed":false,"precision":"oaza","areaKey":"102011940","elements":["iso_ishi"],"summary":"要素辞書に一致（iso_ishi）。出典による裏づけは未確認。","zones":[],"dataset":"candidates"}},{"type":"Feature","geometry":{"type":"Point","coordinates":[139.035657,36.427598]},"properties":{"id":"10-590e8b047e","name":"川原町","reading":"カワハラマチ","pref":"群馬県","prefCode":"10","municipality":"前橋市","hazardTypes":["flood"],"evidenceLevel":0,"status":"current","disputed":false,"precision":"oaza","areaKey":"10201181000","elements":["kawara"],"summary":"要素辞書に一致（kawara）。出典による裏づけは未確認。","zones":[],"dataset":"candidates"}},{"type":"Feature","geometry":{"type":"Point","coordinates":[139.166032,36.427674]},"properties":{"id":"10-3fc4e868ff","name":"河原浜町","reading":"カワラハママチ","pref":"群馬県","prefCode":"10","municipality":"前橋市","hazardTypes":["flood"],"evidenceLevel":0,"status":"current","disputed":false,"precision":"oaza","areaKey":"102012270","elements":["kawara"],"summary":"要素辞書に一致（kawara）。出典による裏づけは未確認。","zones":[],"dataset":"candidates"}},{"type":"Feature","geometry":{"type":"Point","coordinates":[139.05684,36.380499]},"properties":{"id":"10-1e12ca5c97","name":"下石倉町","reading":"シモイシクラマチ","pref":"群馬県","prefCode":"10","municipality":"前橋市","hazardTypes":["slope_failure","rockfall"],"evidenceLevel":0,"status":"current","disputed":false,"precision":"oaza","areaKey":"102011510","elements":["kura"],"summary":"要素辞書に一致（kura）。出典による裏づけは未確認。","zones":[],"dataset":"candidates"}},{"type":"Feature","geometry":{"type":"Point","coordinates":[139.128951,36.367874]},"properties":{"id":"10-c5eda37012","name":"下長磯町","reading":"シモナガイソマチ","pref":"群馬県","prefCode":"10","municipality":"前橋市","hazardTypes":["rockfall","debris_flow"],"evidenceLevel":0,"status":"current","disputed":false,"precision":"oaza","areaKey":"102011970","elements":["iso_ishi"],"summary":"要素辞書に一致（iso_ishi）。出典による裏づけは未確認。","zones":[],"dataset":"candidates"}},{"type":"Feature","geometry":{"type":"Point","coordinates":[139.199198,36.437207]},"properties":{"id":"10-506697a652","name":"馬場町","reading":"ババマチ","pref":"群馬県","prefCode":"10","municipality":"前橋市","hazardTypes":["slope_failure"],"evidenceLevel":0,"status":"current","disputed":false,"precision":"oaza","areaKey":"102012350","elements":["baba"],"summary":"要素辞書に一致（baba）。出典による裏づけは未確認。","zones":[],"dataset":"candidates"}},{"type":"Feature","geometry":{"type":"Point","coordinates":[139.071933,36.423471]},"properties":{"id":"10-442931f28a","name":"龍蔵寺町","reading":"リュウゾウジマチ","pref":"群馬県","prefCode":"10","municipality":"前橋市","hazardTypes":["slope_failure","rockfall"],"evidenceLevel":0,"status":"current","disputed":false,"precision":"oaza","areaKey":"102011720","elements":["kura"],"summary":"要素辞書に一致（kura）。出典による裏づけは未確認。","zones":[],"dataset":"candidates"}},{"type":"Feature","geometry":{"type":"Point","coordinates":[138.991526,36.398324]},"properties":{"id":"10-6b4588c9c3","name":"足門町","reading":"アシカドマチ","pref":"群馬県","prefCode":"10","municipality":"高崎市","hazardTypes":["flood","inundation"],"evidenceLevel":0,"status":"current","disputed":false,"precision":"oaza","areaKey":"102026860","elements":["ashi"],"summary":"要素辞書に一致（ashi）。出典による裏づけは未確認。","zones":[],"dataset":"candidates"}},{"type":"Feature","geometry":{"type":"Point","coordinates":[139.005816,36.322164]},"properties":{"id":"10-32822d4634","name":"鍛冶町","reading":"カジチョウ","pref":"群馬県","prefCode":"10","municipality":"高崎市","hazardTypes":["slope_failure"],"evidenceLevel":0,"status":"current","disputed":false,"precision":"oaza","areaKey":"102021170","elements":["kaji_kamu"],"summary":"要素辞書に一致（kaji_kamu）。出典による裏づけは未確認。","zones":[],"dataset":"candidates"}},{"type":"Feature","geometry":{"type":"Point","coordinates":[139.007264,36.33013]},"properties":{"id":"10-0d8317baa2","name":"九蔵町","reading":"クゾウマチ","pref":"群馬県","prefCode":"10","municipality":"高崎市","hazardTypes":["slope_failure","rockfall"],"evidenceLevel":0,"status":"current","disputed":false,"precision":"oaza","areaKey":"102021230","elements":["kura"],"summary":"要素辞書に一致（kura）。出典による裏づけは未確認。","zones":[],"dataset":"candidates"}},{"type":"Feature","geometry":{"type":"Point","coordinates":[139.057706,36.298168]},"properties":{"id":"10-dac379463e","name":"倉賀野町","reading":"クラガノマチ","pref":"群馬県","prefCode":"10","municipality":"高崎市","hazardTypes":["slope_failure","rockfall"],"evidenceLevel":0,"status":"current","disputed":false,"precision":"oaza","areaKey":"10202600001","elements":["kura"],"summary":"要素辞書に一致（kura）。出典による裏づけは未確認。","zones":[],"dataset":"candidates"}},{"type":"Feature","geometry":{"type":"Point","coordinates":[138.752649,36.425641]},"properties":{"id":"10-b68ea4ffcc","name":"倉渕町岩氷","reading":"クラブチマチイワコオリ","pref":"群馬県","prefCode":"10","municipality":"高崎市","hazardTypes":["slope_failure","rockfall"],"evidenceLevel":0,"status":"current","disputed":false,"precision":"oaza","areaKey":"102026600","elements":["kura"],"summary":"要素辞書に一致（kura）。出典による裏づけは未確認。","zones":[],"dataset":"candidates"}},{"type":"Feature","geometry":{"type":"Point","coordinates":[138.710299,36.44473]},"properties":{"id":"10-3c024831bd","name":"倉渕町川浦","reading":"クラブチマチカワウラ","pref":"群馬県","prefCode":"10","municipality":"高崎市","hazardTypes":["slope_failure","rockfall"],"evidenceLevel":0,"status":"current","disputed":false,"precision":"oaza","areaKey":"102026620","elements":["kura"],"summary":"要素辞書に一致（kura）。出典による裏づけは未確認。","zones":[],"dataset":"candidates"}},{"type":"Feature","geometry":{"type":"Point","coordinates":[138.801436,36.453253]},"properties":{"id":"10-c845dbb7de","name":"倉渕町権田","reading":"クラブチマチゴンダ","pref":"群馬県","prefCode":"10","municipality":"高崎市","hazardTypes":["slope_failure","rockfall"],"evidenceLevel":0,"status":"current","disputed":false,"precision":"oaza","areaKey":"102026590","elements":["kura"],"summary":"要素辞書に一致（kura）。出典による裏づけは未確認。","zones":[],"dataset":"candidates"}},{"type":"Feature","geometry":{"type":"Point","coordinates":[138.808603,36.420165]},"properties":{"id":"10-d83482532a","name":"倉渕町三ノ倉","reading":"クラブチマチサンノクラ","pref":"群馬県","prefCode":"10","municipality":"高崎市","hazardTypes":["slope_failure","rockfall"],"evidenceLevel":0,"status":"current","disputed":false,"precision":"oaza","areaKey":"102026560","elements":["kura"],"summary":"要素辞書に一致（kura）。出典による裏づけは未確認。","zones":[],"dataset":"candidates"}},{"type":"Feature","geometry":{"type":"Point","coordinates":[138.781583,36.404107]},"properties":{"id":"10-02aa9336ca","name":"倉渕町水沼","reading":"クラブチマチミズヌマ","pref":"群馬県","prefCode":"10","municipality":"高崎市","hazardTypes":["slope_failure","rockfall","soft_ground","inundation"],"evidenceLevel":0,"status":"current","disputed":false,"precision":"oaza","areaKey":"102026580","elements":["kura","numa_kata"],"summary":"要素辞書に一致（kura・numa_kata）。出典による裏づけは未確認。","zones":[],"dataset":"candidates"}},{"type":"Feature","geometry":{"type":"Point","coordinates":[139.015475,36.378055]},"properties":{"id":"10-ee6ae69359","name":"菅谷町","reading":"スガヤマチ","pref":"群馬県","prefCode":"10","municipality":"高崎市","hazardTypes":["landslide","soft_ground"],"evidenceLevel":0,"status":"current","disputed":false,"precision":"oaza","areaKey":"102027010","elements":["wetland_plants"],"summary":"要素辞書に一致（wetland_plants）。出典による裏づけは未確認。","zones":[],"dataset":"candidates"}},{"type":"Feature","geometry":{"type":"Point","coordinates":[138.905366,36.370298]},"properties":{"id":"10-31cd6e205c","name":"根岸","reading":null,"pref":"群馬県","prefCode":"10","municipality":"高崎市","hazardTypes":["slope_failure"],"evidenceLevel":0,"status":"current","disputed":false,"precision":"koaza","areaKey":"10202725036","elements":["kake"],"summary":"要素辞書に一致（kake）。出典による裏づけは未確認。","zones":[],"dataset":"candidates"}},{"type":"Feature","geometry":{"type":"Point","coordinates":[139.357222,36.449542]},"properties":{"id":"10-8926676f1c","name":"梅田町一丁目","reading":"ウメダチョウ 1","pref":"群馬県","prefCode":"10","municipality":"桐生市","hazardTypes":["landslide","slope_failure"],"evidenceLevel":0,"status":"current","disputed":false,"precision":"oaza","areaKey":"10203035001","elements":["ume"],"summary":"要素辞書に一致（ume）。出典による裏づけは未確認。","zones":[],"dataset":"candidates"}},{"type":"Feature","geometry":{"type":"Point","coordinates":[139.336925,36.406275]},"properties":{"id":"10-38185d0008","name":"川岸町","reading":"カワギシチョウ","pref":"群馬県","prefCode":"10","municipality":"桐生市","hazardTypes":["slope_failure"],"evidenceLevel":0,"status":"current","disputed":false,"precision":"oaza","areaKey":"102030150","elements":["kake"],"summary":"要素辞書に一致（kake）。出典による裏づけは未確認。","zones":[],"dataset":"candidates"}},{"type":"Feature","geometry":{"type":"Point","coordinates":[139.335316,36.395613]},"properties":{"id":"10-5245fc2255","name":"小梅町","reading":"コウメチョウ","pref":"群馬県","prefCode":"10","municipality":"桐生市","hazardTypes":["landslide","slope_failure"],"evidenceLevel":0,"status":"current","disputed":false,"precision":"oaza","areaKey":"102030110","elements":["ume"],"summary":"要素辞書に一致（ume）。出典による裏づけは未確認。","zones":[],"dataset":"candidates"}},{"type":"Feature","geometry":{"type":"Point","coordinates":[139.23961,36.446108]},"properties":{"id":"10-940e5abce1","name":"新里町大久保","reading":"ニイサトチョウオオクボ","pref":"群馬県","prefCode":"10","municipality":"桐生市","hazardTypes":["slope_failure","inundation","landslide"],"evidenceLevel":0,"status":"current","disputed":false,"precision":"oaza","areaKey":"102030440","elements":["afu_oo","kubo"],"summary":"要素辞書に一致（afu_oo・kubo）。出典による裏づけは未確認。","zones":[],"dataset":"candidates"}},{"type":"Feature","geometry":{"type":"Point","coordinates":[139.253501,36.385912]},"properties":{"id":"10-8c870bc6e0","name":"赤堀鹿島町","reading":"アカボリカシマチョウ","pref":"群馬県","prefCode":"10","municipality":"伊勢崎市","hazardTypes":["landslide","soft_ground"],"evidenceLevel":0,"status":"current","disputed":false,"precision":"oaza","areaKey":"102040830","elements":["shishi"],"summary":"要素辞書に一致（shishi）。出典による裏づけは未確認。","zones":[],"dataset":"candidates"}},{"type":"Feature","geometry":{"type":"Point","coordinates":[139.231115,36.395555]},"properties":{"id":"10-7d2087fcdd","name":"磯町","reading":"イソチョウ","pref":"群馬県","prefCode":"10","municipality":"伊勢崎市","hazardTypes":["rockfall","debris_flow"],"evidenceLevel":0,"status":"current","disputed":false,"precision":"oaza","areaKey":"102040870","elements":["iso_ishi"],"summary":"要素辞書に一致（iso_ishi）。出典による裏づけは未確認。","zones":[],"dataset":"candidates"}},{"type":"Feature","geometry":{"type":"Point","coordinates":[139.204498,36.339247]},"properties":{"id":"10-c7fbf82ba7","name":"鹿島町","reading":"カシマチョウ","pref":"群馬県","prefCode":"10","municipality":"伊勢崎市","hazardTypes":["landslide","soft_ground"],"evidenceLevel":0,"status":"current","disputed":false,"precision":"oaza","areaKey":"102040190","elements":["shishi"],"summary":"要素辞書に一致（shishi）。出典による裏づけは未確認。","zones":[],"dataset":"candidates"}},{"type":"Feature","geometry":{"type":"Point","coordinates":[139.198861,36.34144]},"properties":{"id":"10-186d57f08a","name":"華蔵寺町","reading":"ケゾウジマチ","pref":"群馬県","prefCode":"10","municipality":"伊勢崎市","hazardTypes":["slope_failure","rockfall"],"evidenceLevel":0,"status":"current","disputed":false,"precision":"oaza","areaKey":"102040090","elements":["kura"],"summary":"要素辞書に一致（kura）。出典による裏づけは未確認。","zones":[],"dataset":"candidates"}},{"type":"Feature","geometry":{"type":"Point","coordinates":[139.272362,36.343343]},"properties":{"id":"10-7124554199","name":"大久保町","reading":"オオクボチョウ","pref":"群馬県","prefCode":"10","municipality":"太田市","hazardTypes":["slope_failure","inundation","landslide"],"evidenceLevel":0,"status":"current","disputed":false,"precision":"oaza","areaKey":"102052180","elements":["afu_oo","kubo"],"summary":"要素辞書に一致（afu_oo・kubo）。出典による裏づけは未確認。","zones":[],"dataset":"candidates"}},{"type":"Feature","geometry":{"type":"Point","coordinates":[139.339863,36.347966]},"properties":{"id":"10-9a09d11e27","name":"菅塩町","reading":"スガシオチョウ","pref":"群馬県","prefCode":"10","municipality":"太田市","hazardTypes":["landslide","soft_ground"],"evidenceLevel":0,"status":"current","disputed":false,"precision":"oaza","areaKey":"102050720","elements":["wetland_plants"],"summary":"要素辞書に一致（wetland_plants）。出典による裏づけは未確認。","zones":[],"dataset":"candidates"}},{"type":"Feature","geometry":{"type":"Point","coordinates":[139.309043,36.335233]},"properties":{"id":"10-1e92756548","name":"新田市野倉町","reading":"ニッタイチノクラチョウ","pref":"群馬県","prefCode":"10","municipality":"太田市","hazardTypes":["slope_failure","rockfall"],"evidenceLevel":0,"status":"current","disputed":false,"precision":"oaza","areaKey":"102051790","elements":["kura"],"summary":"要素辞書に一致（kura）。出典による裏づけは未確認。","zones":[],"dataset":"candidates"}},{"type":"Feature","geometry":{"type":"Point","coordinates":[139.311084,36.244057]},"properties":{"id":"10-6933436a36","name":"武蔵島町","reading":"ムサシジマチョウ","pref":"群馬県","prefCode":"10","municipality":"太田市","hazardTypes":["slope_failure","rockfall"],"evidenceLevel":0,"status":"current","disputed":false,"precision":"oaza","areaKey":"102051380","elements":["kura"],"summary":"要素辞書に一致（kura）。出典による裏づけは未確認。","zones":[],"dataset":"candidates"}},{"type":"Feature","geometry":{"type":"Point","coordinates":[139.368443,36.350938]},"properties":{"id":"10-40cb94af60","name":"吉沢町","reading":"ヨシザワチョウ","pref":"群馬県","prefCode":"10","municipality":"太田市","hazardTypes":["landslide","soft_ground"],"evidenceLevel":0,"status":"current","disputed":false,"precision":"oaza","areaKey":"102051180","elements":["wetland_plants"],"summary":"要素辞書に一致（wetland_plants）。出典による裏づけは未確認。","zones":[],"dataset":"candidates"}},{"type":"Feature","geometry":{"type":"Point","coordinates":[139.016569,36.661177]},"properties":{"id":"10-82c79487cd","name":"内川原","reading":null,"pref":"群馬県","prefCode":"10","municipality":"沼田市","hazardTypes":["flood"],"evidenceLevel":0,"status":"current","disputed":false,"precision":"koaza","areaKey":"10206044001","elements":["kawara"],"summary":"要素辞書に一致（kawara）。出典による裏づけは未確認。","zones":[],"dataset":"candidates"}},{"type":"Feature","geometry":{"type":"Point","coordinates":[139.042793,36.639635]},"properties":{"id":"10-92bff242e1","name":"鍛冶町","reading":"カジマチ","pref":"群馬県","prefCode":"10","municipality":"沼田市","hazardTypes":["slope_failure"],"evidenceLevel":0,"status":"current","disputed":false,"precision":"oaza","areaKey":"102060150","elements":["kaji_kamu"],"summary":"要素辞書に一致（kaji_kamu）。出典による裏づけは未確認。","zones":[],"dataset":"candidates"}},{"type":"Feature","geometry":{"type":"Point","coordinates":[139.041961,36.627946]},"properties":{"id":"10-19fb7ce6de","name":"戸鹿野町","reading":"トガノマチ","pref":"群馬県","prefCode":"10","municipality":"沼田市","hazardTypes":["landslide","soft_ground"],"evidenceLevel":0,"status":"current","disputed":false,"precision":"oaza","areaKey":"102060190","elements":["shishi"],"summary":"要素辞書に一致（shishi）。出典による裏づけは未確認。","zones":[],"dataset":"candidates"}},{"type":"Feature","geometry":{"type":"Point","coordinates":[139.167064,36.628458]},"properties":{"id":"10-3873a78e3a","name":"利根町青木","reading":"トネマチアオキ","pref":"群馬県","prefCode":"10","municipality":"沼田市","hazardTypes":["slope_failure"],"evidenceLevel":0,"status":"current","disputed":false,"precision":"oaza","areaKey":"102060830","elements":["afu_oo"],"summary":"要素辞書に一致（afu_oo）。出典による裏づけは未確認。","zones":[],"dataset":"candidates"}},{"type":"Feature","geometry":{"type":"Point","coordinates":[139.199854,36.625837]},"properties":{"id":"10-6a21f19ff9","name":"利根町柿平","reading":"トネマチカキダイラ","pref":"群馬県","prefCode":"10","municipality":"沼田市","hazardTypes":["slope_failure"],"evidenceLevel":0,"status":"current","disputed":false,"precision":"oaza","areaKey":"102060800","elements":["kake"],"summary":"要素辞書に一致（kake）。出典による裏づけは未確認。","zones":[],"dataset":"candidates"}},{"type":"Feature","geometry":{"type":"Point","coordinates":[139.041395,36.646969]},"properties":{"id":"10-e49cce217e","name":"西倉内町","reading":"ニシクラウチマチ","pref":"群馬県","prefCode":"10","municipality":"沼田市","hazardTypes":["slope_failure","rockfall"],"evidenceLevel":0,"status":"current","disputed":false,"precision":"oaza","areaKey":"102060020","elements":["kura"],"summary":"要素辞書に一致（kura）。出典による裏づけは未確認。","zones":[],"dataset":"candidates"}},{"type":"Feature","geometry":{"type":"Point","coordinates":[139.04532,36.647901]},"properties":{"id":"10-740bf774ad","name":"東倉内町","reading":"ヒガシクラウチマチ","pref":"群馬県","prefCode":"10","municipality":"沼田市","hazardTypes":["slope_failure","rockfall"],"evidenceLevel":0,"status":"current","disputed":false,"precision":"oaza","areaKey":"102060010","elements":["kura"],"summary":"要素辞書に一致（kura）。出典による裏づけは未確認。","zones":[],"dataset":"candidates"}},{"type":"Feature","geometry":{"type":"Point","coordinates":[139.517577,36.241439]},"properties":{"id":"10-2079a68cdf","name":"赤土町","reading":"アカツチチョウ","pref":"群馬県","prefCode":"10","municipality":"館林市","hazardTypes":["landslide"],"evidenceLevel":0,"status":"current","disputed":false,"precision":"oaza","areaKey":"102077140","elements":["geology_names"],"summary":"要素辞書に一致（geology_names）。出典による裏づけは未確認。","zones":[],"dataset":"candidates"}},{"type":"Feature","geometry":{"type":"Point","coordinates":[139.537675,36.265533]},"properties":{"id":"10-bd42fdf5a9","name":"足次町","reading":"アシツギチョウ","pref":"群馬県","prefCode":"10","municipality":"館林市","hazardTypes":["flood","inundation"],"evidenceLevel":0,"status":"current","disputed":false,"precision":"oaza","areaKey":"102078070","elements":["ashi"],"summary":"要素辞書に一致（ashi）。出典による裏づけは未確認。","zones":[],"dataset":"candidates"}},{"type":"Feature","geometry":{"type":"Point","coordinates":[138.997556,36.496281]},"properties":{"id":"10-0baf054e0f","name":"川原町","reading":null,"pref":"群馬県","prefCode":"10","municipality":"渋川市","hazardTypes":["flood"],"evidenceLevel":0,"status":"current","disputed":false,"precision":"koaza","areaKey":"102080140","elements":["kawara"],"summary":"要素辞書に一致（kawara）。出典による裏づけは未確認。","zones":[],"dataset":"candidates"}},{"type":"Feature","geometry":{"type":"Point","coordinates":[139.077967,36.214051]},"properties":{"id":"10-204ab0689a","name":"川除","reading":"カワヨケ","pref":"群馬県","prefCode":"10","municipality":"藤岡市","hazardTypes":["flood"],"evidenceLevel":0,"status":"current","disputed":false,"precision":"oaza","areaKey":"10209050001","elements":["kawayoke"],"summary":"要素辞書に一致（kawayoke）。出典による裏づけは未確認。","zones":[],"dataset":"candidates"}},{"type":"Feature","geometry":{"type":"Point","coordinates":[139.084884,36.229672]},"properties":{"id":"10-60089ef081","name":"根岸","reading":"ネギシ","pref":"群馬県","prefCode":"10","municipality":"藤岡市","hazardTypes":["slope_failure"],"evidenceLevel":0,"status":"current","disputed":false,"precision":"oaza","areaKey":null,"elements":["kake"],"summary":"要素辞書に一致（kake）。出典による裏づけは未確認。","zones":[],"dataset":"candidates"}},{"type":"Feature","geometry":{"type":"Point","coordinates":[138.801425,36.237353]},"properties":{"id":"10-bb68ceef64","name":"南蛇井","reading":"ナンジャイ","pref":"群馬県","prefCode":"10","municipality":"富岡市","hazardTypes":["slope_failure","debris_flow"],"evidenceLevel":0,"status":"current","disputed":false,"precision":"oaza","areaKey":"10210401001","elements":["ja"],"summary":"要素辞書に一致（ja）。出典による裏づけは未確認。","zones":[],"dataset":"candidates"}},{"type":"Feature","geometry":{"type":"Point","coordinates":[138.77238,36.26636]},"properties":{"id":"10-4914c1fd39","name":"妙義町菅原","reading":"ミョウギマチスガハラ","pref":"群馬県","prefCode":"10","municipality":"富岡市","hazardTypes":["landslide","soft_ground"],"evidenceLevel":0,"status":"current","disputed":false,"precision":"oaza","areaKey":"102104640","elements":["wetland_plants"],"summary":"要素辞書に一致（wetland_plants）。出典による裏づけは未確認。","zones":[],"dataset":"candidates"}},{"type":"Feature","geometry":{"type":"Point","coordinates":[138.841518,36.29363]},"properties":{"id":"10-fc2fac6880","name":"上磯部","reading":null,"pref":"群馬県","prefCode":"10","municipality":"安中市","hazardTypes":["rockfall","debris_flow"],"evidenceLevel":0,"status":"current","disputed":false,"precision":"oaza","areaKey":null,"elements":["iso_ishi"],"summary":"要素辞書に一致（iso_ishi）。出典による裏づけは未確認。","zones":[],"dataset":"candidates"}},{"type":"Feature","geometry":{"type":"Point","coordinates":[138.847148,36.299923]},"properties":{"id":"10-45c118eb53","name":"磯部一丁目","reading":"イソベ 1","pref":"群馬県","prefCode":"10","municipality":"安中市","hazardTypes":["rockfall","debris_flow"],"evidenceLevel":0,"status":"current","disputed":false,"precision":"oaza","areaKey":"10211003101","elements":["iso_ishi"],"summary":"要素辞書に一致（iso_ishi）。出典による裏づけは未確認。","zones":[],"dataset":"candidates"}},{"type":"Feature","geometry":{"type":"Point","coordinates":[138.878366,36.313487]},"properties":{"id":"10-3ba05d6cfe","name":"下磯部","reading":"シモイソベ","pref":"群馬県","prefCode":"10","municipality":"安中市","hazardTypes":["rockfall","debris_flow"],"evidenceLevel":0,"status":"current","disputed":false,"precision":"oaza","areaKey":"102110034","elements":["iso_ishi"],"summary":"要素辞書に一致（iso_ishi）。出典による裏づけは未確認。","zones":[],"dataset":"candidates"}},{"type":"Feature","geometry":{"type":"Point","coordinates":[138.856627,36.294663]},"properties":{"id":"10-e000ff526c","name":"西上磯部","reading":"ニシカミイソベ","pref":"群馬県","prefCode":"10","municipality":"安中市","hazardTypes":["rockfall","debris_flow"],"evidenceLevel":0,"status":"current","disputed":false,"precision":"oaza","areaKey":"102110032","elements":["iso_ishi"],"summary":"要素辞書に一致（iso_ishi）。出典による裏づけは未確認。","zones":[],"dataset":"candidates"}},{"type":"Feature","geometry":{"type":"Point","coordinates":[138.870458,36.303727]},"properties":{"id":"10-b270575590","name":"東上磯部","reading":"ヒガシカミイソベ","pref":"群馬県","prefCode":"10","municipality":"安中市","hazardTypes":["rockfall","debris_flow"],"evidenceLevel":0,"status":"current","disputed":false,"precision":"oaza","areaKey":"102110033","elements":["iso_ishi"],"summary":"要素辞書に一致（iso_ishi）。出典による裏づけは未確認。","zones":[],"dataset":"candidates"}},{"type":"Feature","geometry":{"type":"Point","coordinates":[139.297322,36.518931]},"properties":{"id":"10-730ca6f14b","name":"東町荻原","reading":"アズマチョウオギハラ","pref":"群馬県","prefCode":"10","municipality":"みどり市","hazardTypes":["slope_failure"],"evidenceLevel":0,"status":"current","disputed":false,"precision":"oaza","areaKey":"102120150","elements":["suki_hagu"],"summary":"要素辞書に一致（suki_hagu）。出典による裏づけは未確認。","zones":[],"dataset":"candidates"}},{"type":"Feature","geometry":{"type":"Point","coordinates":[139.296495,36.477152]},"properties":{"id":"10-b3f3928eb8","name":"大間々町浅原","reading":"オオママチョウアサバラ","pref":"群馬県","prefCode":"10","municipality":"みどり市","hazardTypes":["slope_failure","erosion"],"evidenceLevel":0,"status":"current","disputed":false,"precision":"oaza","areaKey":"10212009017","elements":["mama"],"summary":"要素辞書に一致（mama）。出典による裏づけは未確認。","zones":[],"dataset":"candidates"}},{"type":"Feature","geometry":{"type":"Point","coordinates":[139.27854,36.426268]},"properties":{"id":"10-595de2170d","name":"大間々町大間々","reading":"オオママチョウオオママ","pref":"群馬県","prefCode":"10","municipality":"みどり市","hazardTypes":["slope_failure","erosion"],"evidenceLevel":0,"status":"current","disputed":false,"precision":"oaza","areaKey":"10212005001","elements":["mama"],"summary":"要素辞書に一致（mama）。出典による裏づけは未確認。","zones":[],"dataset":"candidates"}},{"type":"Feature","geometry":{"type":"Point","coordinates":[139.320315,36.49033]},"properties":{"id":"10-cb5bce0c0b","name":"大間々町小平","reading":"オオママチョウオダイラ","pref":"群馬県","prefCode":"10","municipality":"みどり市","hazardTypes":["slope_failure","erosion"],"evidenceLevel":0,"status":"current","disputed":false,"precision":"oaza","areaKey":"102120110","elements":["mama"],"summary":"要素辞書に一致（mama）。出典による裏づけは未確認。","zones":[],"dataset":"candidates"}},{"type":"Feature","geometry":{"type":"Point","coordinates":[139.251086,36.475122]},"properties":{"id":"10-c482cda271","name":"大間々町上神梅","reading":"オオママチョウカミカンバイ","pref":"群馬県","prefCode":"10","municipality":"みどり市","hazardTypes":["slope_failure","erosion","landslide"],"evidenceLevel":0,"status":"current","disputed":false,"precision":"oaza","areaKey":"102120120","elements":["mama","ume"],"summary":"要素辞書に一致（mama・ume）。出典による裏づけは未確認。","zones":[],"dataset":"candidates"}},{"type":"Feature","geometry":{"type":"Point","coordinates":[139.269353,36.440012]},"properties":{"id":"10-169fd01019","name":"大間々町桐原","reading":"オオママチョウキリバラ","pref":"群馬県","prefCode":"10","municipality":"みどり市","hazardTypes":["slope_failure","erosion"],"evidenceLevel":0,"status":"current","disputed":false,"precision":"oaza","areaKey":"10212006009","elements":["mama"],"summary":"要素辞書に一致（mama）。出典による裏づけは未確認。","zones":[],"dataset":"candidates"}},{"type":"Feature","geometry":{"type":"Point","coordinates":[139.274638,36.479449]},"properties":{"id":"10-a929d7367e","name":"大間々町塩沢","reading":"オオママチョウシオザワ","pref":"群馬県","prefCode":"10","municipality":"みどり市","hazardTypes":["slope_failure","erosion"],"evidenceLevel":0,"status":"current","disputed":false,"precision":"oaza","areaKey":"102120140","elements":["mama"],"summary":"要素辞書に一致（mama）。出典による裏づけは未確認。","zones":[],"dataset":"candidates"}},{"type":"Feature","geometry":{"type":"Point","coordinates":[139.264456,36.467431]},"properties":{"id":"10-1e1764ca08","name":"大間々町塩原","reading":"オオママチョウシオバラ","pref":"群馬県","prefCode":"10","municipality":"みどり市","hazardTypes":["slope_failure","erosion"],"evidenceLevel":0,"status":"current","disputed":false,"precision":"oaza","areaKey":"10212008015","elements":["mama"],"summary":"要素辞書に一致（mama）。出典による裏づけは未確認。","zones":[],"dataset":"candidates"}},{"type":"Feature","geometry":{"type":"Point","coordinates":[139.253686,36.46257]},"properties":{"id":"10-a05af049b1","name":"大間々町下神梅","reading":"オオママチョウシモカンバイ","pref":"群馬県","prefCode":"10","municipality":"みどり市","hazardTypes":["slope_failure","erosion","landslide"],"evidenceLevel":0,"status":"current","disputed":false,"precision":"oaza","areaKey":"102120130","elements":["mama","ume"],"summary":"要素辞書に一致（mama・ume）。出典による裏づけは未確認。","zones":[],"dataset":"candidates"}},{"type":"Feature","geometry":{"type":"Point","coordinates":[139.287222,36.441701]},"properties":{"id":"10-54dd635487","name":"大間々町高津戸","reading":"オオママチョウタカツド","pref":"群馬県","prefCode":"10","municipality":"みどり市","hazardTypes":["slope_failure","erosion"],"evidenceLevel":0,"status":"current","disputed":false,"precision":"oaza","areaKey":"102120070","elements":["mama"],"summary":"要素辞書に一致（mama）。出典による裏づけは未確認。","zones":[],"dataset":"candidates"}},{"type":"Feature","geometry":{"type":"Point","coordinates":[139.296114,36.453049]},"properties":{"id":"10-084f0bd013","name":"大間々町長尾根","reading":"オオママチョウナガオネ","pref":"群馬県","prefCode":"10","municipality":"みどり市","hazardTypes":["slope_failure","erosion"],"evidenceLevel":0,"status":"current","disputed":false,"precision":"oaza","areaKey":"102120100","elements":["mama"],"summary":"要素辞書に一致（mama）。出典による裏づけは未確認。","zones":[],"dataset":"candidates"}},{"type":"Feature","geometry":{"type":"Point","coordinates":[139.260572,36.40327]},"properties":{"id":"10-a4b0becafe","name":"笠懸町西鹿田","reading":"カサカケチョウサイシカダ","pref":"群馬県","prefCode":"10","municipality":"みどり市","hazardTypes":["landslide","soft_ground"],"evidenceLevel":0,"status":"current","disputed":false,"precision":"oaza","areaKey":"102120040","elements":["shishi"],"summary":"要素辞書に一致（shishi）。出典による裏づけは未確認。","zones":[],"dataset":"candidates"}},{"type":"Feature","geometry":{"type":"Point","coordinates":[139.276148,36.394932]},"properties":{"id":"10-72530100b3","name":"笠懸町鹿","reading":"カサカケチョウシカ","pref":"群馬県","prefCode":"10","municipality":"みどり市","hazardTypes":["landslide","soft_ground"],"evidenceLevel":0,"status":"current","disputed":false,"precision":"oaza","areaKey":"10212003006","elements":["shishi"],"summary":"要素辞書に一致（shishi）。出典による裏づけは未確認。","zones":[],"dataset":"candidates"}},{"type":"Feature","geometry":{"type":"Point","coordinates":[138.941024,36.44159]},"properties":{"id":"10-3ee19a6c14","name":"大字広馬場","reading":null,"pref":"群馬県","prefCode":"10","municipality":"北群馬郡榛東村","hazardTypes":["slope_failure"],"evidenceLevel":0,"status":"current","disputed":false,"precision":"oaza","areaKey":null,"elements":["baba"],"summary":"要素辞書に一致（baba）。出典による裏づけは未確認。","zones":[],"dataset":"candidates"}},{"type":"Feature","geometry":{"type":"Point","coordinates":[139.020498,36.434249]},"properties":{"id":"10-2659f206f1","name":"大字大久保","reading":null,"pref":"群馬県","prefCode":"10","municipality":"北群馬郡吉岡町","hazardTypes":["slope_failure","inundation","landslide"],"evidenceLevel":0,"status":"current","disputed":false,"precision":"oaza","areaKey":null,"elements":["afu_oo","kubo"],"summary":"要素辞書に一致（afu_oo・kubo）。出典による裏づけは未確認。","zones":[],"dataset":"candidates"}},{"type":"Feature","geometry":{"type":"Point","coordinates":[138.994774,36.460261]},"properties":{"id":"10-fcd83adeb5","name":"大字小倉","reading":null,"pref":"群馬県","prefCode":"10","municipality":"北群馬郡吉岡町","hazardTypes":["slope_failure","rockfall"],"evidenceLevel":0,"status":"current","disputed":false,"precision":"oaza","areaKey":null,"elements":["kura"],"summary":"要素辞書に一致（kura）。出典による裏づけは未確認。","zones":[],"dataset":"candidates"}},{"type":"Feature","geometry":{"type":"Point","coordinates":[138.776417,36.172806]},"properties":{"id":"10-360ba0b6c4","name":"大字青倉","reading":null,"pref":"群馬県","prefCode":"10","municipality":"甘楽郡下仁田町","hazardTypes":["slope_failure","rockfall"],"evidenceLevel":0,"status":"current","disputed":false,"precision":"oaza","areaKey":null,"elements":["kura"],"summary":"要素辞書に一致（kura）。出典による裏づけは未確認。","zones":[],"dataset":"candidates"}},{"type":"Feature","geometry":{"type":"Point","coordinates":[138.611564,36.155788]},"properties":{"id":"10-eb4fde67fa","name":"大字熊倉","reading":null,"pref":"群馬県","prefCode":"10","municipality":"甘楽郡南牧村","hazardTypes":["slope_failure","rockfall"],"evidenceLevel":0,"status":"current","disputed":false,"precision":"oaza","areaKey":null,"elements":["kura"],"summary":"要素辞書に一致（kura）。出典による裏づけは未確認。","zones":[],"dataset":"candidates"}},{"type":"Feature","geometry":{"type":"Point","coordinates":[138.933592,36.225492]},"properties":{"id":"10-4fdb89acd5","name":"大字白倉","reading":null,"pref":"群馬県","prefCode":"10","municipality":"甘楽郡甘楽町","hazardTypes":["slope_failure","rockfall"],"evidenceLevel":0,"status":"current","disputed":false,"precision":"oaza","areaKey":null,"elements":["kura"],"summary":"要素辞書に一致（kura）。出典による裏づけは未確認。","zones":[],"dataset":"candidates"}},{"type":"Feature","geometry":{"type":"Point","coordinates":[138.704151,36.545618]},"properties":{"id":"10-892b6a01de","name":"大字川原湯","reading":null,"pref":"群馬県","prefCode":"10","municipality":"吾妻郡長野原町","hazardTypes":["flood"],"evidenceLevel":0,"status":"current","disputed":false,"precision":"oaza","areaKey":null,"elements":["kawara"],"summary":"要素辞書に一致（kawara）。出典による裏づけは未確認。","zones":[],"dataset":"candidates"}},{"type":"Feature","geometry":{"type":"Point","coordinates":[138.703688,36.560968]},"properties":{"id":"10-f43c9ed4ad","name":"大字川原畑","reading":null,"pref":"群馬県","prefCode":"10","municipality":"吾妻郡長野原町","hazardTypes":["flood"],"evidenceLevel":0,"status":"current","disputed":false,"precision":"oaza","areaKey":null,"elements":["kawara"],"summary":"要素辞書に一致（kawara）。出典による裏づけは未確認。","zones":[],"dataset":"candidates"}},{"type":"Feature","geometry":{"type":"Point","coordinates":[138.560612,36.53326]},"properties":{"id":"10-1c7305c39c","name":"大字芦生田","reading":null,"pref":"群馬県","prefCode":"10","municipality":"吾妻郡嬬恋村","hazardTypes":["flood","inundation"],"evidenceLevel":0,"status":"current","disputed":false,"precision":"oaza","areaKey":null,"elements":["ashi"],"summary":"要素辞書に一致（ashi）。出典による裏づけは未確認。","zones":[],"dataset":"candidates"}},{"type":"Feature","geometry":{"type":"Point","coordinates":[138.582983,36.536275]},"properties":{"id":"10-adabe664c7","name":"大字袋倉","reading":null,"pref":"群馬県","prefCode":"10","municipality":"吾妻郡嬬恋村","hazardTypes":["slope_failure","rockfall"],"evidenceLevel":0,"status":"current","disputed":false,"precision":"oaza","areaKey":null,"elements":["kura"],"summary":"要素辞書に一致（kura）。出典による裏づけは未確認。","zones":[],"dataset":"candidates"}},{"type":"Feature","geometry":{"type":"Point","coordinates":[138.783968,36.557775]},"properties":{"id":"10-0a0157a590","name":"大字矢倉","reading":null,"pref":"群馬県","prefCode":"10","municipality":"吾妻郡東吾妻町","hazardTypes":["slope_failure","rockfall"],"evidenceLevel":0,"status":"current","disputed":false,"precision":"oaza","areaKey":null,"elements":["kura"],"summary":"要素辞書に一致（kura）。出典による裏づけは未確認。","zones":[],"dataset":"candidates"}},{"type":"Feature","geometry":{"type":"Point","coordinates":[139.272986,36.891926]},"properties":{"id":"10-b62358cbf8","name":"大字戸倉","reading":null,"pref":"群馬県","prefCode":"10","municipality":"利根郡片品村","hazardTypes":["slope_failure","rockfall"],"evidenceLevel":0,"status":"current","disputed":false,"precision":"oaza","areaKey":null,"elements":["kura"],"summary":"要素辞書に一致（kura）。出典による裏づけは未確認。","zones":[],"dataset":"candidates"}},{"type":"Feature","geometry":{"type":"Point","coordinates":[139.238982,36.76508]},"properties":{"id":"10-8b62f6b735","name":"大字菅沼","reading":null,"pref":"群馬県","prefCode":"10","municipality":"利根郡片品村","hazardTypes":["landslide","soft_ground","inundation"],"evidenceLevel":0,"status":"current","disputed":false,"precision":"oaza","areaKey":null,"elements":["wetland_plants","numa_kata"],"summary":"要素辞書に一致（wetland_plants・numa_kata）。出典による裏づけは未確認。","zones":[],"dataset":"candidates"}},{"type":"Feature","geometry":{"type":"Point","coordinates":[138.968736,36.73746]},"properties":{"id":"10-bd681fa15f","name":"石倉","reading":"イシクラ","pref":"群馬県","prefCode":"10","municipality":"利根郡みなかみ町","hazardTypes":["slope_failure","rockfall"],"evidenceLevel":0,"status":"current","disputed":false,"precision":"oaza","areaKey":null,"elements":["kura"],"summary":"要素辞書に一致（kura）。出典による裏づけは未確認。","zones":[],"dataset":"candidates"}},{"type":"Feature","geometry":{"type":"Point","coordinates":[138.977958,36.780404]},"properties":{"id":"10-6915db8a62","name":"鹿野沢","reading":"カノサワ","pref":"群馬県","prefCode":"10","municipality":"利根郡みなかみ町","hazardTypes":["landslide","soft_ground"],"evidenceLevel":0,"status":"current","disputed":false,"precision":"oaza","areaKey":null,"elements":["shishi"],"summary":"要素辞書に一致（shishi）。出典による裏づけは未確認。","zones":[],"dataset":"candidates"}},{"type":"Feature","geometry":{"type":"Point","coordinates":[138.883149,36.728716]},"properties":{"id":"10-030507da68","name":"猿ヶ京温泉","reading":"サルガキョウオンセン","pref":"群馬県","prefCode":"10","municipality":"利根郡みなかみ町","hazardTypes":["slope_failure"],"evidenceLevel":0,"status":"current","disputed":false,"precision":"oaza","areaKey":null,"elements":["saru"],"summary":"要素辞書に一致（saru）。出典による裏づけは未確認。","zones":[],"dataset":"candidates"}},{"type":"Feature","geometry":{"type":"Point","coordinates":[138.949446,36.694578]},"properties":{"id":"10-d772ec3839","name":"羽場","reading":"ハバ","pref":"群馬県","prefCode":"10","municipality":"利根郡みなかみ町","hazardTypes":["erosion","slope_failure"],"evidenceLevel":0,"status":"current","disputed":false,"precision":"oaza","areaKey":null,"elements":["haba"],"summary":"要素辞書に一致（haba）。出典による裏づけは未確認。","zones":[],"dataset":"candidates"}},{"type":"Feature","geometry":{"type":"Point","coordinates":[139.153355,36.285509]},"properties":{"id":"10-9d5c491f27","name":"大字飯倉","reading":null,"pref":"群馬県","prefCode":"10","municipality":"佐波郡玉村町","hazardTypes":["slope_failure","rockfall"],"evidenceLevel":0,"status":"current","disputed":false,"precision":"oaza","areaKey":null,"elements":["kura"],"summary":"要素辞書に一致（kura）。出典による裏づけは未確認。","zones":[],"dataset":"candidates"}},{"type":"Feature","geometry":{"type":"Point","coordinates":[139.593419,36.236604]},"properties":{"id":"10-98c6de9fbb","name":"大字内蔵新田","reading":null,"pref":"群馬県","prefCode":"10","municipality":"邑楽郡板倉町","hazardTypes":["slope_failure","rockfall"],"evidenceLevel":0,"status":"current","disputed":false,"precision":"oaza","areaKey":null,"elements":["kura"],"summary":"要素辞書に一致（kura）。出典による裏づけは未確認。","zones":[],"dataset":"candidates"}},{"type":"Feature","geometry":{"type":"Point","coordinates":[139.620544,36.226624]},"properties":{"id":"10-da5454434a","name":"大字大蔵","reading":null,"pref":"群馬県","prefCode":"10","municipality":"邑楽郡板倉町","hazardTypes":["slope_failure","rockfall"],"evidenceLevel":0,"status":"current","disputed":false,"precision":"oaza","areaKey":null,"elements":["kura"],"summary":"要素辞書に一致（kura）。出典による裏づけは未確認。","zones":[],"dataset":"candidates"}},{"type":"Feature","geometry":{"type":"Point","coordinates":[139.610865,36.224795]},"properties":{"id":"10-c0b7e36546","name":"大字板倉","reading":null,"pref":"群馬県","prefCode":"10","municipality":"邑楽郡板倉町","hazardTypes":["slope_failure","rockfall"],"evidenceLevel":0,"status":"current","disputed":false,"precision":"oaza","areaKey":null,"elements":["kura"],"summary":"要素辞書に一致（kura）。出典による裏づけは未確認。","zones":[],"dataset":"candidates"}},{"type":"Feature","geometry":{"type":"Point","coordinates":[139.532191,36.197254]},"properties":{"id":"10-58ec15086e","name":"梅原","reading":"ウメバラ","pref":"群馬県","prefCode":"10","municipality":"邑楽郡明和町","hazardTypes":["landslide","slope_failure"],"evidenceLevel":0,"status":"current","disputed":false,"precision":"oaza","areaKey":null,"elements":["ume"],"summary":"要素辞書に一致（ume）。出典による裏づけは未確認。","zones":[],"dataset":"candidates"}}]}
