{"type":"FeatureCollection","features":[{"type":"Feature","geometry":{"type":"Point","coordinates":[140.150188,35.659595]},"properties":{"id":"12-8a1f5d482e","name":"小深町","reading":"コブケチョウ","pref":"千葉県","prefCode":"12","municipality":"千葉市稲毛区","hazardTypes":["soft_ground","inundation"],"evidenceLevel":0,"status":"current","disputed":false,"precision":"oaza","areaKey":"121030140","elements":["fuke"],"summary":"要素辞書に一致（fuke）。出典による裏づけは未確認。","zones":[],"dataset":"candidates"}},{"type":"Feature","geometry":{"type":"Point","coordinates":[140.169397,35.628562]},"properties":{"id":"12-2d07669e26","name":"小倉台一丁目","reading":"オグラダイ 1","pref":"千葉県","prefCode":"12","municipality":"千葉市若葉区","hazardTypes":["slope_failure","rockfall","landslide"],"evidenceLevel":0,"status":"current","disputed":false,"precision":"oaza","areaKey":"12104010001","elements":["kura","tai"],"summary":"要素辞書に一致（kura・tai）。出典による裏づけは未確認。","zones":[],"dataset":"candidates"}},{"type":"Feature","geometry":{"type":"Point","coordinates":[140.167055,35.628047]},"properties":{"id":"12-02e27f5166","name":"小倉町","reading":"オグラチョウ","pref":"千葉県","prefCode":"12","municipality":"千葉市若葉区","hazardTypes":["slope_failure","rockfall"],"evidenceLevel":0,"status":"current","disputed":false,"precision":"oaza","areaKey":"121040110","elements":["kura"],"summary":"要素辞書に一致（kura）。出典による裏づけは未確認。","zones":[],"dataset":"candidates"}},{"type":"Feature","geometry":{"type":"Point","coordinates":[140.162961,35.613823]},"properties":{"id":"12-50052e8bbb","name":"加曽利町","reading":"カソリチョウ","pref":"千葉県","prefCode":"12","municipality":"千葉市若葉区","hazardTypes":["slope_failure"],"evidenceLevel":0,"status":"current","disputed":false,"precision":"oaza","areaKey":"121040150","elements":["sori"],"summary":"要素辞書に一致（sori）。出典による裏づけは未確認。","zones":[],"dataset":"candidates"}},{"type":"Feature","geometry":{"type":"Point","coordinates":[140.252839,35.50386]},"properties":{"id":"12-d14aab96e8","name":"板倉町","reading":"イタクラチョウ","pref":"千葉県","prefCode":"12","municipality":"千葉市緑区","hazardTypes":["slope_failure","rockfall"],"evidenceLevel":0,"status":"current","disputed":false,"precision":"oaza","areaKey":"121050020","elements":["kura"],"summary":"要素辞書に一致（kura）。出典による裏づけは未確認。","zones":[],"dataset":"candidates"}},{"type":"Feature","geometry":{"type":"Point","coordinates":[140.159684,35.54624]},"properties":{"id":"12-961a82c6e4","name":"刈田子町","reading":"カリタゴチョウ","pref":"千葉県","prefCode":"12","municipality":"千葉市緑区","hazardTypes":["slope_failure"],"evidenceLevel":0,"status":"current","disputed":false,"precision":"oaza","areaKey":"121050140","elements":["kake"],"summary":"要素辞書に一致（kake）。出典による裏づけは未確認。","zones":[],"dataset":"candidates"}},{"type":"Feature","geometry":{"type":"Point","coordinates":[140.064054,35.629713]},"properties":{"id":"12-7f8b6de46a","name":"磯辺一丁目","reading":"イソベ 1","pref":"千葉県","prefCode":"12","municipality":"千葉市美浜区","hazardTypes":["rockfall","debris_flow"],"evidenceLevel":0,"status":"current","disputed":false,"precision":"oaza","areaKey":"12106001001","elements":["iso_ishi"],"summary":"要素辞書に一致（iso_ishi）。出典による裏づけは未確認。","zones":[],"dataset":"candidates"}},{"type":"Feature","geometry":{"type":"Point","coordinates":[140.086161,35.628424]},"properties":{"id":"12-a025bd7318","name":"稲毛海岸一丁目","reading":"イナゲカイガン 1","pref":"千葉県","prefCode":"12","municipality":"千葉市美浜区","hazardTypes":["slope_failure"],"evidenceLevel":0,"status":"current","disputed":false,"precision":"oaza","areaKey":"12106002001","elements":["kake"],"summary":"要素辞書に一致（kake）。出典による裏づけは未確認。","zones":[],"dataset":"candidates"}},{"type":"Feature","geometry":{"type":"Point","coordinates":[140.864381,35.722967]},"properties":{"id":"12-58b9ecf235","name":"海鹿島町","reading":"アシカジマチョウ","pref":"千葉県","prefCode":"12","municipality":"銚子市","hazardTypes":["landslide","soft_ground"],"evidenceLevel":0,"status":"current","disputed":false,"precision":"oaza","areaKey":"122020200","elements":["shishi"],"summary":"要素辞書に一致（shishi）。出典による裏づけは未確認。","zones":[],"dataset":"candidates"}},{"type":"Feature","geometry":{"type":"Point","coordinates":[140.777854,35.758269]},"properties":{"id":"12-e5441af339","name":"芦崎町","reading":"アシサキチョウ","pref":"千葉県","prefCode":"12","municipality":"銚子市","hazardTypes":["flood","inundation"],"evidenceLevel":0,"status":"current","disputed":false,"precision":"oaza","areaKey":"122020800","elements":["ashi"],"summary":"要素辞書に一致（ashi）。出典による裏づけは未確認。","zones":[],"dataset":"candidates"}},{"type":"Feature","geometry":{"type":"Point","coordinates":[140.736892,35.745252]},"properties":{"id":"12-462e3300b9","name":"猿田町","reading":"サルダチョウ","pref":"千葉県","prefCode":"12","municipality":"銚子市","hazardTypes":["slope_failure"],"evidenceLevel":0,"status":"current","disputed":false,"precision":"oaza","areaKey":"122020930","elements":["saru"],"summary":"要素辞書に一致（saru）。出典による裏づけは未確認。","zones":[],"dataset":"candidates"}},{"type":"Feature","geometry":{"type":"Point","coordinates":[140.84022,35.730947]},"properties":{"id":"12-744fe36bd0","name":"馬場町","reading":"ババチョウ","pref":"千葉県","prefCode":"12","municipality":"銚子市","hazardTypes":["slope_failure"],"evidenceLevel":0,"status":"current","disputed":false,"precision":"oaza","areaKey":"122020400","elements":["baba"],"summary":"要素辞書に一致（baba）。出典による裏づけは未確認。","zones":[],"dataset":"candidates"}},{"type":"Feature","geometry":{"type":"Point","coordinates":[140.797963,35.746027]},"properties":{"id":"12-684750f587","name":"松岸町一丁目","reading":"マツギシマチ 1","pref":"千葉県","prefCode":"12","municipality":"銚子市","hazardTypes":["slope_failure"],"evidenceLevel":0,"status":"current","disputed":false,"precision":"oaza","areaKey":"12202071001","elements":["kake"],"summary":"要素辞書に一致（kake）。出典による裏づけは未確認。","zones":[],"dataset":"candidates"}},{"type":"Feature","geometry":{"type":"Point","coordinates":[140.78266,35.721437]},"properties":{"id":"12-eefbc96a69","name":"松岸見晴台","reading":"マツギシミハラシダイ","pref":"千葉県","prefCode":"12","municipality":"銚子市","hazardTypes":["slope_failure","landslide"],"evidenceLevel":0,"status":"current","disputed":false,"precision":"oaza","areaKey":"122020720","elements":["kake","tai"],"summary":"要素辞書に一致（kake・tai）。出典による裏づけは未確認。","zones":[],"dataset":"candidates"}},{"type":"Feature","geometry":{"type":"Point","coordinates":[139.902087,35.680586]},"properties":{"id":"12-9a0fb60324","name":"欠真間一丁目","reading":"カケママ 1","pref":"千葉県","prefCode":"12","municipality":"市川市","hazardTypes":["slope_failure"],"evidenceLevel":0,"status":"current","disputed":false,"precision":"oaza","areaKey":"12203064001","elements":["kake"],"summary":"要素辞書に一致（kake）。出典による裏づけは未確認。","zones":[],"dataset":"candidates"}},{"type":"Feature","geometry":{"type":"Point","coordinates":[139.92109,35.702421]},"properties":{"id":"12-8259ce7083","name":"河原","reading":"カワラ","pref":"千葉県","prefCode":"12","municipality":"市川市","hazardTypes":["flood"],"evidenceLevel":0,"status":"current","disputed":false,"precision":"oaza","areaKey":"122030560","elements":["kawara"],"summary":"要素辞書に一致（kawara）。出典による裏づけは未確認。","zones":[],"dataset":"candidates"}},{"type":"Feature","geometry":{"type":"Point","coordinates":[139.925937,35.727842]},"properties":{"id":"12-70ebcd7a92","name":"菅野一丁目","reading":"スガノ 1","pref":"千葉県","prefCode":"12","municipality":"市川市","hazardTypes":["landslide","soft_ground"],"evidenceLevel":0,"status":"current","disputed":false,"precision":"oaza","areaKey":"12203013001","elements":["wetland_plants"],"summary":"要素辞書に一致（wetland_plants）。出典による裏づけは未確認。","zones":[],"dataset":"candidates"}},{"type":"Feature","geometry":{"type":"Point","coordinates":[139.930899,35.728285]},"properties":{"id":"12-219aec21e7","name":"東菅野一丁目","reading":"ヒガシスガノ 1","pref":"千葉県","prefCode":"12","municipality":"市川市","hazardTypes":["landslide","soft_ground"],"evidenceLevel":0,"status":"current","disputed":false,"precision":"oaza","areaKey":"12203014001","elements":["wetland_plants"],"summary":"要素辞書に一致（wetland_plants）。出典による裏づけは未確認。","zones":[],"dataset":"candidates"}},{"type":"Feature","geometry":{"type":"Point","coordinates":[139.989272,35.707919]},"properties":{"id":"12-47f8eaaaa9","name":"夏見一丁目","reading":"ナツミ 1","pref":"千葉県","prefCode":"12","municipality":"船橋市","hazardTypes":["debris_flow","slope_failure"],"evidenceLevel":0,"status":"current","disputed":false,"precision":"oaza","areaKey":"12204043001","elements":["nazu_natsu"],"summary":"要素辞書に一致（nazu_natsu）。出典による裏づけは未確認。","zones":[],"dataset":"candidates"}},{"type":"Feature","geometry":{"type":"Point","coordinates":[139.992522,35.718365]},"properties":{"id":"12-b3ed1a1d16","name":"夏見台一丁目","reading":"ナツミダイ 1","pref":"千葉県","prefCode":"12","municipality":"船橋市","hazardTypes":["debris_flow","slope_failure","landslide"],"evidenceLevel":0,"status":"current","disputed":false,"precision":"oaza","areaKey":"12204044001","elements":["nazu_natsu","tai"],"summary":"要素辞書に一致（nazu_natsu・tai）。出典による裏づけは未確認。","zones":[],"dataset":"candidates"}},{"type":"Feature","geometry":{"type":"Point","coordinates":[139.997117,35.719326]},"properties":{"id":"12-ef1e181fa8","name":"夏見町二丁目","reading":"ナツミチョウ 2","pref":"千葉県","prefCode":"12","municipality":"船橋市","hazardTypes":["debris_flow","slope_failure"],"evidenceLevel":0,"status":"current","disputed":false,"precision":"oaza","areaKey":null,"elements":["nazu_natsu"],"summary":"要素辞書に一致（nazu_natsu）。出典による裏づけは未確認。","zones":[],"dataset":"candidates"}},{"type":"Feature","geometry":{"type":"Point","coordinates":[139.837639,34.928684]},"properties":{"id":"12-6c882dec0f","name":"蒲生下","reading":null,"pref":"千葉県","prefCode":"12","municipality":"館山市","hazardTypes":["landslide","soft_ground"],"evidenceLevel":0,"status":"current","disputed":false,"precision":"koaza","areaKey":"122050400","elements":["wetland_plants"],"summary":"要素辞書に一致（wetland_plants）。出典による裏づけは未確認。","zones":[],"dataset":"candidates"}},{"type":"Feature","geometry":{"type":"Point","coordinates":[139.866551,34.971834]},"properties":{"id":"12-a492a7c880","name":"上真倉","reading":"カミサナグラ","pref":"千葉県","prefCode":"12","municipality":"館山市","hazardTypes":["slope_failure","rockfall"],"evidenceLevel":0,"status":"current","disputed":false,"precision":"oaza","areaKey":null,"elements":["kura"],"summary":"要素辞書に一致（kura）。出典による裏づけは未確認。","zones":[],"dataset":"candidates"}},{"type":"Feature","geometry":{"type":"Point","coordinates":[139.788823,34.956647]},"properties":{"id":"12-8ebca3b3c6","name":"坂足","reading":"サカダル","pref":"千葉県","prefCode":"12","municipality":"館山市","hazardTypes":["flood","inundation"],"evidenceLevel":0,"status":"current","disputed":false,"precision":"oaza","areaKey":"122050340","elements":["ashi"],"summary":"要素辞書に一致（ashi）。出典による裏づけは未確認。","zones":[],"dataset":"candidates"}},{"type":"Feature","geometry":{"type":"Point","coordinates":[139.871462,34.979954]},"properties":{"id":"12-a118f662b4","name":"下真倉","reading":"シモサナグラ","pref":"千葉県","prefCode":"12","municipality":"館山市","hazardTypes":["slope_failure","rockfall"],"evidenceLevel":0,"status":"current","disputed":false,"precision":"oaza","areaKey":"122050030","elements":["kura"],"summary":"要素辞書に一致（kura）。出典による裏づけは未確認。","zones":[],"dataset":"candidates"}},{"type":"Feature","geometry":{"type":"Point","coordinates":[139.896891,34.963218]},"properties":{"id":"12-3939c1067a","name":"山荻","reading":"ヤモオギ","pref":"千葉県","prefCode":"12","municipality":"館山市","hazardTypes":["slope_failure"],"evidenceLevel":0,"status":"current","disputed":false,"precision":"oaza","areaKey":"122050570","elements":["suki_hagu"],"summary":"要素辞書に一致（suki_hagu）。出典による裏づけは未確認。","zones":[],"dataset":"candidates"}},{"type":"Feature","geometry":{"type":"Point","coordinates":[139.919714,35.427602]},"properties":{"id":"12-40106cfd11","name":"瓜倉","reading":"ウリクラ","pref":"千葉県","prefCode":"12","municipality":"木更津市","hazardTypes":["slope_failure","rockfall"],"evidenceLevel":0,"status":"current","disputed":false,"precision":"oaza","areaKey":"122066630","elements":["kura"],"summary":"要素辞書に一致（kura）。出典による裏づけは未確認。","zones":[],"dataset":"candidates"}},{"type":"Feature","geometry":{"type":"Point","coordinates":[139.920384,35.350572]},"properties":{"id":"12-2188881ed4","name":"大久保","reading":"オオクボ","pref":"千葉県","prefCode":"12","municipality":"木更津市","hazardTypes":["slope_failure","inundation","landslide"],"evidenceLevel":0,"status":"current","disputed":false,"precision":"oaza","areaKey":"12206224000","elements":["afu_oo","kubo"],"summary":"要素辞書に一致（afu_oo・kubo）。出典による裏づけは未確認。","zones":[],"dataset":"candidates"}},{"type":"Feature","geometry":{"type":"Point","coordinates":[139.990296,35.34388]},"properties":{"id":"12-5df8374dba","name":"かずさ鎌足一丁目","reading":"カズサカマタリ 1","pref":"千葉県","prefCode":"12","municipality":"木更津市","hazardTypes":["flood","inundation"],"evidenceLevel":0,"status":"current","disputed":false,"precision":"oaza","areaKey":"12206562001","elements":["ashi"],"summary":"要素辞書に一致（ashi）。出典による裏づけは未確認。","zones":[],"dataset":"candidates"}},{"type":"Feature","geometry":{"type":"Point","coordinates":[140.036001,35.361996]},"properties":{"id":"12-dd57867127","name":"上根岸","reading":"カミネギシ","pref":"千葉県","prefCode":"12","municipality":"木更津市","hazardTypes":["slope_failure"],"evidenceLevel":0,"status":"current","disputed":false,"precision":"oaza","areaKey":"122068130","elements":["kake"],"summary":"要素辞書に一致（kake）。出典による裏づけは未確認。","zones":[],"dataset":"candidates"}},{"type":"Feature","geometry":{"type":"Point","coordinates":[139.927162,35.367303]},"properties":{"id":"12-9f4c7f7f36","name":"内田","reading":null,"pref":"千葉県","prefCode":"12","municipality":"木更津市","hazardTypes":["debris_flow","flood"],"evidenceLevel":0,"status":"current","disputed":false,"precision":"koaza","areaKey":"122061141","elements":["uchide"],"summary":"要素辞書に一致（uchide）。出典による裏づけは未確認。","zones":[],"dataset":"candidates"}},{"type":"Feature","geometry":{"type":"Point","coordinates":[139.975435,35.390742]},"properties":{"id":"12-bd09a4848e","name":"菅生","reading":"スゴウ","pref":"千葉県","prefCode":"12","municipality":"木更津市","hazardTypes":["landslide","soft_ground"],"evidenceLevel":0,"status":"current","disputed":false,"precision":"oaza","areaKey":"122063411","elements":["wetland_plants"],"summary":"要素辞書に一致（wetland_plants）。出典による裏づけは未確認。","zones":[],"dataset":"candidates"}},{"type":"Feature","geometry":{"type":"Point","coordinates":[140.036072,35.356625]},"properties":{"id":"12-1a0e038d2a","name":"根岸","reading":"ネギシ","pref":"千葉県","prefCode":"12","municipality":"木更津市","hazardTypes":["slope_failure"],"evidenceLevel":0,"status":"current","disputed":false,"precision":"oaza","areaKey":"122068120","elements":["kake"],"summary":"要素辞書に一致（kake）。出典による裏づけは未確認。","zones":[],"dataset":"candidates"}},{"type":"Feature","geometry":{"type":"Point","coordinates":[139.889492,35.827666]},"properties":{"id":"12-4b3a18b7c9","name":"外河原","reading":null,"pref":"千葉県","prefCode":"12","municipality":"松戸市","hazardTypes":["flood"],"evidenceLevel":0,"status":"current","disputed":false,"precision":"oaza","areaKey":null,"elements":["kawara"],"summary":"要素辞書に一致（kawara）。出典による裏づけは未確認。","zones":[],"dataset":"candidates"}},{"type":"Feature","geometry":{"type":"Point","coordinates":[139.939845,35.781403]},"properties":{"id":"12-c2f7848960","name":"河原塚","reading":"カワラヅカ","pref":"千葉県","prefCode":"12","municipality":"松戸市","hazardTypes":["flood"],"evidenceLevel":0,"status":"current","disputed":false,"precision":"oaza","areaKey":"122070130","elements":["kawara"],"summary":"要素辞書に一致（kawara）。出典による裏づけは未確認。","zones":[],"dataset":"candidates"}},{"type":"Feature","geometry":{"type":"Point","coordinates":[139.925173,35.803914]},"properties":{"id":"12-5f328ee247","name":"中和倉","reading":"ナカワクラ","pref":"千葉県","prefCode":"12","municipality":"松戸市","hazardTypes":["slope_failure","rockfall"],"evidenceLevel":0,"status":"current","disputed":false,"precision":"oaza","areaKey":"122070920","elements":["kura"],"summary":"要素辞書に一致（kura）。出典による裏づけは未確認。","zones":[],"dataset":"candidates"}},{"type":"Feature","geometry":{"type":"Point","coordinates":[139.914575,35.813228]},"properties":{"id":"12-46826c27fd","name":"西馬橋蔵元町","reading":"ニシマバシクラモトチョウ","pref":"千葉県","prefCode":"12","municipality":"松戸市","hazardTypes":["slope_failure","rockfall"],"evidenceLevel":0,"status":"current","disputed":false,"precision":"oaza","areaKey":"122070960","elements":["kura"],"summary":"要素辞書に一致（kura）。出典による裏づけは未確認。","zones":[],"dataset":"candidates"}},{"type":"Feature","geometry":{"type":"Point","coordinates":[139.904876,35.772002]},"properties":{"id":"12-63e49c814c","name":"二十世紀が丘柿の木町","reading":"ニジュッセイキガオカカキノキチョウ","pref":"千葉県","prefCode":"12","municipality":"松戸市","hazardTypes":["slope_failure"],"evidenceLevel":0,"status":"current","disputed":false,"precision":"oaza","areaKey":"122070970","elements":["kake"],"summary":"要素辞書に一致（kake）。出典による裏づけは未確認。","zones":[],"dataset":"candidates"}},{"type":"Feature","geometry":{"type":"Point","coordinates":[139.96333,35.782958]},"properties":{"id":"12-0d5c4384e5","name":"松飛台","reading":"マツヒダイ","pref":"千葉県","prefCode":"12","municipality":"松戸市","hazardTypes":["slope_failure","debris_flow","landslide"],"evidenceLevel":0,"status":"current","disputed":false,"precision":"oaza","areaKey":"122071240","elements":["tobi","tai"],"summary":"要素辞書に一致（tobi・tai）。出典による裏づけは未確認。","zones":[],"dataset":"candidates"}},{"type":"Feature","geometry":{"type":"Point","coordinates":[139.796048,36.065709]},"properties":{"id":"12-5b5e6b3ee9","name":"関宿元町飛地","reading":null,"pref":"千葉県","prefCode":"12","municipality":"野田市","hazardTypes":["slope_failure","debris_flow"],"evidenceLevel":0,"status":"current","disputed":false,"precision":"oaza","areaKey":null,"elements":["tobi"],"summary":"要素辞書に一致（tobi）。出典による裏づけは未確認。","zones":[],"dataset":"candidates"}},{"type":"Feature","geometry":{"type":"Point","coordinates":[139.793256,36.063526]},"properties":{"id":"12-dd1da07191","name":"関宿江戸町飛地","reading":null,"pref":"千葉県","prefCode":"12","municipality":"野田市","hazardTypes":["slope_failure","debris_flow"],"evidenceLevel":0,"status":"current","disputed":false,"precision":"oaza","areaKey":"122080770","elements":["tobi"],"summary":"要素辞書に一致（tobi）。出典による裏づけは未確認。","zones":[],"dataset":"candidates"}},{"type":"Feature","geometry":{"type":"Point","coordinates":[139.875269,35.949032]},"properties":{"id":"12-3f3564e1f5","name":"新田鹿島原","reading":null,"pref":"千葉県","prefCode":"12","municipality":"野田市","hazardTypes":["landslide","soft_ground"],"evidenceLevel":0,"status":"current","disputed":false,"precision":"koaza","areaKey":"122080170","elements":["shishi"],"summary":"要素辞書に一致（shishi）。出典による裏づけは未確認。","zones":[],"dataset":"candidates"}},{"type":"Feature","geometry":{"type":"Point","coordinates":[139.852466,35.945147]},"properties":{"id":"12-2f1da43387","name":"中野台鹿島町","reading":"ナカノダイカシマチョウ","pref":"千葉県","prefCode":"12","municipality":"野田市","hazardTypes":["landslide","soft_ground"],"evidenceLevel":0,"status":"current","disputed":false,"precision":"oaza","areaKey":"122080060","elements":["shishi","tai"],"summary":"要素辞書に一致（shishi・tai）。出典による裏づけは未確認。","zones":[],"dataset":"candidates"}},{"type":"Feature","geometry":{"type":"Point","coordinates":[139.824807,36.035686]},"properties":{"id":"12-c302d4c9b0","name":"菖蒲島","reading":null,"pref":"千葉県","prefCode":"12","municipality":"野田市","hazardTypes":["landslide","soft_ground"],"evidenceLevel":0,"status":"current","disputed":false,"precision":"koaza","areaKey":"122080680","elements":["wetland_plants"],"summary":"要素辞書に一致（wetland_plants）。出典による裏づけは未確認。","zones":[],"dataset":"candidates"}},{"type":"Feature","geometry":{"type":"Point","coordinates":[139.888413,35.923052]},"properties":{"id":"12-c5a56e7307","name":"山崎梅の台","reading":"ヤマザキウメノダイ","pref":"千葉県","prefCode":"12","municipality":"野田市","hazardTypes":["landslide","slope_failure"],"evidenceLevel":0,"status":"current","disputed":false,"precision":"oaza","areaKey":"122080250","elements":["ume","tai"],"summary":"要素辞書に一致（ume・tai）。出典による裏づけは未確認。","zones":[],"dataset":"candidates"}},{"type":"Feature","geometry":{"type":"Point","coordinates":[140.299095,35.443656]},"properties":{"id":"12-1dac7be6de","name":"小林飛地","reading":null,"pref":"千葉県","prefCode":"12","municipality":"茂原市","hazardTypes":["slope_failure","debris_flow"],"evidenceLevel":0,"status":"current","disputed":false,"precision":"oaza","areaKey":"122100790","elements":["tobi"],"summary":"要素辞書に一致（tobi）。出典による裏づけは未確認。","zones":[],"dataset":"candidates"}},{"type":"Feature","geometry":{"type":"Point","coordinates":[140.25226,35.438389]},"properties":{"id":"12-ff1e3c1336","name":"芦網","reading":"アシアミ","pref":"千葉県","prefCode":"12","municipality":"茂原市","hazardTypes":["flood","inundation"],"evidenceLevel":0,"status":"current","disputed":false,"precision":"oaza","areaKey":"122100420","elements":["ashi"],"summary":"要素辞書に一致（ashi）。出典による裏づけは未確認。","zones":[],"dataset":"candidates"}},{"type":"Feature","geometry":{"type":"Point","coordinates":[140.32601,35.420586]},"properties":{"id":"12-1d83a1214e","name":"川島飛地","reading":"カワシマトビチ","pref":"千葉県","prefCode":"12","municipality":"茂原市","hazardTypes":["slope_failure","debris_flow"],"evidenceLevel":0,"status":"current","disputed":false,"precision":"oaza","areaKey":"122100810","elements":["tobi"],"summary":"要素辞書に一致（tobi）。出典による裏づけは未確認。","zones":[],"dataset":"candidates"}},{"type":"Feature","geometry":{"type":"Point","coordinates":[140.334246,35.433042]},"properties":{"id":"12-683220c975","name":"北高根飛地","reading":"キタタカネトビチ","pref":"千葉県","prefCode":"12","municipality":"茂原市","hazardTypes":["slope_failure","debris_flow"],"evidenceLevel":0,"status":"current","disputed":false,"precision":"oaza","areaKey":null,"elements":["tobi"],"summary":"要素辞書に一致（tobi）。出典による裏づけは未確認。","zones":[],"dataset":"candidates"}},{"type":"Feature","geometry":{"type":"Point","coordinates":[140.300778,35.458691]},"properties":{"id":"12-7df8a78625","name":"深田","reading":null,"pref":"千葉県","prefCode":"12","municipality":"茂原市","hazardTypes":["soft_ground","inundation"],"evidenceLevel":0,"status":"current","disputed":false,"precision":"koaza","areaKey":"122100340","elements":["fuke"],"summary":"要素辞書に一致（fuke）。出典による裏づけは未確認。","zones":[],"dataset":"candidates"}},{"type":"Feature","geometry":{"type":"Point","coordinates":[140.315262,35.396473]},"properties":{"id":"12-d574aed2d2","name":"猿袋","reading":"サルブクロ","pref":"千葉県","prefCode":"12","municipality":"茂原市","hazardTypes":["slope_failure"],"evidenceLevel":0,"status":"current","disputed":false,"precision":"oaza","areaKey":"122100540","elements":["saru"],"summary":"要素辞書に一致（saru）。出典による裏づけは未確認。","zones":[],"dataset":"candidates"}},{"type":"Feature","geometry":{"type":"Point","coordinates":[140.338467,35.435224]},"properties":{"id":"12-dbf546a65f","name":"中之郷飛地","reading":"ナカノゴウトビチ","pref":"千葉県","prefCode":"12","municipality":"茂原市","hazardTypes":["slope_failure","debris_flow"],"evidenceLevel":0,"status":"current","disputed":false,"precision":"oaza","areaKey":"122100800","elements":["tobi"],"summary":"要素辞書に一致（tobi）。出典による裏づけは未確認。","zones":[],"dataset":"candidates"}},{"type":"Feature","geometry":{"type":"Point","coordinates":[140.370086,35.482595]},"properties":{"id":"12-dc831b02b9","name":"御蔵芝","reading":"ミクラシバ","pref":"千葉県","prefCode":"12","municipality":"茂原市","hazardTypes":["slope_failure","rockfall"],"evidenceLevel":0,"status":"current","disputed":false,"precision":"oaza","areaKey":"122100740","elements":["kura"],"summary":"要素辞書に一致（kura）。出典による裏づけは未確認。","zones":[],"dataset":"candidates"}},{"type":"Feature","geometry":{"type":"Point","coordinates":[140.33472,35.806744]},"properties":{"id":"12-c24e7457fb","name":"赤荻","reading":"アカオギ","pref":"千葉県","prefCode":"12","municipality":"成田市","hazardTypes":["slope_failure"],"evidenceLevel":0,"status":"current","disputed":false,"precision":"oaza","areaKey":"122110820","elements":["suki_hagu"],"summary":"要素辞書に一致（suki_hagu）。出典による裏づけは未確認。","zones":[],"dataset":"candidates"}},{"type":"Feature","geometry":{"type":"Point","coordinates":[140.327648,35.819379]},"properties":{"id":"12-0060d321e6","name":"芦田","reading":"アシダ","pref":"千葉県","prefCode":"12","municipality":"成田市","hazardTypes":["flood","inundation"],"evidenceLevel":0,"status":"current","disputed":false,"precision":"oaza","areaKey":"122110790","elements":["ashi"],"summary":"要素辞書に一致（ashi）。出典による裏づけは未確認。","zones":[],"dataset":"candidates"}},{"type":"Feature","geometry":{"type":"Point","coordinates":[140.32604,35.845813]},"properties":{"id":"12-027982c2a1","name":"磯部","reading":"イソベ","pref":"千葉県","prefCode":"12","municipality":"成田市","hazardTypes":["rockfall","debris_flow"],"evidenceLevel":0,"status":"current","disputed":false,"precision":"oaza","areaKey":"122110920","elements":["iso_ishi"],"summary":"要素辞書に一致（iso_ishi）。出典による裏づけは未確認。","zones":[],"dataset":"candidates"}},{"type":"Feature","geometry":{"type":"Point","coordinates":[140.353904,35.861645]},"properties":{"id":"12-6220282580","name":"大菅","reading":"オオスゲ","pref":"千葉県","prefCode":"12","municipality":"成田市","hazardTypes":["landslide","soft_ground"],"evidenceLevel":0,"status":"current","disputed":false,"precision":"oaza","areaKey":"122111370","elements":["wetland_plants"],"summary":"要素辞書に一致（wetland_plants）。出典による裏づけは未確認。","zones":[],"dataset":"candidates"}},{"type":"Feature","geometry":{"type":"Point","coordinates":[140.387428,35.855402]},"properties":{"id":"12-af12e84e0d","name":"倉水","reading":"クラミズ","pref":"千葉県","prefCode":"12","municipality":"成田市","hazardTypes":["slope_failure","rockfall"],"evidenceLevel":0,"status":"current","disputed":false,"precision":"oaza","areaKey":null,"elements":["kura"],"summary":"要素辞書に一致（kura）。出典による裏づけは未確認。","zones":[],"dataset":"candidates"}},{"type":"Feature","geometry":{"type":"Point","coordinates":[140.355938,35.779852]},"properties":{"id":"12-f0bd7631e0","name":"小菅","reading":"コスゲ","pref":"千葉県","prefCode":"12","municipality":"成田市","hazardTypes":["landslide","soft_ground"],"evidenceLevel":0,"status":"current","disputed":false,"precision":"oaza","areaKey":"122111010","elements":["wetland_plants"],"summary":"要素辞書に一致（wetland_plants）。出典による裏づけは未確認。","zones":[],"dataset":"candidates"}},{"type":"Feature","geometry":{"type":"Point","coordinates":[140.350467,35.87249]},"properties":{"id":"12-ec6bcc6d6c","name":"猿山","reading":"サルヤマ","pref":"千葉県","prefCode":"12","municipality":"成田市","hazardTypes":["slope_failure"],"evidenceLevel":0,"status":"current","disputed":false,"precision":"oaza","areaKey":"122111360","elements":["saru"],"summary":"要素辞書に一致（saru）。出典による裏づけは未確認。","zones":[],"dataset":"candidates"}},{"type":"Feature","geometry":{"type":"Point","coordinates":[140.393895,35.842983]},"properties":{"id":"12-124b89191c","name":"地蔵原新田","reading":"ジゾウハラシンデン","pref":"千葉県","prefCode":"12","municipality":"成田市","hazardTypes":["slope_failure","rockfall"],"evidenceLevel":0,"status":"current","disputed":false,"precision":"oaza","areaKey":"122111430","elements":["kura"],"summary":"要素辞書に一致（kura）。出典による裏づけは未確認。","zones":[],"dataset":"candidates"}},{"type":"Feature","geometry":{"type":"Point","coordinates":[140.348281,35.84641]},"properties":{"id":"12-624d379e58","name":"高倉","reading":"タカクラ","pref":"千葉県","prefCode":"12","municipality":"成田市","hazardTypes":["slope_failure","rockfall"],"evidenceLevel":0,"status":"current","disputed":false,"precision":"oaza","areaKey":"122111410","elements":["kura"],"summary":"要素辞書に一致（kura）。出典による裏づけは未確認。","zones":[],"dataset":"candidates"}},{"type":"Feature","geometry":{"type":"Point","coordinates":[140.348247,35.79911]},"properties":{"id":"12-0555f13034","name":"野毛平","reading":"ノゲダイラ","pref":"千葉県","prefCode":"12","municipality":"成田市","hazardTypes":["slope_failure"],"evidenceLevel":0,"status":"current","disputed":false,"precision":"oaza","areaKey":"122110730","elements":["nuke"],"summary":"要素辞書に一致（nuke）。出典による裏づけは未確認。","zones":[],"dataset":"candidates"}},{"type":"Feature","geometry":{"type":"Point","coordinates":[140.341552,35.785149]},"properties":{"id":"12-e5d545b2d6","name":"馬場","reading":"ババ","pref":"千葉県","prefCode":"12","municipality":"成田市","hazardTypes":["slope_failure"],"evidenceLevel":0,"status":"current","disputed":false,"precision":"oaza","areaKey":"122111030","elements":["baba"],"summary":"要素辞書に一致（baba）。出典による裏づけは未確認。","zones":[],"dataset":"candidates"}},{"type":"Feature","geometry":{"type":"Point","coordinates":[140.344799,35.77473]},"properties":{"id":"12-7fdf39254e","name":"吉倉","reading":"ヨシクラ","pref":"千葉県","prefCode":"12","municipality":"成田市","hazardTypes":["slope_failure","rockfall"],"evidenceLevel":0,"status":"current","disputed":false,"precision":"oaza","areaKey":"122111070","elements":["kura"],"summary":"要素辞書に一致（kura）。出典による裏づけは未確認。","zones":[],"dataset":"candidates"}},{"type":"Feature","geometry":{"type":"Point","coordinates":[140.240407,35.632994]},"properties":{"id":"12-ebeaf7b6e5","name":"内田・飯塚・宮内入会","reading":null,"pref":"千葉県","prefCode":"12","municipality":"佐倉市","hazardTypes":["debris_flow","flood"],"evidenceLevel":0,"status":"current","disputed":false,"precision":"oaza","areaKey":null,"elements":["uchide"],"summary":"要素辞書に一致（uchide）。出典による裏づけは未確認。","zones":[],"dataset":"candidates"}},{"type":"Feature","geometry":{"type":"Point","coordinates":[140.250515,35.74081]},"properties":{"id":"12-1321613e5c","name":"大佐倉干拓","reading":null,"pref":"千葉県","prefCode":"12","municipality":"佐倉市","hazardTypes":["slope_failure","rockfall"],"evidenceLevel":0,"status":"current","disputed":false,"precision":"oaza","areaKey":null,"elements":["kura"],"summary":"要素辞書に一致（kura）。出典による裏づけは未確認。","zones":[],"dataset":"candidates"}},{"type":"Feature","geometry":{"type":"Point","coordinates":[140.141572,35.742274]},"properties":{"id":"12-5506204e5c","name":"青菅","reading":"アオスゲ","pref":"千葉県","prefCode":"12","municipality":"佐倉市","hazardTypes":["landslide","soft_ground"],"evidenceLevel":0,"status":"current","disputed":false,"precision":"oaza","areaKey":"122120700","elements":["wetland_plants"],"summary":"要素辞書に一致（wetland_plants）。出典による裏づけは未確認。","zones":[],"dataset":"candidates"}},{"type":"Feature","geometry":{"type":"Point","coordinates":[140.228743,35.641367]},"properties":{"id":"12-be1aa4023e","name":"内田","reading":"ウチダ","pref":"千葉県","prefCode":"12","municipality":"佐倉市","hazardTypes":["debris_flow","flood"],"evidenceLevel":0,"status":"current","disputed":false,"precision":"oaza","areaKey":"122121320","elements":["uchide"],"summary":"要素辞書に一致（uchide）。出典による裏づけは未確認。","zones":[],"dataset":"candidates"}},{"type":"Feature","geometry":{"type":"Point","coordinates":[140.251925,35.734231]},"properties":{"id":"12-ffa95d2958","name":"大佐倉","reading":"オオザクラ","pref":"千葉県","prefCode":"12","municipality":"佐倉市","hazardTypes":["slope_failure","rockfall"],"evidenceLevel":0,"status":"current","disputed":false,"precision":"oaza","areaKey":"122120250","elements":["kura"],"summary":"要素辞書に一致（kura）。出典による裏づけは未確認。","zones":[],"dataset":"candidates"}},{"type":"Feature","geometry":{"type":"Point","coordinates":[140.242458,35.716204]},"properties":{"id":"12-4dcca6d70b","name":"大蛇町","reading":"オオジャマチ","pref":"千葉県","prefCode":"12","municipality":"佐倉市","hazardTypes":["slope_failure","debris_flow"],"evidenceLevel":0,"status":"current","disputed":false,"precision":"oaza","areaKey":"122120160","elements":["ja"],"summary":"要素辞書に一致（ja）。出典による裏づけは未確認。","zones":[],"dataset":"candidates"}},{"type":"Feature","geometry":{"type":"Point","coordinates":[140.214295,35.735897]},"properties":{"id":"12-b1d3b4e5cc","name":"鹿島干拓","reading":"カシマカンタク","pref":"千葉県","prefCode":"12","municipality":"佐倉市","hazardTypes":["landslide","soft_ground"],"evidenceLevel":0,"status":"current","disputed":false,"precision":"oaza","areaKey":null,"elements":["shishi"],"summary":"要素辞書に一致（shishi）。出典による裏づけは未確認。","zones":[],"dataset":"candidates"}},{"type":"Feature","geometry":{"type":"Point","coordinates":[140.400144,35.536009]},"properties":{"id":"12-c4e9f8fb19","name":"粟生飛地","reading":"アオトビチ","pref":"千葉県","prefCode":"12","municipality":"東金市","hazardTypes":["slope_failure","debris_flow"],"evidenceLevel":0,"status":"current","disputed":false,"precision":"oaza","areaKey":null,"elements":["tobi"],"summary":"要素辞書に一致（tobi）。出典による裏づけは未確認。","zones":[],"dataset":"candidates"}},{"type":"Feature","geometry":{"type":"Point","coordinates":[140.346491,35.598799]},"properties":{"id":"12-f967c139e6","name":"酒蔵","reading":"シュゾウ","pref":"千葉県","prefCode":"12","municipality":"東金市","hazardTypes":["slope_failure","rockfall"],"evidenceLevel":0,"status":"current","disputed":false,"precision":"oaza","areaKey":"122130600","elements":["kura"],"summary":"要素辞書に一致（kura）。出典による裏づけは未確認。","zones":[],"dataset":"candidates"}},{"type":"Feature","geometry":{"type":"Point","coordinates":[140.424218,35.555814]},"properties":{"id":"12-30a4afc5e6","name":"高倉","reading":"タカクラ","pref":"千葉県","prefCode":"12","municipality":"東金市","hazardTypes":["slope_failure","rockfall"],"evidenceLevel":0,"status":"current","disputed":false,"precision":"oaza","areaKey":"122130500","elements":["kura"],"summary":"要素辞書に一致（kura）。出典による裏づけは未確認。","zones":[],"dataset":"candidates"}},{"type":"Feature","geometry":{"type":"Point","coordinates":[140.377374,35.56773]},"properties":{"id":"12-b0fb312b05","name":"倉の内","reading":null,"pref":"千葉県","prefCode":"12","municipality":"東金市","hazardTypes":["slope_failure","rockfall"],"evidenceLevel":0,"status":"current","disputed":false,"precision":"koaza","areaKey":"12213005201","elements":["kura"],"summary":"要素辞書に一致（kura）。出典による裏づけは未確認。","zones":[],"dataset":"candidates"}},{"type":"Feature","geometry":{"type":"Point","coordinates":[140.394875,35.532012]},"properties":{"id":"12-f8d3bd4cec","name":"西野飛地","reading":"ニシノトビチ","pref":"千葉県","prefCode":"12","municipality":"東金市","hazardTypes":["slope_failure","debris_flow"],"evidenceLevel":0,"status":"current","disputed":false,"precision":"oaza","areaKey":"122130700","elements":["tobi"],"summary":"要素辞書に一致（tobi）。出典による裏づけは未確認。","zones":[],"dataset":"candidates"}},{"type":"Feature","geometry":{"type":"Point","coordinates":[140.390561,35.531938]},"properties":{"id":"12-e328b14b5a","name":"藤下飛地","reading":"フジシタトビチ","pref":"千葉県","prefCode":"12","municipality":"東金市","hazardTypes":["slope_failure","debris_flow"],"evidenceLevel":0,"status":"current","disputed":false,"precision":"oaza","areaKey":"122130690","elements":["tobi"],"summary":"要素辞書に一致（tobi）。出典による裏づけは未確認。","zones":[],"dataset":"candidates"}},{"type":"Feature","geometry":{"type":"Point","coordinates":[140.398653,35.535935]},"properties":{"id":"12-b653322c1f","name":"不動堂飛地","reading":"フドウドウトビチ","pref":"千葉県","prefCode":"12","municipality":"東金市","hazardTypes":["slope_failure","debris_flow"],"evidenceLevel":0,"status":"current","disputed":false,"precision":"oaza","areaKey":null,"elements":["tobi"],"summary":"要素辞書に一致（tobi）。出典による裏づけは未確認。","zones":[],"dataset":"candidates"}},{"type":"Feature","geometry":{"type":"Point","coordinates":[140.648846,35.782921]},"properties":{"id":"12-84431f8552","name":"大久保","reading":null,"pref":"千葉県","prefCode":"12","municipality":"旭市","hazardTypes":["slope_failure","inundation","landslide"],"evidenceLevel":0,"status":"current","disputed":false,"precision":"oaza","areaKey":null,"elements":["afu_oo","kubo"],"summary":"要素辞書に一致（afu_oo・kubo）。出典による裏づけは未確認。","zones":[],"dataset":"candidates"}},{"type":"Feature","geometry":{"type":"Point","coordinates":[140.657749,35.69877]},"properties":{"id":"12-14abc70b57","name":"足川","reading":"アシカワ","pref":"千葉県","prefCode":"12","municipality":"旭市","hazardTypes":["flood","inundation"],"evidenceLevel":0,"status":"current","disputed":false,"precision":"oaza","areaKey":"12215008001","elements":["ashi"],"summary":"要素辞書に一致（ashi）。出典による裏づけは未確認。","zones":[],"dataset":"candidates"}},{"type":"Feature","geometry":{"type":"Point","coordinates":[140.716453,35.741165]},"properties":{"id":"12-c0079d3439","name":"倉橋","reading":"クラハシ","pref":"千葉県","prefCode":"12","municipality":"旭市","hazardTypes":["slope_failure","rockfall"],"evidenceLevel":0,"status":"current","disputed":false,"precision":"oaza","areaKey":"122150240","elements":["kura"],"summary":"要素辞書に一致（kura）。出典による裏づけは未確認。","zones":[],"dataset":"candidates"}},{"type":"Feature","geometry":{"type":"Point","coordinates":[140.667174,35.71151]},"properties":{"id":"12-7dc74cfcac","name":"西足洗","reading":"ニシアシアライ","pref":"千葉県","prefCode":"12","municipality":"旭市","hazardTypes":["flood","inundation"],"evidenceLevel":0,"status":"current","disputed":false,"precision":"oaza","areaKey":"12215007001","elements":["ashi"],"summary":"要素辞書に一致（ashi）。出典による裏づけは未確認。","zones":[],"dataset":"candidates"}},{"type":"Feature","geometry":{"type":"Point","coordinates":[140.677327,35.712687]},"properties":{"id":"12-3c29bab9c8","name":"東足洗","reading":"ヒガシアシアライ","pref":"千葉県","prefCode":"12","municipality":"旭市","hazardTypes":["flood","inundation"],"evidenceLevel":0,"status":"current","disputed":false,"precision":"oaza","areaKey":"122150060","elements":["ashi"],"summary":"要素辞書に一致（ashi）。出典による裏づけは未確認。","zones":[],"dataset":"candidates"}},{"type":"Feature","geometry":{"type":"Point","coordinates":[140.698782,35.729107]},"properties":{"id":"12-0376a3cc31","name":"蛇園","reading":"ヘビソノ","pref":"千葉県","prefCode":"12","municipality":"旭市","hazardTypes":["slope_failure","debris_flow"],"evidenceLevel":0,"status":"current","disputed":false,"precision":"oaza","areaKey":"122150250","elements":["ja"],"summary":"要素辞書に一致（ja）。出典による裏づけは未確認。","zones":[],"dataset":"candidates"}},{"type":"Feature","geometry":{"type":"Point","coordinates":[140.047245,35.687914]},"properties":{"id":"12-0b491c904e","name":"大久保一丁目","reading":"オオクボ 1","pref":"千葉県","prefCode":"12","municipality":"習志野市","hazardTypes":["slope_failure","inundation","landslide"],"evidenceLevel":0,"status":"current","disputed":false,"precision":"oaza","areaKey":"12216008001","elements":["afu_oo","kubo"],"summary":"要素辞書に一致（afu_oo・kubo）。出典による裏づけは未確認。","zones":[],"dataset":"candidates"}},{"type":"Feature","geometry":{"type":"Point","coordinates":[140.040597,35.685456]},"properties":{"id":"12-d2b310b773","name":"本大久保一丁目","reading":"モトオオクボ 1","pref":"千葉県","prefCode":"12","municipality":"習志野市","hazardTypes":["slope_failure","inundation","landslide"],"evidenceLevel":0,"status":"current","disputed":false,"precision":"oaza","areaKey":"12216009001","elements":["afu_oo","kubo"],"summary":"要素辞書に一致（afu_oo・kubo）。出典による裏づけは未確認。","zones":[],"dataset":"candidates"}},{"type":"Feature","geometry":{"type":"Point","coordinates":[139.92068,35.916666]},"properties":{"id":"12-b331d154c2","name":"上三ケ尾飛地","reading":null,"pref":"千葉県","prefCode":"12","municipality":"柏市","hazardTypes":["slope_failure","debris_flow"],"evidenceLevel":0,"status":"current","disputed":false,"precision":"oaza","areaKey":"122170240","elements":["tobi"],"summary":"要素辞書に一致（tobi）。出典による裏づけは未確認。","zones":[],"dataset":"candidates"}},{"type":"Feature","geometry":{"type":"Point","coordinates":[139.922612,35.916332]},"properties":{"id":"12-8a68833703","name":"下三ケ尾飛地","reading":null,"pref":"千葉県","prefCode":"12","municipality":"柏市","hazardTypes":["slope_failure","debris_flow"],"evidenceLevel":0,"status":"current","disputed":false,"precision":"oaza","areaKey":"122170360","elements":["tobi"],"summary":"要素辞書に一致（tobi）。出典による裏づけは未確認。","zones":[],"dataset":"candidates"}},{"type":"Feature","geometry":{"type":"Point","coordinates":[139.922315,35.915852]},"properties":{"id":"12-0f85b16cf5","name":"西三ケ尾飛地","reading":null,"pref":"千葉県","prefCode":"12","municipality":"柏市","hazardTypes":["slope_failure","debris_flow"],"evidenceLevel":0,"status":"current","disputed":false,"precision":"oaza","areaKey":"122170670","elements":["tobi"],"summary":"要素辞書に一致（tobi）。出典による裏づけは未確認。","zones":[],"dataset":"candidates"}},{"type":"Feature","geometry":{"type":"Point","coordinates":[139.939905,35.906563]},"properties":{"id":"12-fd7ec1c88e","name":"青田新田飛地","reading":"アオタシンデントビチ","pref":"千葉県","prefCode":"12","municipality":"柏市","hazardTypes":["slope_failure","debris_flow"],"evidenceLevel":0,"status":"current","disputed":false,"precision":"oaza","areaKey":"122170010","elements":["tobi"],"summary":"要素辞書に一致（tobi）。出典による裏づけは未確認。","zones":[],"dataset":"candidates"}},{"type":"Feature","geometry":{"type":"Point","coordinates":[140.324293,35.153772]},"properties":{"id":"12-36d8b398d6","name":"沢倉","reading":"サワクラ","pref":"千葉県","prefCode":"12","municipality":"勝浦市","hazardTypes":["slope_failure","rockfall"],"evidenceLevel":0,"status":"current","disputed":false,"precision":"oaza","areaKey":"122180080","elements":["kura"],"summary":"要素辞書に一致（kura）。出典による裏づけは未確認。","zones":[],"dataset":"candidates"}},{"type":"Feature","geometry":{"type":"Point","coordinates":[140.281716,35.209725]},"properties":{"id":"12-60af8fe89a","name":"中倉","reading":"ナカグラ","pref":"千葉県","prefCode":"12","municipality":"勝浦市","hazardTypes":["slope_failure","rockfall"],"evidenceLevel":0,"status":"current","disputed":false,"precision":"oaza","areaKey":"122180420","elements":["kura"],"summary":"要素辞書に一致（kura）。出典による裏づけは未確認。","zones":[],"dataset":"candidates"}},{"type":"Feature","geometry":{"type":"Point","coordinates":[140.210336,35.489553]},"properties":{"id":"12-b2b39be457","name":"山之郷飛地","reading":null,"pref":"千葉県","prefCode":"12","municipality":"市原市","hazardTypes":["slope_failure","debris_flow"],"evidenceLevel":0,"status":"current","disputed":false,"precision":"oaza","areaKey":"122191950","elements":["tobi"],"summary":"要素辞書に一致（tobi）。出典による裏づけは未確認。","zones":[],"dataset":"candidates"}},{"type":"Feature","geometry":{"type":"Point","coordinates":[140.250398,35.492355]},"properties":{"id":"12-75b8736298","name":"板倉","reading":null,"pref":"千葉県","prefCode":"12","municipality":"市原市","hazardTypes":["slope_failure","rockfall"],"evidenceLevel":0,"status":"current","disputed":false,"precision":"oaza","areaKey":null,"elements":["kura"],"summary":"要素辞書に一致（kura）。出典による裏づけは未確認。","zones":[],"dataset":"candidates"}},{"type":"Feature","geometry":{"type":"Point","coordinates":[140.028584,35.486561]},"properties":{"id":"12-71f108159e","name":"姉崎海岸","reading":"アネサキカイガン","pref":"千葉県","prefCode":"12","municipality":"市原市","hazardTypes":["slope_failure"],"evidenceLevel":0,"status":"current","disputed":false,"precision":"oaza","areaKey":"122191060","elements":["kake"],"summary":"要素辞書に一致（kake）。出典による裏づけは未確認。","zones":[],"dataset":"candidates"}},{"type":"Feature","geometry":{"type":"Point","coordinates":[140.148294,35.446622]},"properties":{"id":"12-a229557d2a","name":"磯ケ谷","reading":"イソガヤ","pref":"千葉県","prefCode":"12","municipality":"市原市","hazardTypes":["rockfall","debris_flow"],"evidenceLevel":0,"status":"current","disputed":false,"precision":"oaza","areaKey":"122191560","elements":["iso_ishi"],"summary":"要素辞書に一致（iso_ishi）。出典による裏づけは未確認。","zones":[],"dataset":"candidates"}},{"type":"Feature","geometry":{"type":"Point","coordinates":[140.135403,35.275483]},"properties":{"id":"12-1b25ab78ed","name":"大久保","reading":"オオクボ","pref":"千葉県","prefCode":"12","municipality":"市原市","hazardTypes":["slope_failure","inundation","landslide"],"evidenceLevel":0,"status":"current","disputed":false,"precision":"oaza","areaKey":"122192630","elements":["afu_oo","kubo"],"summary":"要素辞書に一致（afu_oo・kubo）。出典による裏づけは未確認。","zones":[],"dataset":"candidates"}},{"type":"Feature","geometry":{"type":"Point","coordinates":[140.117261,35.378244]},"properties":{"id":"12-2bb82f5b07","name":"大蔵","reading":"オオクラ","pref":"千葉県","prefCode":"12","municipality":"市原市","hazardTypes":["slope_failure","rockfall"],"evidenceLevel":0,"status":"current","disputed":false,"precision":"oaza","areaKey":"122192120","elements":["kura"],"summary":"要素辞書に一致（kura）。出典による裏づけは未確認。","zones":[],"dataset":"candidates"}},{"type":"Feature","geometry":{"type":"Point","coordinates":[140.160083,35.498962]},"properties":{"id":"12-200242df92","name":"荻作","reading":"オギサク","pref":"千葉県","prefCode":"12","municipality":"市原市","hazardTypes":["slope_failure"],"evidenceLevel":0,"status":"current","disputed":false,"precision":"oaza","areaKey":"122191930","elements":["suki_hagu"],"summary":"要素辞書に一致（suki_hagu）。出典による裏づけは未確認。","zones":[],"dataset":"candidates"}},{"type":"Feature","geometry":{"type":"Point","coordinates":[140.132563,35.309077]},"properties":{"id":"12-195543fd5b","name":"柿木台","reading":"カキノキダイ","pref":"千葉県","prefCode":"12","municipality":"市原市","hazardTypes":["slope_failure","landslide"],"evidenceLevel":0,"status":"current","disputed":false,"precision":"oaza","areaKey":"122192550","elements":["kake","tai"],"summary":"要素辞書に一致（kake・tai）。出典による裏づけは未確認。","zones":[],"dataset":"candidates"}},{"type":"Feature","geometry":{"type":"Point","coordinates":[140.186817,35.333798]},"properties":{"id":"12-3f298a8cbe","name":"吉沢","reading":"キチサワ","pref":"千葉県","prefCode":"12","municipality":"市原市","hazardTypes":["landslide","soft_ground"],"evidenceLevel":0,"status":"current","disputed":false,"precision":"oaza","areaKey":"122192480","elements":["wetland_plants"],"summary":"要素辞書に一致（wetland_plants）。出典による裏づけは未確認。","zones":[],"dataset":"candidates"}},{"type":"Feature","geometry":{"type":"Point","coordinates":[140.164016,35.530216]},"properties":{"id":"12-6654782278","name":"草刈","reading":"クサカリ","pref":"千葉県","prefCode":"12","municipality":"市原市","hazardTypes":["slope_failure"],"evidenceLevel":0,"status":"current","disputed":false,"precision":"oaza","areaKey":"122190970","elements":["kake"],"summary":"要素辞書に一致（kake）。出典による裏づけは未確認。","zones":[],"dataset":"candidates"}},{"type":"Feature","geometry":{"type":"Point","coordinates":[140.080084,35.539082]},"properties":{"id":"12-c499917d62","name":"五井海岸","reading":"ゴイカイガン","pref":"千葉県","prefCode":"12","municipality":"市原市","hazardTypes":["slope_failure"],"evidenceLevel":0,"status":"current","disputed":false,"precision":"oaza","areaKey":"122190030","elements":["kake"],"summary":"要素辞書に一致（kake）。出典による裏づけは未確認。","zones":[],"dataset":"candidates"}},{"type":"Feature","geometry":{"type":"Point","coordinates":[140.064892,35.529134]},"properties":{"id":"12-ce658a8962","name":"五井南海岸","reading":"ゴイミナミカイガン","pref":"千葉県","prefCode":"12","municipality":"市原市","hazardTypes":["slope_failure"],"evidenceLevel":0,"status":"current","disputed":false,"precision":"oaza","areaKey":"122190020","elements":["kake"],"summary":"要素辞書に一致（kake）。出典による裏づけは未確認。","zones":[],"dataset":"candidates"}},{"type":"Feature","geometry":{"type":"Point","coordinates":[140.120884,35.292734]},"properties":{"id":"12-800925efe9","name":"菅野","reading":"スゲノ","pref":"千葉県","prefCode":"12","municipality":"市原市","hazardTypes":["landslide","soft_ground"],"evidenceLevel":0,"status":"current","disputed":false,"precision":"oaza","areaKey":"122192670","elements":["wetland_plants"],"summary":"要素辞書に一致（wetland_plants）。出典による裏づけは未確認。","zones":[],"dataset":"candidates"}},{"type":"Feature","geometry":{"type":"Point","coordinates":[140.222866,35.51162]},"properties":{"id":"12-ff56f45fd1","name":"高倉","reading":"タカクラ","pref":"千葉県","prefCode":"12","municipality":"市原市","hazardTypes":["slope_failure","rockfall"],"evidenceLevel":0,"status":"current","disputed":false,"precision":"oaza","areaKey":"122191810","elements":["kura"],"summary":"要素辞書に一致（kura）。出典による裏づけは未確認。","zones":[],"dataset":"candidates"}},{"type":"Feature","geometry":{"type":"Point","coordinates":[140.051654,35.509829]},"properties":{"id":"12-eda68da8d9","name":"千種海岸","reading":"チグサカイガン","pref":"千葉県","prefCode":"12","municipality":"市原市","hazardTypes":["slope_failure"],"evidenceLevel":0,"status":"current","disputed":false,"precision":"oaza","areaKey":"122190010","elements":["kake"],"summary":"要素辞書に一致（kake）。出典による裏づけは未確認。","zones":[],"dataset":"candidates"}},{"type":"Feature","geometry":{"type":"Point","coordinates":[140.078588,35.492921]},"properties":{"id":"12-7ff760ee3c","name":"野毛","reading":"ノゲ","pref":"千葉県","prefCode":"12","municipality":"市原市","hazardTypes":["slope_failure"],"evidenceLevel":0,"status":"current","disputed":false,"precision":"oaza","areaKey":"122190240","elements":["nuke"],"summary":"要素辞書に一致（nuke）。出典による裏づけは未確認。","zones":[],"dataset":"candidates"}},{"type":"Feature","geometry":{"type":"Point","coordinates":[140.201282,35.343096]},"properties":{"id":"12-2802de0908","name":"平蔵","reading":"ヘイゾウ","pref":"千葉県","prefCode":"12","municipality":"市原市","hazardTypes":["slope_failure","rockfall"],"evidenceLevel":0,"status":"current","disputed":false,"precision":"oaza","areaKey":"122192340","elements":["kura"],"summary":"要素辞書に一致（kura）。出典による裏づけは未確認。","zones":[],"dataset":"candidates"}},{"type":"Feature","geometry":{"type":"Point","coordinates":[140.132143,35.487623]},"properties":{"id":"12-491ddd8966","name":"山倉","reading":"ヤマクラ","pref":"千葉県","prefCode":"12","municipality":"市原市","hazardTypes":["slope_failure","rockfall"],"evidenceLevel":0,"status":"current","disputed":false,"precision":"oaza","areaKey":"122191430","elements":["kura"],"summary":"要素辞書に一致（kura）。出典による裏づけは未確認。","zones":[],"dataset":"candidates"}},{"type":"Feature","geometry":{"type":"Point","coordinates":[140.104536,35.541546]},"properties":{"id":"12-8816ba35f4","name":"八幡海岸通","reading":"ヤワタカイガンドオリ","pref":"千葉県","prefCode":"12","municipality":"市原市","hazardTypes":["slope_failure"],"evidenceLevel":0,"status":"current","disputed":false,"precision":"oaza","areaKey":"122190620","elements":["kake"],"summary":"要素辞書に一致（kake）。出典による裏づけは未確認。","zones":[],"dataset":"candidates"}},{"type":"Feature","geometry":{"type":"Point","coordinates":[140.120579,35.868984]},"properties":{"id":"12-362b5027c6","name":"江蔵地","reading":"エゾウチ","pref":"千葉県","prefCode":"12","municipality":"我孫子市","hazardTypes":["slope_failure","rockfall"],"evidenceLevel":0,"status":"current","disputed":false,"precision":"oaza","areaKey":"122221100","elements":["kura"],"summary":"要素辞書に一致（kura）。出典による裏づけは未確認。","zones":[],"dataset":"candidates"}},{"type":"Feature","geometry":{"type":"Point","coordinates":[140.078656,35.868041]},"properties":{"id":"12-4747d67433","name":"庚申前","reading":null,"pref":"千葉県","prefCode":"12","municipality":"我孫子市","hazardTypes":["slope_failure"],"evidenceLevel":0,"status":"current","disputed":false,"precision":"koaza","areaKey":"122220890","elements":["saru"],"summary":"要素辞書に一致（saru）。出典による裏づけは未確認。","zones":[],"dataset":"candidates"}},{"type":"Feature","geometry":{"type":"Point","coordinates":[140.105724,35.093168]},"properties":{"id":"12-1cf2da1642","name":"磯村","reading":"イソムラ","pref":"千葉県","prefCode":"12","municipality":"鴨川市","hazardTypes":["rockfall","debris_flow"],"evidenceLevel":0,"status":"current","disputed":false,"precision":"oaza","areaKey":"122230210","elements":["iso_ishi"],"summary":"要素辞書に一致（iso_ishi）。出典による裏づけは未確認。","zones":[],"dataset":"candidates"}},{"type":"Feature","geometry":{"type":"Point","coordinates":[140.067765,35.063042]},"properties":{"id":"12-03c5e06d7c","name":"江見青木","reading":"エミアオキ","pref":"千葉県","prefCode":"12","municipality":"鴨川市","hazardTypes":["slope_failure"],"evidenceLevel":0,"status":"current","disputed":false,"precision":"oaza","areaKey":"122230450","elements":["afu_oo"],"summary":"要素辞書に一致（afu_oo）。出典による裏づけは未確認。","zones":[],"dataset":"candidates"}},{"type":"Feature","geometry":{"type":"Point","coordinates":[140.141874,35.124135]},"properties":{"id":"12-7b68fccef2","name":"浜荻","reading":"ハマオギ","pref":"千葉県","prefCode":"12","municipality":"鴨川市","hazardTypes":["slope_failure"],"evidenceLevel":0,"status":"current","disputed":false,"precision":"oaza","areaKey":"122230660","elements":["suki_hagu"],"summary":"要素辞書に一致（suki_hagu）。出典による裏づけは未確認。","zones":[],"dataset":"candidates"}},{"type":"Feature","geometry":{"type":"Point","coordinates":[140.083509,35.229407]},"properties":{"id":"12-1a2ba9a9a4","name":"豊田旧菅間田","reading":null,"pref":"千葉県","prefCode":"12","municipality":"君津市","hazardTypes":["landslide","soft_ground"],"evidenceLevel":0,"status":"current","disputed":false,"precision":"oaza","areaKey":"122251422","elements":["wetland_plants"],"summary":"要素辞書に一致（wetland_plants）。出典による裏づけは未確認。","zones":[],"dataset":"candidates"}},{"type":"Feature","geometry":{"type":"Point","coordinates":[139.965842,35.28444]},"properties":{"id":"12-26c60ad95d","name":"荻作","reading":"オギサク","pref":"千葉県","prefCode":"12","municipality":"君津市","hazardTypes":["slope_failure"],"evidenceLevel":0,"status":"current","disputed":false,"precision":"oaza","areaKey":"122250660","elements":["suki_hagu"],"summary":"要素辞書に一致（suki_hagu）。出典による裏づけは未確認。","zones":[],"dataset":"candidates"}},{"type":"Feature","geometry":{"type":"Point","coordinates":[139.96059,35.25251]},"properties":{"id":"12-263f2ec155","name":"鹿野山","reading":"カノウザン","pref":"千葉県","prefCode":"12","municipality":"君津市","hazardTypes":["landslide","soft_ground"],"evidenceLevel":0,"status":"current","disputed":false,"precision":"oaza","areaKey":"122250830","elements":["shishi"],"summary":"要素辞書に一致（shishi）。出典による裏づけは未確認。","zones":[],"dataset":"candidates"}},{"type":"Feature","geometry":{"type":"Point","coordinates":[140.094051,35.219028]},"properties":{"id":"12-81c89d0aea","name":"草川原","reading":"クサガワラ","pref":"千葉県","prefCode":"12","municipality":"君津市","hazardTypes":["flood"],"evidenceLevel":0,"status":"current","disputed":false,"precision":"oaza","areaKey":"122251390","elements":["kawara"],"summary":"要素辞書に一致（kawara）。出典による裏づけは未確認。","zones":[],"dataset":"candidates"}},{"type":"Feature","geometry":{"type":"Point","coordinates":[140.126173,35.225646]},"properties":{"id":"12-42a2c66710","name":"蔵玉","reading":"クラダマ","pref":"千葉県","prefCode":"12","municipality":"君津市","hazardTypes":["slope_failure","rockfall"],"evidenceLevel":0,"status":"current","disputed":false,"precision":"oaza","areaKey":"122251340","elements":["kura"],"summary":"要素辞書に一致（kura）。出典による裏づけは未確認。","zones":[],"dataset":"candidates"}},{"type":"Feature","geometry":{"type":"Point","coordinates":[139.992832,35.251968]},"properties":{"id":"12-c328d98047","name":"西粟倉","reading":"ニシアワグラ","pref":"千葉県","prefCode":"12","municipality":"君津市","hazardTypes":["slope_failure","rockfall"],"evidenceLevel":0,"status":"current","disputed":false,"precision":"oaza","areaKey":"122250730","elements":["kura"],"summary":"要素辞書に一致（kura）。出典による裏づけは未確認。","zones":[],"dataset":"candidates"}},{"type":"Feature","geometry":{"type":"Point","coordinates":[139.999394,35.255949]},"properties":{"id":"12-4567688e9e","name":"西猪原","reading":"ニシイノハラ","pref":"千葉県","prefCode":"12","municipality":"君津市","hazardTypes":["landslide","soft_ground"],"evidenceLevel":0,"status":"current","disputed":false,"precision":"oaza","areaKey":"122250780","elements":["shishi"],"summary":"要素辞書に一致（shishi）。出典による裏づけは未確認。","zones":[],"dataset":"candidates"}},{"type":"Feature","geometry":{"type":"Point","coordinates":[140.002509,35.318395]},"properties":{"id":"12-214ba606c9","name":"糠田飛地","reading":"ヌカタトビチ","pref":"千葉県","prefCode":"12","municipality":"君津市","hazardTypes":["slope_failure","debris_flow"],"evidenceLevel":0,"status":"current","disputed":false,"precision":"oaza","areaKey":"122251450","elements":["tobi"],"summary":"要素辞書に一致（tobi）。出典による裏づけは未確認。","zones":[],"dataset":"candidates"}},{"type":"Feature","geometry":{"type":"Point","coordinates":[140.009531,35.242865]},"properties":{"id":"12-6745353f54","name":"東粟倉","reading":"ヒガシアワグラ","pref":"千葉県","prefCode":"12","municipality":"君津市","hazardTypes":["slope_failure","rockfall"],"evidenceLevel":0,"status":"current","disputed":false,"precision":"oaza","areaKey":"122250790","elements":["kura"],"summary":"要素辞書に一致（kura）。出典による裏づけは未確認。","zones":[],"dataset":"candidates"}},{"type":"Feature","geometry":{"type":"Point","coordinates":[140.017225,35.253893]},"properties":{"id":"12-9bfcfe59e5","name":"東猪原","reading":"ヒガシイノハラ","pref":"千葉県","prefCode":"12","municipality":"君津市","hazardTypes":["landslide","soft_ground"],"evidenceLevel":0,"status":"current","disputed":false,"precision":"oaza","areaKey":"122250770","elements":["shishi"],"summary":"要素辞書に一致（shishi）。出典による裏づけは未確認。","zones":[],"dataset":"candidates"}},{"type":"Feature","geometry":{"type":"Point","coordinates":[139.847461,35.321865]},"properties":{"id":"12-be5666c4d0","name":"青木","reading":"アオキ","pref":"千葉県","prefCode":"12","municipality":"富津市","hazardTypes":["slope_failure"],"evidenceLevel":0,"status":"current","disputed":false,"precision":"oaza","areaKey":"12226006000","elements":["afu_oo"],"summary":"要素辞書に一致（afu_oo）。出典による裏づけは未確認。","zones":[],"dataset":"candidates"}},{"type":"Feature","geometry":{"type":"Point","coordinates":[139.951263,35.234217]},"properties":{"id":"12-9d87cf9a6f","name":"田倉","reading":"タグラ","pref":"千葉県","prefCode":"12","municipality":"富津市","hazardTypes":["slope_failure","rockfall"],"evidenceLevel":0,"status":"current","disputed":false,"precision":"oaza","areaKey":"122260640","elements":["kura"],"summary":"要素辞書に一致（kura）。出典による裏づけは未確認。","zones":[],"dataset":"candidates"}},{"type":"Feature","geometry":{"type":"Point","coordinates":[140.180445,35.668062]},"properties":{"id":"12-ab5fbc73f7","name":"鹿渡","reading":"シカワタシ","pref":"千葉県","prefCode":"12","municipality":"四街道市","hazardTypes":["landslide","soft_ground"],"evidenceLevel":0,"status":"current","disputed":false,"precision":"oaza","areaKey":"122280110","elements":["shishi"],"summary":"要素辞書に一致（shishi）。出典による裏づけは未確認。","zones":[],"dataset":"candidates"}},{"type":"Feature","geometry":{"type":"Point","coordinates":[140.144477,35.679947]},"properties":{"id":"12-1e36e4c78a","name":"鹿放ケ丘","reading":"ロッポウガオカ","pref":"千葉県","prefCode":"12","municipality":"四街道市","hazardTypes":["landslide","soft_ground"],"evidenceLevel":0,"status":"current","disputed":false,"precision":"oaza","areaKey":"122280100","elements":["shishi"],"summary":"要素辞書に一致（shishi）。出典による裏づけは未確認。","zones":[],"dataset":"candidates"}},{"type":"Feature","geometry":{"type":"Point","coordinates":[140.075957,35.414167]},"properties":{"id":"12-dd697d596d","name":"川原井","reading":"カワハライ","pref":"千葉県","prefCode":"12","municipality":"袖ヶ浦市","hazardTypes":["flood"],"evidenceLevel":0,"status":"current","disputed":false,"precision":"oaza","areaKey":"122290490","elements":["kawara"],"summary":"要素辞書に一致（kawara）。出典による裏づけは未確認。","zones":[],"dataset":"candidates"}},{"type":"Feature","geometry":{"type":"Point","coordinates":[140.012416,35.434261]},"properties":{"id":"12-a2716b5859","name":"蔵波","reading":"クラナミ","pref":"千葉県","prefCode":"12","municipality":"袖ヶ浦市","hazardTypes":["slope_failure","rockfall"],"evidenceLevel":0,"status":"current","disputed":false,"precision":"oaza","areaKey":"122290162","elements":["kura"],"summary":"要素辞書に一致（kura）。出典による裏づけは未確認。","zones":[],"dataset":"candidates"}},{"type":"Feature","geometry":{"type":"Point","coordinates":[139.988058,35.443642]},"properties":{"id":"12-340a33f508","name":"蔵波台一丁目","reading":"クラナミダイ 1","pref":"千葉県","prefCode":"12","municipality":"袖ヶ浦市","hazardTypes":["slope_failure","rockfall","landslide"],"evidenceLevel":0,"status":"current","disputed":false,"precision":"oaza","areaKey":"12229016101","elements":["kura","tai"],"summary":"要素辞書に一致（kura・tai）。出典による裏づけは未確認。","zones":[],"dataset":"candidates"}},{"type":"Feature","geometry":{"type":"Point","coordinates":[140.032186,35.369648]},"properties":{"id":"12-391bbccbde","name":"下根岸","reading":"シモネギシ","pref":"千葉県","prefCode":"12","municipality":"袖ヶ浦市","hazardTypes":["slope_failure"],"evidenceLevel":0,"status":"current","disputed":false,"precision":"oaza","areaKey":"122290600","elements":["kake"],"summary":"要素辞書に一致（kake）。出典による裏づけは未確認。","zones":[],"dataset":"candidates"}},{"type":"Feature","geometry":{"type":"Point","coordinates":[140.2979,35.626311]},"properties":{"id":"12-bcdbdb85a0","name":"吉倉","reading":"ヨシクラ","pref":"千葉県","prefCode":"12","municipality":"八街市","hazardTypes":["slope_failure","rockfall"],"evidenceLevel":0,"status":"current","disputed":false,"precision":"oaza","areaKey":"12230028001","elements":["kura"],"summary":"要素辞書に一致（kura）。出典による裏づけは未確認。","zones":[],"dataset":"candidates"}},{"type":"Feature","geometry":{"type":"Point","coordinates":[140.184432,35.784253]},"properties":{"id":"12-c26eb91365","name":"惣深新田飛地","reading":null,"pref":"千葉県","prefCode":"12","municipality":"印西市","hazardTypes":["slope_failure","debris_flow"],"evidenceLevel":0,"status":"current","disputed":false,"precision":"oaza","areaKey":null,"elements":["tobi"],"summary":"要素辞書に一致（tobi）。出典による裏づけは未確認。","zones":[],"dataset":"candidates"}},{"type":"Feature","geometry":{"type":"Point","coordinates":[140.09927,35.808016]},"properties":{"id":"12-7338f798ef","name":"白幡飛地","reading":null,"pref":"千葉県","prefCode":"12","municipality":"印西市","hazardTypes":["slope_failure","debris_flow"],"evidenceLevel":0,"status":"current","disputed":false,"precision":"oaza","areaKey":null,"elements":["tobi"],"summary":"要素辞書に一致（tobi）。出典による裏づけは未確認。","zones":[],"dataset":"candidates"}},{"type":"Feature","geometry":{"type":"Point","coordinates":[140.114629,35.816579]},"properties":{"id":"12-34e0e4e061","name":"小倉","reading":"オグラ","pref":"千葉県","prefCode":"12","municipality":"印西市","hazardTypes":["slope_failure","rockfall"],"evidenceLevel":0,"status":"current","disputed":false,"precision":"oaza","areaKey":"122310190","elements":["kura"],"summary":"要素辞書に一致（kura）。出典による裏づけは未確認。","zones":[],"dataset":"candidates"}},{"type":"Feature","geometry":{"type":"Point","coordinates":[140.114476,35.805064]},"properties":{"id":"12-aa95c6588e","name":"小倉台一丁目","reading":"オグラダイ 1","pref":"千葉県","prefCode":"12","municipality":"印西市","hazardTypes":["slope_failure","rockfall","landslide"],"evidenceLevel":0,"status":"current","disputed":false,"precision":"oaza","areaKey":"12231020001","elements":["kura","tai"],"summary":"要素辞書に一致（kura・tai）。出典による裏づけは未確認。","zones":[],"dataset":"candidates"}},{"type":"Feature","geometry":{"type":"Point","coordinates":[140.132986,35.823127]},"properties":{"id":"12-62fd6d6da0","name":"鹿黒","reading":"カグロ","pref":"千葉県","prefCode":"12","municipality":"印西市","hazardTypes":["landslide","soft_ground"],"evidenceLevel":0,"status":"current","disputed":false,"precision":"oaza","areaKey":"122310120","elements":["shishi"],"summary":"要素辞書に一致（shishi）。出典による裏づけは未確認。","zones":[],"dataset":"candidates"}},{"type":"Feature","geometry":{"type":"Point","coordinates":[140.129322,35.814812]},"properties":{"id":"12-365f08e30e","name":"鹿黒南一丁目","reading":"カグロミナミ 1","pref":"千葉県","prefCode":"12","municipality":"印西市","hazardTypes":["landslide","soft_ground"],"evidenceLevel":0,"status":"current","disputed":false,"precision":"oaza","areaKey":"12231011001","elements":["shishi"],"summary":"要素辞書に一致（shishi）。出典による裏づけは未確認。","zones":[],"dataset":"candidates"}},{"type":"Feature","geometry":{"type":"Point","coordinates":[140.111618,35.808983]},"properties":{"id":"12-7df9a9c14e","name":"木刈一丁目","reading":"キカリ 1","pref":"千葉県","prefCode":"12","municipality":"印西市","hazardTypes":["slope_failure"],"evidenceLevel":0,"status":"current","disputed":false,"precision":"oaza","areaKey":"12231024001","elements":["kake"],"summary":"要素辞書に一致（kake）。出典による裏づけは未確認。","zones":[],"dataset":"candidates"}},{"type":"Feature","geometry":{"type":"Point","coordinates":[140.063336,35.814847]},"properties":{"id":"12-c75bda7629","name":"河原子","reading":"カワラゴ","pref":"千葉県","prefCode":"12","municipality":"白井市","hazardTypes":["flood"],"evidenceLevel":0,"status":"current","disputed":false,"precision":"oaza","areaKey":"122320120","elements":["kawara"],"summary":"要素辞書に一致（kawara）。出典による裏づけは未確認。","zones":[],"dataset":"candidates"}},{"type":"Feature","geometry":{"type":"Point","coordinates":[140.362823,35.700954]},"properties":{"id":"12-72badcb221","name":"十倉","reading":"トクラ","pref":"千葉県","prefCode":"12","municipality":"富里市","hazardTypes":["slope_failure","rockfall"],"evidenceLevel":0,"status":"current","disputed":false,"precision":"oaza","areaKey":"12233013001","elements":["kura"],"summary":"要素辞書に一致（kura）。出典による裏づけは未確認。","zones":[],"dataset":"candidates"}},{"type":"Feature","geometry":{"type":"Point","coordinates":[140.325188,35.761814]},"properties":{"id":"12-524035d65c","name":"日吉倉","reading":"ヒヨシクラ","pref":"千葉県","prefCode":"12","municipality":"富里市","hazardTypes":["slope_failure","rockfall"],"evidenceLevel":0,"status":"current","disputed":false,"precision":"oaza","areaKey":"122330010","elements":["kura"],"summary":"要素辞書に一致（kura）。出典による裏づけは未確認。","zones":[],"dataset":"candidates"}},{"type":"Feature","geometry":{"type":"Point","coordinates":[139.996775,35.03554]},"properties":{"id":"12-f4e1d53512","name":"和田町真浦飛地","reading":null,"pref":"千葉県","prefCode":"12","municipality":"南房総市","hazardTypes":["slope_failure","debris_flow"],"evidenceLevel":0,"status":"current","disputed":false,"precision":"oaza","areaKey":null,"elements":["tobi"],"summary":"要素辞書に一致（tobi）。出典による裏づけは未確認。","zones":[],"dataset":"candidates"}},{"type":"Feature","geometry":{"type":"Point","coordinates":[139.939178,34.990496]},"properties":{"id":"12-89865d72c2","name":"千倉町宇田","reading":"チクラチョウウダ","pref":"千葉県","prefCode":"12","municipality":"南房総市","hazardTypes":["slope_failure","rockfall"],"evidenceLevel":0,"status":"current","disputed":false,"precision":"oaza","areaKey":"122340770","elements":["kura"],"summary":"要素辞書に一致（kura）。出典による裏づけは未確認。","zones":[],"dataset":"candidates"}},{"type":"Feature","geometry":{"type":"Point","coordinates":[139.933804,34.934247]},"properties":{"id":"12-3c4385872c","name":"千倉町大川","reading":"チクラチョウオオカワ","pref":"千葉県","prefCode":"12","municipality":"南房総市","hazardTypes":["slope_failure","rockfall"],"evidenceLevel":0,"status":"current","disputed":false,"precision":"oaza","areaKey":"122340640","elements":["kura"],"summary":"要素辞書に一致（kura）。出典による裏づけは未確認。","zones":[],"dataset":"candidates"}},{"type":"Feature","geometry":{"type":"Point","coordinates":[139.918651,34.96897]},"properties":{"id":"12-7497eb97b5","name":"千倉町大貫","reading":"チクラチョウオオヌキ","pref":"千葉県","prefCode":"12","municipality":"南房総市","hazardTypes":["slope_failure","rockfall"],"evidenceLevel":0,"status":"current","disputed":false,"precision":"oaza","areaKey":"122340750","elements":["kura"],"summary":"要素辞書に一致（kura）。出典による裏づけは未確認。","zones":[],"dataset":"candidates"}},{"type":"Feature","geometry":{"type":"Point","coordinates":[139.961348,34.990004]},"properties":{"id":"12-8e76de7ab1","name":"千倉町川合","reading":"チクラチョウカワイ","pref":"千葉県","prefCode":"12","municipality":"南房総市","hazardTypes":["slope_failure","rockfall"],"evidenceLevel":0,"status":"current","disputed":false,"precision":"oaza","areaKey":"122340820","elements":["kura"],"summary":"要素辞書に一致（kura）。出典による裏づけは未確認。","zones":[],"dataset":"candidates"}},{"type":"Feature","geometry":{"type":"Point","coordinates":[139.947408,34.943279]},"properties":{"id":"12-6f8b68e6e2","name":"千倉町川口","reading":"チクラチョウカワグチ","pref":"千葉県","prefCode":"12","municipality":"南房総市","hazardTypes":["slope_failure","rockfall"],"evidenceLevel":0,"status":"current","disputed":false,"precision":"oaza","areaKey":null,"elements":["kura"],"summary":"要素辞書に一致（kura）。出典による裏づけは未確認。","zones":[],"dataset":"candidates"}},{"type":"Feature","geometry":{"type":"Point","coordinates":[139.939375,34.973489]},"properties":{"id":"12-3f2994993c","name":"千倉町川戸","reading":"チクラチョウカワト","pref":"千葉県","prefCode":"12","municipality":"南房総市","hazardTypes":["slope_failure","rockfall"],"evidenceLevel":0,"status":"current","disputed":false,"precision":"oaza","areaKey":"122340760","elements":["kura"],"summary":"要素辞書に一致（kura）。出典による裏づけは未確認。","zones":[],"dataset":"candidates"}},{"type":"Feature","geometry":{"type":"Point","coordinates":[139.950749,34.968369]},"properties":{"id":"12-26e1acdfbb","name":"千倉町北朝夷","reading":"チクラチョウキタアサイ","pref":"千葉県","prefCode":"12","municipality":"南房総市","hazardTypes":["slope_failure","rockfall"],"evidenceLevel":0,"status":"current","disputed":false,"precision":"oaza","areaKey":"122340670","elements":["kura"],"summary":"要素辞書に一致（kura）。出典による裏づけは未確認。","zones":[],"dataset":"candidates"}},{"type":"Feature","geometry":{"type":"Point","coordinates":[139.954015,34.998567]},"properties":{"id":"12-366bc88b8f","name":"千倉町久保","reading":"チクラチョウクボ","pref":"千葉県","prefCode":"12","municipality":"南房総市","hazardTypes":["slope_failure","rockfall","inundation","landslide"],"evidenceLevel":0,"status":"current","disputed":false,"precision":"oaza","areaKey":"122340830","elements":["kura","kubo"],"summary":"要素辞書に一致（kura・kubo）。出典による裏づけは未確認。","zones":[],"dataset":"candidates"}},{"type":"Feature","geometry":{"type":"Point","coordinates":[139.960042,34.947765]},"properties":{"id":"12-b45eb4454b","name":"千倉町忽戸","reading":"チクラチョウコット","pref":"千葉県","prefCode":"12","municipality":"南房総市","hazardTypes":["slope_failure","rockfall"],"evidenceLevel":0,"status":"current","disputed":false,"precision":"oaza","areaKey":"122340680","elements":["kura"],"summary":"要素辞書に一致（kura）。出典による裏づけは未確認。","zones":[],"dataset":"candidates"}},{"type":"Feature","geometry":{"type":"Point","coordinates":[139.96794,34.990034]},"properties":{"id":"12-1b77ae1926","name":"千倉町白子","reading":"チクラチョウシラコ","pref":"千葉県","prefCode":"12","municipality":"南房総市","hazardTypes":["slope_failure","rockfall"],"evidenceLevel":0,"status":"current","disputed":false,"precision":"oaza","areaKey":"122340810","elements":["kura"],"summary":"要素辞書に一致（kura）。出典による裏づけは未確認。","zones":[],"dataset":"candidates"}},{"type":"Feature","geometry":{"type":"Point","coordinates":[139.933144,34.922744]},"properties":{"id":"12-a5c2b74da3","name":"千倉町白間津","reading":"チクラチョウシラマヅ","pref":"千葉県","prefCode":"12","municipality":"南房総市","hazardTypes":["slope_failure","rockfall"],"evidenceLevel":0,"status":"current","disputed":false,"precision":"oaza","areaKey":"122340630","elements":["kura"],"summary":"要素辞書に一致（kura）。出典による裏づけは未確認。","zones":[],"dataset":"candidates"}},{"type":"Feature","geometry":{"type":"Point","coordinates":[139.958929,34.980333]},"properties":{"id":"12-a0bb205dee","name":"千倉町瀬戸","reading":"チクラチョウセト","pref":"千葉県","prefCode":"12","municipality":"南房総市","hazardTypes":["slope_failure","rockfall"],"evidenceLevel":0,"status":"current","disputed":false,"precision":"oaza","areaKey":"122340780","elements":["kura"],"summary":"要素辞書に一致（kura）。出典による裏づけは未確認。","zones":[],"dataset":"candidates"}},{"type":"Feature","geometry":{"type":"Point","coordinates":[139.948581,34.934259]},"properties":{"id":"12-658a93a2c2","name":"千倉町千田","reading":"チクラチョウセンダ","pref":"千葉県","prefCode":"12","municipality":"南房総市","hazardTypes":["slope_failure","rockfall"],"evidenceLevel":0,"status":"current","disputed":false,"precision":"oaza","areaKey":"122340650","elements":["kura"],"summary":"要素辞書に一致（kura）。出典による裏づけは未確認。","zones":[],"dataset":"candidates"}},{"type":"Feature","geometry":{"type":"Point","coordinates":[139.95447,34.938335]},"properties":{"id":"12-191e78a5c0","name":"千倉町平磯","reading":"チクラチョウヒライソ","pref":"千葉県","prefCode":"12","municipality":"南房総市","hazardTypes":["slope_failure","rockfall","debris_flow"],"evidenceLevel":0,"status":"current","disputed":false,"precision":"oaza","areaKey":"122340660","elements":["kura","iso_ishi"],"summary":"要素辞書に一致（kura・iso_ishi）。出典による裏づけは未確認。","zones":[],"dataset":"candidates"}},{"type":"Feature","geometry":{"type":"Point","coordinates":[139.958899,34.95416]},"properties":{"id":"12-333fdb4996","name":"千倉町平舘","reading":"チクラチョウヘダテ","pref":"千葉県","prefCode":"12","municipality":"南房総市","hazardTypes":["slope_failure","rockfall"],"evidenceLevel":0,"status":"current","disputed":false,"precision":"oaza","areaKey":"122340690","elements":["kura"],"summary":"要素辞書に一致（kura）。出典による裏づけは未確認。","zones":[],"dataset":"candidates"}},{"type":"Feature","geometry":{"type":"Point","coordinates":[139.950915,34.975749]},"properties":{"id":"12-7f4ba51c78","name":"千倉町牧田","reading":"チクラチョウマキダ","pref":"千葉県","prefCode":"12","municipality":"南房総市","hazardTypes":["slope_failure","rockfall"],"evidenceLevel":0,"status":"current","disputed":false,"precision":"oaza","areaKey":"122340800","elements":["kura"],"summary":"要素辞書に一致（kura）。出典による裏づけは未確認。","zones":[],"dataset":"candidates"}},{"type":"Feature","geometry":{"type":"Point","coordinates":[139.930563,34.953335]},"properties":{"id":"12-68f35cfd6a","name":"千倉町南朝夷","reading":"チクラチョウミナミアサイ","pref":"千葉県","prefCode":"12","municipality":"南房総市","hazardTypes":["slope_failure","rockfall"],"evidenceLevel":0,"status":"current","disputed":false,"precision":"oaza","areaKey":"122340710","elements":["kura"],"summary":"要素辞書に一致（kura）。出典による裏づけは未確認。","zones":[],"dataset":"candidates"}},{"type":"Feature","geometry":{"type":"Point","coordinates":[139.88795,35.070314]},"properties":{"id":"12-f4be3a132b","name":"富浦町青木","reading":"トミウラチョウアオキ","pref":"千葉県","prefCode":"12","municipality":"南房総市","hazardTypes":["slope_failure"],"evidenceLevel":0,"status":"current","disputed":false,"precision":"oaza","areaKey":"122340050","elements":["afu_oo"],"summary":"要素辞書に一致（afu_oo）。出典による裏づけは未確認。","zones":[],"dataset":"candidates"}},{"type":"Feature","geometry":{"type":"Point","coordinates":[139.870413,35.075851]},"properties":{"id":"12-69eb5760a7","name":"富浦町居倉","reading":"トミウラチョウイグラ","pref":"千葉県","prefCode":"12","municipality":"南房総市","hazardTypes":["slope_failure","rockfall"],"evidenceLevel":0,"status":"current","disputed":false,"precision":"oaza","areaKey":"122340120","elements":["kura"],"summary":"要素辞書に一致（kura）。出典による裏づけは未確認。","zones":[],"dataset":"candidates"}},{"type":"Feature","geometry":{"type":"Point","coordinates":[139.964909,35.017243]},"properties":{"id":"12-09055b6cdf","name":"古川","reading":"フルカワ","pref":"千葉県","prefCode":"12","municipality":"南房総市","hazardTypes":["flood","inundation"],"evidenceLevel":0,"status":"current","disputed":false,"precision":"oaza","areaKey":"122340880","elements":["furukawa"],"summary":"要素辞書に一致（furukawa）。出典による裏づけは未確認。","zones":[],"dataset":"candidates"}},{"type":"Feature","geometry":{"type":"Point","coordinates":[139.894136,35.093127]},"properties":{"id":"12-fb601d8494","name":"吉沢","reading":"ヨシザワ","pref":"千葉県","prefCode":"12","municipality":"南房総市","hazardTypes":["landslide","soft_ground"],"evidenceLevel":0,"status":"current","disputed":false,"precision":"oaza","areaKey":"122340270","elements":["wetland_plants"],"summary":"要素辞書に一致（wetland_plants）。出典による裏づけは未確認。","zones":[],"dataset":"candidates"}},{"type":"Feature","geometry":{"type":"Point","coordinates":[140.014567,35.086204]},"properties":{"id":"12-c52c45539a","name":"和田町五十蔵","reading":"ワダチョウゴジュウクラ","pref":"千葉県","prefCode":"12","municipality":"南房総市","hazardTypes":["slope_failure","rockfall"],"evidenceLevel":0,"status":"current","disputed":false,"precision":"oaza","areaKey":null,"elements":["kura"],"summary":"要素辞書に一致（kura）。出典による裏づけは未確認。","zones":[],"dataset":"candidates"}},{"type":"Feature","geometry":{"type":"Point","coordinates":[140.51422,35.691403]},"properties":{"id":"12-aac04d9b59","name":"飯倉","reading":"イイグラ","pref":"千葉県","prefCode":"12","municipality":"匝瑳市","hazardTypes":["slope_failure","rockfall"],"evidenceLevel":0,"status":"current","disputed":false,"precision":"oaza","areaKey":"122350072","elements":["kura"],"summary":"要素辞書に一致（kura）。出典による裏づけは未確認。","zones":[],"dataset":"candidates"}},{"type":"Feature","geometry":{"type":"Point","coordinates":[140.519482,35.689378]},"properties":{"id":"12-2da44eb218","name":"飯倉台","reading":"イイグラダイ","pref":"千葉県","prefCode":"12","municipality":"匝瑳市","hazardTypes":["slope_failure","rockfall","landslide"],"evidenceLevel":0,"status":"current","disputed":false,"precision":"oaza","areaKey":"122350071","elements":["kura","tai"],"summary":"要素辞書に一致（kura・tai）。出典による裏づけは未確認。","zones":[],"dataset":"candidates"}},{"type":"Feature","geometry":{"type":"Point","coordinates":[140.600446,35.695755]},"properties":{"id":"12-106f2e5a60","name":"荻野","reading":"オギノ","pref":"千葉県","prefCode":"12","municipality":"匝瑳市","hazardTypes":["slope_failure"],"evidenceLevel":0,"status":"current","disputed":false,"precision":"oaza","areaKey":"122350540","elements":["suki_hagu"],"summary":"要素辞書に一致（suki_hagu）。出典による裏づけは未確認。","zones":[],"dataset":"candidates"}},{"type":"Feature","geometry":{"type":"Point","coordinates":[140.548134,35.921505]},"properties":{"id":"12-03a08719f6","name":"磯山","reading":"イソヤマ","pref":"千葉県","prefCode":"12","municipality":"香取市","hazardTypes":["rockfall","debris_flow"],"evidenceLevel":0,"status":"current","disputed":false,"precision":"oaza","areaKey":"122360730","elements":["iso_ishi"],"summary":"要素辞書に一致（iso_ishi）。出典による裏づけは未確認。","zones":[],"dataset":"candidates"}},{"type":"Feature","geometry":{"type":"Point","coordinates":[140.557551,35.888188]},"properties":{"id":"12-ca3e087c9b","name":"大倉","reading":"オオクラ","pref":"千葉県","prefCode":"12","municipality":"香取市","hazardTypes":["slope_failure","rockfall"],"evidenceLevel":0,"status":"current","disputed":false,"precision":"oaza","areaKey":"122360550","elements":["kura"],"summary":"要素辞書に一致（kura）。出典による裏づけは未確認。","zones":[],"dataset":"candidates"}},{"type":"Feature","geometry":{"type":"Point","coordinates":[140.543759,35.896898]},"properties":{"id":"12-5b5a175934","name":"大倉丁子","reading":"オオクラヨウロゴ","pref":"千葉県","prefCode":"12","municipality":"香取市","hazardTypes":["slope_failure","rockfall"],"evidenceLevel":0,"status":"current","disputed":false,"precision":"oaza","areaKey":"122360540","elements":["kura"],"summary":"要素辞書に一致（kura）。出典による裏づけは未確認。","zones":[],"dataset":"candidates"}},{"type":"Feature","geometry":{"type":"Point","coordinates":[140.53092,35.79008]},"properties":{"id":"12-fbbce21bf6","name":"山倉","reading":"ヤマクラ","pref":"千葉県","prefCode":"12","municipality":"香取市","hazardTypes":["slope_failure","rockfall"],"evidenceLevel":0,"status":"current","disputed":false,"precision":"oaza","areaKey":"122362220","elements":["kura"],"summary":"要素辞書に一致（kura）。出典による裏づけは未確認。","zones":[],"dataset":"candidates"}},{"type":"Feature","geometry":{"type":"Point","coordinates":[140.47905,35.875973]},"properties":{"id":"12-4c8b966c51","name":"与倉","reading":"ヨクラ","pref":"千葉県","prefCode":"12","municipality":"香取市","hazardTypes":["slope_failure","rockfall"],"evidenceLevel":0,"status":"current","disputed":false,"precision":"oaza","areaKey":"122360180","elements":["kura"],"summary":"要素辞書に一致（kura）。出典による裏づけは未確認。","zones":[],"dataset":"candidates"}},{"type":"Feature","geometry":{"type":"Point","coordinates":[140.42893,35.635054]},"properties":{"id":"12-5f9faed584","name":"松尾町上大蔵","reading":"マツオマチカミオオクラ","pref":"千葉県","prefCode":"12","municipality":"山武市","hazardTypes":["slope_failure","rockfall"],"evidenceLevel":0,"status":"current","disputed":false,"precision":"oaza","areaKey":null,"elements":["kura"],"summary":"要素辞書に一致（kura）。出典による裏づけは未確認。","zones":[],"dataset":"candidates"}},{"type":"Feature","geometry":{"type":"Point","coordinates":[140.461741,35.642157]},"properties":{"id":"12-4dc368c83c","name":"松尾町猿尾","reading":"マツオマチサルオ","pref":"千葉県","prefCode":"12","municipality":"山武市","hazardTypes":["slope_failure"],"evidenceLevel":0,"status":"current","disputed":false,"precision":"oaza","areaKey":null,"elements":["saru"],"summary":"要素辞書に一致（saru）。出典による裏づけは未確認。","zones":[],"dataset":"candidates"}},{"type":"Feature","geometry":{"type":"Point","coordinates":[140.426129,35.629253]},"properties":{"id":"12-3a178b4296","name":"松尾町下大蔵","reading":"マツオマチシモオオクラ","pref":"千葉県","prefCode":"12","municipality":"山武市","hazardTypes":["slope_failure","rockfall"],"evidenceLevel":0,"status":"current","disputed":false,"precision":"oaza","areaKey":null,"elements":["kura"],"summary":"要素辞書に一致（kura）。出典による裏づけは未確認。","zones":[],"dataset":"candidates"}},{"type":"Feature","geometry":{"type":"Point","coordinates":[140.288975,35.307609]},"properties":{"id":"12-732b4cf4f0","name":"荻原","reading":"オギワラ","pref":"千葉県","prefCode":"12","municipality":"いすみ市","hazardTypes":["slope_failure"],"evidenceLevel":0,"status":"current","disputed":false,"precision":"oaza","areaKey":"122380030","elements":["suki_hagu"],"summary":"要素辞書に一致（suki_hagu）。出典による裏づけは未確認。","zones":[],"dataset":"candidates"}},{"type":"Feature","geometry":{"type":"Point","coordinates":[140.269031,35.277153]},"properties":{"id":"12-fe76ed8919","name":"柿和田","reading":"カキワダ","pref":"千葉県","prefCode":"12","municipality":"いすみ市","hazardTypes":["slope_failure"],"evidenceLevel":0,"status":"current","disputed":false,"precision":"oaza","areaKey":"122380230","elements":["kake"],"summary":"要素辞書に一致（kake）。出典による裏づけは未確認。","zones":[],"dataset":"candidates"}},{"type":"Feature","geometry":{"type":"Point","coordinates":[140.389209,35.296406]},"properties":{"id":"12-11a2040db8","name":"岬町長者","reading":"ミサキチョウチョウジャ","pref":"千葉県","prefCode":"12","municipality":"いすみ市","hazardTypes":["slope_failure"],"evidenceLevel":0,"status":"current","disputed":false,"precision":"oaza","areaKey":null,"elements":["tsubu_chou"],"summary":"要素辞書に一致（tsubu_chou）。出典による裏づけは未確認。","zones":[],"dataset":"candidates"}},{"type":"Feature","geometry":{"type":"Point","coordinates":[140.320294,35.520783]},"properties":{"id":"12-6052a5db76","name":"鹿島田","reading":null,"pref":"千葉県","prefCode":"12","municipality":"大網白里市","hazardTypes":["landslide","soft_ground"],"evidenceLevel":0,"status":"current","disputed":false,"precision":"koaza","areaKey":"122390080","elements":["shishi"],"summary":"要素辞書に一致（shishi）。出典による裏づけは未確認。","zones":[],"dataset":"candidates"}},{"type":"Feature","geometry":{"type":"Point","coordinates":[140.350501,35.513292]},"properties":{"id":"12-b809d67616","name":"柿餅","reading":"カキモチ","pref":"千葉県","prefCode":"12","municipality":"大網白里市","hazardTypes":["slope_failure"],"evidenceLevel":0,"status":"current","disputed":false,"precision":"oaza","areaKey":"122390260","elements":["kake"],"summary":"要素辞書に一致（kake）。出典による裏づけは未確認。","zones":[],"dataset":"candidates"}},{"type":"Feature","geometry":{"type":"Point","coordinates":[140.302483,35.743295]},"properties":{"id":"12-0c1c963ebd","name":"今倉新田","reading":"イマクラシンデン","pref":"千葉県","prefCode":"12","municipality":"印旛郡酒々井町","hazardTypes":["slope_failure","rockfall"],"evidenceLevel":0,"status":"current","disputed":false,"precision":"oaza","areaKey":null,"elements":["kura"],"summary":"要素辞書に一致（kura）。出典による裏づけは未確認。","zones":[],"dataset":"candidates"}},{"type":"Feature","geometry":{"type":"Point","coordinates":[140.259429,35.719741]},"properties":{"id":"12-2fa328c342","name":"上本佐倉","reading":"カミモトサクラ","pref":"千葉県","prefCode":"12","municipality":"印旛郡酒々井町","hazardTypes":["slope_failure","rockfall"],"evidenceLevel":0,"status":"current","disputed":false,"precision":"oaza","areaKey":null,"elements":["kura"],"summary":"要素辞書に一致（kura）。出典による裏づけは未確認。","zones":[],"dataset":"candidates"}},{"type":"Feature","geometry":{"type":"Point","coordinates":[140.256178,35.718698]},"properties":{"id":"12-b5abb12ea7","name":"本佐倉","reading":"モトサクラ","pref":"千葉県","prefCode":"12","municipality":"印旛郡酒々井町","hazardTypes":["slope_failure","rockfall"],"evidenceLevel":0,"status":"current","disputed":false,"precision":"oaza","areaKey":null,"elements":["kura"],"summary":"要素辞書に一致（kura）。出典による裏づけは未確認。","zones":[],"dataset":"candidates"}},{"type":"Feature","geometry":{"type":"Point","coordinates":[140.485242,35.788244]},"properties":{"id":"12-89bfecc3bd","name":"本三倉谷三倉入会","reading":null,"pref":"千葉県","prefCode":"12","municipality":"香取郡多古町","hazardTypes":["slope_failure","rockfall"],"evidenceLevel":0,"status":"current","disputed":false,"precision":"oaza","areaKey":null,"elements":["kura"],"summary":"要素辞書に一致（kura）。出典による裏づけは未確認。","zones":[],"dataset":"candidates"}},{"type":"Feature","geometry":{"type":"Point","coordinates":[140.497178,35.786981]},"properties":{"id":"12-b06643a9e2","name":"谷三倉","reading":"サクミクラ","pref":"千葉県","prefCode":"12","municipality":"香取郡多古町","hazardTypes":["slope_failure","rockfall"],"evidenceLevel":0,"status":"current","disputed":false,"precision":"oaza","areaKey":null,"elements":["kura"],"summary":"要素辞書に一致（kura）。出典による裏づけは未確認。","zones":[],"dataset":"candidates"}},{"type":"Feature","geometry":{"type":"Point","coordinates":[140.429091,35.760377]},"properties":{"id":"12-6416b40f69","name":"間倉","reading":"マグラ","pref":"千葉県","prefCode":"12","municipality":"香取郡多古町","hazardTypes":["slope_failure","rockfall"],"evidenceLevel":0,"status":"current","disputed":false,"precision":"oaza","areaKey":null,"elements":["kura"],"summary":"要素辞書に一致（kura）。出典による裏づけは未確認。","zones":[],"dataset":"candidates"}},{"type":"Feature","geometry":{"type":"Point","coordinates":[140.489628,35.795129]},"properties":{"id":"12-970463f130","name":"本三倉","reading":"モトミクラ","pref":"千葉県","prefCode":"12","municipality":"香取郡多古町","hazardTypes":["slope_failure","rockfall"],"evidenceLevel":0,"status":"current","disputed":false,"precision":"oaza","areaKey":null,"elements":["kura"],"summary":"要素辞書に一致（kura）。出典による裏づけは未確認。","zones":[],"dataset":"candidates"}},{"type":"Feature","geometry":{"type":"Point","coordinates":[140.646534,35.797404]},"properties":{"id":"12-472d08e2f0","name":"大久保","reading":"オオクボ","pref":"千葉県","prefCode":"12","municipality":"香取郡東庄町","hazardTypes":["slope_failure","inundation","landslide"],"evidenceLevel":0,"status":"current","disputed":false,"precision":"oaza","areaKey":null,"elements":["afu_oo","kubo"],"summary":"要素辞書に一致（afu_oo・kubo）。出典による裏づけは未確認。","zones":[],"dataset":"candidates"}},{"type":"Feature","geometry":{"type":"Point","coordinates":[140.671305,35.776297]},"properties":{"id":"12-429365bddd","name":"夏目","reading":"ナツメ","pref":"千葉県","prefCode":"12","municipality":"香取郡東庄町","hazardTypes":["debris_flow","slope_failure"],"evidenceLevel":0,"status":"current","disputed":false,"precision":"oaza","areaKey":null,"elements":["nazu_natsu"],"summary":"要素辞書に一致（nazu_natsu）。出典による裏づけは未確認。","zones":[],"dataset":"candidates"}},{"type":"Feature","geometry":{"type":"Point","coordinates":[140.400154,35.72341]},"properties":{"id":"12-545d4dbcc1","name":"朝倉","reading":"アサクラ","pref":"千葉県","prefCode":"12","municipality":"山武郡芝山町","hazardTypes":["slope_failure","rockfall"],"evidenceLevel":0,"status":"current","disputed":false,"precision":"oaza","areaKey":null,"elements":["kura"],"summary":"要素辞書に一致（kura）。出典による裏づけは未確認。","zones":[],"dataset":"candidates"}},{"type":"Feature","geometry":{"type":"Point","coordinates":[140.390171,35.725263]},"properties":{"id":"12-1df4c5ab98","name":"飛地","reading":null,"pref":"千葉県","prefCode":"12","municipality":"山武郡芝山町","hazardTypes":["slope_failure","debris_flow"],"evidenceLevel":0,"status":"current","disputed":false,"precision":"koaza","areaKey":null,"elements":["tobi"],"summary":"要素辞書に一致（tobi）。出典による裏づけは未確認。","zones":[],"dataset":"candidates"}},{"type":"Feature","geometry":{"type":"Point","coordinates":[140.550574,35.632532]},"properties":{"id":"12-a248921331","name":"尾垂イ","reading":null,"pref":"千葉県","prefCode":"12","municipality":"山武郡横芝光町","hazardTypes":["slope_failure"],"evidenceLevel":0,"status":"current","disputed":false,"precision":"oaza","areaKey":null,"elements":["kake"],"summary":"要素辞書に一致（kake）。出典による裏づけは未確認。","zones":[],"dataset":"candidates"}},{"type":"Feature","geometry":{"type":"Point","coordinates":[140.539268,35.638301]},"properties":{"id":"12-cd26c3cdf0","name":"尾垂ロ","reading":null,"pref":"千葉県","prefCode":"12","municipality":"山武郡横芝光町","hazardTypes":["slope_failure"],"evidenceLevel":0,"status":"current","disputed":false,"precision":"oaza","areaKey":null,"elements":["kake"],"summary":"要素辞書に一致（kake）。出典による裏づけは未確認。","zones":[],"dataset":"candidates"}},{"type":"Feature","geometry":{"type":"Point","coordinates":[140.486087,35.665876]},"properties":{"id":"12-5f0bc3ab67","name":"古川","reading":"コカワ","pref":"千葉県","prefCode":"12","municipality":"山武郡横芝光町","hazardTypes":["flood","inundation"],"evidenceLevel":0,"status":"current","disputed":false,"precision":"oaza","areaKey":null,"elements":["furukawa"],"summary":"要素辞書に一致（furukawa）。出典による裏づけは未確認。","zones":[],"dataset":"candidates"}},{"type":"Feature","geometry":{"type":"Point","coordinates":[140.46152,35.666881]},"properties":{"id":"12-dca121cb4d","name":"長倉","reading":"ナガクラ","pref":"千葉県","prefCode":"12","municipality":"山武郡横芝光町","hazardTypes":["slope_failure","rockfall"],"evidenceLevel":0,"status":"current","disputed":false,"precision":"oaza","areaKey":null,"elements":["kura"],"summary":"要素辞書に一致（kura）。出典による裏づけは未確認。","zones":[],"dataset":"candidates"}},{"type":"Feature","geometry":{"type":"Point","coordinates":[140.368212,35.430641]},"properties":{"id":"12-ac44011a1f","name":"北高根飛地","reading":null,"pref":"千葉県","prefCode":"12","municipality":"長生郡長生村","hazardTypes":["slope_failure","debris_flow"],"evidenceLevel":0,"status":"current","disputed":false,"precision":"oaza","areaKey":null,"elements":["tobi"],"summary":"要素辞書に一致（tobi）。出典による裏づけは未確認。","zones":[],"dataset":"candidates"}},{"type":"Feature","geometry":{"type":"Point","coordinates":[140.366698,35.424881]},"properties":{"id":"12-74e7620299","name":"驚飛地","reading":null,"pref":"千葉県","prefCode":"12","municipality":"長生郡長生村","hazardTypes":["slope_failure","debris_flow"],"evidenceLevel":0,"status":"current","disputed":false,"precision":"oaza","areaKey":null,"elements":["tobi"],"summary":"要素辞書に一致（tobi）。出典による裏づけは未確認。","zones":[],"dataset":"candidates"}},{"type":"Feature","geometry":{"type":"Point","coordinates":[140.341531,35.420009]},"properties":{"id":"12-e2430cefac","name":"岩沼飛地","reading":"イワヌマトビチ","pref":"千葉県","prefCode":"12","municipality":"長生郡長生村","hazardTypes":["slope_failure","debris_flow","soft_ground","inundation"],"evidenceLevel":0,"status":"current","disputed":false,"precision":"oaza","areaKey":null,"elements":["tobi","numa_kata"],"summary":"要素辞書に一致（tobi・numa_kata）。出典による裏づけは未確認。","zones":[],"dataset":"candidates"}},{"type":"Feature","geometry":{"type":"Point","coordinates":[140.342895,35.419678]},"properties":{"id":"12-967f8a4680","name":"一松飛地甲","reading":"ヒトツマツトビチコウ","pref":"千葉県","prefCode":"12","municipality":"長生郡長生村","hazardTypes":["slope_failure","debris_flow"],"evidenceLevel":0,"status":"current","disputed":false,"precision":"oaza","areaKey":null,"elements":["tobi"],"summary":"要素辞書に一致（tobi）。出典による裏づけは未確認。","zones":[],"dataset":"candidates"}},{"type":"Feature","geometry":{"type":"Point","coordinates":[140.337892,35.416554]},"properties":{"id":"12-13a0b6b5aa","name":"六ツ野飛地","reading":"ムツノトビチ","pref":"千葉県","prefCode":"12","municipality":"長生郡長生村","hazardTypes":["slope_failure","debris_flow"],"evidenceLevel":0,"status":"current","disputed":false,"precision":"oaza","areaKey":null,"elements":["tobi"],"summary":"要素辞書に一致（tobi）。出典による裏づけは未確認。","zones":[],"dataset":"candidates"}},{"type":"Feature","geometry":{"type":"Point","coordinates":[140.392838,35.459663]},"properties":{"id":"12-68719579de","name":"剃金","reading":"ソリガネ","pref":"千葉県","prefCode":"12","municipality":"長生郡白子町","hazardTypes":["slope_failure"],"evidenceLevel":0,"status":"current","disputed":false,"precision":"oaza","areaKey":null,"elements":["sori"],"summary":"要素辞書に一致（sori）。出典による裏づけは未確認。","zones":[],"dataset":"candidates"}},{"type":"Feature","geometry":{"type":"Point","coordinates":[140.199425,35.416559]},"properties":{"id":"12-07de1afd5c","name":"大津倉","reading":"オオヅクラ","pref":"千葉県","prefCode":"12","municipality":"長生郡長柄町","hazardTypes":["slope_failure","rockfall"],"evidenceLevel":0,"status":"current","disputed":false,"precision":"oaza","areaKey":null,"elements":["kura"],"summary":"要素辞書に一致（kura）。出典による裏づけは未確認。","zones":[],"dataset":"candidates"}},{"type":"Feature","geometry":{"type":"Point","coordinates":[140.210625,35.452285]},"properties":{"id":"12-0e8451dd1a","name":"六地蔵","reading":"ロクジゾウ","pref":"千葉県","prefCode":"12","municipality":"長生郡長柄町","hazardTypes":["slope_failure","rockfall"],"evidenceLevel":0,"status":"current","disputed":false,"precision":"oaza","areaKey":null,"elements":["kura"],"summary":"要素辞書に一致（kura）。出典による裏づけは未確認。","zones":[],"dataset":"candidates"}},{"type":"Feature","geometry":{"type":"Point","coordinates":[140.216349,35.382634]},"properties":{"id":"12-7a78b7c3d6","name":"蔵持","reading":"クラモチ","pref":"千葉県","prefCode":"12","municipality":"長生郡長南町","hazardTypes":["slope_failure","rockfall"],"evidenceLevel":0,"status":"current","disputed":false,"precision":"oaza","areaKey":null,"elements":["kura"],"summary":"要素辞書に一致（kura）。出典による裏づけは未確認。","zones":[],"dataset":"candidates"}},{"type":"Feature","geometry":{"type":"Point","coordinates":[140.231593,35.242698]},"properties":{"id":"12-7341d1753d","name":"小内笛倉入会","reading":"コウチフエグライリアイ","pref":"千葉県","prefCode":"12","municipality":"夷隅郡大多喜町","hazardTypes":["slope_failure","rockfall"],"evidenceLevel":0,"status":"current","disputed":false,"precision":"oaza","areaKey":null,"elements":["kura"],"summary":"要素辞書に一致（kura）。出典による裏づけは未確認。","zones":[],"dataset":"candidates"}},{"type":"Feature","geometry":{"type":"Point","coordinates":[140.245807,35.289412]},"properties":{"id":"12-6c4b3b25ad","name":"猿稲","reading":"サルイネ","pref":"千葉県","prefCode":"12","municipality":"夷隅郡大多喜町","hazardTypes":["slope_failure"],"evidenceLevel":0,"status":"current","disputed":false,"precision":"oaza","areaKey":null,"elements":["saru"],"summary":"要素辞書に一致（saru）。出典による裏づけは未確認。","zones":[],"dataset":"candidates"}},{"type":"Feature","geometry":{"type":"Point","coordinates":[140.230523,35.252865]},"properties":{"id":"12-4bf27e37b2","name":"馬場内","reading":"ババウチ","pref":"千葉県","prefCode":"12","municipality":"夷隅郡大多喜町","hazardTypes":["slope_failure"],"evidenceLevel":0,"status":"current","disputed":false,"precision":"oaza","areaKey":null,"elements":["baba"],"summary":"要素辞書に一致（baba）。出典による裏づけは未確認。","zones":[],"dataset":"candidates"}},{"type":"Feature","geometry":{"type":"Point","coordinates":[140.235962,35.246279]},"properties":{"id":"12-8765a17610","name":"笛倉","reading":"フエグラ","pref":"千葉県","prefCode":"12","municipality":"夷隅郡大多喜町","hazardTypes":["slope_failure","rockfall"],"evidenceLevel":0,"status":"current","disputed":false,"precision":"oaza","areaKey":null,"elements":["kura"],"summary":"要素辞書に一致（kura）。出典による裏づけは未確認。","zones":[],"dataset":"candidates"}},{"type":"Feature","geometry":{"type":"Point","coordinates":[140.22166,35.258751]},"properties":{"id":"12-8c96d88605","name":"湯倉","reading":"ユグラ","pref":"千葉県","prefCode":"12","municipality":"夷隅郡大多喜町","hazardTypes":["slope_failure","rockfall"],"evidenceLevel":0,"status":"current","disputed":false,"precision":"oaza","areaKey":null,"elements":["kura"],"summary":"要素辞書に一致（kura）。出典による裏づけは未確認。","zones":[],"dataset":"candidates"}},{"type":"Feature","geometry":{"type":"Point","coordinates":[139.916162,35.133776]},"properties":{"id":"12-c374997e3a","name":"大崩","reading":"オクズレ","pref":"千葉県","prefCode":"12","municipality":"安房郡鋸南町","hazardTypes":["slope_failure","landslide"],"evidenceLevel":0,"status":"current","disputed":false,"precision":"oaza","areaKey":null,"elements":["kuzure"],"summary":"要素辞書に一致（kuzure）。出典による裏づけは未確認。","zones":[],"dataset":"candidates"}},{"type":"Feature","geometry":{"type":"Point","coordinates":[139.891272,35.122345]},"properties":{"id":"12-f33c6efb4b","name":"上佐久間","reading":"カミサクマ","pref":"千葉県","prefCode":"12","municipality":"安房郡鋸南町","hazardTypes":["flood"],"evidenceLevel":0,"status":"current","disputed":false,"precision":"oaza","areaKey":null,"elements":["sake"],"summary":"要素辞書に一致（sake）。出典による裏づけは未確認。","zones":[],"dataset":"candidates"}},{"type":"Feature","geometry":{"type":"Point","coordinates":[139.84968,35.10979]},"properties":{"id":"12-e87a7a5185","name":"下佐久間","reading":"シモサクマ","pref":"千葉県","prefCode":"12","municipality":"安房郡鋸南町","hazardTypes":["flood"],"evidenceLevel":0,"status":"current","disputed":false,"precision":"oaza","areaKey":null,"elements":["sake"],"summary":"要素辞書に一致（sake）。出典による裏づけは未確認。","zones":[],"dataset":"candidates"}},{"type":"Feature","geometry":{"type":"Point","coordinates":[139.867539,35.122706]},"properties":{"id":"12-30640976ec","name":"中佐久間","reading":"ナカサクマ","pref":"千葉県","prefCode":"12","municipality":"安房郡鋸南町","hazardTypes":["flood"],"evidenceLevel":0,"status":"current","disputed":false,"precision":"oaza","areaKey":null,"elements":["sake"],"summary":"要素辞書に一致（sake）。出典による裏づけは未確認。","zones":[],"dataset":"candidates"}}]}
