{"type":"FeatureCollection","features":[{"type":"Feature","geometry":{"type":"Point","coordinates":[139.77154,35.690198]},"properties":{"id":"13-11a4155717","name":"鍛冶町一丁目","reading":"カジチョウ 1","pref":"東京都","prefCode":"13","municipality":"千代田区","hazardTypes":["slope_failure"],"evidenceLevel":0,"status":"current","disputed":false,"precision":"oaza","areaKey":"13101035001","elements":["kaji_kamu"],"summary":"要素辞書に一致（kaji_kamu）。出典による裏づけは未確認。","zones":[],"dataset":"candidates"}},{"type":"Feature","geometry":{"type":"Point","coordinates":[139.770976,35.693613]},"properties":{"id":"13-495dc65e8c","name":"神田鍛冶町三丁目","reading":"カンダカジチョウ 3","pref":"東京都","prefCode":"13","municipality":"千代田区","hazardTypes":["slope_failure"],"evidenceLevel":0,"status":"current","disputed":false,"precision":"oaza","areaKey":null,"elements":["kaji_kamu"],"summary":"要素辞書に一致（kaji_kamu）。出典による裏づけは未確認。","zones":[],"dataset":"candidates"}},{"type":"Feature","geometry":{"type":"Point","coordinates":[139.777798,35.697048]},"properties":{"id":"13-c44ca43a09","name":"神田佐久間河岸","reading":"カンダサクマガシ","pref":"東京都","prefCode":"13","municipality":"千代田区","hazardTypes":["slope_failure","flood"],"evidenceLevel":0,"status":"current","disputed":false,"precision":"oaza","areaKey":"131010520","elements":["kake","sake"],"summary":"要素辞書に一致（kake・sake）。出典による裏づけは未確認。","zones":[],"dataset":"candidates"}},{"type":"Feature","geometry":{"type":"Point","coordinates":[139.774222,35.697979]},"properties":{"id":"13-ac514ea90c","name":"神田佐久間町一丁目","reading":"カンダサクマチョウ 1","pref":"東京都","prefCode":"13","municipality":"千代田区","hazardTypes":["flood"],"evidenceLevel":0,"status":"current","disputed":false,"precision":"oaza","areaKey":"13101048001","elements":["sake"],"summary":"要素辞書に一致（sake）。出典による裏づけは未確認。","zones":[],"dataset":"candidates"}},{"type":"Feature","geometry":{"type":"Point","coordinates":[139.760355,35.698446]},"properties":{"id":"13-1d1d614d55","name":"神田猿楽町一丁目","reading":"カンダサルガクチョウ 1","pref":"東京都","prefCode":"13","municipality":"千代田区","hazardTypes":["slope_failure"],"evidenceLevel":0,"status":"current","disputed":false,"precision":"oaza","areaKey":null,"elements":["saru"],"summary":"要素辞書に一致（saru）。出典による裏づけは未確認。","zones":[],"dataset":"candidates"}},{"type":"Feature","geometry":{"type":"Point","coordinates":[139.774501,35.690853]},"properties":{"id":"13-c563673492","name":"神田美倉町","reading":"カンダミクラチョウ","pref":"東京都","prefCode":"13","municipality":"千代田区","hazardTypes":["slope_failure","rockfall"],"evidenceLevel":0,"status":"current","disputed":false,"precision":"oaza","areaKey":"131010400","elements":["kura"],"summary":"要素辞書に一致（kura）。出典による裏づけは未確認。","zones":[],"dataset":"candidates"}},{"type":"Feature","geometry":{"type":"Point","coordinates":[139.761674,35.655382]},"properties":{"id":"13-3083b3f868","name":"海岸一丁目","reading":"カイガン 1","pref":"東京都","prefCode":"13","municipality":"港区","hazardTypes":["slope_failure"],"evidenceLevel":0,"status":"current","disputed":false,"precision":"oaza","areaKey":"13103002001","elements":["kake"],"summary":"要素辞書に一致（kake）。出典による裏づけは未確認。","zones":[],"dataset":"candidates"}},{"type":"Feature","geometry":{"type":"Point","coordinates":[139.74006,35.697993]},"properties":{"id":"13-807f0121c7","name":"市谷船河原町","reading":"イチガヤフナガワラマチ","pref":"東京都","prefCode":"13","municipality":"新宿区","hazardTypes":["flood"],"evidenceLevel":0,"status":"current","disputed":false,"precision":"oaza","areaKey":"131040250","elements":["kawara"],"summary":"要素辞書に一致（kawara）。出典による裏づけは未確認。","zones":[],"dataset":"candidates"}},{"type":"Feature","geometry":{"type":"Point","coordinates":[139.70496,35.699644]},"properties":{"id":"13-4b17a3c87c","name":"大久保一丁目","reading":"オオクボ 1","pref":"東京都","prefCode":"13","municipality":"新宿区","hazardTypes":["slope_failure","inundation","landslide"],"evidenceLevel":0,"status":"current","disputed":false,"precision":"oaza","areaKey":"13104084001","elements":["afu_oo","kubo"],"summary":"要素辞書に一致（afu_oo・kubo）。出典による裏づけは未確認。","zones":[],"dataset":"candidates"}},{"type":"Feature","geometry":{"type":"Point","coordinates":[139.743435,35.700818]},"properties":{"id":"13-1e7bd86015","name":"神楽河岸","reading":"カグラガシ","pref":"東京都","prefCode":"13","municipality":"新宿区","hazardTypes":["slope_failure"],"evidenceLevel":0,"status":"current","disputed":false,"precision":"oaza","areaKey":"131040560","elements":["kake"],"summary":"要素辞書に一致（kake）。出典による裏づけは未確認。","zones":[],"dataset":"candidates"}},{"type":"Feature","geometry":{"type":"Point","coordinates":[139.706426,35.710978]},"properties":{"id":"13-2ea7eb0dd1","name":"高田馬場一丁目","reading":"タカダノババ 1","pref":"東京都","prefCode":"13","municipality":"新宿区","hazardTypes":["slope_failure"],"evidenceLevel":0,"status":"current","disputed":false,"precision":"oaza","areaKey":"13104087001","elements":["baba"],"summary":"要素辞書に一致（baba）。出典による裏づけは未確認。","zones":[],"dataset":"candidates"}},{"type":"Feature","geometry":{"type":"Point","coordinates":[139.719654,35.706118]},"properties":{"id":"13-08f2ba05ef","name":"馬場下町","reading":"ババシタチョウ","pref":"東京都","prefCode":"13","municipality":"新宿区","hazardTypes":["slope_failure"],"evidenceLevel":0,"status":"current","disputed":false,"precision":"oaza","areaKey":"131040660","elements":["baba"],"summary":"要素辞書に一致（baba）。出典による裏づけは未確認。","zones":[],"dataset":"candidates"}},{"type":"Feature","geometry":{"type":"Point","coordinates":[139.790573,35.700193]},"properties":{"id":"13-a01d6caf34","name":"蔵前一丁目","reading":"クラマエ 1","pref":"東京都","prefCode":"13","municipality":"台東区","hazardTypes":["slope_failure","rockfall"],"evidenceLevel":0,"status":"current","disputed":false,"precision":"oaza","areaKey":"13106018001","elements":["kura"],"summary":"要素辞書に一致（kura）。出典による裏づけは未確認。","zones":[],"dataset":"candidates"}},{"type":"Feature","geometry":{"type":"Point","coordinates":[139.779149,35.721614]},"properties":{"id":"13-c47cb04bae","name":"根岸一丁目","reading":"ネギシ 1","pref":"東京都","prefCode":"13","municipality":"台東区","hazardTypes":["slope_failure"],"evidenceLevel":0,"status":"current","disputed":false,"precision":"oaza","areaKey":"13106010001","elements":["kake"],"summary":"要素辞書に一致（kake）。出典による裏づけは未確認。","zones":[],"dataset":"candidates"}},{"type":"Feature","geometry":{"type":"Point","coordinates":[139.811695,35.685939]},"properties":{"id":"13-da863181da","name":"猿江一丁目","reading":"サルエ 1","pref":"東京都","prefCode":"13","municipality":"江東区","hazardTypes":["slope_failure"],"evidenceLevel":0,"status":"current","disputed":false,"precision":"oaza","areaKey":"13108032001","elements":["saru"],"summary":"要素辞書に一致（saru）。出典による裏づけは未確認。","zones":[],"dataset":"candidates"}},{"type":"Feature","geometry":{"type":"Point","coordinates":[139.677173,35.621011]},"properties":{"id":"13-cc76cf3f17","name":"柿の木坂一丁目","reading":"カキノキザカ 1","pref":"東京都","prefCode":"13","municipality":"目黒区","hazardTypes":["slope_failure"],"evidenceLevel":0,"status":"current","disputed":false,"precision":"oaza","areaKey":"13110025001","elements":["kake"],"summary":"要素辞書に一致（kake）。出典による裏づけは未確認。","zones":[],"dataset":"candidates"}},{"type":"Feature","geometry":{"type":"Point","coordinates":[139.694861,35.614511]},"properties":{"id":"13-d87ab74a3c","name":"洗足一丁目","reading":"センゾク 1","pref":"東京都","prefCode":"13","municipality":"目黒区","hazardTypes":["flood","inundation"],"evidenceLevel":0,"status":"current","disputed":false,"precision":"oaza","areaKey":"13110016001","elements":["ashi"],"summary":"要素辞書に一致（ashi）。出典による裏づけは未確認。","zones":[],"dataset":"candidates"}},{"type":"Feature","geometry":{"type":"Point","coordinates":[139.719843,35.565696]},"properties":{"id":"13-aad4b5d156","name":"蒲田一丁目","reading":"カマタ 1","pref":"東京都","prefCode":"13","municipality":"大田区","hazardTypes":["landslide","soft_ground"],"evidenceLevel":0,"status":"current","disputed":false,"precision":"oaza","areaKey":"13111055001","elements":["wetland_plants"],"summary":"要素辞書に一致（wetland_plants）。出典による裏づけは未確認。","zones":[],"dataset":"candidates"}},{"type":"Feature","geometry":{"type":"Point","coordinates":[139.715744,35.557417]},"properties":{"id":"13-c932817453","name":"蒲田本町一丁目","reading":"カマタホンチョウ 1","pref":"東京都","prefCode":"13","municipality":"大田区","hazardTypes":["landslide","soft_ground"],"evidenceLevel":0,"status":"current","disputed":false,"precision":"oaza","areaKey":"13111056001","elements":["wetland_plants"],"summary":"要素辞書に一致（wetland_plants）。出典による裏づけは未確認。","zones":[],"dataset":"candidates"}},{"type":"Feature","geometry":{"type":"Point","coordinates":[139.711433,35.55758]},"properties":{"id":"13-164b296e14","name":"新蒲田一丁目","reading":"シンカマタ 1","pref":"東京都","prefCode":"13","municipality":"大田区","hazardTypes":["landslide","soft_ground"],"evidenceLevel":0,"status":"current","disputed":false,"precision":"oaza","areaKey":"13111053001","elements":["wetland_plants"],"summary":"要素辞書に一致（wetland_plants）。出典による裏づけは未確認。","zones":[],"dataset":"candidates"}},{"type":"Feature","geometry":{"type":"Point","coordinates":[139.713017,35.571576]},"properties":{"id":"13-46abb2e3ce","name":"西蒲田一丁目","reading":"ニシカマタ 1","pref":"東京都","prefCode":"13","municipality":"大田区","hazardTypes":["landslide","soft_ground"],"evidenceLevel":0,"status":"current","disputed":false,"precision":"oaza","areaKey":"13111054001","elements":["wetland_plants"],"summary":"要素辞書に一致（wetland_plants）。出典による裏づけは未確認。","zones":[],"dataset":"candidates"}},{"type":"Feature","geometry":{"type":"Point","coordinates":[139.729107,35.564989]},"properties":{"id":"13-db5c2bf224","name":"東蒲田一丁目","reading":"ヒガシカマタ 1","pref":"東京都","prefCode":"13","municipality":"大田区","hazardTypes":["landslide","soft_ground"],"evidenceLevel":0,"status":"current","disputed":false,"precision":"oaza","areaKey":"13111057001","elements":["wetland_plants"],"summary":"要素辞書に一致（wetland_plants）。出典による裏づけは未確認。","zones":[],"dataset":"candidates"}},{"type":"Feature","geometry":{"type":"Point","coordinates":[139.725287,35.558726]},"properties":{"id":"13-0cd518b1d2","name":"南蒲田一丁目","reading":"ミナミカマタ 1","pref":"東京都","prefCode":"13","municipality":"大田区","hazardTypes":["landslide","soft_ground"],"evidenceLevel":0,"status":"current","disputed":false,"precision":"oaza","areaKey":"13111046001","elements":["wetland_plants"],"summary":"要素辞書に一致（wetland_plants）。出典による裏づけは未確認。","zones":[],"dataset":"candidates"}},{"type":"Feature","geometry":{"type":"Point","coordinates":[139.652583,35.654621]},"properties":{"id":"13-7b8d48798d","name":"梅丘一丁目","reading":"ウメガオカ 1","pref":"東京都","prefCode":"13","municipality":"世田谷区","hazardTypes":["landslide","slope_failure"],"evidenceLevel":0,"status":"current","disputed":false,"precision":"oaza","areaKey":"13112017001","elements":["ume"],"summary":"要素辞書に一致（ume）。出典による裏づけは未確認。","zones":[],"dataset":"candidates"}},{"type":"Feature","geometry":{"type":"Point","coordinates":[139.619541,35.634197]},"properties":{"id":"13-eafe748b98","name":"大蔵一丁目","reading":"オオクラ 1","pref":"東京都","prefCode":"13","municipality":"世田谷区","hazardTypes":["slope_failure","rockfall"],"evidenceLevel":0,"status":"current","disputed":false,"precision":"oaza","areaKey":"13112052001","elements":["kura"],"summary":"要素辞書に一致（kura）。出典による裏づけは未確認。","zones":[],"dataset":"candidates"}},{"type":"Feature","geometry":{"type":"Point","coordinates":[139.639622,35.61121]},"properties":{"id":"13-f607d7546f","name":"上野毛一丁目","reading":"カミノゲ 1","pref":"東京都","prefCode":"13","municipality":"世田谷区","hazardTypes":["slope_failure"],"evidenceLevel":0,"status":"current","disputed":false,"precision":"oaza","areaKey":"13112032001","elements":["nuke"],"summary":"要素辞書に一致（nuke）。出典による裏づけは未確認。","zones":[],"dataset":"candidates"}},{"type":"Feature","geometry":{"type":"Point","coordinates":[139.644285,35.602386]},"properties":{"id":"13-227dba0309","name":"野毛一丁目","reading":"ノゲ 1","pref":"東京都","prefCode":"13","municipality":"世田谷区","hazardTypes":["slope_failure"],"evidenceLevel":0,"status":"current","disputed":false,"precision":"oaza","areaKey":"13112033001","elements":["nuke"],"summary":"要素辞書に一致（nuke）。出典による裏づけは未確認。","zones":[],"dataset":"candidates"}},{"type":"Feature","geometry":{"type":"Point","coordinates":[139.700868,35.650091]},"properties":{"id":"13-cf36ac028c","name":"猿楽町","reading":"サルガクチョウ","pref":"東京都","prefCode":"13","municipality":"渋谷区","hazardTypes":["slope_failure"],"evidenceLevel":0,"status":"current","disputed":false,"precision":"oaza","areaKey":"131130070","elements":["saru"],"summary":"要素辞書に一致（saru）。出典による裏づけは未確認。","zones":[],"dataset":"candidates"}},{"type":"Feature","geometry":{"type":"Point","coordinates":[139.651275,35.696162]},"properties":{"id":"13-435c047d69","name":"梅里一丁目","reading":"ウメザト 1","pref":"東京都","prefCode":"13","municipality":"杉並区","hazardTypes":["landslide","slope_failure"],"evidenceLevel":0,"status":"current","disputed":false,"precision":"oaza","areaKey":"13115010001","elements":["ume"],"summary":"要素辞書に一致（ume）。出典による裏づけは未確認。","zones":[],"dataset":"candidates"}},{"type":"Feature","geometry":{"type":"Point","coordinates":[139.621781,35.69296]},"properties":{"id":"13-1b17b00fe6","name":"荻窪一丁目","reading":"オギクボ 1","pref":"東京都","prefCode":"13","municipality":"杉並区","hazardTypes":["slope_failure","inundation","landslide"],"evidenceLevel":0,"status":"current","disputed":false,"precision":"oaza","areaKey":"13115019001","elements":["suki_hagu","kubo"],"summary":"要素辞書に一致（suki_hagu・kubo）。出典による裏づけは未確認。","zones":[],"dataset":"candidates"}},{"type":"Feature","geometry":{"type":"Point","coordinates":[139.617121,35.706021]},"properties":{"id":"13-75773e5fa8","name":"上荻一丁目","reading":"カミオギ 1","pref":"東京都","prefCode":"13","municipality":"杉並区","hazardTypes":["slope_failure"],"evidenceLevel":0,"status":"current","disputed":false,"precision":"oaza","areaKey":"13115021001","elements":["suki_hagu"],"summary":"要素辞書に一致（suki_hagu）。出典による裏づけは未確認。","zones":[],"dataset":"candidates"}},{"type":"Feature","geometry":{"type":"Point","coordinates":[139.606745,35.706287]},"properties":{"id":"13-3f47697e8f","name":"西荻北一丁目","reading":"ニシオギキタ 1","pref":"東京都","prefCode":"13","municipality":"杉並区","hazardTypes":["slope_failure"],"evidenceLevel":0,"status":"current","disputed":false,"precision":"oaza","areaKey":"13115023001","elements":["suki_hagu"],"summary":"要素辞書に一致（suki_hagu）。出典による裏づけは未確認。","zones":[],"dataset":"candidates"}},{"type":"Feature","geometry":{"type":"Point","coordinates":[139.602775,35.69807]},"properties":{"id":"13-7d37188beb","name":"西荻南一丁目","reading":"ニシオギミナミ 1","pref":"東京都","prefCode":"13","municipality":"杉並区","hazardTypes":["slope_failure"],"evidenceLevel":0,"status":"current","disputed":false,"precision":"oaza","areaKey":"13115022001","elements":["suki_hagu"],"summary":"要素辞書に一致（suki_hagu）。出典による裏づけは未確認。","zones":[],"dataset":"candidates"}},{"type":"Feature","geometry":{"type":"Point","coordinates":[139.61471,35.695883]},"properties":{"id":"13-8544181b9e","name":"南荻窪一丁目","reading":"ミナミオギクボ 1","pref":"東京都","prefCode":"13","municipality":"杉並区","hazardTypes":["slope_failure","inundation","landslide"],"evidenceLevel":0,"status":"current","disputed":false,"precision":"oaza","areaKey":"13115020001","elements":["suki_hagu","kubo"],"summary":"要素辞書に一致（suki_hagu・kubo）。出典による裏づけは未確認。","zones":[],"dataset":"candidates"}},{"type":"Feature","geometry":{"type":"Point","coordinates":[139.734299,35.755755]},"properties":{"id":"13-d71cbb6ce2","name":"岸町一丁目","reading":"キシマチ 1","pref":"東京都","prefCode":"13","municipality":"北区","hazardTypes":["slope_failure"],"evidenceLevel":0,"status":"current","disputed":false,"precision":"oaza","areaKey":"13117006001","elements":["kake"],"summary":"要素辞書に一致（kake）。出典による裏づけは未確認。","zones":[],"dataset":"candidates"}},{"type":"Feature","geometry":{"type":"Point","coordinates":[139.700268,35.773939]},"properties":{"id":"13-c7ac4a5615","name":"小豆沢一丁目","reading":"アズサワ 1","pref":"東京都","prefCode":"13","municipality":"板橋区","hazardTypes":["debris_flow","slope_failure"],"evidenceLevel":0,"status":"current","disputed":false,"precision":"oaza","areaKey":"13119039001","elements":["azu"],"summary":"要素辞書に一致（azu）。出典による裏づけは未確認。","zones":[],"dataset":"candidates"}},{"type":"Feature","geometry":{"type":"Point","coordinates":[139.667484,35.796088]},"properties":{"id":"13-c9def95225","name":"新河岸一丁目","reading":"シンガシ 1","pref":"東京都","prefCode":"13","municipality":"板橋区","hazardTypes":["slope_failure"],"evidenceLevel":0,"status":"current","disputed":false,"precision":"oaza","areaKey":"13119056001","elements":["kake"],"summary":"要素辞書に一致（kake）。出典による裏づけは未確認。","zones":[],"dataset":"candidates"}},{"type":"Feature","geometry":{"type":"Point","coordinates":[139.805576,35.761522]},"properties":{"id":"13-da71995f06","name":"足立一丁目","reading":"アダチ 1","pref":"東京都","prefCode":"13","municipality":"足立区","hazardTypes":["flood","inundation"],"evidenceLevel":0,"status":"current","disputed":false,"precision":"oaza","areaKey":"13121002001","elements":["ashi"],"summary":"要素辞書に一致（ashi）。出典による裏づけは未確認。","zones":[],"dataset":"candidates"}},{"type":"Feature","geometry":{"type":"Point","coordinates":[139.800703,35.772496]},"properties":{"id":"13-c5ee2d7db7","name":"梅島一丁目","reading":"ウメジマ 1","pref":"東京都","prefCode":"13","municipality":"足立区","hazardTypes":["landslide","slope_failure"],"evidenceLevel":0,"status":"current","disputed":false,"precision":"oaza","areaKey":"13121012001","elements":["ume"],"summary":"要素辞書に一致（ume）。出典による裏づけは未確認。","zones":[],"dataset":"candidates"}},{"type":"Feature","geometry":{"type":"Point","coordinates":[139.801593,35.762166]},"properties":{"id":"13-446c97f9bc","name":"梅田一丁目","reading":"ウメダ 1","pref":"東京都","prefCode":"13","municipality":"足立区","hazardTypes":["landslide","slope_failure"],"evidenceLevel":0,"status":"current","disputed":false,"precision":"oaza","areaKey":"13121011001","elements":["ume"],"summary":"要素辞書に一致（ume）。出典による裏づけは未確認。","zones":[],"dataset":"candidates"}},{"type":"Feature","geometry":{"type":"Point","coordinates":[139.748476,35.776167]},"properties":{"id":"13-d32e6cb4d7","name":"鹿浜一丁目","reading":"シカハマ 1","pref":"東京都","prefCode":"13","municipality":"足立区","hazardTypes":["landslide","soft_ground"],"evidenceLevel":0,"status":"current","disputed":false,"precision":"oaza","areaKey":"13121027001","elements":["shishi"],"summary":"要素辞書に一致（shishi）。出典による裏づけは未確認。","zones":[],"dataset":"candidates"}},{"type":"Feature","geometry":{"type":"Point","coordinates":[139.798787,35.743103]},"properties":{"id":"13-6b0eab7197","name":"千住河原町","reading":"センジュカワラチョウ","pref":"東京都","prefCode":"13","municipality":"足立区","hazardTypes":["flood"],"evidenceLevel":0,"status":"current","disputed":false,"precision":"oaza","areaKey":"131210360","elements":["kawara"],"summary":"要素辞書に一致（kawara）。出典による裏づけは未確認。","zones":[],"dataset":"candidates"}},{"type":"Feature","geometry":{"type":"Point","coordinates":[139.878158,35.742729]},"properties":{"id":"13-9bb109656a","name":"鎌倉一丁目","reading":"カマクラ 1","pref":"東京都","prefCode":"13","municipality":"葛飾区","hazardTypes":["slope_failure","rockfall"],"evidenceLevel":0,"status":"current","disputed":false,"precision":"oaza","areaKey":"13122019001","elements":["kura"],"summary":"要素辞書に一致（kura）。出典による裏づけは未確認。","zones":[],"dataset":"candidates"}},{"type":"Feature","geometry":{"type":"Point","coordinates":[139.817107,35.754231]},"properties":{"id":"13-7d5d9937d1","name":"小菅一丁目","reading":"コスゲ 1","pref":"東京都","prefCode":"13","municipality":"葛飾区","hazardTypes":["landslide","soft_ground"],"evidenceLevel":0,"status":"current","disputed":false,"precision":"oaza","areaKey":"13122008001","elements":["wetland_plants"],"summary":"要素辞書に一致（wetland_plants）。出典による裏づけは未確認。","zones":[],"dataset":"candidates"}},{"type":"Feature","geometry":{"type":"Point","coordinates":[139.887588,35.708809]},"properties":{"id":"13-62cf19b372","name":"鹿骨一丁目","reading":"シシボネ 1","pref":"東京都","prefCode":"13","municipality":"江戸川区","hazardTypes":["landslide","soft_ground"],"evidenceLevel":0,"status":"current","disputed":false,"precision":"oaza","areaKey":"13123025001","elements":["shishi"],"summary":"要素辞書に一致（shishi）。出典による裏づけは未確認。","zones":[],"dataset":"candidates"}},{"type":"Feature","geometry":{"type":"Point","coordinates":[139.883424,35.717256]},"properties":{"id":"13-10aa9296e7","name":"鹿骨町","reading":"シシボネチョウ","pref":"東京都","prefCode":"13","municipality":"江戸川区","hazardTypes":["landslide","soft_ground"],"evidenceLevel":0,"status":"current","disputed":false,"precision":"oaza","areaKey":"131230240","elements":["shishi"],"summary":"要素辞書に一致（shishi）。出典による裏づけは未確認。","zones":[],"dataset":"candidates"}},{"type":"Feature","geometry":{"type":"Point","coordinates":[139.335755,35.686065]},"properties":{"id":"13-7428df5f9c","name":"梅坪町","reading":"ウメツボマチ","pref":"東京都","prefCode":"13","municipality":"八王子市","hazardTypes":["landslide","slope_failure"],"evidenceLevel":0,"status":"current","disputed":false,"precision":"oaza","areaKey":"132010930","elements":["ume"],"summary":"要素辞書に一致（ume）。出典による裏づけは未確認。","zones":[],"dataset":"candidates"}},{"type":"Feature","geometry":{"type":"Point","coordinates":[139.425657,35.633224]},"properties":{"id":"13-0145be2a27","name":"鹿島","reading":"カシマ","pref":"東京都","prefCode":"13","municipality":"八王子市","hazardTypes":["landslide","soft_ground"],"evidenceLevel":0,"status":"current","disputed":false,"precision":"oaza","areaKey":"132010590","elements":["shishi"],"summary":"要素辞書に一致（shishi）。出典による裏づけは未確認。","zones":[],"dataset":"candidates"}},{"type":"Feature","geometry":{"type":"Point","coordinates":[139.341159,35.634195]},"properties":{"id":"13-e48d350f18","name":"片倉町","reading":"カタクラマチ","pref":"東京都","prefCode":"13","municipality":"八王子市","hazardTypes":["slope_failure","rockfall"],"evidenceLevel":0,"status":"current","disputed":false,"precision":"oaza","areaKey":"13201101000","elements":["kura"],"summary":"要素辞書に一致（kura）。出典による裏づけは未確認。","zones":[],"dataset":"candidates"}},{"type":"Feature","geometry":{"type":"Point","coordinates":[139.366721,35.666115]},"properties":{"id":"13-428f03d030","name":"高倉町","reading":"タカクラマチ","pref":"東京都","prefCode":"13","municipality":"八王子市","hazardTypes":["slope_failure","rockfall"],"evidenceLevel":0,"status":"current","disputed":false,"precision":"oaza","areaKey":"132011090","elements":["kura"],"summary":"要素辞書に一致（kura）。出典による裏づけは未確認。","zones":[],"dataset":"candidates"}},{"type":"Feature","geometry":{"type":"Point","coordinates":[139.335213,35.635712]},"properties":{"id":"13-8c0eebcc4c","name":"西片倉一丁目","reading":"ニシカタクラ 1","pref":"東京都","prefCode":"13","municipality":"八王子市","hazardTypes":["slope_failure","rockfall"],"evidenceLevel":0,"status":"current","disputed":false,"precision":"oaza","areaKey":"13201122001","elements":["kura"],"summary":"要素辞書に一致（kura）。出典による裏づけは未確認。","zones":[],"dataset":"candidates"}},{"type":"Feature","geometry":{"type":"Point","coordinates":[139.213021,35.778764]},"properties":{"id":"13-d65a151829","name":"梅郷一丁目","reading":"バイゴウ 1","pref":"東京都","prefCode":"13","municipality":"青梅市","hazardTypes":["landslide","slope_failure"],"evidenceLevel":0,"status":"current","disputed":false,"precision":"oaza","areaKey":"13205032001","elements":["ume"],"summary":"要素辞書に一致（ume）。出典による裏づけは未確認。","zones":[],"dataset":"candidates"}},{"type":"Feature","geometry":{"type":"Point","coordinates":[139.273069,35.788702]},"properties":{"id":"13-fe6ee625ee","name":"東青梅一丁目","reading":"ヒガシオウメ 1","pref":"東京都","prefCode":"13","municipality":"青梅市","hazardTypes":["landslide","slope_failure"],"evidenceLevel":0,"status":"current","disputed":false,"precision":"oaza","areaKey":"13205001001","elements":["ume"],"summary":"要素辞書に一致（ume）。出典による裏づけは未確認。","zones":[],"dataset":"candidates"}},{"type":"Feature","geometry":{"type":"Point","coordinates":[139.465759,35.667553]},"properties":{"id":"13-af07f2708a","name":"分梅町一丁目","reading":"ブバイチョウ 1","pref":"東京都","prefCode":"13","municipality":"府中市","hazardTypes":["landslide","slope_failure"],"evidenceLevel":0,"status":"current","disputed":false,"precision":"oaza","areaKey":"13206033001","elements":["ume"],"summary":"要素辞書に一致（ume）。出典による裏づけは未確認。","zones":[],"dataset":"candidates"}},{"type":"Feature","geometry":{"type":"Point","coordinates":[139.464396,35.687318]},"properties":{"id":"13-125490a002","name":"武蔵台一丁目","reading":"ムサシダイ 1","pref":"東京都","prefCode":"13","municipality":"府中市","hazardTypes":["slope_failure","rockfall","landslide"],"evidenceLevel":0,"status":"current","disputed":false,"precision":"oaza","areaKey":"13206028001","elements":["kura","tai"],"summary":"要素辞書に一致（kura・tai）。出典による裏づけは未確認。","zones":[],"dataset":"candidates"}},{"type":"Feature","geometry":{"type":"Point","coordinates":[139.365791,35.722078]},"properties":{"id":"13-6f23738ae0","name":"上川原町","reading":"ジョウガワラチョウ","pref":"東京都","prefCode":"13","municipality":"昭島市","hazardTypes":["flood"],"evidenceLevel":0,"status":"current","disputed":false,"precision":"oaza","areaKey":"132070222","elements":["kawara"],"summary":"要素辞書に一致（kawara）。出典による裏づけは未確認。","zones":[],"dataset":"candidates"}},{"type":"Feature","geometry":{"type":"Point","coordinates":[139.376069,35.721838]},"properties":{"id":"13-86d41aa6b4","name":"武蔵野二丁目","reading":"ムサシノ 2","pref":"東京都","prefCode":"13","municipality":"昭島市","hazardTypes":["slope_failure","rockfall"],"evidenceLevel":0,"status":"current","disputed":false,"precision":"oaza","areaKey":"13207003002","elements":["kura"],"summary":"要素辞書に一致（kura）。出典による裏づけは未確認。","zones":[],"dataset":"candidates"}},{"type":"Feature","geometry":{"type":"Point","coordinates":[139.52404,35.661605]},"properties":{"id":"13-81dfc8e8dd","name":"飛田給一丁目","reading":"トビタキュウ 1","pref":"東京都","prefCode":"13","municipality":"調布市","hazardTypes":["slope_failure","debris_flow"],"evidenceLevel":0,"status":"current","disputed":false,"precision":"oaza","areaKey":"13208001001","elements":["tobi"],"summary":"要素辞書に一致（tobi）。出典による裏づけは未確認。","zones":[],"dataset":"candidates"}},{"type":"Feature","geometry":{"type":"Point","coordinates":[139.464543,35.589]},"properties":{"id":"13-daa4e846f5","name":"大蔵町","reading":"オオクラマチ","pref":"東京都","prefCode":"13","municipality":"町田市","hazardTypes":["slope_failure","rockfall"],"evidenceLevel":0,"status":"current","disputed":false,"precision":"oaza","areaKey":"132090030","elements":["kura"],"summary":"要素辞書に一致（kura）。出典による裏づけは未確認。","zones":[],"dataset":"candidates"}},{"type":"Feature","geometry":{"type":"Point","coordinates":[139.411476,35.573204]},"properties":{"id":"13-9cac4ca5f7","name":"根岸一丁目","reading":"ネギシ 1","pref":"東京都","prefCode":"13","municipality":"町田市","hazardTypes":["slope_failure"],"evidenceLevel":0,"status":"current","disputed":false,"precision":"oaza","areaKey":"13209026101","elements":["kake"],"summary":"要素辞書に一致（kake）。出典による裏づけは未確認。","zones":[],"dataset":"candidates"}},{"type":"Feature","geometry":{"type":"Point","coordinates":[139.407883,35.577481]},"properties":{"id":"13-618d926a92","name":"根岸町","reading":"ネギシマチ","pref":"東京都","prefCode":"13","municipality":"町田市","hazardTypes":["slope_failure"],"evidenceLevel":0,"status":"current","disputed":false,"precision":"oaza","areaKey":"132090262","elements":["kake"],"summary":"要素辞書に一致（kake）。出典による裏づけは未確認。","zones":[],"dataset":"candidates"}},{"type":"Feature","geometry":{"type":"Point","coordinates":[139.461232,35.712096]},"properties":{"id":"13-f9f255dc49","name":"戸倉一丁目","reading":"トクラ 1","pref":"東京都","prefCode":"13","municipality":"国分寺市","hazardTypes":["slope_failure","rockfall"],"evidenceLevel":0,"status":"current","disputed":false,"precision":"oaza","areaKey":"13214010001","elements":["kura"],"summary":"要素辞書に一致（kura）。出典による裏づけは未確認。","zones":[],"dataset":"candidates"}},{"type":"Feature","geometry":{"type":"Point","coordinates":[139.468338,35.714569]},"properties":{"id":"13-b6c42b2592","name":"東戸倉一丁目","reading":"ヒガシトクラ 1","pref":"東京都","prefCode":"13","municipality":"国分寺市","hazardTypes":["slope_failure","rockfall"],"evidenceLevel":0,"status":"current","disputed":false,"precision":"oaza","areaKey":"13214009001","elements":["kura"],"summary":"要素辞書に一致（kura）。出典による裏づけは未確認。","zones":[],"dataset":"candidates"}},{"type":"Feature","geometry":{"type":"Point","coordinates":[139.332891,35.748623]},"properties":{"id":"13-917b0e5f45","name":"武蔵野台一丁目","reading":"ムサシノダイ 1","pref":"東京都","prefCode":"13","municipality":"福生市","hazardTypes":["slope_failure","rockfall","landslide"],"evidenceLevel":0,"status":"current","disputed":false,"precision":"oaza","areaKey":"13218008001","elements":["kura","tai"],"summary":"要素辞書に一致（kura・tai）。出典による裏づけは未確認。","zones":[],"dataset":"candidates"}},{"type":"Feature","geometry":{"type":"Point","coordinates":[139.581765,35.628491]},"properties":{"id":"13-1c02b72dd7","name":"猪方一丁目","reading":"イノガタ 1","pref":"東京都","prefCode":"13","municipality":"狛江市","hazardTypes":["landslide","soft_ground"],"evidenceLevel":0,"status":"current","disputed":false,"precision":"oaza","areaKey":"13219006001","elements":["shishi"],"summary":"要素辞書に一致（shishi）。出典による裏づけは未確認。","zones":[],"dataset":"candidates"}},{"type":"Feature","geometry":{"type":"Point","coordinates":[139.418883,35.755863]},"properties":{"id":"13-ddb1d35a52","name":"蔵敷一丁目","reading":"ゾウシキ 1","pref":"東京都","prefCode":"13","municipality":"東大和市","hazardTypes":["slope_failure","rockfall"],"evidenceLevel":0,"status":"current","disputed":false,"precision":"oaza","areaKey":"13220003001","elements":["kura"],"summary":"要素辞書に一致（kura）。出典による裏づけは未確認。","zones":[],"dataset":"candidates"}},{"type":"Feature","geometry":{"type":"Point","coordinates":[139.508594,35.772186]},"properties":{"id":"13-3cb15452c7","name":"梅園一丁目","reading":"ウメゾノ 1","pref":"東京都","prefCode":"13","municipality":"清瀬市","hazardTypes":["landslide","slope_failure"],"evidenceLevel":0,"status":"current","disputed":false,"precision":"oaza","areaKey":"13221011001","elements":["ume"],"summary":"要素辞書に一致（ume）。出典による裏づけは未確認。","zones":[],"dataset":"candidates"}},{"type":"Feature","geometry":{"type":"Point","coordinates":[139.359624,35.743657]},"properties":{"id":"13-dc346e7adb","name":"大字岸","reading":null,"pref":"東京都","prefCode":"13","municipality":"武蔵村山市","hazardTypes":["slope_failure"],"evidenceLevel":0,"status":"current","disputed":false,"precision":"oaza","areaKey":"132230020","elements":["kake"],"summary":"要素辞書に一致（kake）。出典による裏づけは未確認。","zones":[],"dataset":"candidates"}},{"type":"Feature","geometry":{"type":"Point","coordinates":[139.366303,35.761242]},"properties":{"id":"13-02c2092662","name":"岸一丁目","reading":"キシ 1","pref":"東京都","prefCode":"13","municipality":"武蔵村山市","hazardTypes":["slope_failure"],"evidenceLevel":0,"status":"current","disputed":false,"precision":"oaza","areaKey":"13223015001","elements":["kake"],"summary":"要素辞書に一致（kake）。出典による裏づけは未確認。","zones":[],"dataset":"candidates"}},{"type":"Feature","geometry":{"type":"Point","coordinates":[139.303522,35.714669]},"properties":{"id":"13-975fb97117","name":"切欠","reading":"キッカケ","pref":"東京都","prefCode":"13","municipality":"あきる野市","hazardTypes":["slope_failure"],"evidenceLevel":0,"status":"current","disputed":false,"precision":"oaza","areaKey":"132280090","elements":["kake"],"summary":"要素辞書に一致（kake）。出典による裏づけは未確認。","zones":[],"dataset":"candidates"}},{"type":"Feature","geometry":{"type":"Point","coordinates":[139.286829,35.750994]},"properties":{"id":"13-5215d91039","name":"菅生","reading":"スガオ","pref":"東京都","prefCode":"13","municipality":"あきる野市","hazardTypes":["landslide","soft_ground"],"evidenceLevel":0,"status":"current","disputed":false,"precision":"oaza","areaKey":"132280110","elements":["wetland_plants"],"summary":"要素辞書に一致（wetland_plants）。出典による裏づけは未確認。","zones":[],"dataset":"candidates"}},{"type":"Feature","geometry":{"type":"Point","coordinates":[139.190182,35.71362]},"properties":{"id":"13-c084071427","name":"戸倉","reading":"トクラ","pref":"東京都","prefCode":"13","municipality":"あきる野市","hazardTypes":["slope_failure","rockfall"],"evidenceLevel":0,"status":"current","disputed":false,"precision":"oaza","areaKey":"132280350","elements":["kura"],"summary":"要素辞書に一致（kura）。出典による裏づけは未確認。","zones":[],"dataset":"candidates"}},{"type":"Feature","geometry":{"type":"Point","coordinates":[139.352408,35.762783]},"properties":{"id":"13-8a3a0c86db","name":"大字武蔵","reading":null,"pref":"東京都","prefCode":"13","municipality":"西多摩郡瑞穂町","hazardTypes":["slope_failure","rockfall"],"evidenceLevel":0,"status":"current","disputed":false,"precision":"oaza","areaKey":null,"elements":["kura"],"summary":"要素辞書に一致（kura）。出典による裏づけは未確認。","zones":[],"dataset":"candidates"}},{"type":"Feature","geometry":{"type":"Point","coordinates":[139.060049,35.742096]},"properties":{"id":"13-172dcb2f6f","name":"倉掛","reading":"クラカケ","pref":"東京都","prefCode":"13","municipality":"西多摩郡檜原村","hazardTypes":["slope_failure","rockfall"],"evidenceLevel":0,"status":"current","disputed":false,"precision":"oaza","areaKey":null,"elements":["kura"],"summary":"要素辞書に一致（kura）。出典による裏づけは未確認。","zones":[],"dataset":"candidates"}},{"type":"Feature","geometry":{"type":"Point","coordinates":[139.166502,35.804712]},"properties":{"id":"13-b138ac168b","name":"梅澤","reading":null,"pref":"東京都","prefCode":"13","municipality":"西多摩郡奥多摩町","hazardTypes":["landslide","slope_failure"],"evidenceLevel":0,"status":"current","disputed":false,"precision":"oaza","areaKey":null,"elements":["ume"],"summary":"要素辞書に一致（ume）。出典による裏づけは未確認。","zones":[],"dataset":"candidates"}},{"type":"Feature","geometry":{"type":"Point","coordinates":[139.38775,34.788186]},"properties":{"id":"13-d3b8622f2d","name":"大久保","reading":null,"pref":"東京都","prefCode":"13","municipality":"大島町","hazardTypes":["slope_failure","inundation","landslide"],"evidenceLevel":0,"status":"current","disputed":false,"precision":"koaza","areaKey":"13361003000","elements":["afu_oo","kubo"],"summary":"要素辞書に一致（afu_oo・kubo）。出典による裏づけは未確認。","zones":[],"dataset":"candidates"}},{"type":"Feature","geometry":{"type":"Point","coordinates":[139.351172,34.762042]},"properties":{"id":"13-e07f978cf3","name":"水溜","reading":null,"pref":"東京都","prefCode":"13","municipality":"大島町","hazardTypes":["inundation"],"evidenceLevel":0,"status":"current","disputed":false,"precision":"koaza","areaKey":null,"elements":["mizuiri"],"summary":"要素辞書に一致（mizuiri）。出典による裏づけは未確認。","zones":[],"dataset":"candidates"}},{"type":"Feature","geometry":{"type":"Point","coordinates":[139.14069,34.217189]},"properties":{"id":"13-9b141e1559","name":"鍛冶山","reading":null,"pref":"東京都","prefCode":"13","municipality":"神津島村","hazardTypes":["slope_failure"],"evidenceLevel":0,"status":"current","disputed":false,"precision":"oaza","areaKey":"13364001006","elements":["kaji_kamu"],"summary":"要素辞書に一致（kaji_kamu）。出典による裏づけは未確認。","zones":[],"dataset":"candidates"}}]}
