{"type":"FeatureCollection","features":[{"type":"Feature","geometry":{"type":"Point","coordinates":[136.108162,36.075854]},"properties":{"id":"18-1e5c2ca78d","name":"足谷町","reading":"アシタニチョウ","pref":"福井県","prefCode":"18","municipality":"福井市","hazardTypes":["flood","inundation"],"evidenceLevel":0,"originLevel":0,"hasRecord":false,"recordRelation":null,"status":"current","disputed":false,"precision":"oaza","areaKey":"182010030","elements":["ashi"],"summary":"要素辞書に一致（ashi）。出典による裏づけは未確認。","zones":[],"dataset":"candidates"}},{"type":"Feature","geometry":{"type":"Point","coordinates":[136.209421,36.059357]},"properties":{"id":"18-d75771bd53","name":"足羽一丁目","reading":"アスワ 1","pref":"福井県","prefCode":"18","municipality":"福井市","hazardTypes":["flood","inundation"],"evidenceLevel":0,"originLevel":0,"hasRecord":false,"recordRelation":null,"status":"current","disputed":false,"precision":"oaza","areaKey":"18201004001","elements":["ashi"],"summary":"要素辞書に一致（ashi）。出典による裏づけは未確認。","zones":[],"dataset":"candidates"}},{"type":"Feature","geometry":{"type":"Point","coordinates":[136.207431,36.055235]},"properties":{"id":"18-5ca2e366c8","name":"足羽上町","reading":"アスワカミチョウ","pref":"福井県","prefCode":"18","municipality":"福井市","hazardTypes":["flood","inundation"],"evidenceLevel":0,"originLevel":0,"hasRecord":false,"recordRelation":null,"status":"current","disputed":false,"precision":"oaza","areaKey":"182010050","elements":["ashi"],"summary":"要素辞書に一致（ashi）。出典による裏づけは未確認。","zones":[],"dataset":"candidates"}},{"type":"Feature","geometry":{"type":"Point","coordinates":[136.169331,36.122816]},"properties":{"id":"18-769ab7e41f","name":"天菅生町","reading":"アマスゴウチョウ","pref":"福井県","prefCode":"18","municipality":"福井市","hazardTypes":["landslide","soft_ground"],"evidenceLevel":0,"originLevel":0,"hasRecord":false,"recordRelation":null,"status":"current","disputed":false,"precision":"oaza","areaKey":"182010140","elements":["wetland_plants"],"summary":"要素辞書に一致（wetland_plants）。出典による裏づけは未確認。","zones":[],"dataset":"candidates"}},{"type":"Feature","geometry":{"type":"Point","coordinates":[135.987576,36.006354]},"properties":{"id":"18-853d103f79","name":"居倉町","reading":"イクラチョウ","pref":"福井県","prefCode":"18","municipality":"福井市","hazardTypes":["slope_failure","rockfall"],"evidenceLevel":0,"originLevel":0,"hasRecord":false,"recordRelation":null,"status":"current","disputed":false,"precision":"oaza","areaKey":"182014850","elements":["kura"],"summary":"要素辞書に一致（kura）。出典による裏づけは未確認。","zones":[],"dataset":"candidates"}},{"type":"Feature","geometry":{"type":"Point","coordinates":[136.260477,36.004359]},"properties":{"id":"18-3ade680135","name":"岩倉町","reading":"イワクラチョウ","pref":"福井県","prefCode":"18","municipality":"福井市","hazardTypes":["slope_failure","rockfall"],"evidenceLevel":0,"originLevel":0,"hasRecord":false,"recordRelation":null,"status":"current","disputed":false,"precision":"oaza","areaKey":"182010420","elements":["kura"],"summary":"要素辞書に一致（kura）。出典による裏づけは未確認。","zones":[],"dataset":"candidates"}},{"type":"Feature","geometry":{"type":"Point","coordinates":[136.348832,36.025502]},"properties":{"id":"18-a61e7c44b0","name":"大久保町","reading":"オオクボチョウ","pref":"福井県","prefCode":"18","municipality":"福井市","hazardTypes":["slope_failure","inundation","landslide"],"evidenceLevel":0,"originLevel":0,"hasRecord":false,"recordRelation":null,"status":"current","disputed":false,"precision":"oaza","areaKey":"182014310","elements":["afu_oo","kubo"],"summary":"要素辞書に一致（afu_oo・kubo）。出典による裏づけは未確認。","zones":[],"dataset":"candidates"}},{"type":"Feature","geometry":{"type":"Point","coordinates":[136.151278,36.08937]},"properties":{"id":"18-b6125cb1b4","name":"柿谷町","reading":"カキダニチョウ","pref":"福井県","prefCode":"18","municipality":"福井市","hazardTypes":["slope_failure"],"evidenceLevel":0,"originLevel":0,"hasRecord":false,"recordRelation":null,"status":"current","disputed":false,"precision":"oaza","areaKey":"182010800","elements":["kake"],"summary":"要素辞書に一致（kake）。出典による裏づけは未確認。","zones":[],"dataset":"candidates"}},{"type":"Feature","geometry":{"type":"Point","coordinates":[136.279618,35.983613]},"properties":{"id":"18-742df6a498","name":"鹿俣町","reading":"カナマタチョウ","pref":"福井県","prefCode":"18","municipality":"福井市","hazardTypes":["landslide","soft_ground"],"evidenceLevel":0,"originLevel":0,"hasRecord":false,"recordRelation":null,"status":"current","disputed":false,"precision":"oaza","areaKey":"182010860","elements":["shishi"],"summary":"要素辞書に一致（shishi）。出典による裏づけは未確認。","zones":[],"dataset":"candidates"}},{"type":"Feature","geometry":{"type":"Point","coordinates":[136.196356,36.061044]},"properties":{"id":"18-48d9880c4a","name":"加茂河原一丁目","reading":"カモガワラ 1","pref":"福井県","prefCode":"18","municipality":"福井市","hazardTypes":["flood"],"evidenceLevel":0,"originLevel":0,"hasRecord":false,"recordRelation":null,"status":"current","disputed":false,"precision":"oaza","areaKey":"18201099001","elements":["kawara"],"summary":"要素辞書に一致（kawara）。出典による裏づけは未確認。","zones":[],"dataset":"candidates"}},{"type":"Feature","geometry":{"type":"Point","coordinates":[136.193589,36.05562]},"properties":{"id":"18-fe412235b6","name":"加茂河原町","reading":"カモガワラチョウ","pref":"福井県","prefCode":"18","municipality":"福井市","hazardTypes":["flood"],"evidenceLevel":0,"originLevel":0,"hasRecord":false,"recordRelation":null,"status":"current","disputed":false,"precision":"oaza","areaKey":"182014141","elements":["kawara"],"summary":"要素辞書に一致（kawara）。出典による裏づけは未確認。","zones":[],"dataset":"candidates"}},{"type":"Feature","geometry":{"type":"Point","coordinates":[136.012909,36.028305]},"properties":{"id":"18-d46b0a296e","name":"蒲生町","reading":"ガモウチョウ","pref":"福井県","prefCode":"18","municipality":"福井市","hazardTypes":["landslide","soft_ground"],"evidenceLevel":0,"originLevel":0,"hasRecord":false,"recordRelation":null,"status":"current","disputed":false,"precision":"oaza","areaKey":"182014820","elements":["wetland_plants"],"summary":"要素辞書に一致（wetland_plants）。出典による裏づけは未確認。","zones":[],"dataset":"candidates"}},{"type":"Feature","geometry":{"type":"Point","coordinates":[136.169757,36.114214]},"properties":{"id":"18-8f60ea3eb8","name":"岸水町","reading":"キシミズチョウ","pref":"福井県","prefCode":"18","municipality":"福井市","hazardTypes":["slope_failure"],"evidenceLevel":0,"originLevel":0,"hasRecord":false,"recordRelation":null,"status":"current","disputed":false,"precision":"oaza","areaKey":"182011050","elements":["kake"],"summary":"要素辞書に一致（kake）。出典による裏づけは未確認。","zones":[],"dataset":"candidates"}},{"type":"Feature","geometry":{"type":"Point","coordinates":[136.052125,36.106634]},"properties":{"id":"18-936e75611b","name":"北菅生町","reading":"キタスゴウチョウ","pref":"福井県","prefCode":"18","municipality":"福井市","hazardTypes":["landslide","soft_ground"],"evidenceLevel":0,"originLevel":0,"hasRecord":false,"recordRelation":null,"status":"current","disputed":false,"precision":"oaza","areaKey":"182011070","elements":["wetland_plants"],"summary":"要素辞書に一致（wetland_plants）。出典による裏づけは未確認。","zones":[],"dataset":"candidates"}},{"type":"Feature","geometry":{"type":"Point","coordinates":[136.348553,35.982818]},"properties":{"id":"18-bca410969d","name":"蔵作町","reading":"クラツクリチョウ","pref":"福井県","prefCode":"18","municipality":"福井市","hazardTypes":["slope_failure","rockfall"],"evidenceLevel":0,"originLevel":0,"hasRecord":false,"recordRelation":null,"status":"current","disputed":false,"precision":"oaza","areaKey":"182014740","elements":["kura"],"summary":"要素辞書に一致（kura）。出典による裏づけは未確認。","zones":[],"dataset":"candidates"}},{"type":"Feature","geometry":{"type":"Point","coordinates":[136.140424,36.150446]},"properties":{"id":"18-7ddffe11e3","name":"菖蒲谷町","reading":"ショウブダニチョウ","pref":"福井県","prefCode":"18","municipality":"福井市","hazardTypes":["landslide","soft_ground"],"evidenceLevel":0,"originLevel":0,"hasRecord":false,"recordRelation":null,"status":"current","disputed":false,"precision":"oaza","areaKey":"182011910","elements":["wetland_plants"],"summary":"要素辞書に一致（wetland_plants）。出典による裏づけは未確認。","zones":[],"dataset":"candidates"}},{"type":"Feature","geometry":{"type":"Point","coordinates":[136.191183,36.086363]},"properties":{"id":"18-f0b2652aa1","name":"地蔵堂町","reading":"ジゾウドウチョウ","pref":"福井県","prefCode":"18","municipality":"福井市","hazardTypes":["slope_failure","rockfall"],"evidenceLevel":0,"originLevel":0,"hasRecord":false,"recordRelation":null,"status":"current","disputed":false,"precision":"oaza","areaKey":"182012000","elements":["kura"],"summary":"要素辞書に一致（kura）。出典による裏づけは未確認。","zones":[],"dataset":"candidates"}},{"type":"Feature","geometry":{"type":"Point","coordinates":[136.19447,36.071497]},"properties":{"id":"18-06c9a73755","name":"菅谷一丁目","reading":"スガヤ 1","pref":"福井県","prefCode":"18","municipality":"福井市","hazardTypes":["landslide","soft_ground"],"evidenceLevel":0,"originLevel":0,"hasRecord":false,"recordRelation":null,"status":"current","disputed":false,"precision":"oaza","areaKey":"18201209001","elements":["wetland_plants"],"summary":"要素辞書に一致（wetland_plants）。出典による裏づけは未確認。","zones":[],"dataset":"candidates"}},{"type":"Feature","geometry":{"type":"Point","coordinates":[136.187512,36.075419]},"properties":{"id":"18-008b4b1742","name":"菅谷町","reading":"スガヤチョウ","pref":"福井県","prefCode":"18","municipality":"福井市","hazardTypes":["landslide","soft_ground"],"evidenceLevel":0,"originLevel":0,"hasRecord":false,"recordRelation":null,"status":"current","disputed":false,"precision":"oaza","areaKey":"182014190","elements":["wetland_plants"],"summary":"要素辞書に一致（wetland_plants）。出典による裏づけは未確認。","zones":[],"dataset":"candidates"}},{"type":"Feature","geometry":{"type":"Point","coordinates":[136.36185,35.963897]},"properties":{"id":"18-0aaddcb9a8","name":"西河原町","reading":"ニシコウバラチョウ","pref":"福井県","prefCode":"18","municipality":"福井市","hazardTypes":["flood"],"evidenceLevel":0,"originLevel":0,"hasRecord":false,"recordRelation":null,"status":"current","disputed":false,"precision":"oaza","areaKey":"182014710","elements":["kawara"],"summary":"要素辞書に一致（kawara）。出典による裏づけは未確認。","zones":[],"dataset":"candidates"}},{"type":"Feature","geometry":{"type":"Point","coordinates":[136.375705,35.958995]},"properties":{"id":"18-f6cf9c0144","name":"東河原町","reading":"ヒガシコウバラチョウ","pref":"福井県","prefCode":"18","municipality":"福井市","hazardTypes":["flood"],"evidenceLevel":0,"originLevel":0,"hasRecord":false,"recordRelation":null,"status":"current","disputed":false,"precision":"oaza","areaKey":"182014700","elements":["kawara"],"summary":"要素辞書に一致（kawara）。出典による裏づけは未確認。","zones":[],"dataset":"candidates"}},{"type":"Feature","geometry":{"type":"Point","coordinates":[136.181805,36.131281]},"properties":{"id":"18-9d0e47f942","name":"柿ノ木","reading":null,"pref":"福井県","prefCode":"18","municipality":"福井市","hazardTypes":["slope_failure"],"evidenceLevel":0,"originLevel":0,"hasRecord":false,"recordRelation":null,"status":"current","disputed":false,"precision":"koaza","areaKey":"182013300","elements":["kake"],"summary":"要素辞書に一致（kake）。出典による裏づけは未確認。","zones":[],"dataset":"candidates"}},{"type":"Feature","geometry":{"type":"Point","coordinates":[136.046617,36.103286]},"properties":{"id":"18-9f95666941","name":"南菅生町","reading":"ミナミスゴウチョウ","pref":"福井県","prefCode":"18","municipality":"福井市","hazardTypes":["landslide","soft_ground"],"evidenceLevel":0,"originLevel":0,"hasRecord":false,"recordRelation":null,"status":"current","disputed":false,"precision":"oaza","areaKey":"182013610","elements":["wetland_plants"],"summary":"要素辞書に一致（wetland_plants）。出典による裏づけは未確認。","zones":[],"dataset":"candidates"}},{"type":"Feature","geometry":{"type":"Point","coordinates":[136.278237,36.015505]},"properties":{"id":"18-1885d53f86","name":"安原町","reading":"ヤスハラチョウ","pref":"福井県","prefCode":"18","municipality":"福井市","hazardTypes":["inundation","flood"],"evidenceLevel":0,"originLevel":0,"hasRecord":false,"recordRelation":null,"status":"current","disputed":false,"precision":"oaza","areaKey":"182013830","elements":["awara"],"summary":"要素辞書に一致（awara）。出典による裏づけは未確認。","zones":[],"dataset":"candidates"}},{"type":"Feature","geometry":{"type":"Point","coordinates":[136.090874,35.653546]},"properties":{"id":"18-c4e13a3574","name":"大蔵","reading":"オオクラ","pref":"福井県","prefCode":"18","municipality":"敦賀市","hazardTypes":["slope_failure","rockfall"],"evidenceLevel":0,"originLevel":0,"hasRecord":false,"recordRelation":null,"status":"current","disputed":false,"precision":"oaza","areaKey":"182020690","elements":["kura"],"summary":"要素辞書に一致（kura）。出典による裏づけは未確認。","zones":[],"dataset":"candidates"}},{"type":"Feature","geometry":{"type":"Point","coordinates":[136.087101,35.649662]},"properties":{"id":"18-ae90e8f39c","name":"河原町","reading":"カワハラチョウ","pref":"福井県","prefCode":"18","municipality":"敦賀市","hazardTypes":["flood"],"evidenceLevel":0,"originLevel":0,"hasRecord":false,"recordRelation":null,"status":"current","disputed":false,"precision":"oaza","areaKey":"182020660","elements":["kawara"],"summary":"要素辞書に一致（kawara）。出典による裏づけは未確認。","zones":[],"dataset":"candidates"}},{"type":"Feature","geometry":{"type":"Point","coordinates":[136.065194,35.630171]},"properties":{"id":"18-84f21b36ac","name":"古田刈","reading":"コタカリ","pref":"福井県","prefCode":"18","municipality":"敦賀市","hazardTypes":["slope_failure"],"evidenceLevel":0,"originLevel":0,"hasRecord":false,"recordRelation":null,"status":"current","disputed":false,"precision":"oaza","areaKey":"182020870","elements":["kake"],"summary":"要素辞書に一致（kake）。出典による裏づけは未確認。","zones":[],"dataset":"candidates"}},{"type":"Feature","geometry":{"type":"Point","coordinates":[136.07798,35.654546]},"properties":{"id":"18-571d1a7399","name":"角鹿町","reading":"ツノガチョウ","pref":"福井県","prefCode":"18","municipality":"敦賀市","hazardTypes":["landslide","soft_ground"],"evidenceLevel":0,"originLevel":0,"hasRecord":false,"recordRelation":null,"status":"current","disputed":false,"precision":"oaza","areaKey":"182020110","elements":["shishi"],"summary":"要素辞書に一致（shishi）。出典による裏づけは未確認。","zones":[],"dataset":"candidates"}},{"type":"Feature","geometry":{"type":"Point","coordinates":[135.732857,35.490699]},"properties":{"id":"18-04218fa77d","name":"小浜飛鳥","reading":"オバマアスカ","pref":"福井県","prefCode":"18","municipality":"小浜市","hazardTypes":["slope_failure","debris_flow"],"evidenceLevel":0,"originLevel":0,"hasRecord":false,"recordRelation":null,"status":"current","disputed":false,"precision":"oaza","areaKey":"182040250","elements":["tobi"],"summary":"要素辞書に一致（tobi）。出典による裏づけは未確認。","zones":[],"dataset":"candidates"}},{"type":"Feature","geometry":{"type":"Point","coordinates":[135.737697,35.492174]},"properties":{"id":"18-1f3da32d21","name":"小浜鹿島","reading":"オバマカシマ","pref":"福井県","prefCode":"18","municipality":"小浜市","hazardTypes":["landslide","soft_ground"],"evidenceLevel":0,"originLevel":0,"hasRecord":false,"recordRelation":null,"status":"current","disputed":false,"precision":"oaza","areaKey":"182040190","elements":["shishi"],"summary":"要素辞書に一致（shishi）。出典による裏づけは未確認。","zones":[],"dataset":"candidates"}},{"type":"Feature","geometry":{"type":"Point","coordinates":[135.742455,35.499365]},"properties":{"id":"18-9cbb38608a","name":"小浜鈴鹿","reading":"オバマスズカ","pref":"福井県","prefCode":"18","municipality":"小浜市","hazardTypes":["landslide","soft_ground"],"evidenceLevel":0,"originLevel":0,"hasRecord":false,"recordRelation":null,"status":"current","disputed":false,"precision":"oaza","areaKey":"182040040","elements":["shishi"],"summary":"要素辞書に一致（shishi）。出典による裏づけは未確認。","zones":[],"dataset":"candidates"}},{"type":"Feature","geometry":{"type":"Point","coordinates":[136.653377,35.902442]},"properties":{"id":"18-eeef771a4c","name":"板倉","reading":"イタクラ","pref":"福井県","prefCode":"18","municipality":"大野市","hazardTypes":["slope_failure","rockfall"],"evidenceLevel":0,"originLevel":0,"hasRecord":false,"recordRelation":null,"status":"current","disputed":false,"precision":"oaza","areaKey":"182051540","elements":["kura"],"summary":"要素辞書に一致（kura）。出典による裏づけは未確認。","zones":[],"dataset":"candidates"}},{"type":"Feature","geometry":{"type":"Point","coordinates":[136.521466,35.96379]},"properties":{"id":"18-a5e0894947","name":"猪島","reading":"イノシマ","pref":"福井県","prefCode":"18","municipality":"大野市","hazardTypes":["landslide","soft_ground"],"evidenceLevel":0,"originLevel":0,"hasRecord":false,"recordRelation":null,"status":"current","disputed":false,"precision":"oaza","areaKey":"18205058000","elements":["shishi"],"summary":"要素辞書に一致（shishi）。出典による裏づけは未確認。","zones":[],"dataset":"candidates"}},{"type":"Feature","geometry":{"type":"Point","coordinates":[136.574068,35.977096]},"properties":{"id":"18-6ec8e79a29","name":"柿ケ嶋","reading":"カキガシマ","pref":"福井県","prefCode":"18","municipality":"大野市","hazardTypes":["slope_failure"],"evidenceLevel":0,"originLevel":0,"hasRecord":false,"recordRelation":null,"status":"current","disputed":false,"precision":"oaza","areaKey":"182051370","elements":["kake"],"summary":"要素辞書に一致（kake）。出典による裏づけは未確認。","zones":[],"dataset":"candidates"}},{"type":"Feature","geometry":{"type":"Point","coordinates":[136.514216,35.981236]},"properties":{"id":"18-966f4fdedc","name":"菖蒲池","reading":"ショウブイケ","pref":"福井県","prefCode":"18","municipality":"大野市","hazardTypes":["landslide","soft_ground"],"evidenceLevel":0,"originLevel":0,"hasRecord":false,"recordRelation":null,"status":"current","disputed":false,"precision":"oaza","areaKey":"182050540","elements":["wetland_plants"],"summary":"要素辞書に一致（wetland_plants）。出典による裏づけは未確認。","zones":[],"dataset":"candidates"}},{"type":"Feature","geometry":{"type":"Point","coordinates":[136.528096,36.013765]},"properties":{"id":"18-cc05a81973","name":"新河原","reading":"シンカワラ","pref":"福井県","prefCode":"18","municipality":"大野市","hazardTypes":["flood"],"evidenceLevel":0,"originLevel":0,"hasRecord":false,"recordRelation":null,"status":"current","disputed":false,"precision":"oaza","areaKey":"182051020","elements":["kawara"],"summary":"要素辞書に一致（kawara）。出典による裏づけは未確認。","zones":[],"dataset":"candidates"}},{"type":"Feature","geometry":{"type":"Point","coordinates":[136.516915,36.043914]},"properties":{"id":"18-b0e8a88d9b","name":"猪野","reading":"イノ","pref":"福井県","prefCode":"18","municipality":"勝山市","hazardTypes":["landslide","soft_ground"],"evidenceLevel":0,"originLevel":0,"hasRecord":false,"recordRelation":null,"status":"current","disputed":false,"precision":"oaza","areaKey":"182060170","elements":["shishi"],"summary":"要素辞書に一致（shishi）。出典による裏づけは未確認。","zones":[],"dataset":"candidates"}},{"type":"Feature","geometry":{"type":"Point","coordinates":[136.516341,36.032593]},"properties":{"id":"18-70d52e9218","name":"猪野口","reading":"イノクチ","pref":"福井県","prefCode":"18","municipality":"勝山市","hazardTypes":["landslide","soft_ground"],"evidenceLevel":0,"originLevel":0,"hasRecord":true,"recordRelation":"nearby_record","status":"current","disputed":false,"precision":"oaza","areaKey":"182060120","elements":["shishi"],"summary":"要素辞書に一致（shishi）。出典による裏づけは未確認。","zones":[],"dataset":"candidates"}},{"type":"Feature","geometry":{"type":"Point","coordinates":[136.509651,36.044377]},"properties":{"id":"18-3a83d3f81f","name":"猪野毛屋","reading":"イノケヤ","pref":"福井県","prefCode":"18","municipality":"勝山市","hazardTypes":["slope_failure","landslide","soft_ground"],"evidenceLevel":0,"originLevel":0,"hasRecord":false,"recordRelation":null,"status":"current","disputed":false,"precision":"oaza","areaKey":null,"elements":["nuke","shishi"],"summary":"要素辞書に一致（nuke・shishi）。出典による裏づけは未確認。","zones":[],"dataset":"candidates"}},{"type":"Feature","geometry":{"type":"Point","coordinates":[136.446299,36.042182]},"properties":{"id":"18-7850dd0e29","name":"鹿谷町北西俣","reading":"シカダニチョウキタニシマタ","pref":"福井県","prefCode":"18","municipality":"勝山市","hazardTypes":["landslide","soft_ground"],"evidenceLevel":0,"originLevel":0,"hasRecord":false,"recordRelation":null,"status":"current","disputed":false,"precision":"oaza","areaKey":"182060970","elements":["shishi"],"summary":"要素辞書に一致（shishi）。出典による裏づけは未確認。","zones":[],"dataset":"candidates"}},{"type":"Feature","geometry":{"type":"Point","coordinates":[136.453847,36.054137]},"properties":{"id":"18-21326fdcfc","name":"鹿谷町西光寺","reading":"シカダニチョウサイコウジ","pref":"福井県","prefCode":"18","municipality":"勝山市","hazardTypes":["landslide","soft_ground"],"evidenceLevel":0,"originLevel":0,"hasRecord":false,"recordRelation":null,"status":"current","disputed":false,"precision":"oaza","areaKey":"182060960","elements":["shishi"],"summary":"要素辞書に一致（shishi）。出典による裏づけは未確認。","zones":[],"dataset":"candidates"}},{"type":"Feature","geometry":{"type":"Point","coordinates":[136.4629,36.064986]},"properties":{"id":"18-e66bfe19d8","name":"鹿谷町志田","reading":"シカダニチョウシダ","pref":"福井県","prefCode":"18","municipality":"勝山市","hazardTypes":["landslide","soft_ground"],"evidenceLevel":0,"originLevel":0,"hasRecord":false,"recordRelation":null,"status":"current","disputed":false,"precision":"oaza","areaKey":"182061030","elements":["shishi"],"summary":"要素辞書に一致（shishi）。出典による裏づけは未確認。","zones":[],"dataset":"candidates"}},{"type":"Feature","geometry":{"type":"Point","coordinates":[136.47218,36.058532]},"properties":{"id":"18-d2f33eb6dc","name":"鹿谷町杉俣","reading":"シカダニチョウスギマタ","pref":"福井県","prefCode":"18","municipality":"勝山市","hazardTypes":["landslide","soft_ground"],"evidenceLevel":0,"originLevel":0,"hasRecord":false,"recordRelation":null,"status":"current","disputed":false,"precision":"oaza","areaKey":"182061020","elements":["shishi"],"summary":"要素辞書に一致（shishi）。出典による裏づけは未確認。","zones":[],"dataset":"candidates"}},{"type":"Feature","geometry":{"type":"Point","coordinates":[136.468974,36.048127]},"properties":{"id":"18-b25df1e400","name":"鹿谷町西遅羽口","reading":"シカダニチョウニシオソワグチ","pref":"福井県","prefCode":"18","municipality":"勝山市","hazardTypes":["landslide","soft_ground"],"evidenceLevel":0,"originLevel":0,"hasRecord":false,"recordRelation":null,"status":"current","disputed":false,"precision":"oaza","areaKey":"182061000","elements":["shishi"],"summary":"要素辞書に一致（shishi）。出典による裏づけは未確認。","zones":[],"dataset":"candidates"}},{"type":"Feature","geometry":{"type":"Point","coordinates":[136.476938,36.047844]},"properties":{"id":"18-f77a251041","name":"鹿谷町東遅羽口","reading":"シカダニチョウヒガシオソワグチ","pref":"福井県","prefCode":"18","municipality":"勝山市","hazardTypes":["landslide","soft_ground"],"evidenceLevel":0,"originLevel":0,"hasRecord":false,"recordRelation":null,"status":"current","disputed":false,"precision":"oaza","areaKey":"182061010","elements":["shishi"],"summary":"要素辞書に一致（shishi）。出典による裏づけは未確認。","zones":[],"dataset":"candidates"}},{"type":"Feature","geometry":{"type":"Point","coordinates":[136.449213,36.063709]},"properties":{"id":"18-f2c77a0d0a","name":"鹿谷町保田","reading":"シカダニチョウホタ","pref":"福井県","prefCode":"18","municipality":"勝山市","hazardTypes":["landslide","soft_ground"],"evidenceLevel":0,"originLevel":0,"hasRecord":false,"recordRelation":null,"status":"current","disputed":false,"precision":"oaza","areaKey":"182060950","elements":["shishi"],"summary":"要素辞書に一致（shishi）。出典による裏づけは未確認。","zones":[],"dataset":"candidates"}},{"type":"Feature","geometry":{"type":"Point","coordinates":[136.466962,36.06768]},"properties":{"id":"18-7db505a979","name":"鹿谷町発坂","reading":"シカダニチョウホッサカ","pref":"福井県","prefCode":"18","municipality":"勝山市","hazardTypes":["landslide","soft_ground"],"evidenceLevel":0,"originLevel":0,"hasRecord":false,"recordRelation":null,"status":"current","disputed":false,"precision":"oaza","areaKey":"182061040","elements":["shishi"],"summary":"要素辞書に一致（shishi）。出典による裏づけは未確認。","zones":[],"dataset":"candidates"}},{"type":"Feature","geometry":{"type":"Point","coordinates":[136.466201,36.055382]},"properties":{"id":"18-9bc8d810f8","name":"鹿谷町本郷","reading":"シカダニチョウホンゴウ","pref":"福井県","prefCode":"18","municipality":"勝山市","hazardTypes":["landslide","soft_ground"],"evidenceLevel":0,"originLevel":0,"hasRecord":false,"recordRelation":null,"status":"current","disputed":false,"precision":"oaza","areaKey":"182060990","elements":["shishi"],"summary":"要素辞書に一致（shishi）。出典による裏づけは未確認。","zones":[],"dataset":"candidates"}},{"type":"Feature","geometry":{"type":"Point","coordinates":[136.458469,36.032758]},"properties":{"id":"18-ea56c1d6ac","name":"鹿谷町矢戸口","reading":"シカダニチョウヤトグチ","pref":"福井県","prefCode":"18","municipality":"勝山市","hazardTypes":["landslide","soft_ground"],"evidenceLevel":0,"originLevel":0,"hasRecord":false,"recordRelation":null,"status":"current","disputed":false,"precision":"oaza","areaKey":"182060980","elements":["shishi"],"summary":"要素辞書に一致（shishi）。出典による裏づけは未確認。","zones":[],"dataset":"candidates"}},{"type":"Feature","geometry":{"type":"Point","coordinates":[136.511236,36.13109]},"properties":{"id":"18-0ba4d0b8e6","name":"野向町横倉","reading":"ノムキチョウヨコクラ","pref":"福井県","prefCode":"18","municipality":"勝山市","hazardTypes":["slope_failure","rockfall"],"evidenceLevel":0,"originLevel":0,"hasRecord":false,"recordRelation":null,"status":"current","disputed":false,"precision":"oaza","areaKey":"182060550","elements":["kura"],"summary":"要素辞書に一致（kura）。出典による裏づけは未確認。","zones":[],"dataset":"candidates"}},{"type":"Feature","geometry":{"type":"Point","coordinates":[136.526359,36.020468]},"properties":{"id":"18-57005cafcc","name":"平泉寺町壁倉","reading":"ヘイセンジチョウカベクラ","pref":"福井県","prefCode":"18","municipality":"勝山市","hazardTypes":["slope_failure","rockfall"],"evidenceLevel":0,"originLevel":0,"hasRecord":false,"recordRelation":null,"status":"current","disputed":false,"precision":"oaza","areaKey":"182060780","elements":["kura"],"summary":"要素辞書に一致（kura）。出典による裏づけは未確認。","zones":[],"dataset":"candidates"}},{"type":"Feature","geometry":{"type":"Point","coordinates":[136.508989,36.035785]},"properties":{"id":"18-2e7cb8d325","name":"若猪野","reading":"ワカイノ","pref":"福井県","prefCode":"18","municipality":"勝山市","hazardTypes":["landslide","soft_ground"],"evidenceLevel":0,"originLevel":0,"hasRecord":false,"recordRelation":null,"status":"current","disputed":false,"precision":"oaza","areaKey":"182060130","elements":["shishi"],"summary":"要素辞書に一致（shishi）。出典による裏づけは未確認。","zones":[],"dataset":"candidates"}},{"type":"Feature","geometry":{"type":"Point","coordinates":[136.239968,35.958641]},"properties":{"id":"18-0dd6ed046a","name":"磯部町","reading":"イソベチョウ","pref":"福井県","prefCode":"18","municipality":"鯖江市","hazardTypes":["rockfall","debris_flow"],"evidenceLevel":0,"originLevel":0,"hasRecord":false,"recordRelation":null,"status":"current","disputed":false,"precision":"oaza","areaKey":"182070820","elements":["iso_ishi"],"summary":"要素辞書に一致（iso_ishi）。出典による裏づけは未確認。","zones":[],"dataset":"candidates"}},{"type":"Feature","geometry":{"type":"Point","coordinates":[136.157035,35.963516]},"properties":{"id":"18-eeda7156b9","name":"大倉町","reading":"オオクラチョウ","pref":"福井県","prefCode":"18","municipality":"鯖江市","hazardTypes":["slope_failure","rockfall"],"evidenceLevel":0,"originLevel":0,"hasRecord":false,"recordRelation":null,"status":"current","disputed":false,"precision":"oaza","areaKey":"182070660","elements":["kura"],"summary":"要素辞書に一致（kura）。出典による裏づけは未確認。","zones":[],"dataset":"candidates"}},{"type":"Feature","geometry":{"type":"Point","coordinates":[136.144298,35.970339]},"properties":{"id":"18-97d0ed0fdf","name":"川去町","reading":"カワサリチョウ","pref":"福井県","prefCode":"18","municipality":"鯖江市","hazardTypes":["slope_failure"],"evidenceLevel":0,"originLevel":0,"hasRecord":false,"recordRelation":null,"status":"current","disputed":false,"precision":"oaza","areaKey":"182070590","elements":["saru"],"summary":"要素辞書に一致（saru）。出典による裏づけは未確認。","zones":[],"dataset":"candidates"}},{"type":"Feature","geometry":{"type":"Point","coordinates":[136.222813,36.200651]},"properties":{"id":"18-7894532d1e","name":"馬場","reading":null,"pref":"福井県","prefCode":"18","municipality":"あわら市","hazardTypes":["slope_failure"],"evidenceLevel":0,"originLevel":0,"hasRecord":false,"recordRelation":null,"status":"current","disputed":false,"precision":"oaza","areaKey":null,"elements":["baba"],"summary":"要素辞書に一致（baba）。出典による裏づけは未確認。","zones":[],"dataset":"candidates"}},{"type":"Feature","geometry":{"type":"Point","coordinates":[136.194426,36.232287]},"properties":{"id":"18-775e1fc903","name":"芦鶴","reading":"アシヅル","pref":"福井県","prefCode":"18","municipality":"あわら市","hazardTypes":["flood","inundation"],"evidenceLevel":0,"originLevel":0,"hasRecord":false,"recordRelation":null,"status":"current","disputed":false,"precision":"oaza","areaKey":"182081150","elements":["ashi"],"summary":"要素辞書に一致（ashi）。出典による裏づけは未確認。","zones":[],"dataset":"candidates"}},{"type":"Feature","geometry":{"type":"Point","coordinates":[136.21032,36.230948]},"properties":{"id":"18-d2c2dde6d4","name":"井江葭","reading":"イエヨシ","pref":"福井県","prefCode":"18","municipality":"あわら市","hazardTypes":["landslide","soft_ground"],"evidenceLevel":0,"originLevel":0,"hasRecord":false,"recordRelation":null,"status":"current","disputed":false,"precision":"oaza","areaKey":"182080820","elements":["wetland_plants"],"summary":"要素辞書に一致（wetland_plants）。出典による裏づけは未確認。","zones":[],"dataset":"candidates"}},{"type":"Feature","geometry":{"type":"Point","coordinates":[136.240268,36.240208]},"properties":{"id":"18-1bbe55dc2d","name":"柿原","reading":"カキバラ","pref":"福井県","prefCode":"18","municipality":"あわら市","hazardTypes":["slope_failure"],"evidenceLevel":0,"originLevel":0,"hasRecord":false,"recordRelation":null,"status":"current","disputed":false,"precision":"oaza","areaKey":"182080630","elements":["kake"],"summary":"要素辞書に一致（kake）。出典による裏づけは未確認。","zones":[],"dataset":"candidates"}},{"type":"Feature","geometry":{"type":"Point","coordinates":[136.235678,36.194312]},"properties":{"id":"18-cbffcd9854","name":"河原井手","reading":"カワライデ","pref":"福井県","prefCode":"18","municipality":"あわら市","hazardTypes":["flood"],"evidenceLevel":0,"originLevel":0,"hasRecord":false,"recordRelation":null,"status":"current","disputed":false,"precision":"oaza","areaKey":"182080310","elements":["kawara"],"summary":"要素辞書に一致（kawara）。出典による裏づけは未確認。","zones":[],"dataset":"candidates"}},{"type":"Feature","geometry":{"type":"Point","coordinates":[136.247474,36.212849]},"properties":{"id":"18-6144d562dd","name":"菅野","reading":"スガノ","pref":"福井県","prefCode":"18","municipality":"あわら市","hazardTypes":["landslide","soft_ground"],"evidenceLevel":0,"originLevel":0,"hasRecord":false,"recordRelation":null,"status":"current","disputed":false,"precision":"oaza","areaKey":"182080280","elements":["wetland_plants"],"summary":"要素辞書に一致（wetland_plants）。出典による裏づけは未確認。","zones":[],"dataset":"candidates"}},{"type":"Feature","geometry":{"type":"Point","coordinates":[136.185198,35.9058]},"properties":{"id":"18-ecd2f58f59","name":"押田一丁目","reading":"オシダ 1","pref":"福井県","prefCode":"18","municipality":"越前市","hazardTypes":["debris_flow"],"evidenceLevel":0,"originLevel":0,"hasRecord":false,"recordRelation":null,"status":"current","disputed":false,"precision":"oaza","areaKey":"18209101001","elements":["oshidashi"],"summary":"要素辞書に一致（oshidashi）。出典による裏づけは未確認。","zones":[],"dataset":"candidates"}},{"type":"Feature","geometry":{"type":"Point","coordinates":[136.045014,35.881432]},"properties":{"id":"18-629edc57d6","name":"菖蒲谷町","reading":"ショウブダニチョウ","pref":"福井県","prefCode":"18","municipality":"越前市","hazardTypes":["landslide","soft_ground"],"evidenceLevel":0,"originLevel":0,"hasRecord":false,"recordRelation":null,"status":"current","disputed":false,"precision":"oaza","areaKey":"182091940","elements":["wetland_plants"],"summary":"要素辞書に一致（wetland_plants）。出典による裏づけは未確認。","zones":[],"dataset":"candidates"}},{"type":"Feature","geometry":{"type":"Point","coordinates":[136.049108,35.863119]},"properties":{"id":"18-5f581db023","name":"菅町","reading":"スゲチョウ","pref":"福井県","prefCode":"18","municipality":"越前市","hazardTypes":["landslide","soft_ground"],"evidenceLevel":0,"originLevel":0,"hasRecord":false,"recordRelation":null,"status":"current","disputed":false,"precision":"oaza","areaKey":"182091990","elements":["wetland_plants"],"summary":"要素辞書に一致（wetland_plants）。出典による裏づけは未確認。","zones":[],"dataset":"candidates"}},{"type":"Feature","geometry":{"type":"Point","coordinates":[136.220445,36.175649]},"properties":{"id":"18-750a044267","name":"坂井町蔵垣内","reading":"サカイチョウクラガイチ","pref":"福井県","prefCode":"18","municipality":"坂井市","hazardTypes":["slope_failure","rockfall","inundation"],"evidenceLevel":0,"originLevel":0,"hasRecord":false,"recordRelation":null,"status":"current","disputed":false,"precision":"oaza","areaKey":null,"elements":["kura","yato"],"summary":"要素辞書に一致（kura・yato）。出典による裏づけは未確認。","zones":[],"dataset":"candidates"}},{"type":"Feature","geometry":{"type":"Point","coordinates":[136.276504,36.112517]},"properties":{"id":"18-46ba0bd251","name":"丸岡町磯部島","reading":"マルオカチョウイソベシマ","pref":"福井県","prefCode":"18","municipality":"坂井市","hazardTypes":["rockfall","debris_flow"],"evidenceLevel":0,"originLevel":0,"hasRecord":false,"recordRelation":null,"status":"current","disputed":false,"precision":"oaza","areaKey":null,"elements":["iso_ishi"],"summary":"要素辞書に一致（iso_ishi）。出典による裏づけは未確認。","zones":[],"dataset":"candidates"}},{"type":"Feature","geometry":{"type":"Point","coordinates":[136.25543,36.116595]},"properties":{"id":"18-2a7e32a4a3","name":"丸岡町磯部新保","reading":"マルオカチョウイソベシンボ","pref":"福井県","prefCode":"18","municipality":"坂井市","hazardTypes":["rockfall","debris_flow"],"evidenceLevel":0,"originLevel":0,"hasRecord":false,"recordRelation":null,"status":"current","disputed":false,"precision":"oaza","areaKey":null,"elements":["iso_ishi"],"summary":"要素辞書に一致（iso_ishi）。出典による裏づけは未確認。","zones":[],"dataset":"candidates"}},{"type":"Feature","geometry":{"type":"Point","coordinates":[136.267866,36.114003]},"properties":{"id":"18-9cab69a8e4","name":"丸岡町磯部福庄","reading":"マルオカチョウイソベフクショ","pref":"福井県","prefCode":"18","municipality":"坂井市","hazardTypes":["rockfall","debris_flow"],"evidenceLevel":0,"originLevel":0,"hasRecord":false,"recordRelation":null,"status":"current","disputed":false,"precision":"oaza","areaKey":null,"elements":["iso_ishi"],"summary":"要素辞書に一致（iso_ishi）。出典による裏づけは未確認。","zones":[],"dataset":"candidates"}},{"type":"Feature","geometry":{"type":"Point","coordinates":[136.28919,36.124871]},"properties":{"id":"18-43182628bb","name":"丸岡町板倉","reading":"マルオカチョウイタクラ","pref":"福井県","prefCode":"18","municipality":"坂井市","hazardTypes":["slope_failure","rockfall"],"evidenceLevel":0,"originLevel":0,"hasRecord":false,"recordRelation":null,"status":"current","disputed":false,"precision":"oaza","areaKey":null,"elements":["kura"],"summary":"要素辞書に一致（kura）。出典による裏づけは未確認。","zones":[],"dataset":"candidates"}},{"type":"Feature","geometry":{"type":"Point","coordinates":[136.272133,36.145374]},"properties":{"id":"18-763466737b","name":"丸岡町猪爪","reading":"マルオカチョウイノツメ","pref":"福井県","prefCode":"18","municipality":"坂井市","hazardTypes":["landslide","soft_ground"],"evidenceLevel":0,"originLevel":0,"hasRecord":false,"recordRelation":null,"status":"current","disputed":false,"precision":"oaza","areaKey":null,"elements":["shishi"],"summary":"要素辞書に一致（shishi）。出典による裏づけは未確認。","zones":[],"dataset":"candidates"}},{"type":"Feature","geometry":{"type":"Point","coordinates":[136.289897,36.146]},"properties":{"id":"18-d572bb5a6a","name":"丸岡町内田","reading":"マルオカチョウウチダ","pref":"福井県","prefCode":"18","municipality":"坂井市","hazardTypes":["debris_flow","flood"],"evidenceLevel":0,"originLevel":0,"hasRecord":false,"recordRelation":null,"status":"current","disputed":false,"precision":"oaza","areaKey":null,"elements":["uchide"],"summary":"要素辞書に一致（uchide）。出典による裏づけは未確認。","zones":[],"dataset":"candidates"}},{"type":"Feature","geometry":{"type":"Point","coordinates":[136.298474,36.108784]},"properties":{"id":"18-991735ac0c","name":"丸岡町新鳴鹿一丁目","reading":"マルオカチョウシンナルカ 1","pref":"福井県","prefCode":"18","municipality":"坂井市","hazardTypes":["landslide","soft_ground"],"evidenceLevel":0,"originLevel":0,"hasRecord":false,"recordRelation":null,"status":"current","disputed":false,"precision":"oaza","areaKey":null,"elements":["shishi"],"summary":"要素辞書に一致（shishi）。出典による裏づけは未確認。","zones":[],"dataset":"candidates"}},{"type":"Feature","geometry":{"type":"Point","coordinates":[136.142557,36.189321]},"properties":{"id":"18-dae5f1f69c","name":"三国町山岸","reading":"ミクニチョウヤマギシ","pref":"福井県","prefCode":"18","municipality":"坂井市","hazardTypes":["slope_failure"],"evidenceLevel":0,"originLevel":0,"hasRecord":false,"recordRelation":null,"status":"current","disputed":false,"precision":"oaza","areaKey":null,"elements":["kake"],"summary":"要素辞書に一致（kake）。出典による裏づけは未確認。","zones":[],"dataset":"candidates"}},{"type":"Feature","geometry":{"type":"Point","coordinates":[136.330564,36.102785]},"properties":{"id":"18-ec58e5c73f","name":"鳴鹿山鹿","reading":"ナルカサンガ","pref":"福井県","prefCode":"18","municipality":"吉田郡永平寺町","hazardTypes":["landslide","soft_ground"],"evidenceLevel":0,"originLevel":0,"hasRecord":false,"recordRelation":null,"status":"current","disputed":false,"precision":"oaza","areaKey":null,"elements":["shishi"],"summary":"要素辞書に一致（shishi）。出典による裏づけは未確認。","zones":[],"dataset":"candidates"}},{"type":"Feature","geometry":{"type":"Point","coordinates":[136.398379,35.898928]},"properties":{"id":"18-a469814372","name":"蒲沢","reading":null,"pref":"福井県","prefCode":"18","municipality":"今立郡池田町","hazardTypes":["landslide","soft_ground"],"evidenceLevel":0,"originLevel":0,"hasRecord":false,"recordRelation":null,"status":"current","disputed":false,"precision":"oaza","areaKey":null,"elements":["wetland_plants"],"summary":"要素辞書に一致（wetland_plants）。出典による裏づけは未確認。","zones":[],"dataset":"candidates"}},{"type":"Feature","geometry":{"type":"Point","coordinates":[136.34782,35.924045]},"properties":{"id":"18-39489e4390","name":"柿ケ原","reading":"カキガハラ","pref":"福井県","prefCode":"18","municipality":"今立郡池田町","hazardTypes":["slope_failure"],"evidenceLevel":0,"originLevel":0,"hasRecord":false,"recordRelation":null,"status":"current","disputed":false,"precision":"oaza","areaKey":null,"elements":["kake"],"summary":"要素辞書に一致（kake）。出典による裏づけは未確認。","zones":[],"dataset":"candidates"}},{"type":"Feature","geometry":{"type":"Point","coordinates":[136.302512,35.862111]},"properties":{"id":"18-d2cf3bb960","name":"菅生","reading":"スゴウ","pref":"福井県","prefCode":"18","municipality":"今立郡池田町","hazardTypes":["landslide","soft_ground"],"evidenceLevel":0,"originLevel":0,"hasRecord":false,"recordRelation":null,"status":"current","disputed":false,"precision":"oaza","areaKey":null,"elements":["wetland_plants"],"summary":"要素辞書に一致（wetland_plants）。出典による裏づけは未確認。","zones":[],"dataset":"candidates"}},{"type":"Feature","geometry":{"type":"Point","coordinates":[136.284925,35.776046]},"properties":{"id":"18-2d98ad2386","name":"小倉谷","reading":"オグラタニ","pref":"福井県","prefCode":"18","municipality":"南条郡南越前町","hazardTypes":["slope_failure","rockfall"],"evidenceLevel":0,"originLevel":0,"hasRecord":false,"recordRelation":null,"status":"current","disputed":false,"precision":"oaza","areaKey":null,"elements":["kura"],"summary":"要素辞書に一致（kura）。出典による裏づけは未確認。","zones":[],"dataset":"candidates"}},{"type":"Feature","geometry":{"type":"Point","coordinates":[136.135643,35.790959]},"properties":{"id":"18-b6b9258e6b","name":"菅谷","reading":"スゲノタニ","pref":"福井県","prefCode":"18","municipality":"南条郡南越前町","hazardTypes":["landslide","soft_ground"],"evidenceLevel":0,"originLevel":0,"hasRecord":false,"recordRelation":null,"status":"current","disputed":false,"precision":"oaza","areaKey":null,"elements":["wetland_plants"],"summary":"要素辞書に一致（wetland_plants）。出典による裏づけは未確認。","zones":[],"dataset":"candidates"}},{"type":"Feature","geometry":{"type":"Point","coordinates":[136.072675,35.981238]},"properties":{"id":"18-219ea8858e","name":"岩倉","reading":"イワクラ","pref":"福井県","prefCode":"18","municipality":"丹生郡越前町","hazardTypes":["slope_failure","rockfall"],"evidenceLevel":0,"originLevel":0,"hasRecord":false,"recordRelation":null,"status":"current","disputed":false,"precision":"oaza","areaKey":null,"elements":["kura"],"summary":"要素辞書に一致（kura）。出典による裏づけは未確認。","zones":[],"dataset":"candidates"}},{"type":"Feature","geometry":{"type":"Point","coordinates":[136.000479,35.969019]},"properties":{"id":"18-e0370f58bf","name":"梅浦","reading":"ウメウラ","pref":"福井県","prefCode":"18","municipality":"丹生郡越前町","hazardTypes":["landslide","slope_failure"],"evidenceLevel":0,"originLevel":0,"hasRecord":false,"recordRelation":null,"status":"current","disputed":false,"precision":"oaza","areaKey":null,"elements":["ume"],"summary":"要素辞書に一致（ume）。出典による裏づけは未確認。","zones":[],"dataset":"candidates"}},{"type":"Feature","geometry":{"type":"Point","coordinates":[136.100623,35.99725]},"properties":{"id":"18-7715aa5545","name":"小倉","reading":"オグラ","pref":"福井県","prefCode":"18","municipality":"丹生郡越前町","hazardTypes":["slope_failure","rockfall"],"evidenceLevel":0,"originLevel":0,"hasRecord":false,"recordRelation":null,"status":"current","disputed":false,"precision":"oaza","areaKey":null,"elements":["kura"],"summary":"要素辞書に一致（kura）。出典による裏づけは未確認。","zones":[],"dataset":"candidates"}},{"type":"Feature","geometry":{"type":"Point","coordinates":[136.13211,35.967477]},"properties":{"id":"18-089f9787ec","name":"上川去","reading":"カミカワサリ","pref":"福井県","prefCode":"18","municipality":"丹生郡越前町","hazardTypes":["slope_failure"],"evidenceLevel":0,"originLevel":0,"hasRecord":false,"recordRelation":null,"status":"current","disputed":false,"precision":"oaza","areaKey":null,"elements":["saru"],"summary":"要素辞書に一致（saru）。出典による裏づけは未確認。","zones":[],"dataset":"candidates"}},{"type":"Feature","geometry":{"type":"Point","coordinates":[136.057886,35.944492]},"properties":{"id":"18-acab7e6cd1","name":"下河原","reading":"シモガワラ","pref":"福井県","prefCode":"18","municipality":"丹生郡越前町","hazardTypes":["flood"],"evidenceLevel":0,"originLevel":0,"hasRecord":false,"recordRelation":null,"status":"current","disputed":false,"precision":"oaza","areaKey":null,"elements":["kawara"],"summary":"要素辞書に一致（kawara）。出典による裏づけは未確認。","zones":[],"dataset":"candidates"}},{"type":"Feature","geometry":{"type":"Point","coordinates":[135.944261,35.606497]},"properties":{"id":"18-3846f74782","name":"河原市","reading":"カワライチ","pref":"福井県","prefCode":"18","municipality":"三方郡美浜町","hazardTypes":["flood"],"evidenceLevel":0,"originLevel":0,"hasRecord":false,"recordRelation":null,"status":"current","disputed":false,"precision":"oaza","areaKey":null,"elements":["kawara"],"summary":"要素辞書に一致（kawara）。出典による裏づけは未確認。","zones":[],"dataset":"candidates"}},{"type":"Feature","geometry":{"type":"Point","coordinates":[135.932308,35.603173]},"properties":{"id":"18-0e11cf2d2e","name":"多倉田","reading":null,"pref":"福井県","prefCode":"18","municipality":"三方郡美浜町","hazardTypes":["slope_failure","rockfall"],"evidenceLevel":0,"originLevel":0,"hasRecord":false,"recordRelation":null,"status":"current","disputed":false,"precision":"koaza","areaKey":null,"elements":["kura"],"summary":"要素辞書に一致（kura）。出典による裏づけは未確認。","zones":[],"dataset":"candidates"}},{"type":"Feature","geometry":{"type":"Point","coordinates":[135.95927,35.610501]},"properties":{"id":"18-4043903145","name":"佐柿","reading":"サガキ","pref":"福井県","prefCode":"18","municipality":"三方郡美浜町","hazardTypes":["slope_failure"],"evidenceLevel":0,"originLevel":0,"hasRecord":false,"recordRelation":null,"status":"current","disputed":false,"precision":"oaza","areaKey":null,"elements":["kake"],"summary":"要素辞書に一致（kake）。出典による裏づけは未確認。","zones":[],"dataset":"candidates"}},{"type":"Feature","geometry":{"type":"Point","coordinates":[135.98716,35.659677]},"properties":{"id":"18-8097c73375","name":"菅浜","reading":"スガハマ","pref":"福井県","prefCode":"18","municipality":"三方郡美浜町","hazardTypes":["landslide","soft_ground"],"evidenceLevel":0,"originLevel":0,"hasRecord":false,"recordRelation":null,"status":"current","disputed":false,"precision":"oaza","areaKey":null,"elements":["wetland_plants"],"summary":"要素辞書に一致（wetland_plants）。出典による裏づけは未確認。","zones":[],"dataset":"candidates"}},{"type":"Feature","geometry":{"type":"Point","coordinates":[135.584619,35.494375]},"properties":{"id":"18-9121402d8f","name":"安土","reading":"アヅチ","pref":"福井県","prefCode":"18","municipality":"大飯郡高浜町","hazardTypes":["debris_flow","slope_failure"],"evidenceLevel":0,"originLevel":0,"hasRecord":false,"recordRelation":null,"status":"current","disputed":false,"precision":"oaza","areaKey":null,"elements":["azu"],"summary":"要素辞書に一致（azu）。出典による裏づけは未確認。","zones":[],"dataset":"candidates"}},{"type":"Feature","geometry":{"type":"Point","coordinates":[135.454704,35.521353]},"properties":{"id":"18-f0159852c5","name":"鎌倉","reading":"カマクラ","pref":"福井県","prefCode":"18","municipality":"大飯郡高浜町","hazardTypes":["slope_failure","rockfall"],"evidenceLevel":0,"originLevel":0,"hasRecord":false,"recordRelation":null,"status":"current","disputed":false,"precision":"oaza","areaKey":null,"elements":["kura"],"summary":"要素辞書に一致（kura）。出典による裏づけは未確認。","zones":[],"dataset":"candidates"}},{"type":"Feature","geometry":{"type":"Point","coordinates":[135.57421,35.446057]},"properties":{"id":"18-6f328daa47","name":"鹿野","reading":"シカノ","pref":"福井県","prefCode":"18","municipality":"大飯郡おおい町","hazardTypes":["landslide","soft_ground"],"evidenceLevel":0,"originLevel":0,"hasRecord":false,"recordRelation":null,"status":"current","disputed":false,"precision":"oaza","areaKey":null,"elements":["shishi"],"summary":"要素辞書に一致（shishi）。出典による裏づけは未確認。","zones":[],"dataset":"candidates"}},{"type":"Feature","geometry":{"type":"Point","coordinates":[135.670894,35.399474]},"properties":{"id":"18-a7829b4c12","name":"名田庄小倉","reading":"ナタショウオグラ","pref":"福井県","prefCode":"18","municipality":"大飯郡おおい町","hazardTypes":["slope_failure","rockfall"],"evidenceLevel":0,"originLevel":0,"hasRecord":false,"recordRelation":null,"status":"current","disputed":false,"precision":"oaza","areaKey":null,"elements":["kura"],"summary":"要素辞書に一致（kura）。出典による裏づけは未確認。","zones":[],"dataset":"candidates"}},{"type":"Feature","geometry":{"type":"Point","coordinates":[135.695623,35.404071]},"properties":{"id":"18-bc25853e26","name":"名田庄小倉畑","reading":"ナタショウオグラハタ","pref":"福井県","prefCode":"18","municipality":"大飯郡おおい町","hazardTypes":["slope_failure","rockfall"],"evidenceLevel":0,"originLevel":0,"hasRecord":false,"recordRelation":null,"status":"current","disputed":false,"precision":"oaza","areaKey":null,"elements":["kura"],"summary":"要素辞書に一致（kura）。出典による裏づけは未確認。","zones":[],"dataset":"candidates"}},{"type":"Feature","geometry":{"type":"Point","coordinates":[135.711281,35.400185]},"properties":{"id":"18-075a224717","name":"名田庄虫鹿野","reading":"ナタショウムシガノ","pref":"福井県","prefCode":"18","municipality":"大飯郡おおい町","hazardTypes":["landslide","soft_ground"],"evidenceLevel":0,"originLevel":0,"hasRecord":false,"recordRelation":null,"status":"current","disputed":false,"precision":"oaza","areaKey":null,"elements":["shishi"],"summary":"要素辞書に一致（shishi）。出典による裏づけは未確認。","zones":[],"dataset":"candidates"}},{"type":"Feature","geometry":{"type":"Point","coordinates":[135.904991,35.560477]},"properties":{"id":"18-dd9440337d","name":"生倉","reading":"イクラ","pref":"福井県","prefCode":"18","municipality":"三方上中郡若狭町","hazardTypes":["slope_failure","rockfall"],"evidenceLevel":0,"originLevel":0,"hasRecord":false,"recordRelation":null,"status":"current","disputed":false,"precision":"oaza","areaKey":null,"elements":["kura"],"summary":"要素辞書に一致（kura）。出典による裏づけは未確認。","zones":[],"dataset":"candidates"}},{"type":"Feature","geometry":{"type":"Point","coordinates":[135.901403,35.49455]},"properties":{"id":"18-bbcb1db8c6","name":"倉見","reading":"クラミ","pref":"福井県","prefCode":"18","municipality":"三方上中郡若狭町","hazardTypes":["slope_failure","rockfall"],"evidenceLevel":0,"originLevel":0,"hasRecord":false,"recordRelation":null,"status":"current","disputed":false,"precision":"oaza","areaKey":null,"elements":["kura"],"summary":"要素辞書に一致（kura）。出典による裏づけは未確認。","zones":[],"dataset":"candidates"}},{"type":"Feature","geometry":{"type":"Point","coordinates":[135.868104,35.520393]},"properties":{"id":"18-84120a8e59","name":"無悪","reading":"サカナシ","pref":"福井県","prefCode":"18","municipality":"三方上中郡若狭町","hazardTypes":["flood","inundation"],"evidenceLevel":0,"originLevel":0,"hasRecord":false,"recordRelation":null,"status":"current","disputed":false,"precision":"oaza","areaKey":null,"elements":["ashi"],"summary":"要素辞書に一致（ashi）。出典による裏づけは未確認。","zones":[],"dataset":"candidates"}},{"type":"Feature","geometry":{"type":"Point","coordinates":[135.857147,35.602327]},"properties":{"id":"18-39eb5cacee","name":"遊子","reading":"ユウシ","pref":"福井県","prefCode":"18","municipality":"三方上中郡若狭町","hazardTypes":["slope_failure"],"evidenceLevel":0,"originLevel":0,"hasRecord":false,"recordRelation":null,"status":"current","disputed":false,"precision":"oaza","areaKey":null,"elements":["yusu"],"summary":"要素辞書に一致（yusu）。出典による裏づけは未確認。","zones":[],"dataset":"candidates"}},{"type":"Feature","geometry":{"type":"Point","coordinates":[136.620116,36.123357]},"properties":{"id":"18-7efed616f5","name":"松倉谷","reading":null,"pref":"福井県","prefCode":"18","municipality":"勝山市","hazardTypes":["slope_failure","rockfall"],"evidenceLevel":0,"originLevel":0,"hasRecord":false,"recordRelation":null,"status":"historical","disputed":false,"precision":"feature","areaKey":"182060710","elements":["kura"],"summary":"要素辞書に一致（kura）。出典による裏づけは未確認。","zones":[],"dataset":"old_maps"}},{"type":"Feature","geometry":{"type":"Point","coordinates":[135.988988,36.010103]},"properties":{"id":"18-de724c2fea","name":"居倉","reading":null,"pref":"福井県","prefCode":"18","municipality":"福井市","hazardTypes":["slope_failure","rockfall"],"evidenceLevel":0,"originLevel":0,"hasRecord":false,"recordRelation":null,"status":"historical","disputed":false,"precision":"koaza","areaKey":"182014850","elements":["kura"],"summary":"要素辞書に一致（kura）。出典による裏づけは未確認。","zones":[],"dataset":"old_maps"}},{"type":"Feature","geometry":{"type":"Point","coordinates":[136.065293,35.649146]},"properties":{"id":"18-a93dc2029a","name":"河原","reading":null,"pref":"福井県","prefCode":"18","municipality":"敦賀市","hazardTypes":["flood"],"evidenceLevel":0,"originLevel":0,"hasRecord":false,"recordRelation":null,"status":"historical","disputed":false,"precision":"koaza","areaKey":"18202026002","elements":["kawara"],"summary":"要素辞書に一致（kawara）。出典による裏づけは未確認。","zones":[],"dataset":"old_maps"}},{"type":"Feature","geometry":{"type":"Point","coordinates":[136.066525,35.629675]},"properties":{"id":"18-64c4430e98","name":"吉田刈","reading":null,"pref":"福井県","prefCode":"18","municipality":"敦賀市","hazardTypes":["slope_failure"],"evidenceLevel":0,"originLevel":0,"hasRecord":false,"recordRelation":null,"status":"historical","disputed":false,"precision":"koaza","areaKey":"182020870","elements":["kake"],"summary":"要素辞書に一致（kake）。出典による裏づけは未確認。","zones":[],"dataset":"old_maps"}},{"type":"Feature","geometry":{"type":"Point","coordinates":[136.150532,35.762692]},"properties":{"id":"18-806680cee9","name":"鹿蒜村","reading":null,"pref":"福井県","prefCode":"18","municipality":"南条郡南越前町","hazardTypes":["landslide","soft_ground"],"evidenceLevel":0,"originLevel":0,"hasRecord":false,"recordRelation":null,"status":"historical","disputed":false,"precision":"village","areaKey":null,"elements":["shishi"],"summary":"要素辞書に一致（shishi）。出典による裏づけは未確認。","zones":[],"dataset":"old_maps"}},{"type":"Feature","geometry":{"type":"Point","coordinates":[136.47029,36.103566]},"properties":{"id":"18-fad7d965a7","name":"戸倉","reading":null,"pref":"福井県","prefCode":"18","municipality":"勝山市","hazardTypes":["slope_failure","rockfall"],"evidenceLevel":0,"originLevel":0,"hasRecord":false,"recordRelation":null,"status":"historical","disputed":false,"precision":"koaza","areaKey":"182060400","elements":["kura"],"summary":"要素辞書に一致（kura）。出典による裏づけは未確認。","zones":[],"dataset":"old_maps"}},{"type":"Feature","geometry":{"type":"Point","coordinates":[136.457007,36.047262]},"properties":{"id":"18-5d98995cde","name":"鹿谷村","reading":null,"pref":"福井県","prefCode":"18","municipality":"勝山市","hazardTypes":["landslide","soft_ground"],"evidenceLevel":0,"originLevel":0,"hasRecord":false,"recordRelation":null,"status":"historical","disputed":false,"precision":"village","areaKey":"182060960","elements":["shishi"],"summary":"要素辞書に一致（shishi）。出典による裏づけは未確認。","zones":[],"dataset":"old_maps"}},{"type":"Feature","geometry":{"type":"Point","coordinates":[136.403866,36.032326]},"properties":{"id":"18-1c50b43a9a","name":"芦見村","reading":null,"pref":"福井県","prefCode":"18","municipality":"福井市","hazardTypes":["flood","inundation"],"evidenceLevel":0,"originLevel":0,"hasRecord":false,"recordRelation":null,"status":"historical","disputed":false,"precision":"village","areaKey":"182014440","elements":["ashi"],"summary":"要素辞書に一致（ashi）。出典による裏づけは未確認。","zones":[],"dataset":"old_maps"}},{"type":"Feature","geometry":{"type":"Point","coordinates":[136.340909,36.01653]},"properties":{"id":"18-8c34dbc5c6","name":"大久保","reading":null,"pref":"福井県","prefCode":"18","municipality":"福井市","hazardTypes":["slope_failure","inundation","landslide"],"evidenceLevel":0,"originLevel":0,"hasRecord":false,"recordRelation":null,"status":"historical","disputed":false,"precision":"koaza","areaKey":"182014400","elements":["afu_oo","kubo"],"summary":"要素辞書に一致（afu_oo・kubo）。出典による裏づけは未確認。","zones":[],"dataset":"old_maps"}},{"type":"Feature","geometry":{"type":"Point","coordinates":[136.311164,36.018534]},"properties":{"id":"18-51c8e3a76f","name":"一乗谷村飛地","reading":null,"pref":"福井県","prefCode":"18","municipality":"福井市","hazardTypes":["slope_failure","debris_flow"],"evidenceLevel":0,"originLevel":0,"hasRecord":false,"recordRelation":null,"status":"historical","disputed":false,"precision":"village","areaKey":"182011870","elements":["tobi"],"summary":"要素辞書に一致（tobi）。出典による裏づけは未確認。","zones":[],"dataset":"old_maps"}},{"type":"Feature","geometry":{"type":"Point","coordinates":[136.291059,36.021014]},"properties":{"id":"18-b17778fe67","name":"河原脇","reading":null,"pref":"福井県","prefCode":"18","municipality":"福井市","hazardTypes":["flood"],"evidenceLevel":0,"originLevel":0,"hasRecord":false,"recordRelation":null,"status":"historical","disputed":false,"precision":"koaza","areaKey":"182013960","elements":["kawara"],"summary":"要素辞書に一致（kawara）。出典による裏づけは未確認。","zones":[],"dataset":"old_maps"}},{"type":"Feature","geometry":{"type":"Point","coordinates":[136.260845,36.004886]},"properties":{"id":"18-dcbcf96495","name":"岩倉","reading":null,"pref":"福井県","prefCode":"18","municipality":"福井市","hazardTypes":["slope_failure","rockfall"],"evidenceLevel":0,"originLevel":0,"hasRecord":false,"recordRelation":null,"status":"historical","disputed":false,"precision":"koaza","areaKey":"182010420","elements":["kura"],"summary":"要素辞書に一致（kura）。出典による裏づけは未確認。","zones":[],"dataset":"old_maps"}},{"type":"Feature","geometry":{"type":"Point","coordinates":[136.300404,36.063147]},"properties":{"id":"18-e12a66ff7b","name":"猪谷","reading":null,"pref":"福井県","prefCode":"18","municipality":"吉田郡永平寺町","hazardTypes":["landslide","soft_ground"],"evidenceLevel":0,"originLevel":0,"hasRecord":false,"recordRelation":null,"status":"historical","disputed":false,"precision":"koaza","areaKey":null,"elements":["shishi"],"summary":"要素辞書に一致（shishi）。出典による裏づけは未確認。","zones":[],"dataset":"old_maps"}},{"type":"Feature","geometry":{"type":"Point","coordinates":[136.333205,36.102131]},"properties":{"id":"18-adc70e8d11","name":"山鹿","reading":null,"pref":"福井県","prefCode":"18","municipality":"吉田郡永平寺町","hazardTypes":["landslide","soft_ground"],"evidenceLevel":0,"originLevel":0,"hasRecord":false,"recordRelation":null,"status":"historical","disputed":false,"precision":"koaza","areaKey":null,"elements":["shishi"],"summary":"要素辞書に一致（shishi）。出典による裏づけは未確認。","zones":[],"dataset":"old_maps"}},{"type":"Feature","geometry":{"type":"Point","coordinates":[136.32668,36.10509]},"properties":{"id":"18-88cd451727","name":"鳴鹿","reading":null,"pref":"福井県","prefCode":"18","municipality":"吉田郡永平寺町","hazardTypes":["landslide","soft_ground"],"evidenceLevel":0,"originLevel":0,"hasRecord":false,"recordRelation":null,"status":"historical","disputed":false,"precision":"koaza","areaKey":null,"elements":["shishi"],"summary":"要素辞書に一致（shishi）。出典による裏づけは未確認。","zones":[],"dataset":"old_maps"}},{"type":"Feature","geometry":{"type":"Point","coordinates":[136.318983,36.116619]},"properties":{"id":"18-12616119c3","name":"鳴鹿村","reading":null,"pref":"福井県","prefCode":"18","municipality":"坂井市","hazardTypes":["landslide","soft_ground"],"evidenceLevel":0,"originLevel":0,"hasRecord":false,"recordRelation":null,"status":"historical","disputed":false,"precision":"village","areaKey":null,"elements":["shishi"],"summary":"要素辞書に一致（shishi）。出典による裏づけは未確認。","zones":[],"dataset":"old_maps"}},{"type":"Feature","geometry":{"type":"Point","coordinates":[136.260542,36.119303]},"properties":{"id":"18-29c9fc026a","name":"磯部村","reading":null,"pref":"福井県","prefCode":"18","municipality":"坂井市","hazardTypes":["rockfall","debris_flow"],"evidenceLevel":0,"originLevel":0,"hasRecord":false,"recordRelation":null,"status":"historical","disputed":false,"precision":"village","areaKey":null,"elements":["iso_ishi"],"summary":"要素辞書に一致（iso_ishi）。出典による裏づけは未確認。","zones":[],"dataset":"old_maps"}},{"type":"Feature","geometry":{"type":"Point","coordinates":[136.277198,36.113697]},"properties":{"id":"18-e0b2c979f8","name":"磯部島","reading":null,"pref":"福井県","prefCode":"18","municipality":"坂井市","hazardTypes":["rockfall","debris_flow"],"evidenceLevel":0,"originLevel":0,"hasRecord":false,"recordRelation":null,"status":"historical","disputed":false,"precision":"koaza","areaKey":"182101060","elements":["iso_ishi"],"summary":"要素辞書に一致（iso_ishi）。出典による裏づけは未確認。","zones":[],"dataset":"old_maps"}},{"type":"Feature","geometry":{"type":"Point","coordinates":[136.26739,36.11332]},"properties":{"id":"18-91eeac7731","name":"磯部福荘","reading":null,"pref":"福井県","prefCode":"18","municipality":"坂井市","hazardTypes":["rockfall","debris_flow"],"evidenceLevel":0,"originLevel":0,"hasRecord":false,"recordRelation":null,"status":"historical","disputed":false,"precision":"koaza","areaKey":null,"elements":["iso_ishi"],"summary":"要素辞書に一致（iso_ishi）。出典による裏づけは未確認。","zones":[],"dataset":"old_maps"}},{"type":"Feature","geometry":{"type":"Point","coordinates":[136.255261,36.114922]},"properties":{"id":"18-ca6fdf83c6","name":"磯部新保","reading":null,"pref":"福井県","prefCode":"18","municipality":"坂井市","hazardTypes":["rockfall","debris_flow"],"evidenceLevel":0,"originLevel":0,"hasRecord":false,"recordRelation":null,"status":"historical","disputed":false,"precision":"koaza","areaKey":"182101010","elements":["iso_ishi"],"summary":"要素辞書に一致（iso_ishi）。出典による裏づけは未確認。","zones":[],"dataset":"old_maps"}},{"type":"Feature","geometry":{"type":"Point","coordinates":[136.288515,36.124721]},"properties":{"id":"18-601f01f9f4","name":"板倉","reading":null,"pref":"福井県","prefCode":"18","municipality":"坂井市","hazardTypes":["slope_failure","rockfall"],"evidenceLevel":0,"originLevel":0,"hasRecord":false,"recordRelation":null,"status":"historical","disputed":false,"precision":"koaza","areaKey":"182101360","elements":["kura"],"summary":"要素辞書に一致（kura）。出典による裏づけは未確認。","zones":[],"dataset":"old_maps"}},{"type":"Feature","geometry":{"type":"Point","coordinates":[136.292693,36.146202]},"properties":{"id":"18-55b9161d20","name":"内田","reading":null,"pref":"福井県","prefCode":"18","municipality":"坂井市","hazardTypes":["debris_flow","flood"],"evidenceLevel":0,"originLevel":0,"hasRecord":false,"recordRelation":null,"status":"historical","disputed":false,"precision":"koaza","areaKey":"182101710","elements":["uchide"],"summary":"要素辞書に一致（uchide）。出典による裏づけは未確認。","zones":[],"dataset":"old_maps"}},{"type":"Feature","geometry":{"type":"Point","coordinates":[136.275746,36.142621]},"properties":{"id":"18-320796f879","name":"猪ノ爪","reading":null,"pref":"福井県","prefCode":"18","municipality":"坂井市","hazardTypes":["landslide","soft_ground"],"evidenceLevel":0,"originLevel":0,"hasRecord":false,"recordRelation":null,"status":"historical","disputed":false,"precision":"koaza","areaKey":null,"elements":["shishi"],"summary":"要素辞書に一致（shishi）。出典による裏づけは未確認。","zones":[],"dataset":"old_maps"}},{"type":"Feature","geometry":{"type":"Point","coordinates":[136.1992,36.225989]},"properties":{"id":"18-7ce04d36c2","name":"芦原村","reading":null,"pref":"福井県","prefCode":"18","municipality":"あわら市","hazardTypes":["flood","inundation"],"evidenceLevel":0,"originLevel":0,"hasRecord":false,"recordRelation":null,"status":"historical","disputed":false,"precision":"village","areaKey":"18208110001","elements":["ashi"],"summary":"要素辞書に一致（ashi）。出典による裏づけは未確認。","zones":[],"dataset":"old_maps"}},{"type":"Feature","geometry":{"type":"Point","coordinates":[136.223589,36.174895]},"properties":{"id":"18-8dc6652ceb","name":"上蔵垣内","reading":null,"pref":"福井県","prefCode":"18","municipality":"坂井市","hazardTypes":["slope_failure","rockfall","inundation"],"evidenceLevel":0,"originLevel":0,"hasRecord":false,"recordRelation":null,"status":"historical","disputed":false,"precision":"koaza","areaKey":null,"elements":["kura","yato"],"summary":"要素辞書に一致（kura・yato）。出典による裏づけは未確認。","zones":[],"dataset":"old_maps"}},{"type":"Feature","geometry":{"type":"Point","coordinates":[136.218478,36.17797]},"properties":{"id":"18-ff38f36471","name":"下蔵垣内","reading":null,"pref":"福井県","prefCode":"18","municipality":"坂井市","hazardTypes":["slope_failure","rockfall","inundation"],"evidenceLevel":0,"originLevel":0,"hasRecord":false,"recordRelation":null,"status":"historical","disputed":false,"precision":"koaza","areaKey":null,"elements":["kura","yato"],"summary":"要素辞書に一致（kura・yato）。出典による裏づけは未確認。","zones":[],"dataset":"old_maps"}},{"type":"Feature","geometry":{"type":"Point","coordinates":[136.220376,36.180217]},"properties":{"id":"18-b1ccf039bf","name":"蔵垣内","reading":null,"pref":"福井県","prefCode":"18","municipality":"坂井市","hazardTypes":["slope_failure","rockfall","inundation"],"evidenceLevel":0,"originLevel":0,"hasRecord":false,"recordRelation":null,"status":"historical","disputed":false,"precision":"koaza","areaKey":"182102780","elements":["kura","yato"],"summary":"要素辞書に一致（kura・yato）。出典による裏づけは未確認。","zones":[],"dataset":"old_maps"}},{"type":"Feature","geometry":{"type":"Point","coordinates":[136.146632,36.195059]},"properties":{"id":"18-561fba08af","name":"山岸","reading":null,"pref":"福井県","prefCode":"18","municipality":"坂井市","hazardTypes":["slope_failure"],"evidenceLevel":0,"originLevel":0,"hasRecord":false,"recordRelation":null,"status":"historical","disputed":false,"precision":"koaza","areaKey":"182100770","elements":["kake"],"summary":"要素辞書に一致（kake）。出典による裏づけは未確認。","zones":[],"dataset":"old_maps"}},{"type":"Feature","geometry":{"type":"Point","coordinates":[136.252232,36.232749]},"properties":{"id":"18-51fc1ce7df","name":"青木","reading":null,"pref":"福井県","prefCode":"18","municipality":"あわら市","hazardTypes":["slope_failure"],"evidenceLevel":0,"originLevel":0,"hasRecord":false,"recordRelation":null,"status":"historical","disputed":false,"precision":"koaza","areaKey":"182080570","elements":["afu_oo"],"summary":"要素辞書に一致（afu_oo）。出典による裏づけは未確認。","zones":[],"dataset":"old_maps"}},{"type":"Feature","geometry":{"type":"Point","coordinates":[136.528136,36.02165]},"properties":{"id":"18-d7cc899387","name":"壁倉","reading":null,"pref":"福井県","prefCode":"18","municipality":"勝山市","hazardTypes":["slope_failure","rockfall"],"evidenceLevel":0,"originLevel":0,"hasRecord":false,"recordRelation":null,"status":"historical","disputed":false,"precision":"koaza","areaKey":"182060780","elements":["kura"],"summary":"要素辞書に一致（kura）。出典による裏づけは未確認。","zones":[],"dataset":"old_maps"}},{"type":"Feature","geometry":{"type":"Point","coordinates":[136.525454,36.054826]},"properties":{"id":"18-782a617a78","name":"猪野瀬村","reading":null,"pref":"福井県","prefCode":"18","municipality":"勝山市","hazardTypes":["landslide","soft_ground"],"evidenceLevel":0,"originLevel":0,"hasRecord":false,"recordRelation":null,"status":"historical","disputed":false,"precision":"village","areaKey":"182060180","elements":["shishi"],"summary":"要素辞書に一致（shishi）。出典による裏づけは未確認。","zones":[],"dataset":"old_maps"}},{"type":"Feature","geometry":{"type":"Point","coordinates":[136.504814,36.067687]},"properties":{"id":"18-15c5c9da04","name":"猿倉","reading":null,"pref":"福井県","prefCode":"18","municipality":"勝山市","hazardTypes":["slope_failure","rockfall"],"evidenceLevel":0,"originLevel":0,"hasRecord":false,"recordRelation":null,"status":"historical","disputed":false,"precision":"koaza","areaKey":"18206010001","elements":["kura","saru"],"summary":"要素辞書に一致（kura・saru）。出典による裏づけは未確認。","zones":[],"dataset":"old_maps"}},{"type":"Feature","geometry":{"type":"Point","coordinates":[136.508793,36.123816]},"properties":{"id":"18-552ac64a97","name":"横倉","reading":null,"pref":"福井県","prefCode":"18","municipality":"勝山市","hazardTypes":["slope_failure","rockfall"],"evidenceLevel":0,"originLevel":0,"hasRecord":false,"recordRelation":null,"status":"historical","disputed":false,"precision":"koaza","areaKey":"182060550","elements":["kura"],"summary":"要素辞書に一致（kura）。出典による裏づけは未確認。","zones":[],"dataset":"old_maps"}},{"type":"Feature","geometry":{"type":"Point","coordinates":[136.14052,36.148295]},"properties":{"id":"18-11d0636e75","name":"菖蒲谷","reading":null,"pref":"福井県","prefCode":"18","municipality":"福井市","hazardTypes":["landslide","soft_ground"],"evidenceLevel":0,"originLevel":0,"hasRecord":false,"recordRelation":null,"status":"historical","disputed":false,"precision":"koaza","areaKey":"182011910","elements":["wetland_plants"],"summary":"要素辞書に一致（wetland_plants）。出典による裏づけは未確認。","zones":[],"dataset":"old_maps"}},{"type":"Feature","geometry":{"type":"Point","coordinates":[136.169124,36.122493]},"properties":{"id":"18-f87666ace1","name":"天菅生","reading":null,"pref":"福井県","prefCode":"18","municipality":"福井市","hazardTypes":["landslide","soft_ground"],"evidenceLevel":0,"originLevel":0,"hasRecord":false,"recordRelation":null,"status":"historical","disputed":false,"precision":"koaza","areaKey":"182010140","elements":["wetland_plants"],"summary":"要素辞書に一致（wetland_plants）。出典による裏づけは未確認。","zones":[],"dataset":"old_maps"}},{"type":"Feature","geometry":{"type":"Point","coordinates":[136.171618,36.111419]},"properties":{"id":"18-bd566f61af","name":"岸水","reading":null,"pref":"福井県","prefCode":"18","municipality":"福井市","hazardTypes":["slope_failure"],"evidenceLevel":0,"originLevel":0,"hasRecord":false,"recordRelation":null,"status":"historical","disputed":false,"precision":"koaza","areaKey":"182011050","elements":["kake"],"summary":"要素辞書に一致（kake）。出典による裏づけは未確認。","zones":[],"dataset":"old_maps"}},{"type":"Feature","geometry":{"type":"Point","coordinates":[136.194058,36.070439]},"properties":{"id":"18-95e958ef84","name":"菅谷","reading":null,"pref":"福井県","prefCode":"18","municipality":"福井市","hazardTypes":["landslide","soft_ground"],"evidenceLevel":0,"originLevel":0,"hasRecord":false,"recordRelation":null,"status":"historical","disputed":false,"precision":"koaza","areaKey":"18201209001","elements":["wetland_plants"],"summary":"要素辞書に一致（wetland_plants）。出典による裏づけは未確認。","zones":[],"dataset":"old_maps"}},{"type":"Feature","geometry":{"type":"Point","coordinates":[136.156313,36.099557]},"properties":{"id":"18-a93c2fd5bd","name":"柿谷","reading":null,"pref":"福井県","prefCode":"18","municipality":"福井市","hazardTypes":["slope_failure"],"evidenceLevel":0,"originLevel":0,"hasRecord":false,"recordRelation":null,"status":"historical","disputed":false,"precision":"koaza","areaKey":"182011200","elements":["kake"],"summary":"要素辞書に一致（kake）。出典による裏づけは未確認。","zones":[],"dataset":"old_maps"}},{"type":"Feature","geometry":{"type":"Point","coordinates":[136.141078,36.048964]},"properties":{"id":"18-63a7840229","name":"猿和田","reading":null,"pref":"福井県","prefCode":"18","municipality":"福井市","hazardTypes":["slope_failure"],"evidenceLevel":0,"originLevel":0,"hasRecord":false,"recordRelation":null,"status":"historical","disputed":false,"precision":"koaza","areaKey":"182015080","elements":["saru"],"summary":"要素辞書に一致（saru）。出典による裏づけは未確認。","zones":[],"dataset":"old_maps"}},{"type":"Feature","geometry":{"type":"Point","coordinates":[136.195443,36.061613]},"properties":{"id":"18-a1dcf247d3","name":"加茂河原","reading":null,"pref":"福井県","prefCode":"18","municipality":"福井市","hazardTypes":["flood"],"evidenceLevel":0,"originLevel":0,"hasRecord":false,"recordRelation":null,"status":"historical","disputed":false,"precision":"koaza","areaKey":"18201099001","elements":["kawara"],"summary":"要素辞書に一致（kawara）。出典による裏づけは未確認。","zones":[],"dataset":"old_maps"}},{"type":"Feature","geometry":{"type":"Point","coordinates":[136.2219,36.046155]},"properties":{"id":"18-ca9e7dc6ca","name":"鹿ノ江","reading":null,"pref":"福井県","prefCode":"18","municipality":"福井市","hazardTypes":["landslide","soft_ground"],"evidenceLevel":0,"originLevel":0,"hasRecord":false,"recordRelation":null,"status":"historical","disputed":false,"precision":"koaza","areaKey":"182014160","elements":["shishi"],"summary":"要素辞書に一致（shishi）。出典による裏づけは未確認。","zones":[],"dataset":"old_maps"}},{"type":"Feature","geometry":{"type":"Point","coordinates":[136.070924,36.007813]},"properties":{"id":"18-046b3b5bcc","name":"杖立","reading":null,"pref":"福井県","prefCode":"18","municipality":"丹生郡越前町","hazardTypes":["landslide"],"evidenceLevel":0,"originLevel":0,"hasRecord":false,"recordRelation":null,"status":"historical","disputed":false,"precision":"koaza","areaKey":null,"elements":["tsuetate"],"summary":"要素辞書に一致（tsuetate）。出典による裏づけは未確認。","zones":[],"dataset":"old_maps"}},{"type":"Feature","geometry":{"type":"Point","coordinates":[136.013648,36.037156]},"properties":{"id":"18-06597cc340","name":"蒲生","reading":null,"pref":"福井県","prefCode":"18","municipality":"福井市","hazardTypes":["landslide","soft_ground"],"evidenceLevel":0,"originLevel":0,"hasRecord":false,"recordRelation":null,"status":"historical","disputed":false,"precision":"koaza","areaKey":"182014830","elements":["wetland_plants"],"summary":"要素辞書に一致（wetland_plants）。出典による裏づけは未確認。","zones":[],"dataset":"old_maps"}},{"type":"Feature","geometry":{"type":"Point","coordinates":[136.107073,36.076621]},"properties":{"id":"18-9ae866d56f","name":"足谷","reading":null,"pref":"福井県","prefCode":"18","municipality":"福井市","hazardTypes":["flood","inundation"],"evidenceLevel":0,"originLevel":0,"hasRecord":false,"recordRelation":null,"status":"historical","disputed":false,"precision":"koaza","areaKey":"182010030","elements":["ashi"],"summary":"要素辞書に一致（ashi）。出典による裏づけは未確認。","zones":[],"dataset":"old_maps"}},{"type":"Feature","geometry":{"type":"Point","coordinates":[136.047927,36.108493]},"properties":{"id":"18-80c2b9f2f3","name":"北菅生","reading":null,"pref":"福井県","prefCode":"18","municipality":"福井市","hazardTypes":["landslide","soft_ground"],"evidenceLevel":0,"originLevel":0,"hasRecord":false,"recordRelation":null,"status":"historical","disputed":false,"precision":"koaza","areaKey":"182011070","elements":["wetland_plants"],"summary":"要素辞書に一致（wetland_plants）。出典による裏づけは未確認。","zones":[],"dataset":"old_maps"}},{"type":"Feature","geometry":{"type":"Point","coordinates":[136.049174,36.105232]},"properties":{"id":"18-561e060df3","name":"南菅生","reading":null,"pref":"福井県","prefCode":"18","municipality":"福井市","hazardTypes":["landslide","soft_ground"],"evidenceLevel":0,"originLevel":0,"hasRecord":false,"recordRelation":null,"status":"historical","disputed":false,"precision":"koaza","areaKey":"182011070","elements":["wetland_plants"],"summary":"要素辞書に一致（wetland_plants）。出典による裏づけは未確認。","zones":[],"dataset":"old_maps"}},{"type":"Feature","geometry":{"type":"Point","coordinates":[135.871153,35.515303]},"properties":{"id":"18-9ecf00f3ef","name":"下無悪","reading":null,"pref":"福井県","prefCode":"18","municipality":"三方上中郡若狭町","hazardTypes":["flood","inundation"],"evidenceLevel":0,"originLevel":0,"hasRecord":false,"recordRelation":null,"status":"historical","disputed":false,"precision":"koaza","areaKey":null,"elements":["ashi"],"summary":"要素辞書に一致（ashi）。出典による裏づけは未確認。","zones":[],"dataset":"old_maps"}},{"type":"Feature","geometry":{"type":"Point","coordinates":[135.811518,35.576799]},"properties":{"id":"18-93e67af9eb","name":"獅子崎","reading":null,"pref":"福井県","prefCode":"18","municipality":"三方上中郡若狭町","hazardTypes":["landslide","soft_ground"],"evidenceLevel":0,"originLevel":0,"hasRecord":false,"recordRelation":null,"status":"historical","disputed":false,"precision":"koaza","areaKey":null,"elements":["shishi"],"summary":"要素辞書に一致（shishi）。出典による裏づけは未確認。","zones":[],"dataset":"old_maps"}},{"type":"Feature","geometry":{"type":"Point","coordinates":[135.671808,35.401968]},"properties":{"id":"18-3de1dd2234","name":"小倉","reading":null,"pref":"福井県","prefCode":"18","municipality":"大飯郡おおい町","hazardTypes":["slope_failure","rockfall"],"evidenceLevel":0,"originLevel":0,"hasRecord":false,"recordRelation":null,"status":"historical","disputed":false,"precision":"koaza","areaKey":null,"elements":["kura"],"summary":"要素辞書に一致（kura）。出典による裏づけは未確認。","zones":[],"dataset":"old_maps"}},{"type":"Feature","geometry":{"type":"Point","coordinates":[135.706651,35.4008]},"properties":{"id":"18-44015934ae","name":"虫鹿野","reading":null,"pref":"福井県","prefCode":"18","municipality":"大飯郡おおい町","hazardTypes":["landslide","soft_ground"],"evidenceLevel":0,"originLevel":0,"hasRecord":false,"recordRelation":null,"status":"historical","disputed":false,"precision":"koaza","areaKey":null,"elements":["shishi"],"summary":"要素辞書に一致（shishi）。出典による裏づけは未確認。","zones":[],"dataset":"old_maps"}},{"type":"Feature","geometry":{"type":"Point","coordinates":[135.696464,35.402553]},"properties":{"id":"18-b6bf6c2492","name":"小倉畑","reading":null,"pref":"福井県","prefCode":"18","municipality":"大飯郡おおい町","hazardTypes":["slope_failure","rockfall"],"evidenceLevel":0,"originLevel":0,"hasRecord":false,"recordRelation":null,"status":"historical","disputed":false,"precision":"koaza","areaKey":null,"elements":["kura"],"summary":"要素辞書に一致（kura）。出典による裏づけは未確認。","zones":[],"dataset":"old_maps"}},{"type":"Feature","geometry":{"type":"Point","coordinates":[135.602187,35.406269]},"properties":{"id":"18-645da4e785","name":"蛇頭","reading":null,"pref":"福井県","prefCode":"18","municipality":"大飯郡おおい町","hazardTypes":["slope_failure","debris_flow"],"evidenceLevel":0,"originLevel":0,"hasRecord":false,"recordRelation":null,"status":"historical","disputed":false,"precision":"koaza","areaKey":null,"elements":["ja"],"summary":"要素辞書に一致（ja）。出典による裏づけは未確認。","zones":[],"dataset":"old_maps"}},{"type":"Feature","geometry":{"type":"Point","coordinates":[136.265038,35.884258]},"properties":{"id":"18-2eb11d8756","name":"鞍谷郷","reading":null,"pref":"福井県","prefCode":"18","municipality":"越前市","hazardTypes":["slope_failure","rockfall"],"evidenceLevel":0,"originLevel":0,"hasRecord":false,"recordRelation":null,"status":"historical","disputed":false,"precision":"feature","areaKey":"182091520","elements":["kura"],"summary":"要素辞書に一致（kura）。出典による裏づけは未確認。","zones":[],"dataset":"old_maps"}},{"type":"Feature","geometry":{"type":"Point","coordinates":[136.367083,35.957344]},"properties":{"id":"18-2754837ef1","name":"東河原","reading":null,"pref":"福井県","prefCode":"18","municipality":"福井市","hazardTypes":["flood"],"evidenceLevel":0,"originLevel":0,"hasRecord":false,"recordRelation":null,"status":"historical","disputed":false,"precision":"koaza","areaKey":"182014700","elements":["kawara"],"summary":"要素辞書に一致（kawara）。出典による裏づけは未確認。","zones":[],"dataset":"old_maps"}},{"type":"Feature","geometry":{"type":"Point","coordinates":[136.366169,35.962069]},"properties":{"id":"18-5df60ccf0a","name":"西河原","reading":null,"pref":"福井県","prefCode":"18","municipality":"福井市","hazardTypes":["flood"],"evidenceLevel":0,"originLevel":0,"hasRecord":false,"recordRelation":null,"status":"historical","disputed":false,"precision":"koaza","areaKey":"182014710","elements":["kawara"],"summary":"要素辞書に一致（kawara）。出典による裏づけは未確認。","zones":[],"dataset":"old_maps"}},{"type":"Feature","geometry":{"type":"Point","coordinates":[136.279486,35.982084]},"properties":{"id":"18-30c3ae1756","name":"鹿俣","reading":null,"pref":"福井県","prefCode":"18","municipality":"福井市","hazardTypes":["landslide","soft_ground"],"evidenceLevel":0,"originLevel":0,"hasRecord":false,"recordRelation":null,"status":"historical","disputed":false,"precision":"koaza","areaKey":"182010860","elements":["shishi"],"summary":"要素辞書に一致（shishi）。出典による裏づけは未確認。","zones":[],"dataset":"old_maps"}},{"type":"Feature","geometry":{"type":"Point","coordinates":[136.357813,35.987342]},"properties":{"id":"18-6ace1a03ba","name":"蔵作","reading":null,"pref":"福井県","prefCode":"18","municipality":"福井市","hazardTypes":["slope_failure","rockfall"],"evidenceLevel":0,"originLevel":0,"hasRecord":false,"recordRelation":null,"status":"historical","disputed":false,"precision":"koaza","areaKey":"182014770","elements":["kura"],"summary":"要素辞書に一致（kura）。出典による裏づけは未確認。","zones":[],"dataset":"old_maps"}},{"type":"Feature","geometry":{"type":"Point","coordinates":[136.264346,35.751319]},"properties":{"id":"18-340f437767","name":"田倉俣","reading":null,"pref":"福井県","prefCode":"18","municipality":"南条郡南越前町","hazardTypes":["slope_failure","rockfall"],"evidenceLevel":0,"originLevel":0,"hasRecord":false,"recordRelation":null,"status":"historical","disputed":false,"precision":"koaza","areaKey":null,"elements":["kura"],"summary":"要素辞書に一致（kura）。出典による裏づけは未確認。","zones":[],"dataset":"old_maps"}},{"type":"Feature","geometry":{"type":"Point","coordinates":[136.306338,35.77316]},"properties":{"id":"18-c1d5cc573b","name":"高倉","reading":null,"pref":"福井県","prefCode":"18","municipality":"南条郡南越前町","hazardTypes":["slope_failure","rockfall"],"evidenceLevel":0,"originLevel":0,"hasRecord":false,"recordRelation":null,"status":"historical","disputed":false,"precision":"koaza","areaKey":null,"elements":["kura"],"summary":"要素辞書に一致（kura）。出典による裏づけは未確認。","zones":[],"dataset":"old_maps"}},{"type":"Feature","geometry":{"type":"Point","coordinates":[136.159536,35.967208]},"properties":{"id":"18-5aae09a59a","name":"大倉","reading":null,"pref":"福井県","prefCode":"18","municipality":"鯖江市","hazardTypes":["slope_failure","rockfall"],"evidenceLevel":0,"originLevel":0,"hasRecord":false,"recordRelation":null,"status":"historical","disputed":false,"precision":"koaza","areaKey":"182070670","elements":["kura"],"summary":"要素辞書に一致（kura）。出典による裏づけは未確認。","zones":[],"dataset":"old_maps"}},{"type":"Feature","geometry":{"type":"Point","coordinates":[136.136392,35.982219]},"properties":{"id":"18-dbaa334bc8","name":"馬場","reading":null,"pref":"福井県","prefCode":"18","municipality":"丹生郡越前町","hazardTypes":["slope_failure"],"evidenceLevel":0,"originLevel":0,"hasRecord":false,"recordRelation":null,"status":"historical","disputed":false,"precision":"koaza","areaKey":null,"elements":["baba"],"summary":"要素辞書に一致（baba）。出典による裏づけは未確認。","zones":[],"dataset":"old_maps"}},{"type":"Feature","geometry":{"type":"Point","coordinates":[136.141082,35.966592]},"properties":{"id":"18-510133fc4c","name":"下川去","reading":null,"pref":"福井県","prefCode":"18","municipality":"鯖江市","hazardTypes":["slope_failure"],"evidenceLevel":0,"originLevel":0,"hasRecord":false,"recordRelation":null,"status":"historical","disputed":false,"precision":"koaza","areaKey":"182070590","elements":["saru"],"summary":"要素辞書に一致（saru）。出典による裏づけは未確認。","zones":[],"dataset":"old_maps"}},{"type":"Feature","geometry":{"type":"Point","coordinates":[136.240009,35.960627]},"properties":{"id":"18-8c90ca08f6","name":"磯部","reading":null,"pref":"福井県","prefCode":"18","municipality":"鯖江市","hazardTypes":["rockfall","debris_flow"],"evidenceLevel":0,"originLevel":0,"hasRecord":false,"recordRelation":null,"status":"historical","disputed":false,"precision":"koaza","areaKey":"182070820","elements":["iso_ishi"],"summary":"要素辞書に一致（iso_ishi）。出典による裏づけは未確認。","zones":[],"dataset":"old_maps"}},{"type":"Feature","geometry":{"type":"Point","coordinates":[136.187598,35.90378]},"properties":{"id":"18-fa853ace7c","name":"押田","reading":null,"pref":"福井県","prefCode":"18","municipality":"越前市","hazardTypes":["debris_flow"],"evidenceLevel":0,"originLevel":0,"hasRecord":false,"recordRelation":null,"status":"historical","disputed":false,"precision":"koaza","areaKey":"18209101002","elements":["oshidashi"],"summary":"要素辞書に一致（oshidashi）。出典による裏づけは未確認。","zones":[],"dataset":"old_maps"}},{"type":"Feature","geometry":{"type":"Point","coordinates":[136.047156,35.863629]},"properties":{"id":"18-fefe888a76","name":"菅","reading":null,"pref":"福井県","prefCode":"18","municipality":"越前市","hazardTypes":["landslide","soft_ground"],"evidenceLevel":0,"originLevel":0,"hasRecord":false,"recordRelation":null,"status":"historical","disputed":false,"precision":"koaza","areaKey":"182091990","elements":["wetland_plants"],"summary":"要素辞書に一致（wetland_plants）。出典による裏づけは未確認。","zones":[],"dataset":"old_maps"}},{"type":"Feature","geometry":{"type":"Point","coordinates":[136.047601,35.880958]},"properties":{"id":"18-d461f660d0","name":"菖蒲谷","reading":null,"pref":"福井県","prefCode":"18","municipality":"越前市","hazardTypes":["landslide","soft_ground"],"evidenceLevel":0,"originLevel":0,"hasRecord":false,"recordRelation":null,"status":"historical","disputed":false,"precision":"koaza","areaKey":"182091940","elements":["wetland_plants"],"summary":"要素辞書に一致（wetland_plants）。出典による裏づけは未確認。","zones":[],"dataset":"old_maps"}},{"type":"Feature","geometry":{"type":"Point","coordinates":[136.104311,35.912417]},"properties":{"id":"18-d7ade953d4","name":"蛇ヶ池","reading":null,"pref":"福井県","prefCode":"18","municipality":"丹生郡越前町","hazardTypes":["slope_failure","debris_flow"],"evidenceLevel":0,"originLevel":0,"hasRecord":false,"recordRelation":null,"status":"historical","disputed":false,"precision":"koaza","areaKey":null,"elements":["ja"],"summary":"要素辞書に一致（ja）。出典による裏づけは未確認。","zones":[],"dataset":"old_maps"}},{"type":"Feature","geometry":{"type":"Point","coordinates":[136.030672,35.995076]},"properties":{"id":"18-a36bacae25","name":"糸生村飛地","reading":null,"pref":"福井県","prefCode":"18","municipality":"丹生郡越前町","hazardTypes":["slope_failure","debris_flow"],"evidenceLevel":0,"originLevel":0,"hasRecord":false,"recordRelation":null,"status":"historical","disputed":false,"precision":"village","areaKey":null,"elements":["tobi"],"summary":"要素辞書に一致（tobi）。出典による裏づけは未確認。","zones":[],"dataset":"old_maps"}},{"type":"Feature","geometry":{"type":"Point","coordinates":[136.587743,35.881526]},"properties":{"id":"18-e361c7ab19","name":"藤倉谷","reading":null,"pref":"福井県","prefCode":"18","municipality":"大野市","hazardTypes":["slope_failure","rockfall"],"evidenceLevel":0,"originLevel":0,"hasRecord":false,"recordRelation":null,"status":"historical","disputed":false,"precision":"feature","areaKey":"182051490","elements":["kura"],"summary":"要素辞書に一致（kura）。出典による裏づけは未確認。","zones":[],"dataset":"old_maps"}},{"type":"Feature","geometry":{"type":"Point","coordinates":[136.501379,35.954947]},"properties":{"id":"18-fb852150ad","name":"下荘村飛地","reading":null,"pref":"福井県","prefCode":"18","municipality":"大野市","hazardTypes":["slope_failure","debris_flow"],"evidenceLevel":0,"originLevel":0,"hasRecord":false,"recordRelation":null,"status":"historical","disputed":false,"precision":"village","areaKey":"182050600","elements":["tobi"],"summary":"要素辞書に一致（tobi）。出典による裏づけは未確認。","zones":[],"dataset":"old_maps"}},{"type":"Feature","geometry":{"type":"Point","coordinates":[136.569888,35.925397]},"properties":{"id":"18-c78057887c","name":"足谷","reading":null,"pref":"福井県","prefCode":"18","municipality":"大野市","hazardTypes":["flood","inundation"],"evidenceLevel":0,"originLevel":0,"hasRecord":false,"recordRelation":null,"status":"historical","disputed":false,"precision":"feature","areaKey":"182050750","elements":["ashi"],"summary":"要素辞書に一致（ashi）。出典による裏づけは未確認。","zones":[],"dataset":"old_maps"}}]}
