{"type":"FeatureCollection","features":[{"type":"Feature","geometry":{"type":"Point","coordinates":[138.311447,35.070405]},"properties":{"id":"22-1c863634c6","name":"足久保奥組","reading":"アシクボオクグミ","pref":"静岡県","prefCode":"22","municipality":"静岡市葵区","hazardTypes":["flood","inundation","landslide"],"evidenceLevel":0,"status":"current","disputed":false,"precision":"oaza","areaKey":"221012090","elements":["ashi","kubo"],"summary":"要素辞書に一致（ashi・kubo）。出典による裏づけは未確認。","zones":[],"dataset":"candidates"}},{"type":"Feature","geometry":{"type":"Point","coordinates":[138.347278,35.04817]},"properties":{"id":"22-d4ec991c6b","name":"足久保口組","reading":"アシクボクチグミ","pref":"静岡県","prefCode":"22","municipality":"静岡市葵区","hazardTypes":["flood","inundation","landslide"],"evidenceLevel":0,"status":"current","disputed":false,"precision":"oaza","areaKey":"221012080","elements":["ashi","kubo"],"summary":"要素辞書に一致（ashi・kubo）。出典による裏づけは未確認。","zones":[],"dataset":"candidates"}},{"type":"Feature","geometry":{"type":"Point","coordinates":[138.325934,35.278024]},"properties":{"id":"22-149f125853","name":"梅ヶ島","reading":"ウメガシマ","pref":"静岡県","prefCode":"22","municipality":"静岡市葵区","hazardTypes":["landslide","slope_failure"],"evidenceLevel":0,"status":"current","disputed":false,"precision":"oaza","areaKey":"221012550","elements":["ume"],"summary":"要素辞書に一致（ume）。出典による裏づけは未確認。","zones":[],"dataset":"candidates"}},{"type":"Feature","geometry":{"type":"Point","coordinates":[138.377775,34.972667]},"properties":{"id":"22-09bb09ebf9","name":"梅屋町","reading":"ウメヤチョウ","pref":"静岡県","prefCode":"22","municipality":"静岡市葵区","hazardTypes":["landslide","slope_failure"],"evidenceLevel":0,"status":"current","disputed":false,"precision":"oaza","areaKey":"221010380","elements":["ume"],"summary":"要素辞書に一致（ume）。出典による裏づけは未確認。","zones":[],"dataset":"candidates"}},{"type":"Feature","geometry":{"type":"Point","coordinates":[138.335715,35.150527]},"properties":{"id":"22-4fa0cd939e","name":"柿島","reading":"カキシマ","pref":"静岡県","prefCode":"22","municipality":"静岡市葵区","hazardTypes":["slope_failure"],"evidenceLevel":0,"status":"current","disputed":false,"precision":"oaza","areaKey":"221012370","elements":["kake"],"summary":"要素辞書に一致（kake）。出典による裏づけは未確認。","zones":[],"dataset":"candidates"}},{"type":"Feature","geometry":{"type":"Point","coordinates":[138.396297,34.987875]},"properties":{"id":"22-c68236dd01","name":"上足洗","reading":"カミアシアライ","pref":"静岡県","prefCode":"22","municipality":"静岡市葵区","hazardTypes":["flood","inundation"],"evidenceLevel":0,"status":"current","disputed":false,"precision":"oaza","areaKey":"22101110000","elements":["ashi"],"summary":"要素辞書に一致（ashi）。出典による裏づけは未確認。","zones":[],"dataset":"candidates"}},{"type":"Feature","geometry":{"type":"Point","coordinates":[138.193903,35.129421]},"properties":{"id":"22-998ad62d97","name":"崩野","reading":"クズレノ","pref":"静岡県","prefCode":"22","municipality":"静岡市葵区","hazardTypes":["slope_failure","landslide"],"evidenceLevel":0,"status":"current","disputed":false,"precision":"oaza","areaKey":"221012290","elements":["kuzure"],"summary":"要素辞書に一致（kuzure）。出典による裏づけは未確認。","zones":[],"dataset":"candidates"}},{"type":"Feature","geometry":{"type":"Point","coordinates":[138.378419,34.981299]},"properties":{"id":"22-e20537e50d","name":"西草深町","reading":"ニシクサブカチョウ","pref":"静岡県","prefCode":"22","municipality":"静岡市葵区","hazardTypes":["soft_ground","inundation"],"evidenceLevel":0,"status":"current","disputed":false,"precision":"oaza","areaKey":"221010050","elements":["fuke"],"summary":"要素辞書に一致（fuke）。出典による裏づけは未確認。","zones":[],"dataset":"candidates"}},{"type":"Feature","geometry":{"type":"Point","coordinates":[138.3764,34.978902]},"properties":{"id":"22-0883ee6002","name":"馬場町","reading":"ババンチョウ","pref":"静岡県","prefCode":"22","municipality":"静岡市葵区","hazardTypes":["slope_failure"],"evidenceLevel":0,"status":"current","disputed":false,"precision":"oaza","areaKey":"221010700","elements":["baba"],"summary":"要素辞書に一致（baba）。出典による裏づけは未確認。","zones":[],"dataset":"candidates"}},{"type":"Feature","geometry":{"type":"Point","coordinates":[138.384396,34.983211]},"properties":{"id":"22-71baa6d578","name":"東草深町","reading":"ヒガシクサブカチョウ","pref":"静岡県","prefCode":"22","municipality":"静岡市葵区","hazardTypes":["soft_ground","inundation"],"evidenceLevel":0,"status":"current","disputed":false,"precision":"oaza","areaKey":"221010060","elements":["fuke"],"summary":"要素辞書に一致（fuke）。出典による裏づけは未確認。","zones":[],"dataset":"candidates"}},{"type":"Feature","geometry":{"type":"Point","coordinates":[138.377334,34.924517]},"properties":{"id":"22-8786ce1a46","name":"広野海岸通","reading":null,"pref":"静岡県","prefCode":"22","municipality":"静岡市駿河区","hazardTypes":["slope_failure"],"evidenceLevel":0,"status":"current","disputed":false,"precision":"oaza","areaKey":"221020691","elements":["kake"],"summary":"要素辞書に一致（kake）。出典による裏づけは未確認。","zones":[],"dataset":"candidates"}},{"type":"Feature","geometry":{"type":"Point","coordinates":[138.362507,34.935385]},"properties":{"id":"22-45e3e95953","name":"青木","reading":"アオキ","pref":"静岡県","prefCode":"22","municipality":"静岡市駿河区","hazardTypes":["slope_failure"],"evidenceLevel":0,"status":"current","disputed":false,"precision":"oaza","areaKey":"221020750","elements":["afu_oo"],"summary":"要素辞書に一致（afu_oo）。出典による裏づけは未確認。","zones":[],"dataset":"candidates"}},{"type":"Feature","geometry":{"type":"Point","coordinates":[138.43587,34.972206]},"properties":{"id":"22-015f04d148","name":"小鹿","reading":"オシカ","pref":"静岡県","prefCode":"22","municipality":"静岡市駿河区","hazardTypes":["landslide","soft_ground"],"evidenceLevel":0,"status":"current","disputed":false,"precision":"oaza","areaKey":"22102041000","elements":["shishi"],"summary":"要素辞書に一致（shishi）。出典による裏づけは未確認。","zones":[],"dataset":"candidates"}},{"type":"Feature","geometry":{"type":"Point","coordinates":[138.364716,34.947288]},"properties":{"id":"22-db894fe489","name":"上川原","reading":"カミカワハラ","pref":"静岡県","prefCode":"22","municipality":"静岡市駿河区","hazardTypes":["flood"],"evidenceLevel":0,"status":"current","disputed":false,"precision":"oaza","areaKey":"221020880","elements":["kawara"],"summary":"要素辞書に一致（kawara）。出典による裏づけは未確認。","zones":[],"dataset":"candidates"}},{"type":"Feature","geometry":{"type":"Point","coordinates":[138.36417,34.946646]},"properties":{"id":"22-685d6457f9","name":"下川原","reading":"シモカワハラ","pref":"静岡県","prefCode":"22","municipality":"静岡市駿河区","hazardTypes":["flood"],"evidenceLevel":0,"status":"current","disputed":false,"precision":"oaza","areaKey":null,"elements":["kawara"],"summary":"要素辞書に一致（kawara）。出典による裏づけは未確認。","zones":[],"dataset":"candidates"}},{"type":"Feature","geometry":{"type":"Point","coordinates":[138.384163,34.932536]},"properties":{"id":"22-722b4a7db7","name":"下川原南","reading":"シモカワハラミナミ","pref":"静岡県","prefCode":"22","municipality":"静岡市駿河区","hazardTypes":["flood"],"evidenceLevel":0,"status":"current","disputed":false,"precision":"oaza","areaKey":"221020650","elements":["kawara"],"summary":"要素辞書に一致（kawara）。出典による裏づけは未確認。","zones":[],"dataset":"candidates"}},{"type":"Feature","geometry":{"type":"Point","coordinates":[138.348782,34.942805]},"properties":{"id":"22-fbb88bbef8","name":"丸子芹が谷町","reading":"マリコセリガヤチョウ","pref":"静岡県","prefCode":"22","municipality":"静岡市駿河区","hazardTypes":["landslide","soft_ground"],"evidenceLevel":0,"status":"current","disputed":false,"precision":"oaza","areaKey":"221020870","elements":["wetland_plants"],"summary":"要素辞書に一致（wetland_plants）。出典による裏づけは未確認。","zones":[],"dataset":"candidates"}},{"type":"Feature","geometry":{"type":"Point","coordinates":[138.483089,35.004764]},"properties":{"id":"22-29147803ad","name":"梅が岡","reading":"ウメガオカ","pref":"静岡県","prefCode":"22","municipality":"静岡市清水区","hazardTypes":["landslide","slope_failure"],"evidenceLevel":0,"status":"current","disputed":false,"precision":"oaza","areaKey":"221030500","elements":["ume"],"summary":"要素辞書に一致（ume）。出典による裏づけは未確認。","zones":[],"dataset":"candidates"}},{"type":"Feature","geometry":{"type":"Point","coordinates":[138.443899,35.048147]},"properties":{"id":"22-7e111f1124","name":"梅ヶ谷","reading":"ウメガヤ","pref":"静岡県","prefCode":"22","municipality":"静岡市清水区","hazardTypes":["landslide","slope_failure"],"evidenceLevel":0,"status":"current","disputed":false,"precision":"oaza","areaKey":"221031310","elements":["ume"],"summary":"要素辞書に一致（ume）。出典による裏づけは未確認。","zones":[],"dataset":"candidates"}},{"type":"Feature","geometry":{"type":"Point","coordinates":[138.4874,35.006911]},"properties":{"id":"22-044d4a47a2","name":"梅田町","reading":"ウメダチョウ","pref":"静岡県","prefCode":"22","municipality":"静岡市清水区","hazardTypes":["landslide","slope_failure"],"evidenceLevel":0,"status":"current","disputed":false,"precision":"oaza","areaKey":"221030490","elements":["ume"],"summary":"要素辞書に一致（ume）。出典による裏づけは未確認。","zones":[],"dataset":"candidates"}},{"type":"Feature","geometry":{"type":"Point","coordinates":[138.476715,35.000782]},"properties":{"id":"22-243d853952","name":"川原町","reading":"カワハラチョウ","pref":"静岡県","prefCode":"22","municipality":"静岡市清水区","hazardTypes":["flood"],"evidenceLevel":0,"status":"current","disputed":false,"precision":"oaza","areaKey":"221030570","elements":["kawara"],"summary":"要素辞書に一致（kawara）。出典による裏づけは未確認。","zones":[],"dataset":"candidates"}},{"type":"Feature","geometry":{"type":"Point","coordinates":[138.600444,35.13126]},"properties":{"id":"22-f952771f46","name":"蒲原","reading":"カンバラ","pref":"静岡県","prefCode":"22","municipality":"静岡市清水区","hazardTypes":["landslide","soft_ground"],"evidenceLevel":0,"status":"current","disputed":false,"precision":"oaza","areaKey":"221032280","elements":["wetland_plants"],"summary":"要素辞書に一致（wetland_plants）。出典による裏づけは未確認。","zones":[],"dataset":"candidates"}},{"type":"Feature","geometry":{"type":"Point","coordinates":[138.575097,35.123044]},"properties":{"id":"22-15dd055cce","name":"蒲原神沢","reading":"カンバラカンザワ","pref":"静岡県","prefCode":"22","municipality":"静岡市清水区","hazardTypes":["landslide","soft_ground"],"evidenceLevel":0,"status":"current","disputed":false,"precision":"oaza","areaKey":"221032230","elements":["wetland_plants"],"summary":"要素辞書に一致（wetland_plants）。出典による裏づけは未確認。","zones":[],"dataset":"candidates"}},{"type":"Feature","geometry":{"type":"Point","coordinates":[138.58973,35.127004]},"properties":{"id":"22-16001990d4","name":"蒲原小金","reading":"カンバラコガネ","pref":"静岡県","prefCode":"22","municipality":"静岡市清水区","hazardTypes":["landslide","soft_ground"],"evidenceLevel":0,"status":"current","disputed":false,"precision":"oaza","areaKey":"221032260","elements":["wetland_plants"],"summary":"要素辞書に一致（wetland_plants）。出典による裏づけは未確認。","zones":[],"dataset":"candidates"}},{"type":"Feature","geometry":{"type":"Point","coordinates":[138.622533,35.125858]},"properties":{"id":"22-b995e73fde","name":"蒲原新栄","reading":"カンバラシンエイ","pref":"静岡県","prefCode":"22","municipality":"静岡市清水区","hazardTypes":["landslide","soft_ground"],"evidenceLevel":0,"status":"current","disputed":false,"precision":"oaza","areaKey":"221032300","elements":["wetland_plants"],"summary":"要素辞書に一致（wetland_plants）。出典による裏づけは未確認。","zones":[],"dataset":"candidates"}},{"type":"Feature","geometry":{"type":"Point","coordinates":[138.598579,35.115675]},"properties":{"id":"22-b216db3958","name":"蒲原新田一丁目","reading":"カンバラシンデン 1","pref":"静岡県","prefCode":"22","municipality":"静岡市清水区","hazardTypes":["landslide","soft_ground"],"evidenceLevel":0,"status":"current","disputed":false,"precision":"oaza","areaKey":"22103227001","elements":["wetland_plants"],"summary":"要素辞書に一致（wetland_plants）。出典による裏づけは未確認。","zones":[],"dataset":"candidates"}},{"type":"Feature","geometry":{"type":"Point","coordinates":[138.582151,35.12769]},"properties":{"id":"22-80160eebd2","name":"蒲原堰沢","reading":"カンバラセギザワ","pref":"静岡県","prefCode":"22","municipality":"静岡市清水区","hazardTypes":["landslide","soft_ground"],"evidenceLevel":0,"status":"current","disputed":false,"precision":"oaza","areaKey":"221032240","elements":["wetland_plants"],"summary":"要素辞書に一致（wetland_plants）。出典による裏づけは未確認。","zones":[],"dataset":"candidates"}},{"type":"Feature","geometry":{"type":"Point","coordinates":[138.585835,35.127968]},"properties":{"id":"22-965ac837e6","name":"蒲原中","reading":"カンバラナカ","pref":"静岡県","prefCode":"22","municipality":"静岡市清水区","hazardTypes":["landslide","soft_ground"],"evidenceLevel":0,"status":"current","disputed":false,"precision":"oaza","areaKey":"221032250","elements":["wetland_plants"],"summary":"要素辞書に一致（wetland_plants）。出典による裏づけは未確認。","zones":[],"dataset":"candidates"}},{"type":"Feature","geometry":{"type":"Point","coordinates":[138.62456,35.127624]},"properties":{"id":"22-1e4cd8698f","name":"蒲原東","reading":"カンバラヒガシ","pref":"静岡県","prefCode":"22","municipality":"静岡市清水区","hazardTypes":["landslide","soft_ground"],"evidenceLevel":0,"status":"current","disputed":false,"precision":"oaza","areaKey":"221032310","elements":["wetland_plants"],"summary":"要素辞書に一致（wetland_plants）。出典による裏づけは未確認。","zones":[],"dataset":"candidates"}},{"type":"Feature","geometry":{"type":"Point","coordinates":[138.456522,34.987157]},"properties":{"id":"22-1d1a4e7fed","name":"草薙","reading":"クサナギ","pref":"静岡県","prefCode":"22","municipality":"静岡市清水区","hazardTypes":["slope_failure"],"evidenceLevel":0,"status":"current","disputed":false,"precision":"oaza","areaKey":"22103146000","elements":["nagi"],"summary":"要素辞書に一致（nagi）。出典による裏づけは未確認。","zones":[],"dataset":"candidates"}},{"type":"Feature","geometry":{"type":"Point","coordinates":[138.450779,35.005498]},"properties":{"id":"22-b913329748","name":"草薙一里山","reading":"クサナギイチリヤマ","pref":"静岡県","prefCode":"22","municipality":"静岡市清水区","hazardTypes":["slope_failure"],"evidenceLevel":0,"status":"current","disputed":false,"precision":"oaza","areaKey":"221031450","elements":["nagi"],"summary":"要素辞書に一致（nagi）。出典による裏づけは未確認。","zones":[],"dataset":"candidates"}},{"type":"Feature","geometry":{"type":"Point","coordinates":[138.44141,35.00426]},"properties":{"id":"22-2d12cacda6","name":"草薙北","reading":"クサナギキタ","pref":"静岡県","prefCode":"22","municipality":"静岡市清水区","hazardTypes":["slope_failure"],"evidenceLevel":0,"status":"current","disputed":false,"precision":"oaza","areaKey":"221031440","elements":["nagi"],"summary":"要素辞書に一致（nagi）。出典による裏づけは未確認。","zones":[],"dataset":"candidates"}},{"type":"Feature","geometry":{"type":"Point","coordinates":[138.45392,35.004112]},"properties":{"id":"22-9669e11755","name":"草薙杉道一丁目","reading":"クサナギスギミチ 1","pref":"静岡県","prefCode":"22","municipality":"静岡市清水区","hazardTypes":["slope_failure"],"evidenceLevel":0,"status":"current","disputed":false,"precision":"oaza","areaKey":"22103163001","elements":["nagi"],"summary":"要素辞書に一致（nagi）。出典による裏づけは未確認。","zones":[],"dataset":"candidates"}},{"type":"Feature","geometry":{"type":"Point","coordinates":[138.509808,35.170553]},"properties":{"id":"22-0c642bd4dd","name":"宍原","reading":"シシハラ","pref":"静岡県","prefCode":"22","municipality":"静岡市清水区","hazardTypes":["landslide","soft_ground"],"evidenceLevel":0,"status":"current","disputed":false,"precision":"oaza","areaKey":"221031940","elements":["shishi"],"summary":"要素辞書に一致（shishi）。出典による裏づけは未確認。","zones":[],"dataset":"candidates"}},{"type":"Feature","geometry":{"type":"Point","coordinates":[138.47663,34.967029]},"properties":{"id":"22-ca57dd8b44","name":"蛇塚","reading":"ヘビツカ","pref":"静岡県","prefCode":"22","municipality":"静岡市清水区","hazardTypes":["slope_failure","debris_flow"],"evidenceLevel":0,"status":"current","disputed":false,"precision":"oaza","areaKey":"221030980","elements":["ja"],"summary":"要素辞書に一致（ja）。出典による裏づけは未確認。","zones":[],"dataset":"candidates"}},{"type":"Feature","geometry":{"type":"Point","coordinates":[138.485148,35.030999]},"properties":{"id":"22-58fd7ca47f","name":"矢倉町","reading":"ヤグラチョウ","pref":"静岡県","prefCode":"22","municipality":"静岡市清水区","hazardTypes":["slope_failure","rockfall"],"evidenceLevel":0,"status":"current","disputed":false,"precision":"oaza","areaKey":"221030040","elements":["kura"],"summary":"要素辞書に一致（kura）。出典による裏づけは未確認。","zones":[],"dataset":"candidates"}},{"type":"Feature","geometry":{"type":"Point","coordinates":[138.543358,35.077472]},"properties":{"id":"22-73bf07e824","name":"由比西倉澤","reading":"ユイニシクラサワ","pref":"静岡県","prefCode":"22","municipality":"静岡市清水区","hazardTypes":["slope_failure","rockfall"],"evidenceLevel":0,"status":"current","disputed":false,"precision":"oaza","areaKey":"221032140","elements":["kura"],"summary":"要素辞書に一致（kura）。出典による裏づけは未確認。","zones":[],"dataset":"candidates"}},{"type":"Feature","geometry":{"type":"Point","coordinates":[138.543224,35.087863]},"properties":{"id":"22-bd6d73df8d","name":"由比東倉澤","reading":"ユイヒガシクラサワ","pref":"静岡県","prefCode":"22","municipality":"静岡市清水区","hazardTypes":["slope_failure","rockfall"],"evidenceLevel":0,"status":"current","disputed":false,"precision":"oaza","areaKey":"221032150","elements":["kura"],"summary":"要素辞書に一致（kura）。出典による裏づけは未確認。","zones":[],"dataset":"candidates"}},{"type":"Feature","geometry":{"type":"Point","coordinates":[137.724451,34.753939]},"properties":{"id":"22-9bca436e72","name":"小豆餅一丁目","reading":"アズキモチ 1","pref":"静岡県","prefCode":"22","municipality":"浜松市中区","hazardTypes":["debris_flow","slope_failure"],"evidenceLevel":0,"status":"current","disputed":false,"precision":"oaza","areaKey":"22131062001","elements":["azu"],"summary":"要素辞書に一致（azu）。出典による裏づけは未確認。","zones":[],"dataset":"candidates"}},{"type":"Feature","geometry":{"type":"Point","coordinates":[137.731901,34.704249]},"properties":{"id":"22-989725f612","name":"鍛冶町","reading":"カジマチ","pref":"静岡県","prefCode":"22","municipality":"浜松市中区","hazardTypes":["slope_failure"],"evidenceLevel":0,"status":"current","disputed":false,"precision":"oaza","areaKey":"221310140","elements":["kaji_kamu"],"summary":"要素辞書に一致（kaji_kamu）。出典による裏づけは未確認。","zones":[],"dataset":"candidates"}},{"type":"Feature","geometry":{"type":"Point","coordinates":[137.721754,34.715886]},"properties":{"id":"22-e50c8fda36","name":"鹿谷町","reading":"シカタニチョウ","pref":"静岡県","prefCode":"22","municipality":"浜松市中区","hazardTypes":["landslide","soft_ground"],"evidenceLevel":0,"status":"current","disputed":false,"precision":"oaza","areaKey":"221310250","elements":["shishi"],"summary":"要素辞書に一致（shishi）。出典による裏づけは未確認。","zones":[],"dataset":"candidates"}},{"type":"Feature","geometry":{"type":"Point","coordinates":[137.724654,34.698616]},"properties":{"id":"22-b62cb9d17e","name":"菅原町","reading":"スガワラチョウ","pref":"静岡県","prefCode":"22","municipality":"浜松市中区","hazardTypes":["landslide","soft_ground"],"evidenceLevel":0,"status":"current","disputed":false,"precision":"oaza","areaKey":"221310550","elements":["wetland_plants"],"summary":"要素辞書に一致（wetland_plants）。出典による裏づけは未確認。","zones":[],"dataset":"candidates"}},{"type":"Feature","geometry":{"type":"Point","coordinates":[137.767477,34.714751]},"properties":{"id":"22-dff62961ca","name":"大蒲町","reading":"オオカバチョウ","pref":"静岡県","prefCode":"22","municipality":"浜松市東区","hazardTypes":["landslide","soft_ground"],"evidenceLevel":0,"status":"current","disputed":false,"precision":"oaza","areaKey":"221320480","elements":["wetland_plants"],"summary":"要素辞書に一致（wetland_plants）。出典による裏づけは未確認。","zones":[],"dataset":"candidates"}},{"type":"Feature","geometry":{"type":"Point","coordinates":[137.653659,34.719415]},"properties":{"id":"22-b13de8d760","name":"大久保町","reading":"オオクボチョウ","pref":"静岡県","prefCode":"22","municipality":"浜松市西区","hazardTypes":["slope_failure","inundation","landslide"],"evidenceLevel":0,"status":"current","disputed":false,"precision":"oaza","areaKey":"221330300","elements":["afu_oo","kubo"],"summary":"要素辞書に一致（afu_oo・kubo）。出典による裏づけは未確認。","zones":[],"dataset":"candidates"}},{"type":"Feature","geometry":{"type":"Point","coordinates":[137.692546,34.673412]},"properties":{"id":"22-673744cb0d","name":"倉松町","reading":"クラマツチョウ","pref":"静岡県","prefCode":"22","municipality":"浜松市南区","hazardTypes":["slope_failure","rockfall"],"evidenceLevel":0,"status":"current","disputed":false,"precision":"oaza","areaKey":"221340100","elements":["kura"],"summary":"要素辞書に一致（kura）。出典による裏づけは未確認。","zones":[],"dataset":"candidates"}},{"type":"Feature","geometry":{"type":"Point","coordinates":[137.771106,34.687555]},"properties":{"id":"22-2fa6ba67c1","name":"古川町","reading":"フルカワチョウ","pref":"静岡県","prefCode":"22","municipality":"浜松市南区","hazardTypes":["flood","inundation"],"evidenceLevel":0,"status":"current","disputed":false,"precision":"oaza","areaKey":"221340380","elements":["furukawa"],"summary":"要素辞書に一致（furukawa）。出典による裏づけは未確認。","zones":[],"dataset":"candidates"}},{"type":"Feature","geometry":{"type":"Point","coordinates":[137.600089,34.791481]},"properties":{"id":"22-580b0e666a","name":"三ヶ日町佐久米","reading":"ミッカビチョウサクメ","pref":"静岡県","prefCode":"22","municipality":"浜松市北区","hazardTypes":["flood"],"evidenceLevel":0,"status":"current","disputed":false,"precision":"oaza","areaKey":"221350470","elements":["sake"],"summary":"要素辞書に一致（sake）。出典による裏づけは未確認。","zones":[],"dataset":"candidates"}},{"type":"Feature","geometry":{"type":"Point","coordinates":[137.755307,34.924873]},"properties":{"id":"22-5e62a9596a","name":"芦窪","reading":"アシクボ","pref":"静岡県","prefCode":"22","municipality":"浜松市天竜区","hazardTypes":["flood","inundation","landslide"],"evidenceLevel":0,"status":"current","disputed":false,"precision":"oaza","areaKey":"221370280","elements":["ashi","kubo"],"summary":"要素辞書に一致（ashi・kubo）。出典による裏づけは未確認。","zones":[],"dataset":"candidates"}},{"type":"Feature","geometry":{"type":"Point","coordinates":[137.839207,34.920149]},"properties":{"id":"22-77d6492e1c","name":"佐久","reading":"サク","pref":"静岡県","prefCode":"22","municipality":"浜松市天竜区","hazardTypes":["flood"],"evidenceLevel":0,"status":"current","disputed":false,"precision":"oaza","areaKey":"221370180","elements":["sake"],"summary":"要素辞書に一致（sake）。出典による裏づけは未確認。","zones":[],"dataset":"candidates"}},{"type":"Feature","geometry":{"type":"Point","coordinates":[137.868084,35.121441]},"properties":{"id":"22-d03cfcf3a4","name":"佐久間町相月","reading":"サクマチョウアイヅキ","pref":"静岡県","prefCode":"22","municipality":"浜松市天竜区","hazardTypes":["flood"],"evidenceLevel":0,"status":"current","disputed":false,"precision":"oaza","areaKey":null,"elements":["sake"],"summary":"要素辞書に一致（sake）。出典による裏づけは未確認。","zones":[],"dataset":"candidates"}},{"type":"Feature","geometry":{"type":"Point","coordinates":[137.750251,35.024688]},"properties":{"id":"22-76c4ba6675","name":"佐久間町浦川","reading":"サクマチョウウラカワ","pref":"静岡県","prefCode":"22","municipality":"浜松市天竜区","hazardTypes":["flood"],"evidenceLevel":0,"status":"current","disputed":false,"precision":"oaza","areaKey":null,"elements":["sake"],"summary":"要素辞書に一致（sake）。出典による裏づけは未確認。","zones":[],"dataset":"candidates"}},{"type":"Feature","geometry":{"type":"Point","coordinates":[137.865324,35.086176]},"properties":{"id":"22-ac4c3015a8","name":"佐久間町大井","reading":"サクマチョウオオイ","pref":"静岡県","prefCode":"22","municipality":"浜松市天竜区","hazardTypes":["flood"],"evidenceLevel":0,"status":"current","disputed":false,"precision":"oaza","areaKey":null,"elements":["sake"],"summary":"要素辞書に一致（sake）。出典による裏づけは未確認。","zones":[],"dataset":"candidates"}},{"type":"Feature","geometry":{"type":"Point","coordinates":[137.843479,35.143026]},"properties":{"id":"22-0a0706e368","name":"佐久間町奥領家","reading":"サクマチョウオクリョウケ","pref":"静岡県","prefCode":"22","municipality":"浜松市天竜区","hazardTypes":["flood"],"evidenceLevel":0,"status":"current","disputed":false,"precision":"oaza","areaKey":null,"elements":["sake"],"summary":"要素辞書に一致（sake）。出典による裏づけは未確認。","zones":[],"dataset":"candidates"}},{"type":"Feature","geometry":{"type":"Point","coordinates":[137.868805,35.036394]},"properties":{"id":"22-779b64264d","name":"佐久間町上平山","reading":"サクマチョウカミヒラヤマ","pref":"静岡県","prefCode":"22","municipality":"浜松市天竜区","hazardTypes":["flood"],"evidenceLevel":0,"status":"current","disputed":false,"precision":"oaza","areaKey":"221370470","elements":["sake"],"summary":"要素辞書に一致（sake）。出典による裏づけは未確認。","zones":[],"dataset":"candidates"}},{"type":"Feature","geometry":{"type":"Point","coordinates":[137.78342,35.074907]},"properties":{"id":"22-fc7b6dda3e","name":"佐久間町川合","reading":"サクマチョウカワイ","pref":"静岡県","prefCode":"22","municipality":"浜松市天竜区","hazardTypes":["flood"],"evidenceLevel":0,"status":"current","disputed":false,"precision":"oaza","areaKey":null,"elements":["sake"],"summary":"要素辞書に一致（sake）。出典による裏づけは未確認。","zones":[],"dataset":"candidates"}},{"type":"Feature","geometry":{"type":"Point","coordinates":[137.818675,35.116452]},"properties":{"id":"22-3ce501fbfd","name":"佐久間町佐久間","reading":"サクマチョウサクマ","pref":"静岡県","prefCode":"22","municipality":"浜松市天竜区","hazardTypes":["flood"],"evidenceLevel":0,"status":"current","disputed":false,"precision":"oaza","areaKey":null,"elements":["sake"],"summary":"要素辞書に一致（sake）。出典による裏づけは未確認。","zones":[],"dataset":"candidates"}},{"type":"Feature","geometry":{"type":"Point","coordinates":[137.830621,35.06575]},"properties":{"id":"22-f4121bd11d","name":"佐久間町戸口","reading":"サクマチョウトグチ","pref":"静岡県","prefCode":"22","municipality":"浜松市天竜区","hazardTypes":["flood"],"evidenceLevel":0,"status":"current","disputed":false,"precision":"oaza","areaKey":"221370460","elements":["sake"],"summary":"要素辞書に一致（sake）。出典による裏づけは未確認。","zones":[],"dataset":"candidates"}},{"type":"Feature","geometry":{"type":"Point","coordinates":[137.796162,35.084158]},"properties":{"id":"22-fbf0ead3ae","name":"佐久間町中部","reading":"サクマチョウナカベ","pref":"静岡県","prefCode":"22","municipality":"浜松市天竜区","hazardTypes":["flood"],"evidenceLevel":0,"status":"current","disputed":false,"precision":"oaza","areaKey":"221370420","elements":["sake"],"summary":"要素辞書に一致（sake）。出典による裏づけは未確認。","zones":[],"dataset":"candidates"}},{"type":"Feature","geometry":{"type":"Point","coordinates":[137.808029,35.069566]},"properties":{"id":"22-9212ce3590","name":"佐久間町半場","reading":"サクマチョウハンバ","pref":"静岡県","prefCode":"22","municipality":"浜松市天竜区","hazardTypes":["erosion","slope_failure","flood"],"evidenceLevel":0,"status":"current","disputed":false,"precision":"oaza","areaKey":"221370410","elements":["haba","sake"],"summary":"要素辞書に一致（haba・sake）。出典による裏づけは未確認。","zones":[],"dataset":"candidates"}},{"type":"Feature","geometry":{"type":"Point","coordinates":[137.845487,34.977188]},"properties":{"id":"22-205ffe709f","name":"龍山町戸倉","reading":"タツヤマチョウトクラ","pref":"静岡県","prefCode":"22","municipality":"浜松市天竜区","hazardTypes":["slope_failure","rockfall"],"evidenceLevel":0,"status":"current","disputed":false,"precision":"oaza","areaKey":null,"elements":["kura"],"summary":"要素辞書に一致（kura）。出典による裏づけは未確認。","zones":[],"dataset":"candidates"}},{"type":"Feature","geometry":{"type":"Point","coordinates":[137.933888,34.987908]},"properties":{"id":"22-d72056aa4a","name":"春野町長蔵寺","reading":"ハルノチョウチョウゾウジ","pref":"静岡県","prefCode":"22","municipality":"浜松市天竜区","hazardTypes":["slope_failure","rockfall"],"evidenceLevel":0,"status":"current","disputed":false,"precision":"oaza","areaKey":"221370550","elements":["kura"],"summary":"要素辞書に一致（kura）。出典による裏づけは未確認。","zones":[],"dataset":"candidates"}},{"type":"Feature","geometry":{"type":"Point","coordinates":[137.835236,34.866112]},"properties":{"id":"22-8a2b66187a","name":"二俣町阿蔵","reading":"フタマタチョウアクラ","pref":"静岡県","prefCode":"22","municipality":"浜松市天竜区","hazardTypes":["slope_failure","rockfall"],"evidenceLevel":0,"status":"current","disputed":false,"precision":"oaza","areaKey":"221370030","elements":["kura"],"summary":"要素辞書に一致（kura）。出典による裏づけは未確認。","zones":[],"dataset":"candidates"}},{"type":"Feature","geometry":{"type":"Point","coordinates":[137.806323,34.852625]},"properties":{"id":"22-2d55b6abdd","name":"二俣町鹿島","reading":"フタマタチョウカジマ","pref":"静岡県","prefCode":"22","municipality":"浜松市天竜区","hazardTypes":["landslide","soft_ground"],"evidenceLevel":0,"status":"current","disputed":false,"precision":"oaza","areaKey":null,"elements":["shishi"],"summary":"要素辞書に一致（shishi）。出典による裏づけは未確認。","zones":[],"dataset":"candidates"}},{"type":"Feature","geometry":{"type":"Point","coordinates":[137.808445,34.842652]},"properties":{"id":"22-2c9074ff98","name":"二俣町南鹿島","reading":"フタマタチョウミナミカジマ","pref":"静岡県","prefCode":"22","municipality":"浜松市天竜区","hazardTypes":["landslide","soft_ground"],"evidenceLevel":0,"status":"current","disputed":false,"precision":"oaza","areaKey":"221370050","elements":["shishi"],"summary":"要素辞書に一致（shishi）。出典による裏づけは未確認。","zones":[],"dataset":"candidates"}},{"type":"Feature","geometry":{"type":"Point","coordinates":[138.851013,35.160663]},"properties":{"id":"22-1f2d24b8ed","name":"足高","reading":"アシタカ","pref":"静岡県","prefCode":"22","municipality":"沼津市","hazardTypes":["flood","inundation"],"evidenceLevel":0,"status":"current","disputed":false,"precision":"oaza","areaKey":"222030390","elements":["ashi"],"summary":"要素辞書に一致（ashi）。出典による裏づけは未確認。","zones":[],"dataset":"candidates"}},{"type":"Feature","geometry":{"type":"Point","coordinates":[138.886217,35.053622]},"properties":{"id":"22-4b3c89d2d6","name":"獅子浜","reading":"シシハマ","pref":"静岡県","prefCode":"22","municipality":"沼津市","hazardTypes":["landslide","soft_ground"],"evidenceLevel":0,"status":"current","disputed":false,"precision":"oaza","areaKey":"222030520","elements":["shishi"],"summary":"要素辞書に一致（shishi）。出典による裏づけは未確認。","zones":[],"dataset":"candidates"}},{"type":"Feature","geometry":{"type":"Point","coordinates":[138.8573,35.089892]},"properties":{"id":"22-f9beaccf22","name":"下河原町","reading":"シモガワラチョウ","pref":"静岡県","prefCode":"22","municipality":"沼津市","hazardTypes":["flood"],"evidenceLevel":0,"status":"current","disputed":false,"precision":"oaza","areaKey":"222030120","elements":["kawara"],"summary":"要素辞書に一致（kawara）。出典による裏づけは未確認。","zones":[],"dataset":"candidates"}},{"type":"Feature","geometry":{"type":"Point","coordinates":[138.859463,35.086847]},"properties":{"id":"22-e3c7c880a0","name":"蛇松町","reading":"ジャマツチョウ","pref":"静岡県","prefCode":"22","municipality":"沼津市","hazardTypes":["slope_failure","debris_flow"],"evidenceLevel":0,"status":"current","disputed":false,"precision":"oaza","areaKey":"222030580","elements":["ja"],"summary":"要素辞書に一致（ja）。出典による裏づけは未確認。","zones":[],"dataset":"candidates"}},{"type":"Feature","geometry":{"type":"Point","coordinates":[138.818691,35.001699]},"properties":{"id":"22-a11e54175e","name":"西浦足保","reading":"ニシウラアシボ","pref":"静岡県","prefCode":"22","municipality":"沼津市","hazardTypes":["flood","inundation"],"evidenceLevel":0,"status":"current","disputed":false,"precision":"oaza","areaKey":"222030860","elements":["ashi"],"summary":"要素辞書に一致（ashi）。出典による裏づけは未確認。","zones":[],"dataset":"candidates"}},{"type":"Feature","geometry":{"type":"Point","coordinates":[139.05821,35.098987]},"properties":{"id":"22-05b3296361","name":"梅園町","reading":"バイエンチョウ","pref":"静岡県","prefCode":"22","municipality":"熱海市","hazardTypes":["landslide","slope_failure"],"evidenceLevel":0,"status":"current","disputed":false,"precision":"oaza","areaKey":"222050200","elements":["ume"],"summary":"要素辞書に一致（ume）。出典による裏づけは未確認。","zones":[],"dataset":"candidates"}},{"type":"Feature","geometry":{"type":"Point","coordinates":[139.063463,35.083105]},"properties":{"id":"22-6d0ec90d04","name":"梅花町","reading":"バイカチョウ","pref":"静岡県","prefCode":"22","municipality":"熱海市","hazardTypes":["landslide","slope_failure"],"evidenceLevel":0,"status":"current","disputed":false,"precision":"oaza","areaKey":"222050160","elements":["ume"],"summary":"要素辞書に一致（ume）。出典による裏づけは未確認。","zones":[],"dataset":"candidates"}},{"type":"Feature","geometry":{"type":"Point","coordinates":[139.078489,35.100265]},"properties":{"id":"22-f6c6fb49b3","name":"東海岸町","reading":"ヒガシカイガンチョウ","pref":"静岡県","prefCode":"22","municipality":"熱海市","hazardTypes":["slope_failure"],"evidenceLevel":0,"status":"current","disputed":false,"precision":"oaza","areaKey":"222050040","elements":["kake"],"summary":"要素辞書に一致（kake）。出典による裏づけは未確認。","zones":[],"dataset":"candidates"}},{"type":"Feature","geometry":{"type":"Point","coordinates":[138.920886,35.10508]},"properties":{"id":"22-17939eff03","name":"青木","reading":"アオキ","pref":"静岡県","prefCode":"22","municipality":"三島市","hazardTypes":["slope_failure"],"evidenceLevel":0,"status":"current","disputed":false,"precision":"oaza","areaKey":"222067080","elements":["afu_oo"],"summary":"要素辞書に一致（afu_oo）。出典による裏づけは未確認。","zones":[],"dataset":"candidates"}},{"type":"Feature","geometry":{"type":"Point","coordinates":[138.925637,35.093838]},"properties":{"id":"22-e5e3db1d06","name":"梅名","reading":"ウメナ","pref":"静岡県","prefCode":"22","municipality":"三島市","hazardTypes":["landslide","slope_failure"],"evidenceLevel":0,"status":"current","disputed":false,"precision":"oaza","areaKey":"222067010","elements":["ume"],"summary":"要素辞書に一致（ume）。出典による裏づけは未確認。","zones":[],"dataset":"candidates"}},{"type":"Feature","geometry":{"type":"Point","coordinates":[138.945144,35.141769]},"properties":{"id":"22-22e33e44f0","name":"川原ケ谷","reading":"カワハラガヤ","pref":"静岡県","prefCode":"22","municipality":"三島市","hazardTypes":["flood"],"evidenceLevel":0,"status":"current","disputed":false,"precision":"oaza","areaKey":"22206601201","elements":["kawara"],"summary":"要素辞書に一致（kawara）。出典による裏づけは未確認。","zones":[],"dataset":"candidates"}},{"type":"Feature","geometry":{"type":"Point","coordinates":[138.946179,35.1182]},"properties":{"id":"22-555e54d97e","name":"竹倉","reading":"タケクラ","pref":"静岡県","prefCode":"22","municipality":"三島市","hazardTypes":["slope_failure","rockfall"],"evidenceLevel":0,"status":"current","disputed":false,"precision":"oaza","areaKey":"222065090","elements":["kura"],"summary":"要素辞書に一致（kura）。出典による裏づけは未確認。","zones":[],"dataset":"candidates"}},{"type":"Feature","geometry":{"type":"Point","coordinates":[138.923879,35.151136]},"properties":{"id":"22-9f525ba4aa","name":"徳倉","reading":"トクラ","pref":"静岡県","prefCode":"22","municipality":"三島市","hazardTypes":["slope_failure","rockfall"],"evidenceLevel":0,"status":"current","disputed":false,"precision":"oaza","areaKey":"22206408000","elements":["kura"],"summary":"要素辞書に一致（kura）。出典による裏づけは未確認。","zones":[],"dataset":"candidates"}},{"type":"Feature","geometry":{"type":"Point","coordinates":[138.588399,35.25145]},"properties":{"id":"22-6694ba776e","name":"青木","reading":"アオキ","pref":"静岡県","prefCode":"22","municipality":"富士宮市","hazardTypes":["slope_failure"],"evidenceLevel":0,"status":"current","disputed":false,"precision":"oaza","areaKey":"222074100","elements":["afu_oo"],"summary":"要素辞書に一致（afu_oo）。出典による裏づけは未確認。","zones":[],"dataset":"candidates"}},{"type":"Feature","geometry":{"type":"Point","coordinates":[138.581535,35.247583]},"properties":{"id":"22-2fca29a797","name":"青木平","reading":"アオキダイラ","pref":"静岡県","prefCode":"22","municipality":"富士宮市","hazardTypes":["slope_failure"],"evidenceLevel":0,"status":"current","disputed":false,"precision":"oaza","areaKey":"222074110","elements":["afu_oo"],"summary":"要素辞書に一致（afu_oo）。出典による裏づけは未確認。","zones":[],"dataset":"candidates"}},{"type":"Feature","geometry":{"type":"Point","coordinates":[138.704348,35.300536]},"properties":{"id":"22-4a627c0cc5","name":"粟倉","reading":"アワクラ","pref":"静岡県","prefCode":"22","municipality":"富士宮市","hazardTypes":["slope_failure","rockfall"],"evidenceLevel":0,"status":"current","disputed":false,"precision":"oaza","areaKey":"222074700","elements":["kura"],"summary":"要素辞書に一致（kura）。出典による裏づけは未確認。","zones":[],"dataset":"candidates"}},{"type":"Feature","geometry":{"type":"Point","coordinates":[138.636167,35.252071]},"properties":{"id":"22-8a8c5fa60b","name":"粟倉南町","reading":"アワクラミナミチョウ","pref":"静岡県","prefCode":"22","municipality":"富士宮市","hazardTypes":["slope_failure","rockfall"],"evidenceLevel":0,"status":"current","disputed":false,"precision":"oaza","areaKey":"222074710","elements":["kura"],"summary":"要素辞書に一致（kura）。出典による裏づけは未確認。","zones":[],"dataset":"candidates"}},{"type":"Feature","geometry":{"type":"Point","coordinates":[138.555912,35.367571]},"properties":{"id":"22-7ed8d8ed00","name":"猪之頭","reading":"イノカシラ","pref":"静岡県","prefCode":"22","municipality":"富士宮市","hazardTypes":["landslide","soft_ground"],"evidenceLevel":0,"status":"current","disputed":false,"precision":"oaza","areaKey":"222077200","elements":["shishi"],"summary":"要素辞書に一致（shishi）。出典による裏づけは未確認。","zones":[],"dataset":"candidates"}},{"type":"Feature","geometry":{"type":"Point","coordinates":[138.561932,35.216411]},"properties":{"id":"22-4a09fd372c","name":"大久保","reading":"オオクボ","pref":"静岡県","prefCode":"22","municipality":"富士宮市","hazardTypes":["slope_failure","inundation","landslide"],"evidenceLevel":0,"status":"current","disputed":false,"precision":"oaza","areaKey":null,"elements":["afu_oo","kubo"],"summary":"要素辞書に一致（afu_oo・kubo）。出典による裏づけは未確認。","zones":[],"dataset":"candidates"}},{"type":"Feature","geometry":{"type":"Point","coordinates":[138.565556,35.2479]},"properties":{"id":"22-caf42ef115","name":"大鹿窪","reading":"オオシカクボ","pref":"静岡県","prefCode":"22","municipality":"富士宮市","hazardTypes":["landslide","soft_ground","inundation"],"evidenceLevel":0,"status":"current","disputed":false,"precision":"oaza","areaKey":null,"elements":["shishi","kubo"],"summary":"要素辞書に一致（shishi・kubo）。出典による裏づけは未確認。","zones":[],"dataset":"candidates"}},{"type":"Feature","geometry":{"type":"Point","coordinates":[139.085491,34.934243]},"properties":{"id":"22-22d80bab8e","name":"荻","reading":"オギ","pref":"静岡県","prefCode":"22","municipality":"伊東市","hazardTypes":["slope_failure"],"evidenceLevel":0,"status":"current","disputed":false,"precision":"oaza","areaKey":"222080100","elements":["suki_hagu"],"summary":"要素辞書に一致（suki_hagu）。出典による裏づけは未確認。","zones":[],"dataset":"candidates"}},{"type":"Feature","geometry":{"type":"Point","coordinates":[139.093149,34.972309]},"properties":{"id":"22-b4ac4b2d8a","name":"猪戸一丁目","reading":"シシド 1","pref":"静岡県","prefCode":"22","municipality":"伊東市","hazardTypes":["landslide","soft_ground"],"evidenceLevel":0,"status":"current","disputed":false,"precision":"oaza","areaKey":"22208305001","elements":["shishi"],"summary":"要素辞書に一致（shishi）。出典による裏づけは未確認。","zones":[],"dataset":"candidates"}},{"type":"Feature","geometry":{"type":"Point","coordinates":[139.082201,34.917593]},"properties":{"id":"22-728d7bb5d4","name":"十足","reading":"トオタリ","pref":"静岡県","prefCode":"22","municipality":"伊東市","hazardTypes":["flood","inundation"],"evidenceLevel":0,"status":"current","disputed":false,"precision":"oaza","areaKey":"222080110","elements":["ashi"],"summary":"要素辞書に一致（ashi）。出典による裏づけは未確認。","zones":[],"dataset":"candidates"}},{"type":"Feature","geometry":{"type":"Point","coordinates":[139.098526,34.96514]},"properties":{"id":"22-338356c4b1","name":"馬場町一丁目","reading":"ババチョウ 1","pref":"静岡県","prefCode":"22","municipality":"伊東市","hazardTypes":["slope_failure"],"evidenceLevel":0,"status":"current","disputed":false,"precision":"oaza","areaKey":"22208618001","elements":["baba"],"summary":"要素辞書に一致（baba）。出典による裏づけは未確認。","zones":[],"dataset":"candidates"}},{"type":"Feature","geometry":{"type":"Point","coordinates":[138.137565,34.804057]},"properties":{"id":"22-5fa6390d4f","name":"金谷猪土居","reading":"カナヤシシドイ","pref":"静岡県","prefCode":"22","municipality":"島田市","hazardTypes":["landslide","soft_ground"],"evidenceLevel":0,"status":"current","disputed":false,"precision":"oaza","areaKey":"222099330","elements":["shishi"],"summary":"要素辞書に一致（shishi）。出典による裏づけは未確認。","zones":[],"dataset":"candidates"}},{"type":"Feature","geometry":{"type":"Point","coordinates":[138.125186,34.829222]},"properties":{"id":"22-36b275a50d","name":"金谷根岸町","reading":"カナヤネギシチョウ","pref":"静岡県","prefCode":"22","municipality":"島田市","hazardTypes":["slope_failure"],"evidenceLevel":0,"status":"current","disputed":false,"precision":"oaza","areaKey":"222099120","elements":["kake"],"summary":"要素辞書に一致（kake）。出典による裏づけは未確認。","zones":[],"dataset":"candidates"}},{"type":"Feature","geometry":{"type":"Point","coordinates":[138.074512,34.95996]},"properties":{"id":"22-a400543fe1","name":"川根町抜里","reading":"カワネチョウヌクリ","pref":"静岡県","prefCode":"22","municipality":"島田市","hazardTypes":["slope_failure"],"evidenceLevel":0,"status":"current","disputed":false,"precision":"oaza","areaKey":"222099000","elements":["nuke"],"summary":"要素辞書に一致（nuke）。出典による裏づけは未確認。","zones":[],"dataset":"candidates"}},{"type":"Feature","geometry":{"type":"Point","coordinates":[138.153742,34.831674]},"properties":{"id":"22-c5ce3349d0","name":"河原一丁目","reading":"カワラ 1","pref":"静岡県","prefCode":"22","municipality":"島田市","hazardTypes":["flood"],"evidenceLevel":0,"status":"current","disputed":false,"precision":"oaza","areaKey":"22209251001","elements":["kawara"],"summary":"要素辞書に一致（kawara）。出典による裏づけは未確認。","zones":[],"dataset":"candidates"}},{"type":"Feature","geometry":{"type":"Point","coordinates":[138.209535,34.84874]},"properties":{"id":"22-247237d404","name":"岸","reading":"キシ","pref":"静岡県","prefCode":"22","municipality":"島田市","hazardTypes":["slope_failure"],"evidenceLevel":0,"status":"current","disputed":false,"precision":"oaza","areaKey":"222094300","elements":["kake"],"summary":"要素辞書に一致（kake）。出典による裏づけは未確認。","zones":[],"dataset":"candidates"}},{"type":"Feature","geometry":{"type":"Point","coordinates":[138.2106,34.843521]},"properties":{"id":"22-aaf1f635f4","name":"岸町","reading":"キシチョウ","pref":"静岡県","prefCode":"22","municipality":"島田市","hazardTypes":["slope_failure"],"evidenceLevel":0,"status":"current","disputed":false,"precision":"oaza","areaKey":"222094310","elements":["kake"],"summary":"要素辞書に一致（kake）。出典による裏づけは未確認。","zones":[],"dataset":"candidates"}},{"type":"Feature","geometry":{"type":"Point","coordinates":[138.101949,34.820459]},"properties":{"id":"22-840d62bbe4","name":"佐夜鹿","reading":"サヨシカ","pref":"静岡県","prefCode":"22","municipality":"島田市","hazardTypes":["landslide","soft_ground"],"evidenceLevel":0,"status":"current","disputed":false,"precision":"oaza","areaKey":null,"elements":["shishi"],"summary":"要素辞書に一致（shishi）。出典による裏づけは未確認。","zones":[],"dataset":"candidates"}},{"type":"Feature","geometry":{"type":"Point","coordinates":[138.68186,35.151965]},"properties":{"id":"22-e26ed084fc","name":"中河原新田","reading":null,"pref":"静岡県","prefCode":"22","municipality":"富士市","hazardTypes":["flood"],"evidenceLevel":0,"status":"current","disputed":false,"precision":"oaza","areaKey":null,"elements":["kawara"],"summary":"要素辞書に一致（kawara）。出典による裏づけは未確認。","zones":[],"dataset":"candidates"}},{"type":"Feature","geometry":{"type":"Point","coordinates":[138.690527,35.147365]},"properties":{"id":"22-0e83a5b48b","name":"中河原","reading":"ナカカワハラ","pref":"静岡県","prefCode":"22","municipality":"富士市","hazardTypes":["flood"],"evidenceLevel":0,"status":"current","disputed":false,"precision":"oaza","areaKey":"222100190","elements":["kawara"],"summary":"要素辞書に一致（kawara）。出典による裏づけは未確認。","zones":[],"dataset":"candidates"}},{"type":"Feature","geometry":{"type":"Point","coordinates":[138.663467,35.143349]},"properties":{"id":"22-4507f40da3","name":"西河原","reading":null,"pref":"静岡県","prefCode":"22","municipality":"富士市","hazardTypes":["flood"],"evidenceLevel":0,"status":"current","disputed":false,"precision":"koaza","areaKey":"222100930","elements":["kawara"],"summary":"要素辞書に一致（kawara）。出典による裏づけは未確認。","zones":[],"dataset":"candidates"}},{"type":"Feature","geometry":{"type":"Point","coordinates":[137.85189,34.765787]},"properties":{"id":"22-a77e92e0bb","name":"大久保","reading":"オオクボ","pref":"静岡県","prefCode":"22","municipality":"磐田市","hazardTypes":["slope_failure","inundation","landslide"],"evidenceLevel":0,"status":"current","disputed":false,"precision":"oaza","areaKey":null,"elements":["afu_oo","kubo"],"summary":"要素辞書に一致（afu_oo・kubo）。出典による裏づけは未確認。","zones":[],"dataset":"candidates"}},{"type":"Feature","geometry":{"type":"Point","coordinates":[137.8711,34.773132]},"properties":{"id":"22-a629e8b832","name":"笠梅","reading":"カサウメ","pref":"静岡県","prefCode":"22","municipality":"磐田市","hazardTypes":["landslide","slope_failure"],"evidenceLevel":0,"status":"current","disputed":false,"precision":"oaza","areaKey":"222110850","elements":["ume"],"summary":"要素辞書に一致（ume）。出典による裏づけは未確認。","zones":[],"dataset":"candidates"}},{"type":"Feature","geometry":{"type":"Point","coordinates":[137.828122,34.665337]},"properties":{"id":"22-7645111446","name":"飛平松","reading":"トビヒラマツ","pref":"静岡県","prefCode":"22","municipality":"磐田市","hazardTypes":["slope_failure","debris_flow"],"evidenceLevel":0,"status":"current","disputed":false,"precision":"oaza","areaKey":"22211164000","elements":["tobi"],"summary":"要素辞書に一致（tobi）。出典による裏づけは未確認。","zones":[],"dataset":"candidates"}},{"type":"Feature","geometry":{"type":"Point","coordinates":[137.999453,34.758382]},"properties":{"id":"22-ae0e508c2c","name":"大字菖蒲ヶ池","reading":null,"pref":"静岡県","prefCode":"22","municipality":"掛川市","hazardTypes":["landslide","soft_ground"],"evidenceLevel":0,"status":"current","disputed":false,"precision":"oaza","areaKey":null,"elements":["wetland_plants"],"summary":"要素辞書に一致（wetland_plants）。出典による裏づけは未確認。","zones":[],"dataset":"candidates"}},{"type":"Feature","geometry":{"type":"Point","coordinates":[137.96618,34.75529]},"properties":{"id":"22-dc525b4e16","name":"梅橋","reading":"ウメバシ","pref":"静岡県","prefCode":"22","municipality":"掛川市","hazardTypes":["landslide","slope_failure"],"evidenceLevel":0,"status":"current","disputed":false,"precision":"oaza","areaKey":"222130890","elements":["ume"],"summary":"要素辞書に一致（ume）。出典による裏づけは未確認。","zones":[],"dataset":"candidates"}},{"type":"Feature","geometry":{"type":"Point","coordinates":[138.052138,34.750195]},"properties":{"id":"22-defc7718a3","name":"上内田","reading":"カミウチダ","pref":"静岡県","prefCode":"22","municipality":"掛川市","hazardTypes":["debris_flow","flood"],"evidenceLevel":0,"status":"current","disputed":false,"precision":"oaza","areaKey":"22213020001","elements":["uchide"],"summary":"要素辞書に一致（uchide）。出典による裏づけは未確認。","zones":[],"dataset":"candidates"}},{"type":"Feature","geometry":{"type":"Point","coordinates":[137.987805,34.81997]},"properties":{"id":"22-5e8aaffdf4","name":"上垂木","reading":"カミタルキ","pref":"静岡県","prefCode":"22","municipality":"掛川市","hazardTypes":["slope_failure"],"evidenceLevel":0,"status":"current","disputed":false,"precision":"oaza","areaKey":"222130710","elements":["kake"],"summary":"要素辞書に一致（kake）。出典による裏づけは未確認。","zones":[],"dataset":"candidates"}},{"type":"Feature","geometry":{"type":"Point","coordinates":[138.041862,34.831886]},"properties":{"id":"22-6a5d6e1b2b","name":"倉真","reading":"クラミ","pref":"静岡県","prefCode":"22","municipality":"掛川市","hazardTypes":["slope_failure","rockfall"],"evidenceLevel":0,"status":"current","disputed":false,"precision":"oaza","areaKey":"22213045001","elements":["kura"],"summary":"要素辞書に一致（kura）。出典による裏づけは未確認。","zones":[],"dataset":"candidates"}},{"type":"Feature","geometry":{"type":"Point","coordinates":[138.093797,34.814918]},"properties":{"id":"22-3f7927d04e","name":"佐夜鹿","reading":"サヨシカ","pref":"静岡県","prefCode":"22","municipality":"掛川市","hazardTypes":["landslide","soft_ground"],"evidenceLevel":0,"status":"current","disputed":false,"precision":"oaza","areaKey":"222130390","elements":["shishi"],"summary":"要素辞書に一致（shishi）。出典による裏づけは未確認。","zones":[],"dataset":"candidates"}},{"type":"Feature","geometry":{"type":"Point","coordinates":[137.99465,34.795742]},"properties":{"id":"22-794ea14bb1","name":"下垂木","reading":"シモタルキ","pref":"静岡県","prefCode":"22","municipality":"掛川市","hazardTypes":["inundation","slope_failure"],"evidenceLevel":0,"status":"current","disputed":false,"precision":"oaza","areaKey":"22213075001","elements":["mizuiri","kake"],"summary":"要素辞書に一致（mizuiri・kake）。出典による裏づけは未確認。","zones":[],"dataset":"candidates"}},{"type":"Feature","geometry":{"type":"Point","coordinates":[138.025006,34.79014]},"properties":{"id":"22-2eee3992f6","name":"水垂","reading":"ミズタリ","pref":"静岡県","prefCode":"22","municipality":"掛川市","hazardTypes":["slope_failure"],"evidenceLevel":0,"status":"current","disputed":false,"precision":"oaza","areaKey":"222130420","elements":["kake"],"summary":"要素辞書に一致（kake）。出典による裏づけは未確認。","zones":[],"dataset":"candidates"}},{"type":"Feature","geometry":{"type":"Point","coordinates":[138.248834,34.856244]},"properties":{"id":"22-1f304236f5","name":"青木","reading":"アオキ","pref":"静岡県","prefCode":"22","municipality":"藤枝市","hazardTypes":["slope_failure"],"evidenceLevel":0,"status":"current","disputed":false,"precision":"oaza","areaKey":"222141932","elements":["afu_oo"],"summary":"要素辞書に一致（afu_oo）。出典による裏づけは未確認。","zones":[],"dataset":"candidates"}},{"type":"Feature","geometry":{"type":"Point","coordinates":[138.230252,34.90159]},"properties":{"id":"22-b04ea45ad4","name":"花倉","reading":"ハナグラ","pref":"静岡県","prefCode":"22","municipality":"藤枝市","hazardTypes":["slope_failure","rockfall"],"evidenceLevel":0,"status":"current","disputed":false,"precision":"oaza","areaKey":"222140120","elements":["kura"],"summary":"要素辞書に一致（kura）。出典による裏づけは未確認。","zones":[],"dataset":"candidates"}},{"type":"Feature","geometry":{"type":"Point","coordinates":[138.966373,35.327498]},"properties":{"id":"22-e4d0b58dcf","name":"小倉野","reading":"オグラノ","pref":"静岡県","prefCode":"22","municipality":"御殿場市","hazardTypes":["slope_failure","rockfall"],"evidenceLevel":0,"status":"current","disputed":false,"precision":"oaza","areaKey":"222150030","elements":["kura"],"summary":"要素辞書に一致（kura）。出典による裏づけは未確認。","zones":[],"dataset":"candidates"}},{"type":"Feature","geometry":{"type":"Point","coordinates":[137.932017,34.734347]},"properties":{"id":"22-d0967f889a","name":"青木町","reading":"アオキチョウ","pref":"静岡県","prefCode":"22","municipality":"袋井市","hazardTypes":["slope_failure"],"evidenceLevel":0,"status":"current","disputed":false,"precision":"oaza","areaKey":"222160450","elements":["afu_oo"],"summary":"要素辞書に一致（afu_oo）。出典による裏づけは未確認。","zones":[],"dataset":"candidates"}},{"type":"Feature","geometry":{"type":"Point","coordinates":[137.932128,34.800748]},"properties":{"id":"22-0fba6b640b","name":"宇刈","reading":"ウガリ","pref":"静岡県","prefCode":"22","municipality":"袋井市","hazardTypes":["slope_failure"],"evidenceLevel":0,"status":"current","disputed":false,"precision":"oaza","areaKey":"222160370","elements":["kake"],"summary":"要素辞書に一致（kake）。出典による裏づけは未確認。","zones":[],"dataset":"candidates"}},{"type":"Feature","geometry":{"type":"Point","coordinates":[137.941816,34.690866]},"properties":{"id":"22-07a10ae164","name":"梅山","reading":"ウメヤマ","pref":"静岡県","prefCode":"22","municipality":"袋井市","hazardTypes":["landslide","slope_failure"],"evidenceLevel":0,"status":"current","disputed":false,"precision":"oaza","areaKey":"222160700","elements":["ume"],"summary":"要素辞書に一致（ume）。出典による裏づけは未確認。","zones":[],"dataset":"candidates"}},{"type":"Feature","geometry":{"type":"Point","coordinates":[138.966529,34.676303]},"properties":{"id":"22-803d2ebffe","name":"柿崎","reading":"カキサキ","pref":"静岡県","prefCode":"22","municipality":"下田市","hazardTypes":["slope_failure"],"evidenceLevel":0,"status":"current","disputed":false,"precision":"oaza","areaKey":"222190620","elements":["kake"],"summary":"要素辞書に一致（kake）。出典による裏づけは未確認。","zones":[],"dataset":"candidates"}},{"type":"Feature","geometry":{"type":"Point","coordinates":[137.491276,34.735248]},"properties":{"id":"22-0bcbb95e9a","name":"新所岡崎梅田入会地","reading":null,"pref":"静岡県","prefCode":"22","municipality":"湖西市","hazardTypes":["landslide","slope_failure"],"evidenceLevel":0,"status":"current","disputed":false,"precision":"oaza","areaKey":null,"elements":["ume"],"summary":"要素辞書に一致（ume）。出典による裏づけは未確認。","zones":[],"dataset":"candidates"}},{"type":"Feature","geometry":{"type":"Point","coordinates":[137.486725,34.730972]},"properties":{"id":"22-0e6bc8bf8f","name":"梅田","reading":"ウメダ","pref":"静岡県","prefCode":"22","municipality":"湖西市","hazardTypes":["landslide","slope_failure"],"evidenceLevel":0,"status":"current","disputed":false,"precision":"oaza","areaKey":"222210210","elements":["ume"],"summary":"要素辞書に一致（ume）。出典による裏づけは未確認。","zones":[],"dataset":"candidates"}},{"type":"Feature","geometry":{"type":"Point","coordinates":[138.987019,34.945231]},"properties":{"id":"22-6c199a9f8a","name":"梅木","reading":"ウメギ","pref":"静岡県","prefCode":"22","municipality":"伊豆市","hazardTypes":["landslide","slope_failure"],"evidenceLevel":0,"status":"current","disputed":false,"precision":"oaza","areaKey":"222220920","elements":["ume"],"summary":"要素辞書に一致（ume）。出典による裏づけは未確認。","zones":[],"dataset":"candidates"}},{"type":"Feature","geometry":{"type":"Point","coordinates":[138.874353,34.941055]},"properties":{"id":"22-38fbb0d2b7","name":"大平柿木","reading":"オオダイラカキギ","pref":"静岡県","prefCode":"22","municipality":"伊豆市","hazardTypes":["slope_failure"],"evidenceLevel":0,"status":"current","disputed":false,"precision":"oaza","areaKey":"222220750","elements":["kake"],"summary":"要素辞書に一致（kake）。出典による裏づけは未確認。","zones":[],"dataset":"candidates"}},{"type":"Feature","geometry":{"type":"Point","coordinates":[138.989095,34.903365]},"properties":{"id":"22-4a7c6b9b22","name":"地蔵堂","reading":"ジゾウドウ","pref":"静岡県","prefCode":"22","municipality":"伊豆市","hazardTypes":["slope_failure","rockfall"],"evidenceLevel":0,"status":"current","disputed":false,"precision":"oaza","areaKey":"222220790","elements":["kura"],"summary":"要素辞書に一致（kura）。出典による裏づけは未確認。","zones":[],"dataset":"candidates"}},{"type":"Feature","geometry":{"type":"Point","coordinates":[139.005244,34.916112]},"properties":{"id":"22-a0eaeb1384","name":"菅引","reading":"スゲヒキ","pref":"静岡県","prefCode":"22","municipality":"伊豆市","hazardTypes":["landslide","soft_ground"],"evidenceLevel":0,"status":"current","disputed":false,"precision":"oaza","areaKey":"222220810","elements":["wetland_plants"],"summary":"要素辞書に一致（wetland_plants）。出典による裏づけは未確認。","zones":[],"dataset":"candidates"}},{"type":"Feature","geometry":{"type":"Point","coordinates":[138.996478,34.933243]},"properties":{"id":"22-d216d09cad","name":"戸倉野","reading":"トクラノ","pref":"静岡県","prefCode":"22","municipality":"伊豆市","hazardTypes":["slope_failure","rockfall"],"evidenceLevel":0,"status":"current","disputed":false,"precision":"oaza","areaKey":"222220830","elements":["kura"],"summary":"要素辞書に一致（kura）。出典による裏づけは未確認。","zones":[],"dataset":"candidates"}},{"type":"Feature","geometry":{"type":"Point","coordinates":[138.911874,34.934667]},"properties":{"id":"22-b8519486ee","name":"本柿木","reading":"ホンカキギ","pref":"静岡県","prefCode":"22","municipality":"伊豆市","hazardTypes":["slope_failure"],"evidenceLevel":0,"status":"current","disputed":false,"precision":"oaza","areaKey":"222220740","elements":["kake"],"summary":"要素辞書に一致（kake）。出典による裏づけは未確認。","zones":[],"dataset":"candidates"}},{"type":"Feature","geometry":{"type":"Point","coordinates":[138.154267,34.631479]},"properties":{"id":"22-5f0007b7e3","name":"佐倉","reading":"サクラ","pref":"静岡県","prefCode":"22","municipality":"御前崎市","hazardTypes":["slope_failure","rockfall"],"evidenceLevel":0,"status":"current","disputed":false,"precision":"oaza","areaKey":null,"elements":["kura"],"summary":"要素辞書に一致（kura）。出典による裏づけは未確認。","zones":[],"dataset":"candidates"}},{"type":"Feature","geometry":{"type":"Point","coordinates":[138.095058,34.692889]},"properties":{"id":"22-cd4e5441bb","name":"赤土","reading":"アカツチ","pref":"静岡県","prefCode":"22","municipality":"菊川市","hazardTypes":["landslide"],"evidenceLevel":0,"status":"current","disputed":false,"precision":"oaza","areaKey":null,"elements":["geology_names"],"summary":"要素辞書に一致（geology_names）。出典による裏づけは未確認。","zones":[],"dataset":"candidates"}},{"type":"Feature","geometry":{"type":"Point","coordinates":[138.131359,34.790611]},"properties":{"id":"22-78ed3a49b8","name":"倉沢","reading":"クラサワ","pref":"静岡県","prefCode":"22","municipality":"菊川市","hazardTypes":["slope_failure","rockfall"],"evidenceLevel":0,"status":"current","disputed":false,"precision":"oaza","areaKey":null,"elements":["kura"],"summary":"要素辞書に一致（kura）。出典による裏づけは未確認。","zones":[],"dataset":"candidates"}},{"type":"Feature","geometry":{"type":"Point","coordinates":[138.107853,34.703142]},"properties":{"id":"22-8ef8fdc277","name":"猿渡","reading":"サルワタリ","pref":"静岡県","prefCode":"22","municipality":"菊川市","hazardTypes":["slope_failure"],"evidenceLevel":0,"status":"current","disputed":false,"precision":"oaza","areaKey":"222247200","elements":["saru"],"summary":"要素辞書に一致（saru）。出典による裏づけは未確認。","zones":[],"dataset":"candidates"}},{"type":"Feature","geometry":{"type":"Point","coordinates":[138.071197,34.71607]},"properties":{"id":"22-e294c7acea","name":"下内田","reading":"シモウチダ","pref":"静岡県","prefCode":"22","municipality":"菊川市","hazardTypes":["debris_flow","flood"],"evidenceLevel":0,"status":"current","disputed":false,"precision":"oaza","areaKey":null,"elements":["uchide"],"summary":"要素辞書に一致（uchide）。出典による裏づけは未確認。","zones":[],"dataset":"candidates"}},{"type":"Feature","geometry":{"type":"Point","coordinates":[138.065375,34.734081]},"properties":{"id":"22-0e49da27ba","name":"中内田","reading":"ナカウチダ","pref":"静岡県","prefCode":"22","municipality":"菊川市","hazardTypes":["debris_flow","flood"],"evidenceLevel":0,"status":"current","disputed":false,"precision":"oaza","areaKey":null,"elements":["uchide"],"summary":"要素辞書に一致（uchide）。出典による裏づけは未確認。","zones":[],"dataset":"candidates"}},{"type":"Feature","geometry":{"type":"Point","coordinates":[138.121364,34.77369]},"properties":{"id":"22-2c9744c5c8","name":"吉沢","reading":"ヨシサワ","pref":"静岡県","prefCode":"22","municipality":"菊川市","hazardTypes":["landslide","soft_ground"],"evidenceLevel":0,"status":"current","disputed":false,"precision":"oaza","areaKey":"222247010","elements":["wetland_plants"],"summary":"要素辞書に一致（wetland_plants）。出典による裏づけは未確認。","zones":[],"dataset":"candidates"}},{"type":"Feature","geometry":{"type":"Point","coordinates":[139.038091,35.018239]},"properties":{"id":"22-7e1e57c68b","name":"長者原","reading":"チョウジャガハラ","pref":"静岡県","prefCode":"22","municipality":"伊豆の国市","hazardTypes":["slope_failure"],"evidenceLevel":0,"status":"current","disputed":false,"precision":"oaza","areaKey":"222250460","elements":["tsubu_chou"],"summary":"要素辞書に一致（tsubu_chou）。出典による裏づけは未確認。","zones":[],"dataset":"candidates"}},{"type":"Feature","geometry":{"type":"Point","coordinates":[138.158779,34.703215]},"properties":{"id":"22-690def46ab","name":"菅ケ谷","reading":"スゲガヤ","pref":"静岡県","prefCode":"22","municipality":"牧之原市","hazardTypes":["landslide","soft_ground"],"evidenceLevel":0,"status":"current","disputed":false,"precision":"oaza","areaKey":"222260100","elements":["wetland_plants"],"summary":"要素辞書に一致（wetland_plants）。出典による裏づけは未確認。","zones":[],"dataset":"candidates"}},{"type":"Feature","geometry":{"type":"Point","coordinates":[138.855736,34.688957]},"properties":{"id":"22-f0fb47be97","name":"毛倉野","reading":"ケグラノ","pref":"静岡県","prefCode":"22","municipality":"賀茂郡南伊豆町","hazardTypes":["slope_failure","rockfall"],"evidenceLevel":0,"status":"current","disputed":false,"precision":"oaza","areaKey":null,"elements":["kura"],"summary":"要素辞書に一致（kura）。出典による裏づけは未確認。","zones":[],"dataset":"candidates"}},{"type":"Feature","geometry":{"type":"Point","coordinates":[138.792751,34.703852]},"properties":{"id":"22-13f28e3f39","name":"蛇石","reading":"ジャイシ","pref":"静岡県","prefCode":"22","municipality":"賀茂郡南伊豆町","hazardTypes":["slope_failure","debris_flow"],"evidenceLevel":0,"status":"current","disputed":false,"precision":"oaza","areaKey":null,"elements":["ja"],"summary":"要素辞書に一致（ja）。出典による裏づけは未確認。","zones":[],"dataset":"candidates"}},{"type":"Feature","geometry":{"type":"Point","coordinates":[138.790101,34.747074]},"properties":{"id":"22-0377216f82","name":"伏倉","reading":"シクラ","pref":"静岡県","prefCode":"22","municipality":"賀茂郡松崎町","hazardTypes":["slope_failure","rockfall"],"evidenceLevel":0,"status":"current","disputed":false,"precision":"oaza","areaKey":null,"elements":["kura"],"summary":"要素辞書に一致（kura）。出典による裏づけは未確認。","zones":[],"dataset":"candidates"}},{"type":"Feature","geometry":{"type":"Point","coordinates":[138.896242,35.099923]},"properties":{"id":"22-34a819f5be","name":"柿田","reading":"カキダ","pref":"静岡県","prefCode":"22","municipality":"駿東郡清水町","hazardTypes":["slope_failure"],"evidenceLevel":0,"status":"current","disputed":false,"precision":"oaza","areaKey":null,"elements":["kake"],"summary":"要素辞書に一致（kake）。出典による裏づけは未確認。","zones":[],"dataset":"candidates"}},{"type":"Feature","geometry":{"type":"Point","coordinates":[138.900816,35.087579]},"properties":{"id":"22-914d90bc59","name":"徳倉","reading":"トクラ","pref":"静岡県","prefCode":"22","municipality":"駿東郡清水町","hazardTypes":["slope_failure","rockfall"],"evidenceLevel":0,"status":"current","disputed":false,"precision":"oaza","areaKey":null,"elements":["kura"],"summary":"要素辞書に一致（kura）。出典による裏づけは未確認。","zones":[],"dataset":"candidates"}},{"type":"Feature","geometry":{"type":"Point","coordinates":[138.895137,35.089836]},"properties":{"id":"22-b017f5dca3","name":"中徳倉","reading":"ナカトクラ","pref":"静岡県","prefCode":"22","municipality":"駿東郡清水町","hazardTypes":["slope_failure","rockfall"],"evidenceLevel":0,"status":"current","disputed":false,"precision":"oaza","areaKey":null,"elements":["kura"],"summary":"要素辞書に一致（kura）。出典による裏づけは未確認。","zones":[],"dataset":"candidates"}},{"type":"Feature","geometry":{"type":"Point","coordinates":[138.896899,35.154294]},"properties":{"id":"22-e584e45a49","name":"内田","reading":null,"pref":"静岡県","prefCode":"22","municipality":"駿東郡長泉町","hazardTypes":["debris_flow","flood"],"evidenceLevel":0,"status":"current","disputed":false,"precision":"koaza","areaKey":null,"elements":["uchide"],"summary":"要素辞書に一致（uchide）。出典による裏づけは未確認。","zones":[],"dataset":"candidates"}},{"type":"Feature","geometry":{"type":"Point","coordinates":[138.974447,35.350404]},"properties":{"id":"22-8836f68112","name":"菅沼","reading":"スガヌマ","pref":"静岡県","prefCode":"22","municipality":"駿東郡小山町","hazardTypes":["landslide","soft_ground","inundation"],"evidenceLevel":0,"status":"current","disputed":false,"precision":"oaza","areaKey":null,"elements":["wetland_plants","numa_kata"],"summary":"要素辞書に一致（wetland_plants・numa_kata）。出典による裏づけは未確認。","zones":[],"dataset":"candidates"}},{"type":"Feature","geometry":{"type":"Point","coordinates":[138.211409,35.170802]},"properties":{"id":"22-f3d51925b8","name":"梅地","reading":"ウメジ","pref":"静岡県","prefCode":"22","municipality":"榛原郡川根本町","hazardTypes":["landslide","slope_failure"],"evidenceLevel":0,"status":"current","disputed":false,"precision":"oaza","areaKey":null,"elements":["ume"],"summary":"要素辞書に一致（ume）。出典による裏づけは未確認。","zones":[],"dataset":"candidates"}},{"type":"Feature","geometry":{"type":"Point","coordinates":[138.140068,35.099742]},"properties":{"id":"22-ff9c493a89","name":"上岸","reading":"カミキシ","pref":"静岡県","prefCode":"22","municipality":"榛原郡川根本町","hazardTypes":["slope_failure"],"evidenceLevel":0,"status":"current","disputed":false,"precision":"oaza","areaKey":null,"elements":["kake"],"summary":"要素辞書に一致（kake）。出典による裏づけは未確認。","zones":[],"dataset":"candidates"}},{"type":"Feature","geometry":{"type":"Point","coordinates":[137.942864,34.924795]},"properties":{"id":"22-da3a2c2958","name":"三倉","reading":"ミクラ","pref":"静岡県","prefCode":"22","municipality":"周智郡森町","hazardTypes":["slope_failure","rockfall"],"evidenceLevel":0,"status":"current","disputed":false,"precision":"oaza","areaKey":null,"elements":["kura"],"summary":"要素辞書に一致（kura）。出典による裏づけは未確認。","zones":[],"dataset":"candidates"}}]}
