{"type":"FeatureCollection","features":[{"type":"Feature","geometry":{"type":"Point","coordinates":[136.408863,34.666165]},"properties":{"id":"24-3a851cf795","name":"一志町其倉","reading":"イチシチョウソノクラ","pref":"三重県","prefCode":"24","municipality":"津市","hazardTypes":["slope_failure","rockfall"],"evidenceLevel":0,"status":"current","disputed":false,"precision":"oaza","areaKey":"242012760","elements":["kura"],"summary":"要素辞書に一致（kura）。出典による裏づけは未確認。","zones":[],"dataset":"candidates"}},{"type":"Feature","geometry":{"type":"Point","coordinates":[136.506057,34.702993]},"properties":{"id":"24-5f66e7aaf5","name":"大倉","reading":"オオクラ","pref":"三重県","prefCode":"24","municipality":"津市","hazardTypes":["slope_failure","rockfall"],"evidenceLevel":0,"status":"current","disputed":false,"precision":"oaza","areaKey":"242011390","elements":["kura"],"summary":"要素辞書に一致（kura）。出典による裏づけは未確認。","zones":[],"dataset":"candidates"}},{"type":"Feature","geometry":{"type":"Point","coordinates":[136.522815,34.716912]},"properties":{"id":"24-ed7a75f8f1","name":"海岸町","reading":"カイガンチョウ","pref":"三重県","prefCode":"24","municipality":"津市","hazardTypes":["slope_failure"],"evidenceLevel":0,"status":"current","disputed":false,"precision":"oaza","areaKey":"242010370","elements":["kake"],"summary":"要素辞書に一致（kake）。出典による裏づけは未確認。","zones":[],"dataset":"candidates"}},{"type":"Feature","geometry":{"type":"Point","coordinates":[136.536624,34.661888]},"properties":{"id":"24-0f3e1c21b8","name":"雲出伊倉津町","reading":"クモズイグラヅチョウ","pref":"三重県","prefCode":"24","municipality":"津市","hazardTypes":["slope_failure","rockfall"],"evidenceLevel":0,"status":"current","disputed":false,"precision":"oaza","areaKey":"242011280","elements":["kura"],"summary":"要素辞書に一致（kura）。出典による裏づけは未確認。","zones":[],"dataset":"candidates"}},{"type":"Feature","geometry":{"type":"Point","coordinates":[136.521653,34.75314]},"properties":{"id":"24-511c5adbe2","name":"蒲池","reading":null,"pref":"三重県","prefCode":"24","municipality":"津市","hazardTypes":["landslide","soft_ground"],"evidenceLevel":0,"status":"current","disputed":false,"precision":"koaza","areaKey":"242010040","elements":["wetland_plants"],"summary":"要素辞書に一致（wetland_plants）。出典による裏づけは未確認。","zones":[],"dataset":"candidates"}},{"type":"Feature","geometry":{"type":"Point","coordinates":[136.506858,34.690871]},"properties":{"id":"24-2c38d5abc1","name":"垂水","reading":"タルミ","pref":"三重県","prefCode":"24","municipality":"津市","hazardTypes":["slope_failure"],"evidenceLevel":0,"status":"current","disputed":false,"precision":"oaza","areaKey":"24201118001","elements":["kake"],"summary":"要素辞書に一致（kake）。出典による裏づけは未確認。","zones":[],"dataset":"candidates"}},{"type":"Feature","geometry":{"type":"Point","coordinates":[136.519809,34.724006]},"properties":{"id":"24-68460149c0","name":"中河原","reading":"ナカガワラ","pref":"三重県","prefCode":"24","municipality":"津市","hazardTypes":["flood"],"evidenceLevel":0,"status":"current","disputed":false,"precision":"oaza","areaKey":"242010420","elements":["kawara"],"summary":"要素辞書に一致（kawara）。出典による裏づけは未確認。","zones":[],"dataset":"candidates"}},{"type":"Feature","geometry":{"type":"Point","coordinates":[136.497865,34.722404]},"properties":{"id":"24-0fc42f051f","name":"西古河町","reading":"ニシフルカワチョウ","pref":"三重県","prefCode":"24","municipality":"津市","hazardTypes":["flood","inundation"],"evidenceLevel":0,"status":"current","disputed":false,"precision":"oaza","areaKey":"242010560","elements":["furukawa"],"summary":"要素辞書に一致（furukawa）。出典による裏づけは未確認。","zones":[],"dataset":"candidates"}},{"type":"Feature","geometry":{"type":"Point","coordinates":[136.500316,34.720796]},"properties":{"id":"24-80b60d221c","name":"東古河町","reading":"ヒガシフルカワチョウ","pref":"三重県","prefCode":"24","municipality":"津市","hazardTypes":["flood","inundation"],"evidenceLevel":0,"status":"current","disputed":false,"precision":"oaza","areaKey":"242010550","elements":["furukawa"],"summary":"要素辞書に一致（furukawa）。出典による裏づけは未確認。","zones":[],"dataset":"candidates"}},{"type":"Feature","geometry":{"type":"Point","coordinates":[136.392471,34.721117]},"properties":{"id":"24-eb8209805d","name":"美里町足坂","reading":"ミサトチョウアシザカ","pref":"三重県","prefCode":"24","municipality":"津市","hazardTypes":["flood","inundation"],"evidenceLevel":0,"status":"current","disputed":false,"precision":"oaza","areaKey":"242012280","elements":["ashi"],"summary":"要素辞書に一致（ashi）。出典による裏づけは未確認。","zones":[],"dataset":"candidates"}},{"type":"Feature","geometry":{"type":"Point","coordinates":[136.387753,34.748768]},"properties":{"id":"24-0047509770","name":"美里町穴倉","reading":"ミサトチョウアナクラ","pref":"三重県","prefCode":"24","municipality":"津市","hazardTypes":["slope_failure","rockfall"],"evidenceLevel":0,"status":"current","disputed":false,"precision":"oaza","areaKey":"242012210","elements":["kura"],"summary":"要素辞書に一致（kura）。出典による裏づけは未確認。","zones":[],"dataset":"candidates"}},{"type":"Feature","geometry":{"type":"Point","coordinates":[136.623177,34.986485]},"properties":{"id":"24-642992b6c1","name":"大字東阿倉川","reading":null,"pref":"三重県","prefCode":"24","municipality":"四日市市","hazardTypes":["slope_failure","rockfall"],"evidenceLevel":0,"status":"current","disputed":false,"precision":"oaza","areaKey":null,"elements":["kura"],"summary":"要素辞書に一致（kura）。出典による裏づけは未確認。","zones":[],"dataset":"candidates"}},{"type":"Feature","geometry":{"type":"Point","coordinates":[136.617521,34.989249]},"properties":{"id":"24-ba48d5529a","name":"大字西阿倉川","reading":null,"pref":"三重県","prefCode":"24","municipality":"四日市市","hazardTypes":["slope_failure","rockfall"],"evidenceLevel":0,"status":"current","disputed":false,"precision":"oaza","areaKey":null,"elements":["kura"],"summary":"要素辞書に一致（kura）。出典による裏づけは未確認。","zones":[],"dataset":"candidates"}},{"type":"Feature","geometry":{"type":"Point","coordinates":[136.620558,34.993827]},"properties":{"id":"24-6493e91d2a","name":"阿倉川新町","reading":"アクラガワシンマチ","pref":"三重県","prefCode":"24","municipality":"四日市市","hazardTypes":["slope_failure","rockfall"],"evidenceLevel":0,"status":"current","disputed":false,"precision":"oaza","areaKey":"242023510","elements":["kura"],"summary":"要素辞書に一致（kura）。出典による裏づけは未確認。","zones":[],"dataset":"candidates"}},{"type":"Feature","geometry":{"type":"Point","coordinates":[136.627354,34.985361]},"properties":{"id":"24-71e359aa67","name":"阿倉川町","reading":"アクラガワチョウ","pref":"三重県","prefCode":"24","municipality":"四日市市","hazardTypes":["slope_failure","rockfall"],"evidenceLevel":0,"status":"current","disputed":false,"precision":"oaza","areaKey":"242023130","elements":["kura"],"summary":"要素辞書に一致（kura）。出典による裏づけは未確認。","zones":[],"dataset":"candidates"}},{"type":"Feature","geometry":{"type":"Point","coordinates":[136.604709,34.97214]},"properties":{"id":"24-0d0fd01a3e","name":"伊倉一丁目","reading":"イグラ 1","pref":"三重県","prefCode":"24","municipality":"四日市市","hazardTypes":["slope_failure","rockfall"],"evidenceLevel":0,"status":"current","disputed":false,"precision":"oaza","areaKey":"24202057001","elements":["kura"],"summary":"要素辞書に一致（kura）。出典による裏づけは未確認。","zones":[],"dataset":"candidates"}},{"type":"Feature","geometry":{"type":"Point","coordinates":[136.591002,34.977097]},"properties":{"id":"24-90628f7572","name":"天王川原","reading":null,"pref":"三重県","prefCode":"24","municipality":"四日市市","hazardTypes":["flood"],"evidenceLevel":0,"status":"current","disputed":false,"precision":"koaza","areaKey":"242021830","elements":["kawara"],"summary":"要素辞書に一致（kawara）。出典による裏づけは未確認。","zones":[],"dataset":"candidates"}},{"type":"Feature","geometry":{"type":"Point","coordinates":[136.598174,34.914242]},"properties":{"id":"24-45f79da399","name":"河原田町","reading":"カワラダチョウ","pref":"三重県","prefCode":"24","municipality":"四日市市","hazardTypes":["flood"],"evidenceLevel":0,"status":"current","disputed":false,"precision":"oaza","areaKey":null,"elements":["kawara"],"summary":"要素辞書に一致（kawara）。出典による裏づけは未確認。","zones":[],"dataset":"candidates"}},{"type":"Feature","geometry":{"type":"Point","coordinates":[136.628446,34.974515]},"properties":{"id":"24-106d25238d","name":"川原町","reading":"カワラマチ","pref":"三重県","prefCode":"24","municipality":"四日市市","hazardTypes":["flood"],"evidenceLevel":0,"status":"current","disputed":false,"precision":"oaza","areaKey":"242023340","elements":["kawara"],"summary":"要素辞書に一致（kawara）。出典による裏づけは未確認。","zones":[],"dataset":"candidates"}},{"type":"Feature","geometry":{"type":"Point","coordinates":[136.629054,34.923532]},"properties":{"id":"24-174f4090dd","name":"楠町小倉","reading":"クスチョウオグラ","pref":"三重県","prefCode":"24","municipality":"四日市市","hazardTypes":["slope_failure","rockfall"],"evidenceLevel":0,"status":"current","disputed":false,"precision":"oaza","areaKey":"24202356001","elements":["kura"],"summary":"要素辞書に一致（kura）。出典による裏づけは未確認。","zones":[],"dataset":"candidates"}},{"type":"Feature","geometry":{"type":"Point","coordinates":[136.63306,34.965371]},"properties":{"id":"24-6096306ec0","name":"蔵町","reading":"クラマチ","pref":"三重県","prefCode":"24","municipality":"四日市市","hazardTypes":["slope_failure","rockfall"],"evidenceLevel":0,"status":"current","disputed":false,"precision":"oaza","areaKey":"242020230","elements":["kura"],"summary":"要素辞書に一致（kura）。出典による裏づけは未確認。","zones":[],"dataset":"candidates"}},{"type":"Feature","geometry":{"type":"Point","coordinates":[136.609169,34.984259]},"properties":{"id":"24-d8d27c88d8","name":"東川原","reading":null,"pref":"三重県","prefCode":"24","municipality":"四日市市","hazardTypes":["flood"],"evidenceLevel":0,"status":"current","disputed":false,"precision":"koaza","areaKey":"242022010","elements":["kawara"],"summary":"要素辞書に一致（kawara）。出典による裏づけは未確認。","zones":[],"dataset":"candidates"}},{"type":"Feature","geometry":{"type":"Point","coordinates":[136.533362,34.93033]},"properties":{"id":"24-32c2aca909","name":"鹿間町","reading":"シカマチョウ","pref":"三重県","prefCode":"24","municipality":"四日市市","hazardTypes":["landslide","soft_ground"],"evidenceLevel":0,"status":"current","disputed":false,"precision":"oaza","areaKey":"242021480","elements":["shishi"],"summary":"要素辞書に一致（shishi）。出典による裏づけは未確認。","zones":[],"dataset":"candidates"}},{"type":"Feature","geometry":{"type":"Point","coordinates":[136.555705,34.9946]},"properties":{"id":"24-cc9be62602","name":"菅原町","reading":"スガハラチョウ","pref":"三重県","prefCode":"24","municipality":"四日市市","hazardTypes":["landslide","soft_ground"],"evidenceLevel":0,"status":"current","disputed":false,"precision":"oaza","areaKey":"242021790","elements":["wetland_plants"],"summary":"要素辞書に一致（wetland_plants）。出典による裏づけは未確認。","zones":[],"dataset":"candidates"}},{"type":"Feature","geometry":{"type":"Point","coordinates":[136.552997,34.987634]},"properties":{"id":"24-40d6c8b155","name":"中川原","reading":null,"pref":"三重県","prefCode":"24","municipality":"四日市市","hazardTypes":["flood"],"evidenceLevel":0,"status":"current","disputed":false,"precision":"koaza","areaKey":"242021840","elements":["kawara"],"summary":"要素辞書に一致（kawara）。出典による裏づけは未確認。","zones":[],"dataset":"candidates"}},{"type":"Feature","geometry":{"type":"Point","coordinates":[136.609426,35.002824]},"properties":{"id":"24-66327b76d3","name":"垂坂新町","reading":"タルサカシンマチ","pref":"三重県","prefCode":"24","municipality":"四日市市","hazardTypes":["slope_failure"],"evidenceLevel":0,"status":"current","disputed":false,"precision":"oaza","areaKey":"242023500","elements":["kake"],"summary":"要素辞書に一致（kake）。出典による裏づけは未確認。","zones":[],"dataset":"candidates"}},{"type":"Feature","geometry":{"type":"Point","coordinates":[136.614816,35.008097]},"properties":{"id":"24-8a65569db0","name":"垂坂町","reading":"タルサカチョウ","pref":"三重県","prefCode":"24","municipality":"四日市市","hazardTypes":["slope_failure"],"evidenceLevel":0,"status":"current","disputed":false,"precision":"oaza","areaKey":"242022500","elements":["kake"],"summary":"要素辞書に一致（kake）。出典による裏づけは未確認。","zones":[],"dataset":"candidates"}},{"type":"Feature","geometry":{"type":"Point","coordinates":[136.60095,34.975109]},"properties":{"id":"24-8fab58e7f5","name":"西伊倉町","reading":"ニシイグラチョウ","pref":"三重県","prefCode":"24","municipality":"四日市市","hazardTypes":["slope_failure","rockfall"],"evidenceLevel":0,"status":"current","disputed":false,"precision":"oaza","areaKey":"242020580","elements":["kura"],"summary":"要素辞書に一致（kura）。出典による裏づけは未確認。","zones":[],"dataset":"candidates"}},{"type":"Feature","geometry":{"type":"Point","coordinates":[136.620297,35.005989]},"properties":{"id":"24-297ccc6b6a","name":"東垂坂町","reading":"ヒガシタルサカチョウ","pref":"三重県","prefCode":"24","municipality":"四日市市","hazardTypes":["slope_failure"],"evidenceLevel":0,"status":"current","disputed":false,"precision":"oaza","areaKey":"242022520","elements":["kake"],"summary":"要素辞書に一致（kake）。出典による裏づけは未確認。","zones":[],"dataset":"candidates"}},{"type":"Feature","geometry":{"type":"Point","coordinates":[136.612243,35.004095]},"properties":{"id":"24-afcc0260e3","name":"南垂坂町","reading":"ミナミタルサカチョウ","pref":"三重県","prefCode":"24","municipality":"四日市市","hazardTypes":["slope_failure"],"evidenceLevel":0,"status":"current","disputed":false,"precision":"oaza","areaKey":"242022490","elements":["kake"],"summary":"要素辞書に一致（kake）。出典による裏づけは未確認。","zones":[],"dataset":"candidates"}},{"type":"Feature","geometry":{"type":"Point","coordinates":[136.697449,34.517387]},"properties":{"id":"24-0f3ffad2ec","name":"磯町","reading":"イソチョウ","pref":"三重県","prefCode":"24","municipality":"伊勢市","hazardTypes":["rockfall","debris_flow"],"evidenceLevel":0,"status":"current","disputed":false,"precision":"oaza","areaKey":"242030680","elements":["iso_ishi"],"summary":"要素辞書に一致（iso_ishi）。出典による裏づけは未確認。","zones":[],"dataset":"candidates"}},{"type":"Feature","geometry":{"type":"Point","coordinates":[136.67436,34.474726]},"properties":{"id":"24-63c08adee0","name":"大倉町","reading":"オオクラチョウ","pref":"三重県","prefCode":"24","municipality":"伊勢市","hazardTypes":["slope_failure","rockfall"],"evidenceLevel":0,"status":"current","disputed":false,"precision":"oaza","areaKey":"242030200","elements":["kura"],"summary":"要素辞書に一致（kura）。出典による裏づけは未確認。","zones":[],"dataset":"candidates"}},{"type":"Feature","geometry":{"type":"Point","coordinates":[136.747353,34.490574]},"properties":{"id":"24-a9b60ee844","name":"鹿海町","reading":"カノミチョウ","pref":"三重県","prefCode":"24","municipality":"伊勢市","hazardTypes":["landslide","soft_ground"],"evidenceLevel":0,"status":"current","disputed":false,"precision":"oaza","areaKey":"242030610","elements":["shishi"],"summary":"要素辞書に一致（shishi）。出典による裏づけは未確認。","zones":[],"dataset":"candidates"}},{"type":"Feature","geometry":{"type":"Point","coordinates":[136.182191,34.362257]},"properties":{"id":"24-64a6016a0f","name":"飯高町猿山","reading":"イイタカチョウエテヤマ","pref":"三重県","prefCode":"24","municipality":"松阪市","hazardTypes":["slope_failure"],"evidenceLevel":0,"status":"current","disputed":false,"precision":"oaza","areaKey":"242042410","elements":["saru"],"summary":"要素辞書に一致（saru）。出典による裏づけは未確認。","zones":[],"dataset":"candidates"}},{"type":"Feature","geometry":{"type":"Point","coordinates":[136.119339,34.431889]},"properties":{"id":"24-df796e2c17","name":"飯高町草鹿野","reading":"イイタカチョウソウガノ","pref":"三重県","prefCode":"24","municipality":"松阪市","hazardTypes":["landslide","soft_ground"],"evidenceLevel":0,"status":"current","disputed":false,"precision":"oaza","areaKey":"242042490","elements":["shishi"],"summary":"要素辞書に一致（shishi）。出典による裏づけは未確認。","zones":[],"dataset":"candidates"}},{"type":"Feature","geometry":{"type":"Point","coordinates":[136.350935,34.485896]},"properties":{"id":"24-64b297c078","name":"飯南町上仁柿","reading":"イイナンチョウカミニガキ","pref":"三重県","prefCode":"24","municipality":"松阪市","hazardTypes":["slope_failure"],"evidenceLevel":0,"status":"current","disputed":false,"precision":"oaza","areaKey":"242042220","elements":["kake"],"summary":"要素辞書に一致（kake）。出典による裏づけは未確認。","zones":[],"dataset":"candidates"}},{"type":"Feature","geometry":{"type":"Point","coordinates":[136.375897,34.475908]},"properties":{"id":"24-dd2d727ab0","name":"飯南町下仁柿","reading":"イイナンチョウシモニガキ","pref":"三重県","prefCode":"24","municipality":"松阪市","hazardTypes":["slope_failure"],"evidenceLevel":0,"status":"current","disputed":false,"precision":"oaza","areaKey":"242042230","elements":["kake"],"summary":"要素辞書に一致（kake）。出典による裏づけは未確認。","zones":[],"dataset":"candidates"}},{"type":"Feature","geometry":{"type":"Point","coordinates":[136.408429,34.571461]},"properties":{"id":"24-82c196b1e5","name":"嬉野岩倉町","reading":"ウレシノイワクラチョウ","pref":"三重県","prefCode":"24","municipality":"松阪市","hazardTypes":["slope_failure","rockfall"],"evidenceLevel":0,"status":"current","disputed":false,"precision":"oaza","areaKey":"242041690","elements":["kura"],"summary":"要素辞書に一致（kura）。出典による裏づけは未確認。","zones":[],"dataset":"candidates"}},{"type":"Feature","geometry":{"type":"Point","coordinates":[136.490003,34.644503]},"properties":{"id":"24-1cd7b2deb8","name":"嬉野川原木造町","reading":"ウレシノカワラコツクリチョウ","pref":"三重県","prefCode":"24","municipality":"松阪市","hazardTypes":["flood"],"evidenceLevel":0,"status":"current","disputed":false,"precision":"oaza","areaKey":"242041900","elements":["kawara"],"summary":"要素辞書に一致（kawara）。出典による裏づけは未確認。","zones":[],"dataset":"candidates"}},{"type":"Feature","geometry":{"type":"Point","coordinates":[136.506454,34.567985]},"properties":{"id":"24-1ace5b252e","name":"大足町","reading":"オワセチョウ","pref":"三重県","prefCode":"24","municipality":"松阪市","hazardTypes":["flood","inundation"],"evidenceLevel":0,"status":"current","disputed":false,"precision":"oaza","areaKey":"242040910","elements":["ashi"],"summary":"要素辞書に一致（ashi）。出典による裏づけは未確認。","zones":[],"dataset":"candidates"}},{"type":"Feature","geometry":{"type":"Point","coordinates":[136.597169,34.588296]},"properties":{"id":"24-b03d00f38e","name":"垣内田町","reading":"カイトダチョウ","pref":"三重県","prefCode":"24","municipality":"松阪市","hazardTypes":["debris_flow","flood","inundation"],"evidenceLevel":0,"status":"current","disputed":false,"precision":"oaza","areaKey":"242041240","elements":["uchide","yato"],"summary":"要素辞書に一致（uchide・yato）。出典による裏づけは未確認。","zones":[],"dataset":"candidates"}},{"type":"Feature","geometry":{"type":"Point","coordinates":[136.604253,34.594728]},"properties":{"id":"24-4062ad4ab2","name":"柿木原町","reading":"カキノキハラチョウ","pref":"三重県","prefCode":"24","municipality":"松阪市","hazardTypes":["slope_failure"],"evidenceLevel":0,"status":"current","disputed":false,"precision":"oaza","areaKey":"242041170","elements":["kake"],"summary":"要素辞書に一致（kake）。出典による裏づけは未確認。","zones":[],"dataset":"candidates"}},{"type":"Feature","geometry":{"type":"Point","coordinates":[136.565048,34.573927]},"properties":{"id":"24-efdde3fd13","name":"佐久米町","reading":"サクメチョウ","pref":"三重県","prefCode":"24","municipality":"松阪市","hazardTypes":["flood"],"evidenceLevel":0,"status":"current","disputed":false,"precision":"oaza","areaKey":"242040640","elements":["sake"],"summary":"要素辞書に一致（sake）。出典による裏づけは未確認。","zones":[],"dataset":"candidates"}},{"type":"Feature","geometry":{"type":"Point","coordinates":[136.584616,34.56422]},"properties":{"id":"24-309dc9aa0e","name":"菅生町","reading":"スギュウチョウ","pref":"三重県","prefCode":"24","municipality":"松阪市","hazardTypes":["landslide","soft_ground"],"evidenceLevel":0,"status":"current","disputed":false,"precision":"oaza","areaKey":"242041630","elements":["wetland_plants"],"summary":"要素辞書に一致（wetland_plants）。出典による裏づけは未確認。","zones":[],"dataset":"candidates"}},{"type":"Feature","geometry":{"type":"Point","coordinates":[136.703612,35.053256]},"properties":{"id":"24-83e2ea605d","name":"大字地蔵","reading":null,"pref":"三重県","prefCode":"24","municipality":"桑名市","hazardTypes":["slope_failure","rockfall"],"evidenceLevel":0,"status":"current","disputed":false,"precision":"oaza","areaKey":"242051490","elements":["kura"],"summary":"要素辞書に一致（kura）。出典による裏づけは未確認。","zones":[],"dataset":"candidates"}},{"type":"Feature","geometry":{"type":"Point","coordinates":[136.692438,35.061252]},"properties":{"id":"24-898bbfaa2b","name":"入江葭町","reading":"イリエヨシマチ","pref":"三重県","prefCode":"24","municipality":"桑名市","hazardTypes":["landslide","soft_ground","inundation"],"evidenceLevel":0,"status":"current","disputed":false,"precision":"oaza","areaKey":"242050250","elements":["wetland_plants","numa_kata"],"summary":"要素辞書に一致（wetland_plants・numa_kata）。出典による裏づけは未確認。","zones":[],"dataset":"candidates"}},{"type":"Feature","geometry":{"type":"Point","coordinates":[136.673102,35.066499]},"properties":{"id":"24-3c0d13c934","name":"梅園通","reading":"ウメゾノドオリ","pref":"三重県","prefCode":"24","municipality":"桑名市","hazardTypes":["landslide","slope_failure"],"evidenceLevel":0,"status":"current","disputed":false,"precision":"oaza","areaKey":"242050970","elements":["ume"],"summary":"要素辞書に一致（ume）。出典による裏づけは未確認。","zones":[],"dataset":"candidates"}},{"type":"Feature","geometry":{"type":"Point","coordinates":[136.662991,35.099364]},"properties":{"id":"24-1945e58ebe","name":"北川原台","reading":"キタガワラダイ","pref":"三重県","prefCode":"24","municipality":"桑名市","hazardTypes":["flood","landslide"],"evidenceLevel":0,"status":"current","disputed":false,"precision":"oaza","areaKey":"242051281","elements":["kawara","tai"],"summary":"要素辞書に一致（kawara・tai）。出典による裏づけは未確認。","zones":[],"dataset":"candidates"}},{"type":"Feature","geometry":{"type":"Point","coordinates":[136.664295,35.060105]},"properties":{"id":"24-12d29b6ece","name":"新倉持","reading":"シンクラモチ","pref":"三重県","prefCode":"24","municipality":"桑名市","hazardTypes":["slope_failure","rockfall"],"evidenceLevel":0,"status":"current","disputed":false,"precision":"oaza","areaKey":"242051151","elements":["kura"],"summary":"要素辞書に一致（kura）。出典による裏づけは未確認。","zones":[],"dataset":"candidates"}},{"type":"Feature","geometry":{"type":"Point","coordinates":[136.623021,35.119193]},"properties":{"id":"24-28f57cf7e2","name":"多度町猪飼","reading":"タドチョウイカイ","pref":"三重県","prefCode":"24","municipality":"桑名市","hazardTypes":["landslide","soft_ground"],"evidenceLevel":0,"status":"current","disputed":false,"precision":"oaza","areaKey":"242051720","elements":["shishi"],"summary":"要素辞書に一致（shishi）。出典による裏づけは未確認。","zones":[],"dataset":"candidates"}},{"type":"Feature","geometry":{"type":"Point","coordinates":[136.617131,35.122927]},"properties":{"id":"24-e5b4646452","name":"多度町北猪飼","reading":"タドチョウキタイカイ","pref":"三重県","prefCode":"24","municipality":"桑名市","hazardTypes":["landslide","soft_ground"],"evidenceLevel":0,"status":"current","disputed":false,"precision":"oaza","areaKey":"242051710","elements":["shishi"],"summary":"要素辞書に一致（shishi）。出典による裏づけは未確認。","zones":[],"dataset":"candidates"}},{"type":"Feature","geometry":{"type":"Point","coordinates":[136.584837,35.155117]},"properties":{"id":"24-e8cdd68c82","name":"多度町美鹿","reading":"タドチョウビロク","pref":"三重県","prefCode":"24","municipality":"桑名市","hazardTypes":["landslide","soft_ground"],"evidenceLevel":0,"status":"current","disputed":false,"precision":"oaza","areaKey":"242051760","elements":["shishi"],"summary":"要素辞書に一致（shishi）。出典による裏づけは未確認。","zones":[],"dataset":"candidates"}},{"type":"Feature","geometry":{"type":"Point","coordinates":[136.701399,35.107328]},"properties":{"id":"24-b3ff240f3c","name":"長島町大倉","reading":"ナガシマチョウオオクラ","pref":"三重県","prefCode":"24","municipality":"桑名市","hazardTypes":["slope_failure","rockfall"],"evidenceLevel":0,"status":"current","disputed":false,"precision":"oaza","areaKey":"242051910","elements":["kura"],"summary":"要素辞書に一致（kura）。出典による裏づけは未確認。","zones":[],"dataset":"candidates"}},{"type":"Feature","geometry":{"type":"Point","coordinates":[136.680154,35.102584]},"properties":{"id":"24-d0c343e416","name":"長島町千倉","reading":"ナガシマチョウチクラ","pref":"三重県","prefCode":"24","municipality":"桑名市","hazardTypes":["slope_failure","rockfall"],"evidenceLevel":0,"status":"current","disputed":false,"precision":"oaza","areaKey":"242052020","elements":["kura"],"summary":"要素辞書に一致（kura）。出典による裏づけは未確認。","zones":[],"dataset":"candidates"}},{"type":"Feature","geometry":{"type":"Point","coordinates":[136.692719,35.106835]},"properties":{"id":"24-fdf767489f","name":"長島町間々","reading":"ナガシマチョウママ","pref":"三重県","prefCode":"24","municipality":"桑名市","hazardTypes":["slope_failure","erosion"],"evidenceLevel":0,"status":"current","disputed":false,"precision":"oaza","areaKey":"242051930","elements":["mama"],"summary":"要素辞書に一致（mama）。出典による裏づけは未確認。","zones":[],"dataset":"candidates"}},{"type":"Feature","geometry":{"type":"Point","coordinates":[136.727528,35.053392]},"properties":{"id":"24-b50a92717f","name":"長島町横満蔵","reading":"ナガシマチョウヨコマクラ","pref":"三重県","prefCode":"24","municipality":"桑名市","hazardTypes":["slope_failure","rockfall"],"evidenceLevel":0,"status":"current","disputed":false,"precision":"oaza","areaKey":"242052150","elements":["kura"],"summary":"要素辞書に一致（kura）。出典による裏づけは未確認。","zones":[],"dataset":"candidates"}},{"type":"Feature","geometry":{"type":"Point","coordinates":[136.715532,35.077011]},"properties":{"id":"24-08f72c36e4","name":"長島町葭ケ須","reading":"ナガシマチョウヨシガス","pref":"三重県","prefCode":"24","municipality":"桑名市","hazardTypes":["landslide","soft_ground"],"evidenceLevel":0,"status":"current","disputed":false,"precision":"oaza","areaKey":"242052100","elements":["wetland_plants"],"summary":"要素辞書に一致（wetland_plants）。出典による裏づけは未確認。","zones":[],"dataset":"candidates"}},{"type":"Feature","geometry":{"type":"Point","coordinates":[136.685509,35.058902]},"properties":{"id":"24-70cac24be3","name":"矢田磧","reading":"ヤダカワラ","pref":"三重県","prefCode":"24","municipality":"桑名市","hazardTypes":["flood"],"evidenceLevel":0,"status":"current","disputed":false,"precision":"oaza","areaKey":"242050390","elements":["kawara"],"summary":"要素辞書に一致（kawara）。出典による裏づけは未確認。","zones":[],"dataset":"candidates"}},{"type":"Feature","geometry":{"type":"Point","coordinates":[136.564395,34.81077]},"properties":{"id":"24-608aa92389","name":"磯山一丁目","reading":"イソヤマ 1","pref":"三重県","prefCode":"24","municipality":"鈴鹿市","hazardTypes":["rockfall","debris_flow"],"evidenceLevel":0,"status":"current","disputed":false,"precision":"oaza","areaKey":"24207118001","elements":["iso_ishi"],"summary":"要素辞書に一致（iso_ishi）。出典による裏づけは未確認。","zones":[],"dataset":"candidates"}},{"type":"Feature","geometry":{"type":"Point","coordinates":[136.562492,34.815054]},"properties":{"id":"24-f44df112f8","name":"磯山町","reading":"イソヤマチョウ","pref":"三重県","prefCode":"24","municipality":"鈴鹿市","hazardTypes":["rockfall","debris_flow"],"evidenceLevel":0,"status":"current","disputed":false,"precision":"oaza","areaKey":"242071160","elements":["iso_ishi"],"summary":"要素辞書に一致（iso_ishi）。出典による裏づけは未確認。","zones":[],"dataset":"candidates"}},{"type":"Feature","geometry":{"type":"Point","coordinates":[136.458862,34.971627]},"properties":{"id":"24-dbc97e04a2","name":"大久保町","reading":"オオクボチョウ","pref":"三重県","prefCode":"24","municipality":"鈴鹿市","hazardTypes":["slope_failure","inundation","landslide"],"evidenceLevel":0,"status":"current","disputed":false,"precision":"oaza","areaKey":"242071320","elements":["afu_oo","kubo"],"summary":"要素辞書に一致（afu_oo・kubo）。出典による裏づけは未確認。","zones":[],"dataset":"candidates"}},{"type":"Feature","geometry":{"type":"Point","coordinates":[136.602406,34.854337]},"properties":{"id":"24-4c474b68e3","name":"岸岡町","reading":"キシオカチョウ","pref":"三重県","prefCode":"24","municipality":"鈴鹿市","hazardTypes":["slope_failure"],"evidenceLevel":0,"status":"current","disputed":false,"precision":"oaza","areaKey":"24207094000","elements":["kake"],"summary":"要素辞書に一致（kake）。出典による裏づけは未確認。","zones":[],"dataset":"candidates"}},{"type":"Feature","geometry":{"type":"Point","coordinates":[136.509449,34.942816]},"properties":{"id":"24-c4e4f81e41","name":"岸田町","reading":"キシタチョウ","pref":"三重県","prefCode":"24","municipality":"鈴鹿市","hazardTypes":["slope_failure"],"evidenceLevel":0,"status":"current","disputed":false,"precision":"oaza","areaKey":"242071300","elements":["kake"],"summary":"要素辞書に一致（kake）。出典による裏づけは未確認。","zones":[],"dataset":"candidates"}},{"type":"Feature","geometry":{"type":"Point","coordinates":[136.519502,34.87824]},"properties":{"id":"24-dbe261aeb4","name":"汲川原町","reading":"クミガワラチョウ","pref":"三重県","prefCode":"24","municipality":"鈴鹿市","hazardTypes":["flood"],"evidenceLevel":0,"status":"current","disputed":false,"precision":"oaza","areaKey":"242070070","elements":["kawara"],"summary":"要素辞書に一致（kawara）。出典による裏づけは未確認。","zones":[],"dataset":"candidates"}},{"type":"Feature","geometry":{"type":"Point","coordinates":[136.533091,34.923562]},"properties":{"id":"24-453bca712d","name":"下大久保町","reading":"シモオオクボチョウ","pref":"三重県","prefCode":"24","municipality":"鈴鹿市","hazardTypes":["slope_failure","inundation","landslide"],"evidenceLevel":0,"status":"current","disputed":false,"precision":"oaza","areaKey":"24207128000","elements":["afu_oo","kubo"],"summary":"要素辞書に一致（afu_oo・kubo）。出典による裏づけは未確認。","zones":[],"dataset":"candidates"}},{"type":"Feature","geometry":{"type":"Point","coordinates":[136.551387,34.854591]},"properties":{"id":"24-2f3ca76fd8","name":"鈴鹿ハイツ","reading":"スズカハイツ","pref":"三重県","prefCode":"24","municipality":"鈴鹿市","hazardTypes":["landslide","soft_ground"],"evidenceLevel":0,"status":"current","disputed":false,"precision":"oaza","areaKey":"242070431","elements":["shishi"],"summary":"要素辞書に一致（shishi）。出典による裏づけは未確認。","zones":[],"dataset":"candidates"}},{"type":"Feature","geometry":{"type":"Point","coordinates":[136.568766,34.808757]},"properties":{"id":"24-71e4d03633","name":"東磯山一丁目","reading":"ヒガシイソヤマ 1","pref":"三重県","prefCode":"24","municipality":"鈴鹿市","hazardTypes":["rockfall","debris_flow"],"evidenceLevel":0,"status":"current","disputed":false,"precision":"oaza","areaKey":"24207117001","elements":["iso_ishi"],"summary":"要素辞書に一致（iso_ishi）。出典による裏づけは未確認。","zones":[],"dataset":"candidates"}},{"type":"Feature","geometry":{"type":"Point","coordinates":[136.092247,34.637652]},"properties":{"id":"24-fdf48a09bc","name":"梅が丘北一番町","reading":null,"pref":"三重県","prefCode":"24","municipality":"名張市","hazardTypes":["landslide","slope_failure"],"evidenceLevel":0,"status":"current","disputed":false,"precision":"oaza","areaKey":"242080370","elements":["ume"],"summary":"要素辞書に一致（ume）。出典による裏づけは未確認。","zones":[],"dataset":"candidates"}},{"type":"Feature","geometry":{"type":"Point","coordinates":[136.086386,34.638163]},"properties":{"id":"24-7e5e7057ad","name":"梅が丘北三番町","reading":null,"pref":"三重県","prefCode":"24","municipality":"名張市","hazardTypes":["landslide","slope_failure"],"evidenceLevel":0,"status":"current","disputed":false,"precision":"oaza","areaKey":"242080390","elements":["ume"],"summary":"要素辞書に一致（ume）。出典による裏づけは未確認。","zones":[],"dataset":"candidates"}},{"type":"Feature","geometry":{"type":"Point","coordinates":[136.088715,34.638168]},"properties":{"id":"24-bdcf73a152","name":"梅が丘北二番町","reading":null,"pref":"三重県","prefCode":"24","municipality":"名張市","hazardTypes":["landslide","slope_failure"],"evidenceLevel":0,"status":"current","disputed":false,"precision":"oaza","areaKey":"242080380","elements":["ume"],"summary":"要素辞書に一致（ume）。出典による裏づけは未確認。","zones":[],"dataset":"candidates"}},{"type":"Feature","geometry":{"type":"Point","coordinates":[136.086495,34.641606]},"properties":{"id":"24-0c1325e819","name":"梅が丘北五番町","reading":null,"pref":"三重県","prefCode":"24","municipality":"名張市","hazardTypes":["landslide","slope_failure"],"evidenceLevel":0,"status":"current","disputed":false,"precision":"oaza","areaKey":"242080410","elements":["ume"],"summary":"要素辞書に一致（ume）。出典による裏づけは未確認。","zones":[],"dataset":"candidates"}},{"type":"Feature","geometry":{"type":"Point","coordinates":[136.084594,34.639637]},"properties":{"id":"24-29659ad204","name":"梅が丘北四番町","reading":null,"pref":"三重県","prefCode":"24","municipality":"名張市","hazardTypes":["landslide","slope_failure"],"evidenceLevel":0,"status":"current","disputed":false,"precision":"oaza","areaKey":"242080400","elements":["ume"],"summary":"要素辞書に一致（ume）。出典による裏づけは未確認。","zones":[],"dataset":"candidates"}},{"type":"Feature","geometry":{"type":"Point","coordinates":[136.091089,34.634765]},"properties":{"id":"24-14c40d1433","name":"梅が丘南一番町","reading":null,"pref":"三重県","prefCode":"24","municipality":"名張市","hazardTypes":["landslide","slope_failure"],"evidenceLevel":0,"status":"current","disputed":false,"precision":"oaza","areaKey":"242080420","elements":["ume"],"summary":"要素辞書に一致（ume）。出典による裏づけは未確認。","zones":[],"dataset":"candidates"}},{"type":"Feature","geometry":{"type":"Point","coordinates":[136.08613,34.635058]},"properties":{"id":"24-41293d6bed","name":"梅が丘南三番町","reading":null,"pref":"三重県","prefCode":"24","municipality":"名張市","hazardTypes":["landslide","slope_failure"],"evidenceLevel":0,"status":"current","disputed":false,"precision":"oaza","areaKey":"242080440","elements":["ume"],"summary":"要素辞書に一致（ume）。出典による裏づけは未確認。","zones":[],"dataset":"candidates"}},{"type":"Feature","geometry":{"type":"Point","coordinates":[136.088456,34.635048]},"properties":{"id":"24-261f0c3f3a","name":"梅が丘南二番町","reading":null,"pref":"三重県","prefCode":"24","municipality":"名張市","hazardTypes":["landslide","slope_failure"],"evidenceLevel":0,"status":"current","disputed":false,"precision":"oaza","areaKey":"242080430","elements":["ume"],"summary":"要素辞書に一致（ume）。出典による裏づけは未確認。","zones":[],"dataset":"candidates"}},{"type":"Feature","geometry":{"type":"Point","coordinates":[136.086702,34.63271]},"properties":{"id":"24-a4aac5c974","name":"梅が丘南五番町","reading":null,"pref":"三重県","prefCode":"24","municipality":"名張市","hazardTypes":["landslide","slope_failure"],"evidenceLevel":0,"status":"current","disputed":false,"precision":"oaza","areaKey":"242080460","elements":["ume"],"summary":"要素辞書に一致（ume）。出典による裏づけは未確認。","zones":[],"dataset":"candidates"}},{"type":"Feature","geometry":{"type":"Point","coordinates":[136.083873,34.635061]},"properties":{"id":"24-ee96cd51b3","name":"梅が丘南四番町","reading":null,"pref":"三重県","prefCode":"24","municipality":"名張市","hazardTypes":["landslide","slope_failure"],"evidenceLevel":0,"status":"current","disputed":false,"precision":"oaza","areaKey":"242080450","elements":["ume"],"summary":"要素辞書に一致（ume）。出典による裏づけは未確認。","zones":[],"dataset":"candidates"}},{"type":"Feature","geometry":{"type":"Point","coordinates":[136.090808,34.618491]},"properties":{"id":"24-534c8b8449","name":"鍛冶町","reading":"カジマチ","pref":"三重県","prefCode":"24","municipality":"名張市","hazardTypes":["slope_failure"],"evidenceLevel":0,"status":"current","disputed":false,"precision":"oaza","areaKey":"242080070","elements":["kaji_kamu"],"summary":"要素辞書に一致（kaji_kamu）。出典による裏づけは未確認。","zones":[],"dataset":"candidates"}},{"type":"Feature","geometry":{"type":"Point","coordinates":[136.10815,34.640426]},"properties":{"id":"24-49084d4306","name":"蔵持町里","reading":"クラモチチョウサト","pref":"三重県","prefCode":"24","municipality":"名張市","hazardTypes":["slope_failure","rockfall"],"evidenceLevel":0,"status":"current","disputed":false,"precision":"oaza","areaKey":"242080260","elements":["kura"],"summary":"要素辞書に一致（kura）。出典による裏づけは未確認。","zones":[],"dataset":"candidates"}},{"type":"Feature","geometry":{"type":"Point","coordinates":[136.104311,34.630447]},"properties":{"id":"24-468f867259","name":"蔵持町芝出","reading":"クラモチチョウシバデ","pref":"三重県","prefCode":"24","municipality":"名張市","hazardTypes":["slope_failure","rockfall"],"evidenceLevel":0,"status":"current","disputed":false,"precision":"oaza","areaKey":"242080280","elements":["kura"],"summary":"要素辞書に一致（kura）。出典による裏づけは未確認。","zones":[],"dataset":"candidates"}},{"type":"Feature","geometry":{"type":"Point","coordinates":[136.110089,34.634653]},"properties":{"id":"24-6cec2fb21c","name":"蔵持町原出","reading":"クラモチチョウハラデ","pref":"三重県","prefCode":"24","municipality":"名張市","hazardTypes":["slope_failure","rockfall"],"evidenceLevel":0,"status":"current","disputed":false,"precision":"oaza","areaKey":"242080270","elements":["kura"],"summary":"要素辞書に一致（kura）。出典による裏づけは未確認。","zones":[],"dataset":"candidates"}},{"type":"Feature","geometry":{"type":"Point","coordinates":[136.09433,34.641511]},"properties":{"id":"24-fcc24f4196","name":"夏秋","reading":"ナツアキ","pref":"三重県","prefCode":"24","municipality":"名張市","hazardTypes":["debris_flow","slope_failure"],"evidenceLevel":0,"status":"current","disputed":false,"precision":"oaza","areaKey":"242080340","elements":["nazu_natsu"],"summary":"要素辞書に一致（nazu_natsu）。出典による裏づけは未確認。","zones":[],"dataset":"candidates"}},{"type":"Feature","geometry":{"type":"Point","coordinates":[136.104327,34.615276]},"properties":{"id":"24-08406bea2e","name":"夏見","reading":"ナツミ","pref":"三重県","prefCode":"24","municipality":"名張市","hazardTypes":["debris_flow","slope_failure"],"evidenceLevel":0,"status":"current","disputed":false,"precision":"oaza","areaKey":"242081210","elements":["nazu_natsu"],"summary":"要素辞書に一致（nazu_natsu）。出典による裏づけは未確認。","zones":[],"dataset":"candidates"}},{"type":"Feature","geometry":{"type":"Point","coordinates":[136.097414,34.615997]},"properties":{"id":"24-60f54b88c2","name":"下川原","reading":null,"pref":"三重県","prefCode":"24","municipality":"名張市","hazardTypes":["flood"],"evidenceLevel":0,"status":"current","disputed":false,"precision":"koaza","areaKey":"242081210","elements":["kawara"],"summary":"要素辞書に一致（kawara）。出典による裏づけは未確認。","zones":[],"dataset":"candidates"}},{"type":"Feature","geometry":{"type":"Point","coordinates":[136.187577,34.076589]},"properties":{"id":"24-38b83ceb19","name":"倉ノ谷町","reading":"クラノタニチョウ","pref":"三重県","prefCode":"24","municipality":"尾鷲市","hazardTypes":["slope_failure","rockfall"],"evidenceLevel":0,"status":"current","disputed":false,"precision":"oaza","areaKey":"242090520","elements":["kura"],"summary":"要素辞書に一致（kura）。出典による裏づけは未確認。","zones":[],"dataset":"candidates"}},{"type":"Feature","geometry":{"type":"Point","coordinates":[136.466729,34.851742]},"properties":{"id":"24-b4109ca1b1","name":"北鹿島町","reading":"キタカシマチョウ","pref":"三重県","prefCode":"24","municipality":"亀山市","hazardTypes":["landslide","soft_ground"],"evidenceLevel":0,"status":"current","disputed":false,"precision":"oaza","areaKey":"242100341","elements":["shishi"],"summary":"要素辞書に一致（shishi）。出典による裏づけは未確認。","zones":[],"dataset":"candidates"}},{"type":"Feature","geometry":{"type":"Point","coordinates":[136.457707,34.854059]},"properties":{"id":"24-bec346f9b5","name":"渋倉町","reading":"シブクラチョウ","pref":"三重県","prefCode":"24","municipality":"亀山市","hazardTypes":["slope_failure","rockfall"],"evidenceLevel":0,"status":"current","disputed":false,"precision":"oaza","areaKey":"242100090","elements":["kura"],"summary":"要素辞書に一致（kura）。出典による裏づけは未確認。","zones":[],"dataset":"candidates"}},{"type":"Feature","geometry":{"type":"Point","coordinates":[136.479701,34.843821]},"properties":{"id":"24-0b833e6ad0","name":"菅内町","reading":"スガウチチョウ","pref":"三重県","prefCode":"24","municipality":"亀山市","hazardTypes":["landslide","soft_ground"],"evidenceLevel":0,"status":"current","disputed":false,"precision":"oaza","areaKey":"242100290","elements":["wetland_plants"],"summary":"要素辞書に一致（wetland_plants）。出典による裏づけは未確認。","zones":[],"dataset":"candidates"}},{"type":"Feature","geometry":{"type":"Point","coordinates":[136.467094,34.85044]},"properties":{"id":"24-5b6c625254","name":"南鹿島町","reading":"ミナミカシマチョウ","pref":"三重県","prefCode":"24","municipality":"亀山市","hazardTypes":["landslide","soft_ground"],"evidenceLevel":0,"status":"current","disputed":false,"precision":"oaza","areaKey":"242100351","elements":["shishi"],"summary":"要素辞書に一致（shishi）。出典による裏づけは未確認。","zones":[],"dataset":"candidates"}},{"type":"Feature","geometry":{"type":"Point","coordinates":[136.85531,34.444072]},"properties":{"id":"24-51f223b498","name":"岩倉町","reading":"イワクラチョウ","pref":"三重県","prefCode":"24","municipality":"鳥羽市","hazardTypes":["slope_failure","rockfall"],"evidenceLevel":0,"status":"current","disputed":false,"precision":"oaza","areaKey":"242110170","elements":["kura"],"summary":"要素辞書に一致（kura）。出典による裏づけは未確認。","zones":[],"dataset":"candidates"}},{"type":"Feature","geometry":{"type":"Point","coordinates":[136.888162,34.489938]},"properties":{"id":"24-fe3d31d05f","name":"菅島町","reading":"スガシマチョウ","pref":"三重県","prefCode":"24","municipality":"鳥羽市","hazardTypes":["landslide","soft_ground"],"evidenceLevel":0,"status":"current","disputed":false,"precision":"oaza","areaKey":"242110300","elements":["wetland_plants"],"summary":"要素辞書に一致（wetland_plants）。出典による裏づけは未確認。","zones":[],"dataset":"candidates"}},{"type":"Feature","geometry":{"type":"Point","coordinates":[136.108446,33.988403]},"properties":{"id":"24-87971cd7fc","name":"飛鳥町大又","reading":"アスカチョウオオマタ","pref":"三重県","prefCode":"24","municipality":"熊野市","hazardTypes":["slope_failure","debris_flow"],"evidenceLevel":0,"status":"current","disputed":false,"precision":"oaza","areaKey":"242120510","elements":["tobi"],"summary":"要素辞書に一致（tobi）。出典による裏づけは未確認。","zones":[],"dataset":"candidates"}},{"type":"Feature","geometry":{"type":"Point","coordinates":[136.061191,33.947392]},"properties":{"id":"24-03c10888ee","name":"飛鳥町神山","reading":"アスカチョウコウノヤマ","pref":"三重県","prefCode":"24","municipality":"熊野市","hazardTypes":["slope_failure","debris_flow"],"evidenceLevel":0,"status":"current","disputed":false,"precision":"oaza","areaKey":"242120560","elements":["tobi"],"summary":"要素辞書に一致（tobi）。出典による裏づけは未確認。","zones":[],"dataset":"candidates"}},{"type":"Feature","geometry":{"type":"Point","coordinates":[136.101609,33.945481]},"properties":{"id":"24-5cc2de8fed","name":"飛鳥町小阪","reading":"アスカチョウコザカ","pref":"三重県","prefCode":"24","municipality":"熊野市","hazardTypes":["slope_failure","debris_flow"],"evidenceLevel":0,"status":"current","disputed":false,"precision":"oaza","areaKey":"242120530","elements":["tobi"],"summary":"要素辞書に一致（tobi）。出典による裏づけは未確認。","zones":[],"dataset":"candidates"}},{"type":"Feature","geometry":{"type":"Point","coordinates":[136.126807,33.966852]},"properties":{"id":"24-5493710004","name":"飛鳥町小又","reading":"アスカチョウコマタ","pref":"三重県","prefCode":"24","municipality":"熊野市","hazardTypes":["slope_failure","debris_flow"],"evidenceLevel":0,"status":"current","disputed":false,"precision":"oaza","areaKey":"242120520","elements":["tobi"],"summary":"要素辞書に一致（tobi）。出典による裏づけは未確認。","zones":[],"dataset":"candidates"}},{"type":"Feature","geometry":{"type":"Point","coordinates":[136.08459,33.941463]},"properties":{"id":"24-9088c9383c","name":"飛鳥町佐渡","reading":"アスカチョウサワタリ","pref":"三重県","prefCode":"24","municipality":"熊野市","hazardTypes":["slope_failure","debris_flow"],"evidenceLevel":0,"status":"current","disputed":false,"precision":"oaza","areaKey":"242120540","elements":["tobi"],"summary":"要素辞書に一致（tobi）。出典による裏づけは未確認。","zones":[],"dataset":"candidates"}},{"type":"Feature","geometry":{"type":"Point","coordinates":[136.078865,33.946758]},"properties":{"id":"24-9400e0b6f5","name":"飛鳥町野口","reading":"アスカチョウノグチ","pref":"三重県","prefCode":"24","municipality":"熊野市","hazardTypes":["slope_failure","debris_flow"],"evidenceLevel":0,"status":"current","disputed":false,"precision":"oaza","areaKey":"242120550","elements":["tobi"],"summary":"要素辞書に一致（tobi）。出典による裏づけは未確認。","zones":[],"dataset":"candidates"}},{"type":"Feature","geometry":{"type":"Point","coordinates":[136.13899,33.942873]},"properties":{"id":"24-717c136393","name":"新鹿町","reading":"アタシカチョウ","pref":"三重県","prefCode":"24","municipality":"熊野市","hazardTypes":["landslide","soft_ground"],"evidenceLevel":0,"status":"current","disputed":false,"precision":"oaza","areaKey":"242120060","elements":["shishi"],"summary":"要素辞書に一致（shishi）。出典による裏づけは未確認。","zones":[],"dataset":"candidates"}},{"type":"Feature","geometry":{"type":"Point","coordinates":[136.016594,33.912378]},"properties":{"id":"24-a8d5a33acc","name":"育生町赤倉","reading":"イクセイチョウアカグラ","pref":"三重県","prefCode":"24","municipality":"熊野市","hazardTypes":["slope_failure","rockfall"],"evidenceLevel":0,"status":"current","disputed":false,"precision":"oaza","areaKey":"242120250","elements":["kura"],"summary":"要素辞書に一致（kura）。出典による裏づけは未確認。","zones":[],"dataset":"candidates"}},{"type":"Feature","geometry":{"type":"Point","coordinates":[136.131856,33.895222]},"properties":{"id":"24-aa7a61dd54","name":"磯崎町","reading":"イソザキチョウ","pref":"三重県","prefCode":"24","municipality":"熊野市","hazardTypes":["rockfall","debris_flow"],"evidenceLevel":0,"status":"current","disputed":false,"precision":"oaza","areaKey":"242120080","elements":["iso_ishi"],"summary":"要素辞書に一致（iso_ishi）。出典による裏づけは未確認。","zones":[],"dataset":"candidates"}},{"type":"Feature","geometry":{"type":"Point","coordinates":[136.556915,35.07216]},"properties":{"id":"24-5a83cf1800","name":"大安町梅戸","reading":"ダイアンチョウウメド","pref":"三重県","prefCode":"24","municipality":"いなべ市","hazardTypes":["landslide","slope_failure"],"evidenceLevel":0,"status":"current","disputed":false,"precision":"oaza","areaKey":null,"elements":["ume"],"summary":"要素辞書に一致（ume）。出典による裏づけは未確認。","zones":[],"dataset":"candidates"}},{"type":"Feature","geometry":{"type":"Point","coordinates":[136.51015,35.153067]},"properties":{"id":"24-00fe065e7b","name":"中川原","reading":null,"pref":"三重県","prefCode":"24","municipality":"いなべ市","hazardTypes":["flood"],"evidenceLevel":0,"status":"current","disputed":false,"precision":"koaza","areaKey":null,"elements":["kawara"],"summary":"要素辞書に一致（kawara）。出典による裏づけは未確認。","zones":[],"dataset":"candidates"}},{"type":"Feature","geometry":{"type":"Point","coordinates":[136.521426,35.160906]},"properties":{"id":"24-262c2587e4","name":"北勢町飯倉","reading":"ホクセイチョウイグラ","pref":"三重県","prefCode":"24","municipality":"いなべ市","hazardTypes":["slope_failure","rockfall"],"evidenceLevel":0,"status":"current","disputed":false,"precision":"oaza","areaKey":null,"elements":["kura"],"summary":"要素辞書に一致（kura）。出典による裏づけは未確認。","zones":[],"dataset":"candidates"}},{"type":"Feature","geometry":{"type":"Point","coordinates":[136.509683,35.222717]},"properties":{"id":"24-8abff2bdb8","name":"北勢町川原","reading":"ホクセイチョウカワハラ","pref":"三重県","prefCode":"24","municipality":"いなべ市","hazardTypes":["flood"],"evidenceLevel":0,"status":"current","disputed":false,"precision":"oaza","areaKey":null,"elements":["kawara"],"summary":"要素辞書に一致（kawara）。出典による裏づけは未確認。","zones":[],"dataset":"candidates"}},{"type":"Feature","geometry":{"type":"Point","coordinates":[136.763736,34.348085]},"properties":{"id":"24-59d32c0983","name":"磯部町桧山","reading":null,"pref":"三重県","prefCode":"24","municipality":"志摩市","hazardTypes":["rockfall","debris_flow"],"evidenceLevel":0,"status":"current","disputed":false,"precision":"oaza","areaKey":null,"elements":["iso_ishi"],"summary":"要素辞書に一致（iso_ishi）。出典による裏づけは未確認。","zones":[],"dataset":"candidates"}},{"type":"Feature","geometry":{"type":"Point","coordinates":[136.809334,34.352275]},"properties":{"id":"24-107c7cfcc2","name":"磯部町穴川","reading":"イソベチョウアナガワ","pref":"三重県","prefCode":"24","municipality":"志摩市","hazardTypes":["rockfall","debris_flow"],"evidenceLevel":0,"status":"current","disputed":false,"precision":"oaza","areaKey":"242150360","elements":["iso_ishi"],"summary":"要素辞書に一致（iso_ishi）。出典による裏づけは未確認。","zones":[],"dataset":"candidates"}},{"type":"Feature","geometry":{"type":"Point","coordinates":[136.834427,34.369528]},"properties":{"id":"24-5e4271ffda","name":"磯部町飯浜","reading":"イソベチョウイイハマ","pref":"三重県","prefCode":"24","municipality":"志摩市","hazardTypes":["rockfall","debris_flow"],"evidenceLevel":0,"status":"current","disputed":false,"precision":"oaza","areaKey":"242150280","elements":["iso_ishi"],"summary":"要素辞書に一致（iso_ishi）。出典による裏づけは未確認。","zones":[],"dataset":"candidates"}},{"type":"Feature","geometry":{"type":"Point","coordinates":[136.788346,34.396013]},"properties":{"id":"24-d8a0687f4b","name":"磯部町恵利原","reading":"イソベチョウエリハラ","pref":"三重県","prefCode":"24","municipality":"志摩市","hazardTypes":["rockfall","debris_flow"],"evidenceLevel":0,"status":"current","disputed":false,"precision":"oaza","areaKey":"242150290","elements":["iso_ishi"],"summary":"要素辞書に一致（iso_ishi）。出典による裏づけは未確認。","zones":[],"dataset":"candidates"}},{"type":"Feature","geometry":{"type":"Point","coordinates":[136.812417,34.383149]},"properties":{"id":"24-6ab353b138","name":"磯部町上之郷","reading":"イソベチョウカミノゴウ","pref":"三重県","prefCode":"24","municipality":"志摩市","hazardTypes":["rockfall","debris_flow"],"evidenceLevel":0,"status":"current","disputed":false,"precision":"oaza","areaKey":"242150260","elements":["iso_ishi"],"summary":"要素辞書に一致（iso_ishi）。出典による裏づけは未確認。","zones":[],"dataset":"candidates"}},{"type":"Feature","geometry":{"type":"Point","coordinates":[136.817712,34.398112]},"properties":{"id":"24-c528610d10","name":"磯部町沓掛","reading":"イソベチョウクツカケ","pref":"三重県","prefCode":"24","municipality":"志摩市","hazardTypes":["rockfall","debris_flow"],"evidenceLevel":0,"status":"current","disputed":false,"precision":"oaza","areaKey":"242150240","elements":["iso_ishi"],"summary":"要素辞書に一致（iso_ishi）。出典による裏づけは未確認。","zones":[],"dataset":"candidates"}},{"type":"Feature","geometry":{"type":"Point","coordinates":[136.777512,34.36482]},"properties":{"id":"24-83b4910237","name":"磯部町栗木広","reading":"イソベチョウクリキヒロ","pref":"三重県","prefCode":"24","municipality":"志摩市","hazardTypes":["rockfall","debris_flow"],"evidenceLevel":0,"status":"current","disputed":false,"precision":"oaza","areaKey":"242150340","elements":["iso_ishi"],"summary":"要素辞書に一致（iso_ishi）。出典による裏づけは未確認。","zones":[],"dataset":"candidates"}},{"type":"Feature","geometry":{"type":"Point","coordinates":[136.803383,34.409739]},"properties":{"id":"24-d2f33fa185","name":"磯部町五知","reading":"イソベチョウゴチ","pref":"三重県","prefCode":"24","municipality":"志摩市","hazardTypes":["rockfall","debris_flow"],"evidenceLevel":0,"status":"current","disputed":false,"precision":"oaza","areaKey":"242150230","elements":["iso_ishi"],"summary":"要素辞書に一致（iso_ishi）。出典による裏づけは未確認。","zones":[],"dataset":"candidates"}},{"type":"Feature","geometry":{"type":"Point","coordinates":[136.84281,34.356753]},"properties":{"id":"24-0ead380e8f","name":"磯部町坂崎","reading":"イソベチョウサカザキ","pref":"三重県","prefCode":"24","municipality":"志摩市","hazardTypes":["rockfall","debris_flow"],"evidenceLevel":0,"status":"current","disputed":false,"precision":"oaza","areaKey":"242150370","elements":["iso_ishi"],"summary":"要素辞書に一致（iso_ishi）。出典による裏づけは未確認。","zones":[],"dataset":"candidates"}},{"type":"Feature","geometry":{"type":"Point","coordinates":[136.86026,34.356293]},"properties":{"id":"24-53a18e2245","name":"磯部町三ケ所","reading":"イソベチョウサンガショ","pref":"三重県","prefCode":"24","municipality":"志摩市","hazardTypes":["rockfall","debris_flow"],"evidenceLevel":0,"status":"current","disputed":false,"precision":"oaza","areaKey":"242150390","elements":["iso_ishi"],"summary":"要素辞書に一致（iso_ishi）。出典による裏づけは未確認。","zones":[],"dataset":"candidates"}},{"type":"Feature","geometry":{"type":"Point","coordinates":[136.814791,34.37312]},"properties":{"id":"24-f7f73f79a2","name":"磯部町下之郷","reading":"イソベチョウシモノゴウ","pref":"三重県","prefCode":"24","municipality":"志摩市","hazardTypes":["rockfall","debris_flow"],"evidenceLevel":0,"status":"current","disputed":false,"precision":"oaza","areaKey":"242150270","elements":["iso_ishi"],"summary":"要素辞書に一致（iso_ishi）。出典による裏づけは未確認。","zones":[],"dataset":"candidates"}},{"type":"Feature","geometry":{"type":"Point","coordinates":[136.763642,34.383717]},"properties":{"id":"24-5393e7236c","name":"磯部町築地","reading":"イソベチョウツイジ","pref":"三重県","prefCode":"24","municipality":"志摩市","hazardTypes":["rockfall","debris_flow"],"evidenceLevel":0,"status":"current","disputed":false,"precision":"oaza","areaKey":"242150320","elements":["iso_ishi"],"summary":"要素辞書に一致（iso_ishi）。出典による裏づけは未確認。","zones":[],"dataset":"candidates"}},{"type":"Feature","geometry":{"type":"Point","coordinates":[136.795523,34.365357]},"properties":{"id":"24-6067dbc6dd","name":"磯部町迫間","reading":"イソベチョウハサマ","pref":"三重県","prefCode":"24","municipality":"志摩市","hazardTypes":["rockfall","debris_flow"],"evidenceLevel":0,"status":"current","disputed":false,"precision":"oaza","areaKey":"242150300","elements":["iso_ishi"],"summary":"要素辞書に一致（iso_ishi）。出典による裏づけは未確認。","zones":[],"dataset":"candidates"}},{"type":"Feature","geometry":{"type":"Point","coordinates":[136.86935,34.379339]},"properties":{"id":"24-48c259e334","name":"磯部町的矢","reading":"イソベチョウマトヤ","pref":"三重県","prefCode":"24","municipality":"志摩市","hazardTypes":["rockfall","debris_flow"],"evidenceLevel":0,"status":"current","disputed":false,"precision":"oaza","areaKey":"242150380","elements":["iso_ishi"],"summary":"要素辞書に一致（iso_ishi）。出典による裏づけは未確認。","zones":[],"dataset":"candidates"}},{"type":"Feature","geometry":{"type":"Point","coordinates":[136.838861,34.389458]},"properties":{"id":"24-5588d2d1da","name":"磯部町山田","reading":"イソベチョウヤマダ","pref":"三重県","prefCode":"24","municipality":"志摩市","hazardTypes":["rockfall","debris_flow"],"evidenceLevel":0,"status":"current","disputed":false,"precision":"oaza","areaKey":"242150250","elements":["iso_ishi"],"summary":"要素辞書に一致（iso_ishi）。出典による裏づけは未確認。","zones":[],"dataset":"candidates"}},{"type":"Feature","geometry":{"type":"Point","coordinates":[136.763077,34.361814]},"properties":{"id":"24-8364ce330a","name":"磯部町山原","reading":"イソベチョウヤマハラ","pref":"三重県","prefCode":"24","municipality":"志摩市","hazardTypes":["rockfall","debris_flow"],"evidenceLevel":0,"status":"current","disputed":false,"precision":"oaza","areaKey":"242150330","elements":["iso_ishi"],"summary":"要素辞書に一致（iso_ishi）。出典による裏づけは未確認。","zones":[],"dataset":"candidates"}},{"type":"Feature","geometry":{"type":"Point","coordinates":[136.873598,34.361284]},"properties":{"id":"24-b03497fb41","name":"磯部町渡鹿野","reading":"イソベチョウワタカノ","pref":"三重県","prefCode":"24","municipality":"志摩市","hazardTypes":["rockfall","debris_flow","landslide","soft_ground"],"evidenceLevel":0,"status":"current","disputed":false,"precision":"oaza","areaKey":"242150400","elements":["iso_ishi","shishi"],"summary":"要素辞書に一致（iso_ishi・shishi）。出典による裏づけは未確認。","zones":[],"dataset":"candidates"}},{"type":"Feature","geometry":{"type":"Point","coordinates":[136.141646,34.717238]},"properties":{"id":"24-07fdda11ee","name":"猪田","reading":"イダ","pref":"三重県","prefCode":"24","municipality":"伊賀市","hazardTypes":["landslide","soft_ground"],"evidenceLevel":0,"status":"current","disputed":false,"precision":"oaza","areaKey":"242160960","elements":["shishi"],"summary":"要素辞書に一致（shishi）。出典による裏づけは未確認。","zones":[],"dataset":"candidates"}},{"type":"Feature","geometry":{"type":"Point","coordinates":[136.098479,34.779519]},"properties":{"id":"24-7e0c382f72","name":"岩倉","reading":"イワクラ","pref":"三重県","prefCode":"24","municipality":"伊賀市","hazardTypes":["slope_failure","rockfall"],"evidenceLevel":0,"status":"current","disputed":false,"precision":"oaza","areaKey":"242160630","elements":["kura"],"summary":"要素辞書に一致（kura）。出典による裏づけは未確認。","zones":[],"dataset":"candidates"}},{"type":"Feature","geometry":{"type":"Point","coordinates":[136.133097,34.76572]},"properties":{"id":"24-285ae7ebc7","name":"上野鍛冶町","reading":"ウエノカジマチ","pref":"三重県","prefCode":"24","municipality":"伊賀市","hazardTypes":["slope_failure"],"evidenceLevel":0,"status":"current","disputed":false,"precision":"oaza","areaKey":"242161330","elements":["kaji_kamu"],"summary":"要素辞書に一致（kaji_kamu）。出典による裏づけは未確認。","zones":[],"dataset":"candidates"}},{"type":"Feature","geometry":{"type":"Point","coordinates":[136.243151,34.652337]},"properties":{"id":"24-133fb7b360","name":"奥鹿野","reading":"オクガノ","pref":"三重県","prefCode":"24","municipality":"伊賀市","hazardTypes":["landslide","soft_ground"],"evidenceLevel":0,"status":"current","disputed":false,"precision":"oaza","areaKey":"242162180","elements":["shishi"],"summary":"要素辞書に一致（shishi）。出典による裏づけは未確認。","zones":[],"dataset":"candidates"}},{"type":"Feature","geometry":{"type":"Point","coordinates":[136.124957,34.699739]},"properties":{"id":"24-263e5eb9d2","name":"鍛冶屋","reading":"カジヤ","pref":"三重県","prefCode":"24","municipality":"伊賀市","hazardTypes":["slope_failure"],"evidenceLevel":0,"status":"current","disputed":false,"precision":"oaza","areaKey":"242161220","elements":["kaji_kamu"],"summary":"要素辞書に一致（kaji_kamu）。出典による裏づけは未確認。","zones":[],"dataset":"candidates"}},{"type":"Feature","geometry":{"type":"Point","coordinates":[136.113634,34.696123]},"properties":{"id":"24-f8fb293306","name":"蔵縄手","reading":"クラナワテ","pref":"三重県","prefCode":"24","municipality":"伊賀市","hazardTypes":["slope_failure","rockfall"],"evidenceLevel":0,"status":"current","disputed":false,"precision":"oaza","areaKey":"242161190","elements":["kura"],"summary":"要素辞書に一致（kura）。出典による裏づけは未確認。","zones":[],"dataset":"candidates"}},{"type":"Feature","geometry":{"type":"Point","coordinates":[136.199399,34.684995]},"properties":{"id":"24-48485e038d","name":"下川原","reading":"シモガワラ","pref":"三重県","prefCode":"24","municipality":"伊賀市","hazardTypes":["flood"],"evidenceLevel":0,"status":"current","disputed":false,"precision":"oaza","areaKey":"242162200","elements":["kawara"],"summary":"要素辞書に一致（kawara）。出典による裏づけは未確認。","zones":[],"dataset":"candidates"}},{"type":"Feature","geometry":{"type":"Point","coordinates":[136.149308,34.751345]},"properties":{"id":"24-24f82589cf","name":"広川原","reading":null,"pref":"三重県","prefCode":"24","municipality":"伊賀市","hazardTypes":["flood"],"evidenceLevel":0,"status":"current","disputed":false,"precision":"koaza","areaKey":"242160930","elements":["kawara"],"summary":"要素辞書に一致（kawara）。出典による裏づけは未確認。","zones":[],"dataset":"candidates"}},{"type":"Feature","geometry":{"type":"Point","coordinates":[136.115234,34.704925]},"properties":{"id":"24-7e7185dc4a","name":"菖蒲池","reading":"ショウブイケ","pref":"三重県","prefCode":"24","municipality":"伊賀市","hazardTypes":["landslide","soft_ground"],"evidenceLevel":0,"status":"current","disputed":false,"precision":"oaza","areaKey":"242161210","elements":["wetland_plants"],"summary":"要素辞書に一致（wetland_plants）。出典による裏づけは未確認。","zones":[],"dataset":"candidates"}},{"type":"Feature","geometry":{"type":"Point","coordinates":[136.094135,34.794799]},"properties":{"id":"24-1ad163042b","name":"西高倉","reading":"ニシタカクラ","pref":"三重県","prefCode":"24","municipality":"伊賀市","hazardTypes":["slope_failure","rockfall"],"evidenceLevel":0,"status":"current","disputed":false,"precision":"oaza","areaKey":"242160610","elements":["kura"],"summary":"要素辞書に一致（kura）。出典による裏づけは未確認。","zones":[],"dataset":"candidates"}},{"type":"Feature","geometry":{"type":"Point","coordinates":[136.173653,34.82662]},"properties":{"id":"24-2302157f50","name":"馬場","reading":"ババ","pref":"三重県","prefCode":"24","municipality":"伊賀市","hazardTypes":["slope_failure"],"evidenceLevel":0,"status":"current","disputed":false,"precision":"oaza","areaKey":"242161680","elements":["baba"],"summary":"要素辞書に一致（baba）。出典による裏づけは未確認。","zones":[],"dataset":"candidates"}},{"type":"Feature","geometry":{"type":"Point","coordinates":[136.111441,34.790292]},"properties":{"id":"24-ca2e08746c","name":"東高倉","reading":"ヒガシタカクラ","pref":"三重県","prefCode":"24","municipality":"伊賀市","hazardTypes":["slope_failure","rockfall"],"evidenceLevel":0,"status":"current","disputed":false,"precision":"oaza","areaKey":"242160600","elements":["kura"],"summary":"要素辞書に一致（kura）。出典による裏づけは未確認。","zones":[],"dataset":"candidates"}},{"type":"Feature","geometry":{"type":"Point","coordinates":[136.140967,34.769696]},"properties":{"id":"24-6bf53e680a","name":"平野蔵垣内","reading":"ヒラノクラガイト","pref":"三重県","prefCode":"24","municipality":"伊賀市","hazardTypes":["slope_failure","rockfall","inundation"],"evidenceLevel":0,"status":"current","disputed":false,"precision":"oaza","areaKey":null,"elements":["kura","yato"],"summary":"要素辞書に一致（kura・yato）。出典による裏づけは未確認。","zones":[],"dataset":"candidates"}},{"type":"Feature","geometry":{"type":"Point","coordinates":[136.129336,34.775833]},"properties":{"id":"24-767b9ad210","name":"平野中川原","reading":"ヒラノナカガワラ","pref":"三重県","prefCode":"24","municipality":"伊賀市","hazardTypes":["flood"],"evidenceLevel":0,"status":"current","disputed":false,"precision":"oaza","areaKey":null,"elements":["kawara"],"summary":"要素辞書に一致（kawara）。出典による裏づけは未確認。","zones":[],"dataset":"candidates"}},{"type":"Feature","geometry":{"type":"Point","coordinates":[136.289381,34.752937]},"properties":{"id":"24-5da5747509","name":"猿野","reading":"マシノ","pref":"三重県","prefCode":"24","municipality":"伊賀市","hazardTypes":["slope_failure"],"evidenceLevel":0,"status":"current","disputed":false,"precision":"oaza","areaKey":"242162060","elements":["saru"],"summary":"要素辞書に一致（saru）。出典による裏づけは未確認。","zones":[],"dataset":"candidates"}},{"type":"Feature","geometry":{"type":"Point","coordinates":[136.594817,35.08851]},"properties":{"id":"24-484f92c188","name":"木之倉","reading":null,"pref":"三重県","prefCode":"24","municipality":"員弁郡東員町","hazardTypes":["slope_failure","rockfall"],"evidenceLevel":0,"status":"current","disputed":false,"precision":"koaza","areaKey":null,"elements":["kura"],"summary":"要素辞書に一致（kura）。出典による裏づけは未確認。","zones":[],"dataset":"candidates"}},{"type":"Feature","geometry":{"type":"Point","coordinates":[136.5285,35.016125]},"properties":{"id":"24-af619b80a9","name":"大字吉澤","reading":null,"pref":"三重県","prefCode":"24","municipality":"三重郡菰野町","hazardTypes":["landslide","soft_ground"],"evidenceLevel":0,"status":"current","disputed":false,"precision":"oaza","areaKey":null,"elements":["wetland_plants"],"summary":"要素辞書に一致（wetland_plants）。出典による裏づけは未確認。","zones":[],"dataset":"candidates"}},{"type":"Feature","geometry":{"type":"Point","coordinates":[136.645787,35.035443]},"properties":{"id":"24-459f7424d6","name":"大字埋縄","reading":null,"pref":"三重県","prefCode":"24","municipality":"三重郡朝日町","hazardTypes":["landslide","slope_failure"],"evidenceLevel":0,"status":"current","disputed":false,"precision":"oaza","areaKey":null,"elements":["ume"],"summary":"要素辞書に一致（ume）。出典による裏づけは未確認。","zones":[],"dataset":"candidates"}},{"type":"Feature","geometry":{"type":"Point","coordinates":[136.657153,35.033941]},"properties":{"id":"24-aaaffda587","name":"大字柿","reading":null,"pref":"三重県","prefCode":"24","municipality":"三重郡朝日町","hazardTypes":["slope_failure"],"evidenceLevel":0,"status":"current","disputed":false,"precision":"oaza","areaKey":null,"elements":["kake"],"summary":"要素辞書に一致（kake）。出典による裏づけは未確認。","zones":[],"dataset":"candidates"}},{"type":"Feature","geometry":{"type":"Point","coordinates":[136.657029,35.041148]},"properties":{"id":"24-f33e770079","name":"白梅の丘西一丁目","reading":"シラウメノオカニシ 1","pref":"三重県","prefCode":"24","municipality":"三重郡朝日町","hazardTypes":["landslide","slope_failure"],"evidenceLevel":0,"status":"current","disputed":false,"precision":"oaza","areaKey":null,"elements":["ume"],"summary":"要素辞書に一致（ume）。出典による裏づけは未確認。","zones":[],"dataset":"candidates"}},{"type":"Feature","geometry":{"type":"Point","coordinates":[136.662722,35.040615]},"properties":{"id":"24-087afc41f2","name":"白梅の丘東一丁目","reading":"シラウメノオカヒガシ 1","pref":"三重県","prefCode":"24","municipality":"三重郡朝日町","hazardTypes":["landslide","slope_failure"],"evidenceLevel":0,"status":"current","disputed":false,"precision":"oaza","areaKey":null,"elements":["ume"],"summary":"要素辞書に一致（ume）。出典による裏づけは未確認。","zones":[],"dataset":"candidates"}},{"type":"Feature","geometry":{"type":"Point","coordinates":[136.681631,35.035638]},"properties":{"id":"24-9350d483e9","name":"北川原","reading":null,"pref":"三重県","prefCode":"24","municipality":"三重郡川越町","hazardTypes":["flood"],"evidenceLevel":0,"status":"current","disputed":false,"precision":"koaza","areaKey":null,"elements":["kawara"],"summary":"要素辞書に一致（kawara）。出典による裏づけは未確認。","zones":[],"dataset":"candidates"}},{"type":"Feature","geometry":{"type":"Point","coordinates":[136.559959,34.455911]},"properties":{"id":"24-eb2259a333","name":"相鹿瀬","reading":"オウカセ","pref":"三重県","prefCode":"24","municipality":"多気郡多気町","hazardTypes":["landslide","soft_ground"],"evidenceLevel":0,"status":"current","disputed":false,"precision":"oaza","areaKey":null,"elements":["shishi"],"summary":"要素辞書に一致（shishi）。出典による裏づけは未確認。","zones":[],"dataset":"candidates"}},{"type":"Feature","geometry":{"type":"Point","coordinates":[136.634516,34.575043]},"properties":{"id":"24-19e19a14ad","name":"大字根倉","reading":null,"pref":"三重県","prefCode":"24","municipality":"多気郡明和町","hazardTypes":["slope_failure","rockfall"],"evidenceLevel":0,"status":"current","disputed":false,"precision":"oaza","areaKey":null,"elements":["kura"],"summary":"要素辞書に一致（kura）。出典による裏づけは未確認。","zones":[],"dataset":"candidates"}},{"type":"Feature","geometry":{"type":"Point","coordinates":[136.379293,34.381767]},"properties":{"id":"24-820f63b862","name":"上菅","reading":"カミスガ","pref":"三重県","prefCode":"24","municipality":"多気郡大台町","hazardTypes":["landslide","soft_ground"],"evidenceLevel":0,"status":"current","disputed":false,"precision":"oaza","areaKey":null,"elements":["wetland_plants"],"summary":"要素辞書に一致（wetland_plants）。出典による裏づけは未確認。","zones":[],"dataset":"candidates"}},{"type":"Feature","geometry":{"type":"Point","coordinates":[136.388855,34.364232]},"properties":{"id":"24-2d70d84c4d","name":"菅合","reading":"スガアイ","pref":"三重県","prefCode":"24","municipality":"多気郡大台町","hazardTypes":["landslide","soft_ground"],"evidenceLevel":0,"status":"current","disputed":false,"precision":"oaza","areaKey":null,"elements":["wetland_plants"],"summary":"要素辞書に一致（wetland_plants）。出典による裏づけは未確認。","zones":[],"dataset":"candidates"}},{"type":"Feature","geometry":{"type":"Point","coordinates":[136.378412,34.371461]},"properties":{"id":"24-d278028b45","name":"菅木屋","reading":"スガゴヤ","pref":"三重県","prefCode":"24","municipality":"多気郡大台町","hazardTypes":["landslide","soft_ground"],"evidenceLevel":0,"status":"current","disputed":false,"precision":"oaza","areaKey":null,"elements":["wetland_plants"],"summary":"要素辞書に一致（wetland_plants）。出典による裏づけは未確認。","zones":[],"dataset":"candidates"}},{"type":"Feature","geometry":{"type":"Point","coordinates":[136.640644,34.511057]},"properties":{"id":"24-75c8e4b7e4","name":"井倉","reading":"イグラ","pref":"三重県","prefCode":"24","municipality":"度会郡玉城町","hazardTypes":["slope_failure","rockfall"],"evidenceLevel":0,"status":"current","disputed":false,"precision":"oaza","areaKey":null,"elements":["kura"],"summary":"要素辞書に一致（kura）。出典による裏づけは未確認。","zones":[],"dataset":"candidates"}},{"type":"Feature","geometry":{"type":"Point","coordinates":[136.586136,34.441684]},"properties":{"id":"24-87060d667e","name":"大久保","reading":"オオクボ","pref":"三重県","prefCode":"24","municipality":"度会郡度会町","hazardTypes":["slope_failure","inundation","landslide"],"evidenceLevel":0,"status":"current","disputed":false,"precision":"oaza","areaKey":null,"elements":["afu_oo","kubo"],"summary":"要素辞書に一致（afu_oo・kubo）。出典による裏づけは未確認。","zones":[],"dataset":"candidates"}},{"type":"Feature","geometry":{"type":"Point","coordinates":[136.019948,33.799242]},"properties":{"id":"24-c7acd70b59","name":"大字柿原","reading":null,"pref":"三重県","prefCode":"24","municipality":"南牟婁郡御浜町","hazardTypes":["slope_failure"],"evidenceLevel":0,"status":"current","disputed":false,"precision":"oaza","areaKey":null,"elements":["kake"],"summary":"要素辞書に一致（kake）。出典による裏づけは未確認。","zones":[],"dataset":"candidates"}}]}
