{"type":"FeatureCollection","features":[{"type":"Feature","geometry":{"type":"Point","coordinates":[135.865958,34.995863]},"properties":{"id":"25-d5d98aa8ea","name":"梅林町","reading":null,"pref":"滋賀県","prefCode":"25","municipality":"大津市","hazardTypes":["landslide","slope_failure"],"evidenceLevel":0,"originLevel":0,"hasRecord":false,"recordRelation":null,"status":"current","disputed":false,"precision":"oaza","areaKey":null,"elements":["ume"],"summary":"要素辞書に一致（ume）。出典による裏づけは未確認。","zones":[],"dataset":"candidates"}},{"type":"Feature","geometry":{"type":"Point","coordinates":[135.868857,35.003488]},"properties":{"id":"25-6e968f9a6f","name":"梅林一丁目","reading":"ウメバヤシ 1","pref":"滋賀県","prefCode":"25","municipality":"大津市","hazardTypes":["landslide","slope_failure"],"evidenceLevel":0,"originLevel":0,"hasRecord":false,"recordRelation":null,"status":"current","disputed":false,"precision":"oaza","areaKey":"25201166001","elements":["ume"],"summary":"要素辞書に一致（ume）。出典による裏づけは未確認。","zones":[],"dataset":"candidates"}},{"type":"Feature","geometry":{"type":"Point","coordinates":[135.861011,35.268921]},"properties":{"id":"25-85d268f6a1","name":"葛川梅ノ木町","reading":"カツラガワウメノキチョウ","pref":"滋賀県","prefCode":"25","municipality":"大津市","hazardTypes":["landslide","slope_failure"],"evidenceLevel":0,"originLevel":0,"hasRecord":false,"recordRelation":null,"status":"current","disputed":false,"precision":"oaza","areaKey":"252010060","elements":["ume"],"summary":"要素辞書に一致（ume）。出典による裏づけは未確認。","zones":[],"dataset":"candidates"}},{"type":"Feature","geometry":{"type":"Point","coordinates":[135.886357,35.082141]},"properties":{"id":"25-01a7f08895","name":"苗鹿一丁目","reading":"ノウカ 1","pref":"滋賀県","prefCode":"25","municipality":"大津市","hazardTypes":["landslide","soft_ground"],"evidenceLevel":0,"originLevel":0,"hasRecord":false,"recordRelation":null,"status":"current","disputed":false,"precision":"oaza","areaKey":"25201064001","elements":["shishi"],"summary":"要素辞書に一致（shishi）。出典による裏づけは未確認。","zones":[],"dataset":"candidates"}},{"type":"Feature","geometry":{"type":"Point","coordinates":[135.882458,35.002071]},"properties":{"id":"25-163a9397d3","name":"馬場一丁目","reading":"バンバ 1","pref":"滋賀県","prefCode":"25","municipality":"大津市","hazardTypes":["slope_failure"],"evidenceLevel":0,"originLevel":0,"hasRecord":false,"recordRelation":null,"status":"current","disputed":false,"precision":"oaza","areaKey":"25201191001","elements":["baba"],"summary":"要素辞書に一致（baba）。出典による裏づけは未確認。","zones":[],"dataset":"candidates"}},{"type":"Feature","geometry":{"type":"Point","coordinates":[135.90285,35.129219]},"properties":{"id":"25-cbefbdfa8b","name":"真野家田町","reading":"マノイエダチョウ","pref":"滋賀県","prefCode":"25","municipality":"大津市","hazardTypes":["slope_failure"],"evidenceLevel":0,"originLevel":0,"hasRecord":false,"recordRelation":null,"status":"current","disputed":false,"precision":"oaza","areaKey":"252010310","elements":["nuke"],"summary":"要素辞書に一致（nuke）。出典による裏づけは未確認。","zones":[],"dataset":"candidates"}},{"type":"Feature","geometry":{"type":"Point","coordinates":[136.230254,35.226775]},"properties":{"id":"25-3d0654f94d","name":"川瀬馬場町","reading":"カワセババチョウ","pref":"滋賀県","prefCode":"25","municipality":"彦根市","hazardTypes":["slope_failure"],"evidenceLevel":0,"originLevel":0,"hasRecord":false,"recordRelation":null,"status":"current","disputed":false,"precision":"oaza","areaKey":"25202096001","elements":["baba"],"summary":"要素辞書に一致（baba）。出典による裏づけは未確認。","zones":[],"dataset":"candidates"}},{"type":"Feature","geometry":{"type":"Point","coordinates":[136.257037,35.262926]},"properties":{"id":"25-daa3d7fb13","name":"河原一丁目","reading":"カワラ 1","pref":"滋賀県","prefCode":"25","municipality":"彦根市","hazardTypes":["flood"],"evidenceLevel":0,"originLevel":0,"hasRecord":false,"recordRelation":null,"status":"current","disputed":false,"precision":"oaza","areaKey":"25202012001","elements":["kawara"],"summary":"要素辞書に一致（kawara）。出典による裏づけは未確認。","zones":[],"dataset":"candidates"}},{"type":"Feature","geometry":{"type":"Point","coordinates":[136.284468,35.291067]},"properties":{"id":"25-2cc96c6ddd","name":"下矢倉町","reading":"シモヤグラチョウ","pref":"滋賀県","prefCode":"25","municipality":"彦根市","hazardTypes":["slope_failure","rockfall"],"evidenceLevel":0,"originLevel":0,"hasRecord":false,"recordRelation":null,"status":"current","disputed":false,"precision":"oaza","areaKey":"252020770","elements":["kura"],"summary":"要素辞書に一致（kura）。出典による裏づけは未確認。","zones":[],"dataset":"candidates"}},{"type":"Feature","geometry":{"type":"Point","coordinates":[136.268826,35.253765]},"properties":{"id":"25-097295df6a","name":"地蔵町","reading":"ジゾウチョウ","pref":"滋賀県","prefCode":"25","municipality":"彦根市","hazardTypes":["slope_failure","rockfall"],"evidenceLevel":0,"originLevel":0,"hasRecord":false,"recordRelation":null,"status":"current","disputed":false,"precision":"oaza","areaKey":"25202059001","elements":["kura"],"summary":"要素辞書に一致（kura）。出典による裏づけは未確認。","zones":[],"dataset":"candidates"}},{"type":"Feature","geometry":{"type":"Point","coordinates":[136.262369,35.260096]},"properties":{"id":"25-c942966d5b","name":"芹川町","reading":"セリカワチョウ","pref":"滋賀県","prefCode":"25","municipality":"彦根市","hazardTypes":["landslide","soft_ground"],"evidenceLevel":0,"originLevel":0,"hasRecord":false,"recordRelation":null,"status":"current","disputed":false,"precision":"oaza","areaKey":"25202051001","elements":["wetland_plants"],"summary":"要素辞書に一致（wetland_plants）。出典による裏づけは未確認。","zones":[],"dataset":"candidates"}},{"type":"Feature","geometry":{"type":"Point","coordinates":[136.256206,35.261491]},"properties":{"id":"25-2fd2eefdee","name":"芹中町","reading":"セリナカマチ","pref":"滋賀県","prefCode":"25","municipality":"彦根市","hazardTypes":["landslide","soft_ground"],"evidenceLevel":0,"originLevel":0,"hasRecord":false,"recordRelation":null,"status":"current","disputed":false,"precision":"oaza","areaKey":"252020190","elements":["wetland_plants"],"summary":"要素辞書に一致（wetland_plants）。出典による裏づけは未確認。","zones":[],"dataset":"candidates"}},{"type":"Feature","geometry":{"type":"Point","coordinates":[136.252375,35.266333]},"properties":{"id":"25-ac39c185c3","name":"芹橋一丁目","reading":"セリバシ 1","pref":"滋賀県","prefCode":"25","municipality":"彦根市","hazardTypes":["landslide","soft_ground"],"evidenceLevel":0,"originLevel":0,"hasRecord":false,"recordRelation":null,"status":"current","disputed":false,"precision":"oaza","areaKey":"25202016001","elements":["wetland_plants"],"summary":"要素辞書に一致（wetland_plants）。出典による裏づけは未確認。","zones":[],"dataset":"candidates"}},{"type":"Feature","geometry":{"type":"Point","coordinates":[136.258834,35.261568]},"properties":{"id":"25-1943abb6cc","name":"芹町","reading":"セリマチ","pref":"滋賀県","prefCode":"25","municipality":"彦根市","hazardTypes":["landslide","soft_ground"],"evidenceLevel":0,"originLevel":0,"hasRecord":false,"recordRelation":null,"status":"current","disputed":false,"precision":"oaza","areaKey":"25202050001","elements":["wetland_plants"],"summary":"要素辞書に一致（wetland_plants）。出典による裏づけは未確認。","zones":[],"dataset":"candidates"}},{"type":"Feature","geometry":{"type":"Point","coordinates":[136.247178,35.279628]},"properties":{"id":"25-640f8347a6","name":"馬場一丁目","reading":"バンバ 1","pref":"滋賀県","prefCode":"25","municipality":"彦根市","hazardTypes":["slope_failure"],"evidenceLevel":0,"originLevel":0,"hasRecord":false,"recordRelation":null,"status":"current","disputed":false,"precision":"oaza","areaKey":"25202039001","elements":["baba"],"summary":"要素辞書に一致（baba）。出典による裏づけは未確認。","zones":[],"dataset":"candidates"}},{"type":"Feature","geometry":{"type":"Point","coordinates":[136.212409,35.238871]},"properties":{"id":"25-169164c5e2","name":"日夏町","reading":"ヒナツチョウ","pref":"滋賀県","prefCode":"25","municipality":"彦根市","hazardTypes":["debris_flow","slope_failure"],"evidenceLevel":0,"originLevel":0,"hasRecord":false,"recordRelation":null,"status":"current","disputed":false,"precision":"oaza","areaKey":"25202075002","elements":["nazu_natsu"],"summary":"要素辞書に一致（nazu_natsu）。出典による裏づけは未確認。","zones":[],"dataset":"candidates"}},{"type":"Feature","geometry":{"type":"Point","coordinates":[136.247136,35.414337]},"properties":{"id":"25-3f222ef33d","name":"柿ノ木","reading":"カキノキ","pref":"滋賀県","prefCode":"25","municipality":"長浜市","hazardTypes":["slope_failure"],"evidenceLevel":0,"originLevel":0,"hasRecord":false,"recordRelation":null,"status":"current","disputed":false,"precision":"oaza","areaKey":"252031690","elements":["kake"],"summary":"要素辞書に一致（kake）。出典による裏づけは未確認。","zones":[],"dataset":"candidates"}},{"type":"Feature","geometry":{"type":"Point","coordinates":[136.331009,35.457697]},"properties":{"id":"25-26f7955622","name":"鍛冶屋町","reading":"カジヤチョウ","pref":"滋賀県","prefCode":"25","municipality":"長浜市","hazardTypes":["slope_failure"],"evidenceLevel":0,"originLevel":0,"hasRecord":false,"recordRelation":null,"status":"current","disputed":false,"precision":"oaza","areaKey":"252031360","elements":["kaji_kamu"],"summary":"要素辞書に一致（kaji_kamu）。出典による裏づけは未確認。","zones":[],"dataset":"candidates"}},{"type":"Feature","geometry":{"type":"Point","coordinates":[136.240681,35.435171]},"properties":{"id":"25-3c54f86625","name":"湖北町小倉","reading":"コホクチョウオグラ","pref":"滋賀県","prefCode":"25","municipality":"長浜市","hazardTypes":["slope_failure","rockfall"],"evidenceLevel":0,"originLevel":0,"hasRecord":false,"recordRelation":null,"status":"current","disputed":false,"precision":"oaza","areaKey":"252031830","elements":["kura"],"summary":"要素辞書に一致（kura）。出典による裏づけは未確認。","zones":[],"dataset":"candidates"}},{"type":"Feature","geometry":{"type":"Point","coordinates":[136.262619,35.401505]},"properties":{"id":"25-558401e413","name":"新庄馬場町","reading":"シンジョウバンバチョウ","pref":"滋賀県","prefCode":"25","municipality":"長浜市","hazardTypes":["slope_failure"],"evidenceLevel":0,"originLevel":0,"hasRecord":false,"recordRelation":null,"status":"current","disputed":false,"precision":"oaza","areaKey":"252030520","elements":["baba"],"summary":"要素辞書に一致（baba）。出典による裏づけは未確認。","zones":[],"dataset":"candidates"}},{"type":"Feature","geometry":{"type":"Point","coordinates":[136.210283,35.478713]},"properties":{"id":"25-cb7b2fabdb","name":"高月町磯野","reading":"タカツキチョウイソノ","pref":"滋賀県","prefCode":"25","municipality":"長浜市","hazardTypes":["rockfall","debris_flow"],"evidenceLevel":0,"originLevel":0,"hasRecord":false,"recordRelation":null,"status":"current","disputed":false,"precision":"oaza","areaKey":"252032400","elements":["iso_ishi"],"summary":"要素辞書に一致（iso_ishi）。出典による裏づけは未確認。","zones":[],"dataset":"candidates"}},{"type":"Feature","geometry":{"type":"Point","coordinates":[136.237822,35.474961]},"properties":{"id":"25-661a4b9a11","name":"高月町渡岸寺","reading":"タカツキチョウドウガンジ","pref":"滋賀県","prefCode":"25","municipality":"長浜市","hazardTypes":["slope_failure"],"evidenceLevel":0,"originLevel":0,"hasRecord":false,"recordRelation":null,"status":"current","disputed":false,"precision":"oaza","areaKey":"252032180","elements":["kake"],"summary":"要素辞書に一致（kake）。出典による裏づけは未確認。","zones":[],"dataset":"candidates"}},{"type":"Feature","geometry":{"type":"Point","coordinates":[136.146236,35.455888]},"properties":{"id":"25-5f9853fe1e","name":"西浅井町菅浦","reading":"ニシアザイチョウスガウラ","pref":"滋賀県","prefCode":"25","municipality":"長浜市","hazardTypes":["landslide","soft_ground"],"evidenceLevel":0,"originLevel":0,"hasRecord":false,"recordRelation":null,"status":"current","disputed":false,"precision":"oaza","areaKey":"252032950","elements":["wetland_plants"],"summary":"要素辞書に一致（wetland_plants）。出典による裏づけは未確認。","zones":[],"dataset":"candidates"}},{"type":"Feature","geometry":{"type":"Point","coordinates":[136.32006,35.437554]},"properties":{"id":"25-97d2101c13","name":"乗倉町","reading":"ノセクラチョウ","pref":"滋賀県","prefCode":"25","municipality":"長浜市","hazardTypes":["slope_failure","rockfall"],"evidenceLevel":0,"originLevel":0,"hasRecord":false,"recordRelation":null,"status":"current","disputed":false,"precision":"oaza","areaKey":"252031180","elements":["kura"],"summary":"要素辞書に一致（kura）。出典による裏づけは未確認。","zones":[],"dataset":"candidates"}},{"type":"Feature","geometry":{"type":"Point","coordinates":[136.31043,35.391585]},"properties":{"id":"25-d81ea5e363","name":"南小足町","reading":"ミナミコアシチョウ","pref":"滋賀県","prefCode":"25","municipality":"長浜市","hazardTypes":["flood","inundation"],"evidenceLevel":0,"originLevel":0,"hasRecord":false,"recordRelation":null,"status":"current","disputed":false,"precision":"oaza","areaKey":"252030380","elements":["ashi"],"summary":"要素辞書に一致（ashi）。出典による裏づけは未確認。","zones":[],"dataset":"candidates"}},{"type":"Feature","geometry":{"type":"Point","coordinates":[136.22987,35.596889]},"properties":{"id":"25-b7fcbd9748","name":"余呉町菅並","reading":"ヨゴチョウスガナミ","pref":"滋賀県","prefCode":"25","municipality":"長浜市","hazardTypes":["landslide","soft_ground"],"evidenceLevel":0,"originLevel":0,"hasRecord":false,"recordRelation":null,"status":"current","disputed":false,"precision":"oaza","areaKey":"252032700","elements":["wetland_plants"],"summary":"要素辞書に一致（wetland_plants）。出典による裏づけは未確認。","zones":[],"dataset":"candidates"}},{"type":"Feature","geometry":{"type":"Point","coordinates":[136.163642,35.137733]},"properties":{"id":"25-78b47100ac","name":"安土町石寺","reading":"アヅチチョウイシデラ","pref":"滋賀県","prefCode":"25","municipality":"近江八幡市","hazardTypes":["debris_flow","slope_failure"],"evidenceLevel":0,"originLevel":0,"hasRecord":false,"recordRelation":null,"status":"current","disputed":false,"precision":"oaza","areaKey":"252041750","elements":["azu"],"summary":"要素辞書に一致（azu）。出典による裏づけは未確認。","zones":[],"dataset":"candidates"}},{"type":"Feature","geometry":{"type":"Point","coordinates":[136.160838,35.112786]},"properties":{"id":"25-f51405cf05","name":"安土町内野","reading":"アヅチチョウウチノ","pref":"滋賀県","prefCode":"25","municipality":"近江八幡市","hazardTypes":["debris_flow","slope_failure"],"evidenceLevel":0,"originLevel":0,"hasRecord":false,"recordRelation":null,"status":"current","disputed":false,"precision":"oaza","areaKey":"252041760","elements":["azu"],"summary":"要素辞書に一致（azu）。出典による裏づけは未確認。","zones":[],"dataset":"candidates"}},{"type":"Feature","geometry":{"type":"Point","coordinates":[136.152406,35.132408]},"properties":{"id":"25-30b402252c","name":"安土町上出","reading":"アヅチチョウカミデ","pref":"滋賀県","prefCode":"25","municipality":"近江八幡市","hazardTypes":["debris_flow","slope_failure"],"evidenceLevel":0,"originLevel":0,"hasRecord":false,"recordRelation":null,"status":"current","disputed":false,"precision":"oaza","areaKey":"252041630","elements":["azu"],"summary":"要素辞書に一致（azu）。出典による裏づけは未確認。","zones":[],"dataset":"candidates"}},{"type":"Feature","geometry":{"type":"Point","coordinates":[136.145875,35.139342]},"properties":{"id":"25-4e69dd5c2b","name":"安土町上豊浦","reading":"アヅチチョウカミトヨウラ","pref":"滋賀県","prefCode":"25","municipality":"近江八幡市","hazardTypes":["debris_flow","slope_failure"],"evidenceLevel":0,"originLevel":0,"hasRecord":false,"recordRelation":null,"status":"current","disputed":false,"precision":"oaza","areaKey":"252041680","elements":["azu"],"summary":"要素辞書に一致（azu）。出典による裏づけは未確認。","zones":[],"dataset":"candidates"}},{"type":"Feature","geometry":{"type":"Point","coordinates":[136.153854,35.143758]},"properties":{"id":"25-f31cfeb7e6","name":"安土町桑実寺","reading":"アヅチチョウクワノミジ","pref":"滋賀県","prefCode":"25","municipality":"近江八幡市","hazardTypes":["debris_flow","slope_failure"],"evidenceLevel":0,"originLevel":0,"hasRecord":false,"recordRelation":null,"status":"current","disputed":false,"precision":"oaza","areaKey":"252041700","elements":["azu","kuwa"],"summary":"要素辞書に一致（azu・kuwa）。出典による裏づけは未確認。","zones":[],"dataset":"candidates"}},{"type":"Feature","geometry":{"type":"Point","coordinates":[136.136818,35.136717]},"properties":{"id":"25-94c4375782","name":"安土町小中","reading":"アヅチチョウコナカ","pref":"滋賀県","prefCode":"25","municipality":"近江八幡市","hazardTypes":["debris_flow","slope_failure"],"evidenceLevel":0,"originLevel":0,"hasRecord":false,"recordRelation":null,"status":"current","disputed":false,"precision":"oaza","areaKey":"252041670","elements":["azu"],"summary":"要素辞書に一致（azu）。出典による裏づけは未確認。","zones":[],"dataset":"candidates"}},{"type":"Feature","geometry":{"type":"Point","coordinates":[136.123241,35.141753]},"properties":{"id":"25-707f1b6c92","name":"安土町香庄","reading":"アヅチチョウコノショウ","pref":"滋賀県","prefCode":"25","municipality":"近江八幡市","hazardTypes":["debris_flow","slope_failure"],"evidenceLevel":0,"originLevel":0,"hasRecord":false,"recordRelation":null,"status":"current","disputed":false,"precision":"oaza","areaKey":"252041640","elements":["azu"],"summary":"要素辞書に一致（azu）。出典による裏づけは未確認。","zones":[],"dataset":"candidates"}},{"type":"Feature","geometry":{"type":"Point","coordinates":[136.13501,35.154993]},"properties":{"id":"25-adaeb1c108","name":"安土町下豊浦","reading":"アヅチチョウシモトイラ","pref":"滋賀県","prefCode":"25","municipality":"近江八幡市","hazardTypes":["debris_flow","slope_failure"],"evidenceLevel":0,"originLevel":0,"hasRecord":false,"recordRelation":null,"status":"current","disputed":false,"precision":"oaza","areaKey":"252041690","elements":["azu"],"summary":"要素辞書に一致（azu）。出典による裏づけは未確認。","zones":[],"dataset":"candidates"}},{"type":"Feature","geometry":{"type":"Point","coordinates":[136.1295,35.136108]},"properties":{"id":"25-1cf5b2cbca","name":"安土町慈恩寺","reading":"アヅチチョウジオンジ","pref":"滋賀県","prefCode":"25","municipality":"近江八幡市","hazardTypes":["debris_flow","slope_failure"],"evidenceLevel":0,"originLevel":0,"hasRecord":false,"recordRelation":null,"status":"current","disputed":false,"precision":"oaza","areaKey":"252041650","elements":["azu"],"summary":"要素辞書に一致（azu）。出典による裏づけは未確認。","zones":[],"dataset":"candidates"}},{"type":"Feature","geometry":{"type":"Point","coordinates":[136.120146,35.15069]},"properties":{"id":"25-fb309aebf9","name":"安土町常楽寺","reading":"アヅチチョウジョウラクジ","pref":"滋賀県","prefCode":"25","municipality":"近江八幡市","hazardTypes":["debris_flow","slope_failure"],"evidenceLevel":0,"originLevel":0,"hasRecord":false,"recordRelation":null,"status":"current","disputed":false,"precision":"oaza","areaKey":"252041620","elements":["azu"],"summary":"要素辞書に一致（azu）。出典による裏づけは未確認。","zones":[],"dataset":"candidates"}},{"type":"Feature","geometry":{"type":"Point","coordinates":[136.120685,35.175415]},"properties":{"id":"25-ef34e25900","name":"安土町大中","reading":"アヅチチョウダイナカ","pref":"滋賀県","prefCode":"25","municipality":"近江八幡市","hazardTypes":["debris_flow","slope_failure"],"evidenceLevel":0,"originLevel":0,"hasRecord":false,"recordRelation":null,"status":"current","disputed":false,"precision":"oaza","areaKey":"252041720","elements":["azu"],"summary":"要素辞書に一致（azu）。出典による裏づけは未確認。","zones":[],"dataset":"candidates"}},{"type":"Feature","geometry":{"type":"Point","coordinates":[136.135274,35.130424]},"properties":{"id":"25-4d42d7bb87","name":"安土町中屋","reading":"アヅチチョウナカヤ","pref":"滋賀県","prefCode":"25","municipality":"近江八幡市","hazardTypes":["debris_flow","slope_failure"],"evidenceLevel":0,"originLevel":0,"hasRecord":false,"recordRelation":null,"status":"current","disputed":false,"precision":"oaza","areaKey":"252041660","elements":["azu"],"summary":"要素辞書に一致（azu）。出典による裏づけは未確認。","zones":[],"dataset":"candidates"}},{"type":"Feature","geometry":{"type":"Point","coordinates":[136.153979,35.123283]},"properties":{"id":"25-76ae8675ae","name":"安土町西老蘇","reading":"アヅチチョウニシオイソ","pref":"滋賀県","prefCode":"25","municipality":"近江八幡市","hazardTypes":["debris_flow","slope_failure"],"evidenceLevel":0,"originLevel":0,"hasRecord":false,"recordRelation":null,"status":"current","disputed":false,"precision":"oaza","areaKey":"252041740","elements":["azu"],"summary":"要素辞書に一致（azu）。出典による裏づけは未確認。","zones":[],"dataset":"candidates"}},{"type":"Feature","geometry":{"type":"Point","coordinates":[136.169773,35.125455]},"properties":{"id":"25-4e7e916540","name":"安土町東老蘇","reading":"アヅチチョウヒガシオイソ","pref":"滋賀県","prefCode":"25","municipality":"近江八幡市","hazardTypes":["debris_flow","slope_failure"],"evidenceLevel":0,"originLevel":0,"hasRecord":false,"recordRelation":null,"status":"current","disputed":false,"precision":"oaza","areaKey":"252041730","elements":["azu"],"summary":"要素辞書に一致（azu）。出典による裏づけは未確認。","zones":[],"dataset":"candidates"}},{"type":"Feature","geometry":{"type":"Point","coordinates":[136.14955,35.142521]},"properties":{"id":"25-252ee29e35","name":"安土町宮津","reading":"アヅチチョウミヤヅ","pref":"滋賀県","prefCode":"25","municipality":"近江八幡市","hazardTypes":["debris_flow","slope_failure"],"evidenceLevel":0,"originLevel":0,"hasRecord":false,"recordRelation":null,"status":"current","disputed":false,"precision":"oaza","areaKey":"252041710","elements":["azu"],"summary":"要素辞書に一致（azu）。出典による裏づけは未確認。","zones":[],"dataset":"candidates"}},{"type":"Feature","geometry":{"type":"Point","coordinates":[136.078372,35.104365]},"properties":{"id":"25-0963ad4dc6","name":"川原町一丁目","reading":"カワラマチ 1","pref":"滋賀県","prefCode":"25","municipality":"近江八幡市","hazardTypes":["flood"],"evidenceLevel":0,"originLevel":0,"hasRecord":false,"recordRelation":null,"status":"current","disputed":false,"precision":"oaza","areaKey":"252041130","elements":["kawara"],"summary":"要素辞書に一致（kawara）。出典による裏づけは未確認。","zones":[],"dataset":"candidates"}},{"type":"Feature","geometry":{"type":"Point","coordinates":[136.123475,35.093151]},"properties":{"id":"25-e3f84813a3","name":"倉橋部町","reading":"クラハシベチョウ","pref":"滋賀県","prefCode":"25","municipality":"近江八幡市","hazardTypes":["slope_failure","rockfall"],"evidenceLevel":0,"originLevel":0,"hasRecord":false,"recordRelation":null,"status":"current","disputed":false,"precision":"oaza","areaKey":"252041420","elements":["kura"],"summary":"要素辞書に一致（kura）。出典による裏づけは未確認。","zones":[],"dataset":"candidates"}},{"type":"Feature","geometry":{"type":"Point","coordinates":[136.084309,35.138559]},"properties":{"id":"25-a0b3e0859d","name":"佐久間町","reading":"サクマチョウ","pref":"滋賀県","prefCode":"25","municipality":"近江八幡市","hazardTypes":["flood"],"evidenceLevel":0,"originLevel":0,"hasRecord":false,"recordRelation":null,"status":"current","disputed":false,"precision":"oaza","areaKey":"252040610","elements":["sake"],"summary":"要素辞書に一致（sake）。出典による裏づけは未確認。","zones":[],"dataset":"candidates"}},{"type":"Feature","geometry":{"type":"Point","coordinates":[136.070667,35.107109]},"properties":{"id":"25-8b01160fcd","name":"古川町","reading":"フルカワチョウ","pref":"滋賀県","prefCode":"25","municipality":"近江八幡市","hazardTypes":["flood","inundation"],"evidenceLevel":0,"originLevel":0,"hasRecord":false,"recordRelation":null,"status":"current","disputed":false,"precision":"oaza","areaKey":"252041170","elements":["furukawa"],"summary":"要素辞書に一致（furukawa）。出典による裏づけは未確認。","zones":[],"dataset":"candidates"}},{"type":"Feature","geometry":{"type":"Point","coordinates":[135.955866,35.057181]},"properties":{"id":"25-ce6be5fa30","name":"芦浦町","reading":"アシウラチョウ","pref":"滋賀県","prefCode":"25","municipality":"草津市","hazardTypes":["flood","inundation"],"evidenceLevel":0,"originLevel":0,"hasRecord":false,"recordRelation":null,"status":"current","disputed":false,"precision":"oaza","areaKey":"252060780","elements":["ashi"],"summary":"要素辞書に一致（ashi）。出典による裏づけは未確認。","zones":[],"dataset":"candidates"}},{"type":"Feature","geometry":{"type":"Point","coordinates":[135.957561,35.034362]},"properties":{"id":"25-f691e5b915","name":"川原一丁目","reading":"カワラ 1","pref":"滋賀県","prefCode":"25","municipality":"草津市","hazardTypes":["flood"],"evidenceLevel":0,"originLevel":0,"hasRecord":false,"recordRelation":null,"status":"current","disputed":false,"precision":"oaza","areaKey":"25206070001","elements":["kawara"],"summary":"要素辞書に一致（kawara）。出典による裏づけは未確認。","zones":[],"dataset":"candidates"}},{"type":"Feature","geometry":{"type":"Point","coordinates":[135.956167,35.038516]},"properties":{"id":"25-ce0585c5c8","name":"川原町","reading":"カワラチョウ","pref":"滋賀県","prefCode":"25","municipality":"草津市","hazardTypes":["flood"],"evidenceLevel":0,"originLevel":0,"hasRecord":false,"recordRelation":null,"status":"current","disputed":false,"precision":"oaza","areaKey":"252060660","elements":["kawara"],"summary":"要素辞書に一致（kawara）。出典による裏づけは未確認。","zones":[],"dataset":"candidates"}},{"type":"Feature","geometry":{"type":"Point","coordinates":[135.947572,35.015138]},"properties":{"id":"25-8ee6528695","name":"西矢倉一丁目","reading":"ニシヤグラ 1","pref":"滋賀県","prefCode":"25","municipality":"草津市","hazardTypes":["slope_failure","rockfall"],"evidenceLevel":0,"originLevel":0,"hasRecord":false,"recordRelation":null,"status":"current","disputed":false,"precision":"oaza","areaKey":"25206031001","elements":["kura"],"summary":"要素辞書に一致（kura）。出典による裏づけは未確認。","zones":[],"dataset":"candidates"}},{"type":"Feature","geometry":{"type":"Point","coordinates":[135.98667,34.990089]},"properties":{"id":"25-efe8bdd538","name":"馬場町","reading":"バンバチョウ","pref":"滋賀県","prefCode":"25","municipality":"草津市","hazardTypes":["slope_failure"],"evidenceLevel":0,"originLevel":0,"hasRecord":false,"recordRelation":null,"status":"current","disputed":false,"precision":"oaza","areaKey":"252060010","elements":["baba"],"summary":"要素辞書に一致（baba）。出典による裏づけは未確認。","zones":[],"dataset":"candidates"}},{"type":"Feature","geometry":{"type":"Point","coordinates":[135.958711,35.00793]},"properties":{"id":"25-92f6c0e9d7","name":"東矢倉一丁目","reading":"ヒガシヤグラ 1","pref":"滋賀県","prefCode":"25","municipality":"草津市","hazardTypes":["slope_failure","rockfall"],"evidenceLevel":0,"originLevel":0,"hasRecord":false,"recordRelation":null,"status":"current","disputed":false,"precision":"oaza","areaKey":"25206027001","elements":["kura"],"summary":"要素辞書に一致（kura）。出典による裏づけは未確認。","zones":[],"dataset":"candidates"}},{"type":"Feature","geometry":{"type":"Point","coordinates":[135.936072,35.013925]},"properties":{"id":"25-ac46bc9bf2","name":"御倉町","reading":"ミクラチョウ","pref":"滋賀県","prefCode":"25","municipality":"草津市","hazardTypes":["slope_failure","rockfall"],"evidenceLevel":0,"originLevel":0,"hasRecord":false,"recordRelation":null,"status":"current","disputed":false,"precision":"oaza","areaKey":"252060520","elements":["kura"],"summary":"要素辞書に一致（kura）。出典による裏づけは未確認。","zones":[],"dataset":"candidates"}},{"type":"Feature","geometry":{"type":"Point","coordinates":[135.955368,35.010307]},"properties":{"id":"25-46b4bb8bf6","name":"矢倉一丁目","reading":"ヤグラ 1","pref":"滋賀県","prefCode":"25","municipality":"草津市","hazardTypes":["slope_failure","rockfall"],"evidenceLevel":0,"originLevel":0,"hasRecord":false,"recordRelation":null,"status":"current","disputed":false,"precision":"oaza","areaKey":"25206025001","elements":["kura"],"summary":"要素辞書に一致（kura）。出典による裏づけは未確認。","zones":[],"dataset":"candidates"}},{"type":"Feature","geometry":{"type":"Point","coordinates":[135.995432,35.052304]},"properties":{"id":"25-b481c7c4d6","name":"梅田町","reading":"ウメダチョウ","pref":"滋賀県","prefCode":"25","municipality":"守山市","hazardTypes":["landslide","slope_failure"],"evidenceLevel":0,"originLevel":0,"hasRecord":false,"recordRelation":null,"status":"current","disputed":false,"precision":"oaza","areaKey":"252070080","elements":["ume"],"summary":"要素辞書に一致（ume）。出典による裏づけは未確認。","zones":[],"dataset":"candidates"}},{"type":"Feature","geometry":{"type":"Point","coordinates":[136.001065,35.049495]},"properties":{"id":"25-2a75545e15","name":"浮気町","reading":"フケチョウ","pref":"滋賀県","prefCode":"25","municipality":"守山市","hazardTypes":["soft_ground","inundation"],"evidenceLevel":0,"originLevel":0,"hasRecord":false,"recordRelation":null,"status":"current","disputed":false,"precision":"oaza","areaKey":"25207007001","elements":["fuke"],"summary":"要素辞書に一致（fuke）。出典による裏づけは未確認。","zones":[],"dataset":"candidates"}},{"type":"Feature","geometry":{"type":"Point","coordinates":[135.953526,35.064982]},"properties":{"id":"25-7befc6e2a2","name":"森川原町","reading":"モリカワラチョウ","pref":"滋賀県","prefCode":"25","municipality":"守山市","hazardTypes":["flood"],"evidenceLevel":0,"originLevel":0,"hasRecord":false,"recordRelation":null,"status":"current","disputed":false,"precision":"oaza","areaKey":"252070220","elements":["kawara"],"summary":"要素辞書に一致（kawara）。出典による裏づけは未確認。","zones":[],"dataset":"candidates"}},{"type":"Feature","geometry":{"type":"Point","coordinates":[135.976704,35.025835]},"properties":{"id":"25-f9656f0879","name":"小柿一丁目","reading":"オガキ 1","pref":"滋賀県","prefCode":"25","municipality":"栗東市","hazardTypes":["slope_failure"],"evidenceLevel":0,"originLevel":0,"hasRecord":false,"recordRelation":null,"status":"current","disputed":false,"precision":"oaza","areaKey":"25208009101","elements":["kake"],"summary":"要素辞書に一致（kake）。出典による裏づけは未確認。","zones":[],"dataset":"candidates"}},{"type":"Feature","geometry":{"type":"Point","coordinates":[136.031209,35.017542]},"properties":{"id":"25-42e1896294","name":"六地蔵","reading":"ロクジゾウ","pref":"滋賀県","prefCode":"25","municipality":"栗東市","hazardTypes":["slope_failure","rockfall"],"evidenceLevel":0,"originLevel":0,"hasRecord":false,"recordRelation":null,"status":"current","disputed":false,"precision":"oaza","areaKey":"252080130","elements":["kura"],"summary":"要素辞書に一致（kura）。出典による裏づけは未確認。","zones":[],"dataset":"candidates"}},{"type":"Feature","geometry":{"type":"Point","coordinates":[136.234688,34.904681]},"properties":{"id":"25-d4d0f2b287","name":"甲賀町大久保","reading":"コウカチョウオオクボ","pref":"滋賀県","prefCode":"25","municipality":"甲賀市","hazardTypes":["slope_failure","inundation","landslide"],"evidenceLevel":0,"originLevel":0,"hasRecord":false,"recordRelation":null,"status":"current","disputed":false,"precision":"oaza","areaKey":null,"elements":["afu_oo","kubo"],"summary":"要素辞書に一致（afu_oo・kubo）。出典による裏づけは未確認。","zones":[],"dataset":"candidates"}},{"type":"Feature","geometry":{"type":"Point","coordinates":[136.233892,34.896381]},"properties":{"id":"25-a921d19cbf","name":"甲賀町鹿深台","reading":"コウカチョウカフカダイ","pref":"滋賀県","prefCode":"25","municipality":"甲賀市","hazardTypes":["landslide","soft_ground"],"evidenceLevel":0,"originLevel":0,"hasRecord":false,"recordRelation":null,"status":"current","disputed":false,"precision":"oaza","areaKey":null,"elements":["shishi","tai"],"summary":"要素辞書に一致（shishi・tai）。出典による裏づけは未確認。","zones":[],"dataset":"candidates"}},{"type":"Feature","geometry":{"type":"Point","coordinates":[136.150516,34.893366]},"properties":{"id":"25-d87187b28b","name":"甲南町磯尾","reading":"コウナンチョウイソオ","pref":"滋賀県","prefCode":"25","municipality":"甲賀市","hazardTypes":["rockfall","debris_flow"],"evidenceLevel":0,"originLevel":0,"hasRecord":false,"recordRelation":null,"status":"current","disputed":false,"precision":"oaza","areaKey":null,"elements":["iso_ishi"],"summary":"要素辞書に一致（iso_ishi）。出典による裏づけは未確認。","zones":[],"dataset":"candidates"}},{"type":"Feature","geometry":{"type":"Point","coordinates":[136.312183,34.920292]},"properties":{"id":"25-095f1c951f","name":"土山町猪鼻","reading":"ツチヤマチョウイノハナ","pref":"滋賀県","prefCode":"25","municipality":"甲賀市","hazardTypes":["landslide","soft_ground"],"evidenceLevel":0,"originLevel":0,"hasRecord":false,"recordRelation":null,"status":"current","disputed":false,"precision":"oaza","areaKey":null,"elements":["shishi"],"summary":"要素辞書に一致（shishi）。出典による裏づけは未確認。","zones":[],"dataset":"candidates"}},{"type":"Feature","geometry":{"type":"Point","coordinates":[136.377965,34.995071]},"properties":{"id":"25-342d6d9a35","name":"土山町大河原","reading":"ツチヤマチョウオオカワラ","pref":"滋賀県","prefCode":"25","municipality":"甲賀市","hazardTypes":["flood"],"evidenceLevel":0,"originLevel":0,"hasRecord":false,"recordRelation":null,"status":"current","disputed":false,"precision":"oaza","areaKey":null,"elements":["kawara"],"summary":"要素辞書に一致（kawara）。出典による裏づけは未確認。","zones":[],"dataset":"candidates"}},{"type":"Feature","geometry":{"type":"Point","coordinates":[136.265235,34.950461]},"properties":{"id":"25-f65bfa2ed4","name":"土山町頓宮","reading":"ツチヤマチョウトングウ","pref":"滋賀県","prefCode":"25","municipality":"甲賀市","hazardTypes":["slope_failure","debris_flow"],"evidenceLevel":0,"originLevel":0,"hasRecord":false,"recordRelation":null,"status":"current","disputed":false,"precision":"oaza","areaKey":null,"elements":["tobi"],"summary":"要素辞書に一致（tobi）。出典による裏づけは未確認。","zones":[],"dataset":"candidates"}},{"type":"Feature","geometry":{"type":"Point","coordinates":[136.167337,34.970226]},"properties":{"id":"25-c48307b3b2","name":"水口町梅が丘","reading":"ミナクチチョウウメガオカ","pref":"滋賀県","prefCode":"25","municipality":"甲賀市","hazardTypes":["landslide","slope_failure"],"evidenceLevel":0,"originLevel":0,"hasRecord":false,"recordRelation":null,"status":"current","disputed":false,"precision":"oaza","areaKey":null,"elements":["ume"],"summary":"要素辞書に一致（ume）。出典による裏づけは未確認。","zones":[],"dataset":"candidates"}},{"type":"Feature","geometry":{"type":"Point","coordinates":[136.171521,34.969003]},"properties":{"id":"25-a96b847a32","name":"水口町鹿深","reading":"ミナクチチョウロクシン","pref":"滋賀県","prefCode":"25","municipality":"甲賀市","hazardTypes":["landslide","soft_ground"],"evidenceLevel":0,"originLevel":0,"hasRecord":false,"recordRelation":null,"status":"current","disputed":false,"precision":"oaza","areaKey":null,"elements":["shishi"],"summary":"要素辞書に一致（shishi）。出典による裏づけは未確認。","zones":[],"dataset":"candidates"}},{"type":"Feature","geometry":{"type":"Point","coordinates":[135.999997,35.134833]},"properties":{"id":"25-98eafb9033","name":"菖蒲","reading":"アヤメ","pref":"滋賀県","prefCode":"25","municipality":"野洲市","hazardTypes":["landslide","soft_ground"],"evidenceLevel":0,"originLevel":0,"hasRecord":false,"recordRelation":null,"status":"current","disputed":false,"precision":"oaza","areaKey":"252100200","elements":["wetland_plants"],"summary":"要素辞書に一致（wetland_plants）。出典による裏づけは未確認。","zones":[],"dataset":"candidates"}},{"type":"Feature","geometry":{"type":"Point","coordinates":[136.016746,35.1038]},"properties":{"id":"25-af0a09ca4f","name":"西河原","reading":"ニシガワラ","pref":"滋賀県","prefCode":"25","municipality":"野洲市","hazardTypes":["flood"],"evidenceLevel":0,"originLevel":0,"hasRecord":false,"recordRelation":null,"status":"current","disputed":false,"precision":"oaza","areaKey":"252100060","elements":["kawara"],"summary":"要素辞書に一致（kawara）。出典による裏づけは未確認。","zones":[],"dataset":"candidates"}},{"type":"Feature","geometry":{"type":"Point","coordinates":[135.998317,35.062785]},"properties":{"id":"25-ffe190e479","name":"芦田","reading":null,"pref":"滋賀県","prefCode":"25","municipality":"野洲市","hazardTypes":["flood","inundation"],"evidenceLevel":0,"originLevel":0,"hasRecord":false,"recordRelation":null,"status":"current","disputed":false,"precision":"koaza","areaKey":"252100240","elements":["ashi"],"summary":"要素辞書に一致（ashi）。出典による裏づけは未確認。","zones":[],"dataset":"candidates"}},{"type":"Feature","geometry":{"type":"Point","coordinates":[136.124103,35.009491]},"properties":{"id":"25-7f2a173d65","name":"梅影町","reading":"ウメカゲチョウ","pref":"滋賀県","prefCode":"25","municipality":"湖南市","hazardTypes":["landslide","slope_failure"],"evidenceLevel":0,"originLevel":0,"hasRecord":false,"recordRelation":null,"status":"current","disputed":false,"precision":"oaza","areaKey":"252110170","elements":["ume"],"summary":"要素辞書に一致（ume）。出典による裏づけは未確認。","zones":[],"dataset":"candidates"}},{"type":"Feature","geometry":{"type":"Point","coordinates":[136.094899,34.990887]},"properties":{"id":"25-840ab472cd","name":"夏見","reading":"ナツミ","pref":"滋賀県","prefCode":"25","municipality":"湖南市","hazardTypes":["debris_flow","slope_failure"],"evidenceLevel":0,"originLevel":0,"hasRecord":false,"recordRelation":null,"status":"current","disputed":false,"precision":"oaza","areaKey":"252110030","elements":["nazu_natsu"],"summary":"要素辞書に一致（nazu_natsu）。出典による裏づけは未確認。","zones":[],"dataset":"candidates"}},{"type":"Feature","geometry":{"type":"Point","coordinates":[135.972507,35.426475]},"properties":{"id":"25-5159121cd1","name":"今津町梅原","reading":"イマヅチョウウメハラ","pref":"滋賀県","prefCode":"25","municipality":"高島市","hazardTypes":["landslide","slope_failure"],"evidenceLevel":0,"originLevel":0,"hasRecord":false,"recordRelation":null,"status":"current","disputed":false,"precision":"oaza","areaKey":"252120310","elements":["ume"],"summary":"要素辞書に一致（ume）。出典による裏づけは未確認。","zones":[],"dataset":"candidates"}},{"type":"Feature","geometry":{"type":"Point","coordinates":[136.006419,35.416395]},"properties":{"id":"25-1ceb261c3b","name":"今津町岸脇","reading":"イマヅチョウキシワキ","pref":"滋賀県","prefCode":"25","municipality":"高島市","hazardTypes":["slope_failure"],"evidenceLevel":0,"originLevel":0,"hasRecord":false,"recordRelation":null,"status":"current","disputed":false,"precision":"oaza","areaKey":"252120320","elements":["kake"],"summary":"要素辞書に一致（kake）。出典による裏づけは未確認。","zones":[],"dataset":"candidates"}},{"type":"Feature","geometry":{"type":"Point","coordinates":[135.893393,35.329228]},"properties":{"id":"25-dc0d4a6839","name":"朽木古川","reading":"クツキフルカワ","pref":"滋賀県","prefCode":"25","municipality":"高島市","hazardTypes":["flood","inundation"],"evidenceLevel":0,"originLevel":0,"hasRecord":false,"recordRelation":null,"status":"current","disputed":false,"precision":"oaza","areaKey":"252120740","elements":["furukawa"],"summary":"要素辞書に一致（furukawa）。出典による裏づけは未確認。","zones":[],"dataset":"candidates"}},{"type":"Feature","geometry":{"type":"Point","coordinates":[135.945186,35.281048]},"properties":{"id":"25-70dd51bdb8","name":"鹿ケ瀬","reading":"シシガセ","pref":"滋賀県","prefCode":"25","municipality":"高島市","hazardTypes":["landslide","soft_ground"],"evidenceLevel":0,"originLevel":0,"hasRecord":false,"recordRelation":null,"status":"current","disputed":false,"precision":"oaza","areaKey":"252121100","elements":["shishi"],"summary":"要素辞書に一致（shishi）。出典による裏づけは未確認。","zones":[],"dataset":"candidates"}},{"type":"Feature","geometry":{"type":"Point","coordinates":[136.183,35.058273]},"properties":{"id":"25-242ac875c4","name":"市子川原町","reading":"イチコカワラチョウ","pref":"滋賀県","prefCode":"25","municipality":"東近江市","hazardTypes":["flood"],"evidenceLevel":0,"originLevel":0,"hasRecord":false,"recordRelation":null,"status":"current","disputed":false,"precision":"oaza","areaKey":"252132050","elements":["kawara"],"summary":"要素辞書に一致（kawara）。出典による裏づけは未確認。","zones":[],"dataset":"candidates"}},{"type":"Feature","geometry":{"type":"Point","coordinates":[136.169726,35.079926]},"properties":{"id":"25-5b8ab31a74","name":"稲垂町","reading":"イナタリチョウ","pref":"滋賀県","prefCode":"25","municipality":"東近江市","hazardTypes":["slope_failure"],"evidenceLevel":0,"originLevel":0,"hasRecord":false,"recordRelation":null,"status":"current","disputed":false,"precision":"oaza","areaKey":"252132140","elements":["kake"],"summary":"要素辞書に一致（kake）。出典による裏づけは未確認。","zones":[],"dataset":"candidates"}},{"type":"Feature","geometry":{"type":"Point","coordinates":[136.166929,35.175818]},"properties":{"id":"25-240016f53d","name":"猪子町","reading":"イノコチョウ","pref":"滋賀県","prefCode":"25","municipality":"東近江市","hazardTypes":["landslide","soft_ground"],"evidenceLevel":0,"originLevel":0,"hasRecord":false,"recordRelation":null,"status":"current","disputed":false,"precision":"oaza","areaKey":"252132220","elements":["shishi"],"summary":"要素辞書に一致（shishi）。出典による裏づけは未確認。","zones":[],"dataset":"candidates"}},{"type":"Feature","geometry":{"type":"Point","coordinates":[136.241671,35.121628]},"properties":{"id":"25-68447ef26b","name":"梅林町","reading":"ウメバヤシチョウ","pref":"滋賀県","prefCode":"25","municipality":"東近江市","hazardTypes":["landslide","slope_failure"],"evidenceLevel":0,"originLevel":0,"hasRecord":false,"recordRelation":null,"status":"current","disputed":false,"precision":"oaza","areaKey":"252131540","elements":["ume"],"summary":"要素辞書に一致（ume）。出典による裏づけは未確認。","zones":[],"dataset":"candidates"}},{"type":"Feature","geometry":{"type":"Point","coordinates":[136.277855,35.093395]},"properties":{"id":"25-3662e4c29d","name":"小倉町","reading":"オグラチョウ","pref":"滋賀県","prefCode":"25","municipality":"東近江市","hazardTypes":["slope_failure","rockfall"],"evidenceLevel":0,"originLevel":0,"hasRecord":false,"recordRelation":null,"status":"current","disputed":false,"precision":"oaza","areaKey":"252131470","elements":["kura"],"summary":"要素辞書に一致（kura）。出典による裏づけは未確認。","zones":[],"dataset":"candidates"}},{"type":"Feature","geometry":{"type":"Point","coordinates":[136.235327,35.114152]},"properties":{"id":"25-7d56211f86","name":"上岸本町","reading":"カミギシモトチョウ","pref":"滋賀県","prefCode":"25","municipality":"東近江市","hazardTypes":["slope_failure"],"evidenceLevel":0,"originLevel":0,"hasRecord":false,"recordRelation":null,"status":"current","disputed":false,"precision":"oaza","areaKey":"252131530","elements":["kake"],"summary":"要素辞書に一致（kake）。出典による裏づけは未確認。","zones":[],"dataset":"candidates"}},{"type":"Feature","geometry":{"type":"Point","coordinates":[136.166327,35.040806]},"properties":{"id":"25-8439950644","name":"蒲生堂町","reading":"カモウドウチョウ","pref":"滋賀県","prefCode":"25","municipality":"東近江市","hazardTypes":["landslide","soft_ground"],"evidenceLevel":0,"originLevel":0,"hasRecord":false,"recordRelation":null,"status":"current","disputed":false,"precision":"oaza","areaKey":"252131940","elements":["wetland_plants"],"summary":"要素辞書に一致（wetland_plants）。出典による裏づけは未確認。","zones":[],"dataset":"candidates"}},{"type":"Feature","geometry":{"type":"Point","coordinates":[136.181686,35.041772]},"properties":{"id":"25-df32272806","name":"蒲生大森町","reading":"ガモウオオモリチョウ","pref":"滋賀県","prefCode":"25","municipality":"東近江市","hazardTypes":["landslide","soft_ground"],"evidenceLevel":0,"originLevel":0,"hasRecord":false,"recordRelation":null,"status":"current","disputed":false,"precision":"oaza","areaKey":"252131920","elements":["wetland_plants"],"summary":"要素辞書に一致（wetland_plants）。出典による裏づけは未確認。","zones":[],"dataset":"candidates"}},{"type":"Feature","geometry":{"type":"Point","coordinates":[136.200765,35.040827]},"properties":{"id":"25-8bfb5292b8","name":"蒲生岡本町","reading":"ガモウオカモトチョウ","pref":"滋賀県","prefCode":"25","municipality":"東近江市","hazardTypes":["landslide","soft_ground"],"evidenceLevel":0,"originLevel":0,"hasRecord":false,"recordRelation":null,"status":"current","disputed":false,"precision":"oaza","areaKey":"252131870","elements":["wetland_plants"],"summary":"要素辞書に一致（wetland_plants）。出典による裏づけは未確認。","zones":[],"dataset":"candidates"}},{"type":"Feature","geometry":{"type":"Point","coordinates":[136.199949,35.06052]},"properties":{"id":"25-51dc8e76fd","name":"蒲生寺町","reading":"ガモウテラマチ","pref":"滋賀県","prefCode":"25","municipality":"東近江市","hazardTypes":["landslide","soft_ground"],"evidenceLevel":0,"originLevel":0,"hasRecord":false,"recordRelation":null,"status":"current","disputed":false,"precision":"oaza","areaKey":"252132090","elements":["wetland_plants"],"summary":"要素辞書に一致（wetland_plants）。出典による裏づけは未確認。","zones":[],"dataset":"candidates"}},{"type":"Feature","geometry":{"type":"Point","coordinates":[136.194535,35.090971]},"properties":{"id":"25-e248e6c7ef","name":"芦田","reading":null,"pref":"滋賀県","prefCode":"25","municipality":"東近江市","hazardTypes":["flood","inundation"],"evidenceLevel":0,"originLevel":0,"hasRecord":false,"recordRelation":null,"status":"current","disputed":false,"precision":"koaza","areaKey":"252130200","elements":["ashi"],"summary":"要素辞書に一致（ashi）。出典による裏づけは未確認。","zones":[],"dataset":"candidates"}},{"type":"Feature","geometry":{"type":"Point","coordinates":[136.22571,35.122323]},"properties":{"id":"25-bff8d3e6ae","name":"下岸本町","reading":"シモギシモトチョウ","pref":"滋賀県","prefCode":"25","municipality":"東近江市","hazardTypes":["slope_failure"],"evidenceLevel":0,"originLevel":0,"hasRecord":false,"recordRelation":null,"status":"current","disputed":false,"precision":"oaza","areaKey":"252131770","elements":["kake"],"summary":"要素辞書に一致（kake）。出典による裏づけは未確認。","zones":[],"dataset":"candidates"}},{"type":"Feature","geometry":{"type":"Point","coordinates":[136.234727,35.12081]},"properties":{"id":"25-c7d0c82716","name":"中岸本町","reading":"ナカギシモトチョウ","pref":"滋賀県","prefCode":"25","municipality":"東近江市","hazardTypes":["slope_failure"],"evidenceLevel":0,"originLevel":0,"hasRecord":false,"recordRelation":null,"status":"current","disputed":false,"precision":"oaza","areaKey":"252131760","elements":["kake"],"summary":"要素辞書に一致（kake）。出典による裏づけは未確認。","zones":[],"dataset":"candidates"}},{"type":"Feature","geometry":{"type":"Point","coordinates":[136.188525,35.079133]},"properties":{"id":"25-b1c7fdbd36","name":"蛇溝町","reading":"ヘビミゾチョウ","pref":"滋賀県","prefCode":"25","municipality":"東近江市","hazardTypes":["slope_failure","debris_flow"],"evidenceLevel":0,"originLevel":0,"hasRecord":false,"recordRelation":null,"status":"current","disputed":false,"precision":"oaza","areaKey":"252130120","elements":["ja"],"summary":"要素辞書に一致（ja）。出典による裏づけは未確認。","zones":[],"dataset":"candidates"}},{"type":"Feature","geometry":{"type":"Point","coordinates":[136.261792,35.306845]},"properties":{"id":"25-a2daf183e9","name":"磯","reading":"イソ","pref":"滋賀県","prefCode":"25","municipality":"米原市","hazardTypes":["rockfall","debris_flow"],"evidenceLevel":0,"originLevel":0,"hasRecord":false,"recordRelation":null,"status":"current","disputed":false,"precision":"oaza","areaKey":"252140630","elements":["iso_ishi"],"summary":"要素辞書に一致（iso_ishi）。出典による裏づけは未確認。","zones":[],"dataset":"candidates"}},{"type":"Feature","geometry":{"type":"Point","coordinates":[136.290679,35.304832]},"properties":{"id":"25-fce30a337d","name":"梅ケ原","reading":"ウメガハラ","pref":"滋賀県","prefCode":"25","municipality":"米原市","hazardTypes":["landslide","slope_failure"],"evidenceLevel":0,"originLevel":0,"hasRecord":false,"recordRelation":null,"status":"current","disputed":false,"precision":"oaza","areaKey":"252140500","elements":["ume"],"summary":"要素辞書に一致（ume）。出典による裏づけは未確認。","zones":[],"dataset":"candidates"}},{"type":"Feature","geometry":{"type":"Point","coordinates":[136.286316,35.311543]},"properties":{"id":"25-31e1d30e8d","name":"梅ケ原栄","reading":"ウメガハラサカエ","pref":"滋賀県","prefCode":"25","municipality":"米原市","hazardTypes":["landslide","slope_failure"],"evidenceLevel":0,"originLevel":0,"hasRecord":false,"recordRelation":null,"status":"current","disputed":false,"precision":"oaza","areaKey":"252140510","elements":["ume"],"summary":"要素辞書に一致（ume）。出典による裏づけは未確認。","zones":[],"dataset":"candidates"}},{"type":"Feature","geometry":{"type":"Point","coordinates":[136.371926,35.424911]},"properties":{"id":"25-548f4aa3b9","name":"大久保","reading":"オオクボ","pref":"滋賀県","prefCode":"25","municipality":"米原市","hazardTypes":["slope_failure","inundation","landslide"],"evidenceLevel":0,"originLevel":0,"hasRecord":false,"recordRelation":null,"status":"current","disputed":false,"precision":"oaza","areaKey":"252140370","elements":["afu_oo","kubo"],"summary":"要素辞書に一致（afu_oo・kubo）。出典による裏づけは未確認。","zones":[],"dataset":"candidates"}},{"type":"Feature","geometry":{"type":"Point","coordinates":[136.345387,35.352136]},"properties":{"id":"25-6cbdf557cd","name":"大鹿","reading":"オオシカ","pref":"滋賀県","prefCode":"25","municipality":"米原市","hazardTypes":["landslide","soft_ground"],"evidenceLevel":0,"originLevel":0,"hasRecord":false,"recordRelation":null,"status":"current","disputed":false,"precision":"oaza","areaKey":"252140110","elements":["shishi"],"summary":"要素辞書に一致（shishi）。出典による裏づけは未確認。","zones":[],"dataset":"candidates"}},{"type":"Feature","geometry":{"type":"Point","coordinates":[136.338764,35.371589]},"properties":{"id":"25-4f78ddc846","name":"菅江","reading":"スエ","pref":"滋賀県","prefCode":"25","municipality":"米原市","hazardTypes":["landslide","soft_ground"],"evidenceLevel":0,"originLevel":0,"hasRecord":false,"recordRelation":null,"status":"current","disputed":false,"precision":"oaza","areaKey":"252140090","elements":["wetland_plants"],"summary":"要素辞書に一致（wetland_plants）。出典による裏づけは未確認。","zones":[],"dataset":"candidates"}},{"type":"Feature","geometry":{"type":"Point","coordinates":[136.3138,35.322585]},"properties":{"id":"25-efecaf5937","name":"寺倉","reading":"テラクラ","pref":"滋賀県","prefCode":"25","municipality":"米原市","hazardTypes":["slope_failure","rockfall"],"evidenceLevel":0,"originLevel":0,"hasRecord":false,"recordRelation":null,"status":"current","disputed":false,"precision":"oaza","areaKey":"252140790","elements":["kura"],"summary":"要素辞書に一致（kura）。出典による裏づけは未確認。","zones":[],"dataset":"candidates"}},{"type":"Feature","geometry":{"type":"Point","coordinates":[136.256403,35.042863]},"properties":{"id":"25-80246ab7f6","name":"大字佐久良","reading":null,"pref":"滋賀県","prefCode":"25","municipality":"蒲生郡日野町","hazardTypes":["flood"],"evidenceLevel":0,"originLevel":0,"hasRecord":false,"recordRelation":null,"status":"current","disputed":false,"precision":"oaza","areaKey":null,"elements":["sake"],"summary":"要素辞書に一致（sake）。出典による裏づけは未確認。","zones":[],"dataset":"candidates"}},{"type":"Feature","geometry":{"type":"Point","coordinates":[136.290765,35.042491]},"properties":{"id":"25-54b1198abd","name":"大字川原","reading":null,"pref":"滋賀県","prefCode":"25","municipality":"蒲生郡日野町","hazardTypes":["flood"],"evidenceLevel":0,"originLevel":0,"hasRecord":false,"recordRelation":null,"status":"current","disputed":false,"precision":"oaza","areaKey":null,"elements":["kawara"],"summary":"要素辞書に一致（kawara）。出典による裏づけは未確認。","zones":[],"dataset":"candidates"}},{"type":"Feature","geometry":{"type":"Point","coordinates":[136.255483,35.021642]},"properties":{"id":"25-b7e199e29c","name":"大字河原","reading":null,"pref":"滋賀県","prefCode":"25","municipality":"蒲生郡日野町","hazardTypes":["flood"],"evidenceLevel":0,"originLevel":0,"hasRecord":false,"recordRelation":null,"status":"current","disputed":false,"precision":"oaza","areaKey":null,"elements":["kawara"],"summary":"要素辞書に一致（kawara）。出典による裏づけは未確認。","zones":[],"dataset":"candidates"}},{"type":"Feature","geometry":{"type":"Point","coordinates":[136.308426,34.992838]},"properties":{"id":"25-99a24a7707","name":"大字蔵王","reading":null,"pref":"滋賀県","prefCode":"25","municipality":"蒲生郡日野町","hazardTypes":["slope_failure","rockfall"],"evidenceLevel":0,"originLevel":0,"hasRecord":false,"recordRelation":null,"status":"current","disputed":false,"precision":"oaza","areaKey":null,"elements":["kura"],"summary":"要素辞書に一致（kura）。出典による裏づけは未確認。","zones":[],"dataset":"candidates"}},{"type":"Feature","geometry":{"type":"Point","coordinates":[136.246944,35.017595]},"properties":{"id":"25-324ac6401b","name":"河原一丁目","reading":"カワラ 1","pref":"滋賀県","prefCode":"25","municipality":"蒲生郡日野町","hazardTypes":["flood"],"evidenceLevel":0,"originLevel":0,"hasRecord":false,"recordRelation":null,"status":"current","disputed":false,"precision":"oaza","areaKey":null,"elements":["kawara"],"summary":"要素辞書に一致（kawara）。出典による裏づけは未確認。","zones":[],"dataset":"candidates"}},{"type":"Feature","geometry":{"type":"Point","coordinates":[136.266847,35.173047]},"properties":{"id":"25-164ce281ad","name":"岩倉","reading":"イワクラ","pref":"滋賀県","prefCode":"25","municipality":"愛知郡愛荘町","hazardTypes":["slope_failure","rockfall"],"evidenceLevel":0,"originLevel":0,"hasRecord":false,"recordRelation":null,"status":"current","disputed":false,"precision":"oaza","areaKey":null,"elements":["kura"],"summary":"要素辞書に一致（kura）。出典による裏づけは未確認。","zones":[],"dataset":"candidates"}},{"type":"Feature","geometry":{"type":"Point","coordinates":[136.202643,35.191433]},"properties":{"id":"25-3580fa2bd3","name":"川原","reading":"カワラ","pref":"滋賀県","prefCode":"25","municipality":"愛知郡愛荘町","hazardTypes":["flood"],"evidenceLevel":0,"originLevel":0,"hasRecord":false,"recordRelation":null,"status":"current","disputed":false,"precision":"oaza","areaKey":null,"elements":["kawara"],"summary":"要素辞書に一致（kawara）。出典による裏づけは未確認。","zones":[],"dataset":"candidates"}},{"type":"Feature","geometry":{"type":"Point","coordinates":[136.215023,35.165978]},"properties":{"id":"25-913f34fbe6","name":"砂川原","reading":null,"pref":"滋賀県","prefCode":"25","municipality":"愛知郡愛荘町","hazardTypes":["flood"],"evidenceLevel":0,"originLevel":0,"hasRecord":false,"recordRelation":null,"status":"current","disputed":false,"precision":"koaza","areaKey":null,"elements":["kawara"],"summary":"要素辞書に一致（kawara）。出典による裏づけは未確認。","zones":[],"dataset":"candidates"}},{"type":"Feature","geometry":{"type":"Point","coordinates":[136.194651,35.192856]},"properties":{"id":"25-be914e834b","name":"山川原","reading":"ヤマガワラ","pref":"滋賀県","prefCode":"25","municipality":"愛知郡愛荘町","hazardTypes":["flood"],"evidenceLevel":0,"originLevel":0,"hasRecord":false,"recordRelation":null,"status":"current","disputed":false,"precision":"oaza","areaKey":null,"elements":["kawara"],"summary":"要素辞書に一致（kawara）。出典による裏づけは未確認。","zones":[],"dataset":"candidates"}},{"type":"Feature","geometry":{"type":"Point","coordinates":[136.26181,35.22082]},"properties":{"id":"25-f141f42bf5","name":"大字小川原","reading":null,"pref":"滋賀県","prefCode":"25","municipality":"犬上郡甲良町","hazardTypes":["flood"],"evidenceLevel":0,"originLevel":0,"hasRecord":false,"recordRelation":null,"status":"current","disputed":false,"precision":"oaza","areaKey":null,"elements":["kawara"],"summary":"要素辞書に一致（kawara）。出典による裏づけは未確認。","zones":[],"dataset":"candidates"}},{"type":"Feature","geometry":{"type":"Point","coordinates":[136.281951,35.236083]},"properties":{"id":"25-3f646bbaa3","name":"大字中川原","reading":null,"pref":"滋賀県","prefCode":"25","municipality":"犬上郡多賀町","hazardTypes":["flood"],"evidenceLevel":0,"originLevel":0,"hasRecord":false,"recordRelation":null,"status":"current","disputed":false,"precision":"oaza","areaKey":null,"elements":["kawara"],"summary":"要素辞書に一致（kawara）。出典による裏づけは未確認。","zones":[],"dataset":"candidates"}},{"type":"Feature","geometry":{"type":"Point","coordinates":[136.332476,35.246008]},"properties":{"id":"25-679b42e752","name":"大字向之倉","reading":null,"pref":"滋賀県","prefCode":"25","municipality":"犬上郡多賀町","hazardTypes":["slope_failure","rockfall"],"evidenceLevel":0,"originLevel":0,"hasRecord":false,"recordRelation":null,"status":"current","disputed":false,"precision":"oaza","areaKey":null,"elements":["kura"],"summary":"要素辞書に一致（kura）。出典による裏づけは未確認。","zones":[],"dataset":"candidates"}},{"type":"Feature","geometry":{"type":"Point","coordinates":[136.263034,35.226966]},"properties":{"id":"25-abcc2d4475","name":"大字猿木","reading":null,"pref":"滋賀県","prefCode":"25","municipality":"犬上郡多賀町","hazardTypes":["slope_failure"],"evidenceLevel":0,"originLevel":0,"hasRecord":false,"recordRelation":null,"status":"current","disputed":false,"precision":"oaza","areaKey":null,"elements":["saru"],"summary":"要素辞書に一致（saru）。出典による裏づけは未確認。","zones":[],"dataset":"candidates"}},{"type":"Feature","geometry":{"type":"Point","coordinates":[136.330636,35.258998]},"properties":{"id":"25-bfc35c2187","name":"大字甲頭倉","reading":null,"pref":"滋賀県","prefCode":"25","municipality":"犬上郡多賀町","hazardTypes":["slope_failure","rockfall"],"evidenceLevel":0,"originLevel":0,"hasRecord":false,"recordRelation":null,"status":"current","disputed":false,"precision":"oaza","areaKey":null,"elements":["kura"],"summary":"要素辞書に一致（kura）。出典による裏づけは未確認。","zones":[],"dataset":"candidates"}},{"type":"Feature","geometry":{"type":"Point","coordinates":[136.280617,35.092006]},"properties":{"id":"25-dec947c8ad","name":"小倉","reading":null,"pref":"滋賀県","prefCode":"25","municipality":"東近江市","hazardTypes":["slope_failure","rockfall"],"evidenceLevel":0,"originLevel":0,"hasRecord":false,"recordRelation":null,"status":"historical","disputed":false,"precision":"koaza","areaKey":"252131470","elements":["kura"],"summary":"要素辞書に一致（kura）。出典による裏づけは未確認。","zones":[],"dataset":"old_maps"}},{"type":"Feature","geometry":{"type":"Point","coordinates":[136.254686,35.045639]},"properties":{"id":"25-36ddd94173","name":"佐久良","reading":null,"pref":"滋賀県","prefCode":"25","municipality":"蒲生郡日野町","hazardTypes":["flood"],"evidenceLevel":0,"originLevel":0,"hasRecord":false,"recordRelation":null,"status":"historical","disputed":false,"precision":"koaza","areaKey":null,"elements":["sake"],"summary":"要素辞書に一致（sake）。出典による裏づけは未確認。","zones":[],"dataset":"old_maps"}},{"type":"Feature","geometry":{"type":"Point","coordinates":[136.28612,35.045783]},"properties":{"id":"25-223ccd3db8","name":"川原","reading":null,"pref":"滋賀県","prefCode":"25","municipality":"蒲生郡日野町","hazardTypes":["flood"],"evidenceLevel":0,"originLevel":0,"hasRecord":false,"recordRelation":null,"status":"historical","disputed":false,"precision":"koaza","areaKey":null,"elements":["kawara"],"summary":"要素辞書に一致（kawara）。出典による裏づけは未確認。","zones":[],"dataset":"old_maps"}},{"type":"Feature","geometry":{"type":"Point","coordinates":[136.251718,35.017647]},"properties":{"id":"25-f5db66c195","name":"日野河原","reading":null,"pref":"滋賀県","prefCode":"25","municipality":"蒲生郡日野町","hazardTypes":["flood"],"evidenceLevel":0,"originLevel":0,"hasRecord":false,"recordRelation":null,"status":"historical","disputed":false,"precision":"koaza","areaKey":null,"elements":["kawara"],"summary":"要素辞書に一致（kawara）。出典による裏づけは未確認。","zones":[],"dataset":"old_maps"}},{"type":"Feature","geometry":{"type":"Point","coordinates":[136.295782,34.999254]},"properties":{"id":"25-e409ffc033","name":"北蔵王","reading":null,"pref":"滋賀県","prefCode":"25","municipality":"蒲生郡日野町","hazardTypes":["slope_failure","rockfall"],"evidenceLevel":0,"originLevel":0,"hasRecord":false,"recordRelation":null,"status":"historical","disputed":false,"precision":"koaza","areaKey":null,"elements":["kura"],"summary":"要素辞書に一致（kura）。出典による裏づけは未確認。","zones":[],"dataset":"old_maps"}},{"type":"Feature","geometry":{"type":"Point","coordinates":[136.29838,34.996379]},"properties":{"id":"25-f593567d6e","name":"南蔵王","reading":null,"pref":"滋賀県","prefCode":"25","municipality":"蒲生郡日野町","hazardTypes":["slope_failure","rockfall"],"evidenceLevel":0,"originLevel":0,"hasRecord":false,"recordRelation":null,"status":"historical","disputed":false,"precision":"koaza","areaKey":null,"elements":["kura"],"summary":"要素辞書に一致（kura）。出典による裏づけは未確認。","zones":[],"dataset":"old_maps"}},{"type":"Feature","geometry":{"type":"Point","coordinates":[136.345473,34.976985]},"properties":{"id":"25-f1d873d0b0","name":"大河原","reading":null,"pref":"滋賀県","prefCode":"25","municipality":"甲賀市","hazardTypes":["flood"],"evidenceLevel":0,"originLevel":0,"hasRecord":false,"recordRelation":null,"status":"historical","disputed":false,"precision":"koaza","areaKey":"252090660","elements":["kawara"],"summary":"要素辞書に一致（kawara）。出典による裏づけは未確認。","zones":[],"dataset":"old_maps"}},{"type":"Feature","geometry":{"type":"Point","coordinates":[136.312186,34.921142]},"properties":{"id":"25-c0143206cd","name":"猪ノ鼻","reading":null,"pref":"滋賀県","prefCode":"25","municipality":"甲賀市","hazardTypes":["landslide","soft_ground"],"evidenceLevel":0,"originLevel":0,"hasRecord":false,"recordRelation":null,"status":"historical","disputed":false,"precision":"koaza","areaKey":null,"elements":["shishi"],"summary":"要素辞書に一致（shishi）。出典による裏づけは未確認。","zones":[],"dataset":"old_maps"}},{"type":"Feature","geometry":{"type":"Point","coordinates":[136.259572,34.942341]},"properties":{"id":"25-e0d7403dd4","name":"頓宮","reading":null,"pref":"滋賀県","prefCode":"25","municipality":"甲賀市","hazardTypes":["slope_failure","debris_flow"],"evidenceLevel":0,"originLevel":0,"hasRecord":false,"recordRelation":null,"status":"historical","disputed":false,"precision":"koaza","areaKey":"252090810","elements":["tobi"],"summary":"要素辞書に一致（tobi）。出典による裏づけは未確認。","zones":[],"dataset":"old_maps"}},{"type":"Feature","geometry":{"type":"Point","coordinates":[136.220074,35.180792]},"properties":{"id":"25-010052ef83","name":"磯部","reading":null,"pref":"滋賀県","prefCode":"25","municipality":"愛知郡愛荘町","hazardTypes":["rockfall","debris_flow"],"evidenceLevel":0,"originLevel":0,"hasRecord":false,"recordRelation":null,"status":"historical","disputed":false,"precision":"koaza","areaKey":null,"elements":["iso_ishi"],"summary":"要素辞書に一致（iso_ishi）。出典による裏づけは未確認。","zones":[],"dataset":"old_maps"}},{"type":"Feature","geometry":{"type":"Point","coordinates":[136.194449,35.19551]},"properties":{"id":"25-2db604b965","name":"山河原","reading":null,"pref":"滋賀県","prefCode":"25","municipality":"愛知郡愛荘町","hazardTypes":["flood"],"evidenceLevel":0,"originLevel":0,"hasRecord":false,"recordRelation":null,"status":"historical","disputed":false,"precision":"koaza","areaKey":null,"elements":["kawara"],"summary":"要素辞書に一致（kawara）。出典による裏づけは未確認。","zones":[],"dataset":"old_maps"}},{"type":"Feature","geometry":{"type":"Point","coordinates":[136.178988,35.176889]},"properties":{"id":"25-ad4b03e8ea","name":"鍛冶屋","reading":null,"pref":"滋賀県","prefCode":"25","municipality":"東近江市","hazardTypes":["slope_failure"],"evidenceLevel":0,"originLevel":0,"hasRecord":false,"recordRelation":null,"status":"historical","disputed":false,"precision":"koaza","areaKey":"252132170","elements":["kaji_kamu"],"summary":"要素辞書に一致（kaji_kamu）。出典による裏づけは未確認。","zones":[],"dataset":"old_maps"}},{"type":"Feature","geometry":{"type":"Point","coordinates":[136.16291,35.177864]},"properties":{"id":"25-302df78d38","name":"猪子","reading":null,"pref":"滋賀県","prefCode":"25","municipality":"東近江市","hazardTypes":["landslide","soft_ground"],"evidenceLevel":0,"originLevel":0,"hasRecord":false,"recordRelation":null,"status":"historical","disputed":false,"precision":"koaza","areaKey":"252132230","elements":["shishi"],"summary":"要素辞書に一致（shishi）。出典による裏づけは未確認。","zones":[],"dataset":"old_maps"}},{"type":"Feature","geometry":{"type":"Point","coordinates":[136.21416,35.23804]},"properties":{"id":"25-cf1b3f92c1","name":"日夏村","reading":null,"pref":"滋賀県","prefCode":"25","municipality":"彦根市","hazardTypes":["debris_flow","slope_failure"],"evidenceLevel":0,"originLevel":0,"hasRecord":false,"recordRelation":null,"status":"historical","disputed":false,"precision":"village","areaKey":"25202075002","elements":["nazu_natsu"],"summary":"要素辞書に一致（nazu_natsu）。出典による裏づけは未確認。","zones":[],"dataset":"old_maps"}},{"type":"Feature","geometry":{"type":"Point","coordinates":[136.232627,35.226949]},"properties":{"id":"25-7a5b632666","name":"川瀬馬場","reading":null,"pref":"滋賀県","prefCode":"25","municipality":"彦根市","hazardTypes":["slope_failure"],"evidenceLevel":0,"originLevel":0,"hasRecord":false,"recordRelation":null,"status":"historical","disputed":false,"precision":"koaza","areaKey":"25202096001","elements":["baba"],"summary":"要素辞書に一致（baba）。出典による裏づけは未確認。","zones":[],"dataset":"old_maps"}},{"type":"Feature","geometry":{"type":"Point","coordinates":[136.214038,35.256367]},"properties":{"id":"25-a702c1740f","name":"磯田村","reading":null,"pref":"滋賀県","prefCode":"25","municipality":"彦根市","hazardTypes":["rockfall","debris_flow"],"evidenceLevel":0,"originLevel":0,"hasRecord":false,"recordRelation":null,"status":"historical","disputed":false,"precision":"village","areaKey":"25202072001","elements":["iso_ishi"],"summary":"要素辞書に一致（iso_ishi）。出典による裏づけは未確認。","zones":[],"dataset":"old_maps"}},{"type":"Feature","geometry":{"type":"Point","coordinates":[136.178361,35.296181]},"properties":{"id":"25-0ecbfbefeb","name":"犬上郡磯田村地","reading":null,"pref":"滋賀県","prefCode":"25","municipality":"彦根市","hazardTypes":["rockfall","debris_flow"],"evidenceLevel":0,"originLevel":0,"hasRecord":false,"recordRelation":null,"status":"historical","disputed":false,"precision":"village","areaKey":"25202072001","elements":["iso_ishi"],"summary":"要素辞書に一致（iso_ishi）。出典による裏づけは未確認。","zones":[],"dataset":"old_maps"}},{"type":"Feature","geometry":{"type":"Point","coordinates":[136.00477,35.335607]},"properties":{"id":"25-70c357b50c","name":"馬場","reading":null,"pref":"滋賀県","prefCode":"25","municipality":"高島市","hazardTypes":["slope_failure"],"evidenceLevel":0,"originLevel":0,"hasRecord":false,"recordRelation":null,"status":"historical","disputed":false,"precision":"koaza","areaKey":"252120830","elements":["baba"],"summary":"要素辞書に一致（baba）。出典による裏づけは未確認。","zones":[],"dataset":"old_maps"}},{"type":"Feature","geometry":{"type":"Point","coordinates":[136.002209,35.050145]},"properties":{"id":"25-ea5e38e9e9","name":"浮気","reading":null,"pref":"滋賀県","prefCode":"25","municipality":"守山市","hazardTypes":["soft_ground","inundation"],"evidenceLevel":0,"originLevel":0,"hasRecord":false,"recordRelation":null,"status":"historical","disputed":false,"precision":"koaza","areaKey":"25207007001","elements":["fuke"],"summary":"要素辞書に一致（fuke）。出典による裏づけは未確認。","zones":[],"dataset":"old_maps"}},{"type":"Feature","geometry":{"type":"Point","coordinates":[136.169446,35.045425]},"properties":{"id":"25-a669325ae6","name":"蒲生","reading":null,"pref":"滋賀県","prefCode":"25","municipality":"東近江市","hazardTypes":["landslide","soft_ground"],"evidenceLevel":0,"originLevel":0,"hasRecord":false,"recordRelation":null,"status":"historical","disputed":false,"precision":"koaza","areaKey":"252131940","elements":["wetland_plants"],"summary":"要素辞書に一致（wetland_plants）。出典による裏づけは未確認。","zones":[],"dataset":"old_maps"}},{"type":"Feature","geometry":{"type":"Point","coordinates":[136.181143,35.057669]},"properties":{"id":"25-94af6114f9","name":"市子川原","reading":null,"pref":"滋賀県","prefCode":"25","municipality":"東近江市","hazardTypes":["flood"],"evidenceLevel":0,"originLevel":0,"hasRecord":false,"recordRelation":null,"status":"historical","disputed":false,"precision":"koaza","areaKey":"252132050","elements":["kawara"],"summary":"要素辞書に一致（kawara）。出典による裏づけは未確認。","zones":[],"dataset":"old_maps"}},{"type":"Feature","geometry":{"type":"Point","coordinates":[136.16654,35.079961]},"properties":{"id":"25-dbe0b62f10","name":"稲垂","reading":null,"pref":"滋賀県","prefCode":"25","municipality":"東近江市","hazardTypes":["slope_failure"],"evidenceLevel":0,"originLevel":0,"hasRecord":false,"recordRelation":null,"status":"historical","disputed":false,"precision":"koaza","areaKey":"252132140","elements":["kake"],"summary":"要素辞書に一致（kake）。出典による裏づけは未確認。","zones":[],"dataset":"old_maps"}},{"type":"Feature","geometry":{"type":"Point","coordinates":[136.185238,35.094007]},"properties":{"id":"25-04025baab5","name":"蛇溝","reading":null,"pref":"滋賀県","prefCode":"25","municipality":"東近江市","hazardTypes":["slope_failure","debris_flow"],"evidenceLevel":0,"originLevel":0,"hasRecord":false,"recordRelation":null,"status":"historical","disputed":false,"precision":"koaza","areaKey":"252130500","elements":["ja"],"summary":"要素辞書に一致（ja）。出典による裏づけは未確認。","zones":[],"dataset":"old_maps"}},{"type":"Feature","geometry":{"type":"Point","coordinates":[136.239967,35.122744]},"properties":{"id":"25-bbb49c1a49","name":"梅林","reading":null,"pref":"滋賀県","prefCode":"25","municipality":"東近江市","hazardTypes":["landslide","slope_failure"],"evidenceLevel":0,"originLevel":0,"hasRecord":false,"recordRelation":null,"status":"historical","disputed":false,"precision":"koaza","areaKey":"252131540","elements":["ume"],"summary":"要素辞書に一致（ume）。出典による裏づけは未確認。","zones":[],"dataset":"old_maps"}},{"type":"Feature","geometry":{"type":"Point","coordinates":[136.232766,35.113017]},"properties":{"id":"25-20f8d796e7","name":"上岸本","reading":null,"pref":"滋賀県","prefCode":"25","municipality":"東近江市","hazardTypes":["slope_failure"],"evidenceLevel":0,"originLevel":0,"hasRecord":false,"recordRelation":null,"status":"historical","disputed":false,"precision":"koaza","areaKey":"252131530","elements":["kake"],"summary":"要素辞書に一致（kake）。出典による裏づけは未確認。","zones":[],"dataset":"old_maps"}},{"type":"Feature","geometry":{"type":"Point","coordinates":[136.226375,35.118956]},"properties":{"id":"25-9a828ed72d","name":"中岸本","reading":null,"pref":"滋賀県","prefCode":"25","municipality":"東近江市","hazardTypes":["slope_failure"],"evidenceLevel":0,"originLevel":0,"hasRecord":false,"recordRelation":null,"status":"historical","disputed":false,"precision":"koaza","areaKey":"252131770","elements":["kake"],"summary":"要素辞書に一致（kake）。出典による裏づけは未確認。","zones":[],"dataset":"old_maps"}},{"type":"Feature","geometry":{"type":"Point","coordinates":[136.224304,35.122298]},"properties":{"id":"25-34904ec34c","name":"下岸本","reading":null,"pref":"滋賀県","prefCode":"25","municipality":"東近江市","hazardTypes":["slope_failure"],"evidenceLevel":0,"originLevel":0,"hasRecord":false,"recordRelation":null,"status":"historical","disputed":false,"precision":"koaza","areaKey":"252131770","elements":["kake"],"summary":"要素辞書に一致（kake）。出典による裏づけは未確認。","zones":[],"dataset":"old_maps"}},{"type":"Feature","geometry":{"type":"Point","coordinates":[136.157062,35.108708]},"properties":{"id":"25-f5cbe02b96","name":"蒲生野","reading":null,"pref":"滋賀県","prefCode":"25","municipality":"東近江市","hazardTypes":["landslide","soft_ground"],"evidenceLevel":0,"originLevel":0,"hasRecord":false,"recordRelation":null,"status":"historical","disputed":false,"precision":"koaza","areaKey":"252130100","elements":["wetland_plants"],"summary":"要素辞書に一致（wetland_plants）。出典による裏づけは未確認。","zones":[],"dataset":"old_maps"}},{"type":"Feature","geometry":{"type":"Point","coordinates":[136.125286,35.094526]},"properties":{"id":"25-acd96b76cb","name":"倉橋部","reading":null,"pref":"滋賀県","prefCode":"25","municipality":"近江八幡市","hazardTypes":["slope_failure","rockfall"],"evidenceLevel":0,"originLevel":0,"hasRecord":false,"recordRelation":null,"status":"historical","disputed":false,"precision":"koaza","areaKey":"252041420","elements":["kura"],"summary":"要素辞書に一致（kura）。出典による裏づけは未確認。","zones":[],"dataset":"old_maps"}},{"type":"Feature","geometry":{"type":"Point","coordinates":[136.121505,35.10054]},"properties":{"id":"25-810465a3c4","name":"岩倉","reading":null,"pref":"滋賀県","prefCode":"25","municipality":"近江八幡市","hazardTypes":["slope_failure","rockfall"],"evidenceLevel":0,"originLevel":0,"hasRecord":false,"recordRelation":null,"status":"historical","disputed":false,"precision":"koaza","areaKey":"252041420","elements":["kura"],"summary":"要素辞書に一致（kura）。出典による裏づけは未確認。","zones":[],"dataset":"old_maps"}},{"type":"Feature","geometry":{"type":"Point","coordinates":[136.069835,35.109152]},"properties":{"id":"25-f4a2f345a7","name":"古川","reading":null,"pref":"滋賀県","prefCode":"25","municipality":"近江八幡市","hazardTypes":["flood","inundation"],"evidenceLevel":0,"originLevel":0,"hasRecord":false,"recordRelation":null,"status":"historical","disputed":false,"precision":"koaza","areaKey":"252041210","elements":["furukawa"],"summary":"要素辞書に一致（furukawa）。出典による裏づけは未確認。","zones":[],"dataset":"old_maps"}},{"type":"Feature","geometry":{"type":"Point","coordinates":[136.138517,35.145462]},"properties":{"id":"25-50fce1cf74","name":"安土村","reading":null,"pref":"滋賀県","prefCode":"25","municipality":"近江八幡市","hazardTypes":["debris_flow","slope_failure"],"evidenceLevel":0,"originLevel":0,"hasRecord":false,"recordRelation":null,"status":"historical","disputed":false,"precision":"village","areaKey":"252041680","elements":["azu"],"summary":"要素辞書に一致（azu）。出典による裏づけは未確認。","zones":[],"dataset":"old_maps"}},{"type":"Feature","geometry":{"type":"Point","coordinates":[136.032464,34.995096]},"properties":{"id":"25-4755e69e28","name":"蔵町","reading":null,"pref":"滋賀県","prefCode":"25","municipality":"栗東市","hazardTypes":["slope_failure","rockfall"],"evidenceLevel":0,"originLevel":0,"hasRecord":false,"recordRelation":null,"status":"historical","disputed":false,"precision":"koaza","areaKey":"252080240","elements":["kura"],"summary":"要素辞書に一致（kura）。出典による裏づけは未確認。","zones":[],"dataset":"old_maps"}},{"type":"Feature","geometry":{"type":"Point","coordinates":[136.231293,34.908832]},"properties":{"id":"25-6dc7035e44","name":"大久保","reading":null,"pref":"滋賀県","prefCode":"25","municipality":"甲賀市","hazardTypes":["slope_failure","inundation","landslide"],"evidenceLevel":0,"originLevel":0,"hasRecord":false,"recordRelation":null,"status":"historical","disputed":false,"precision":"koaza","areaKey":"252090890","elements":["afu_oo","kubo"],"summary":"要素辞書に一致（afu_oo・kubo）。出典による裏づけは未確認。","zones":[],"dataset":"old_maps"}},{"type":"Feature","geometry":{"type":"Point","coordinates":[136.151452,34.902422]},"properties":{"id":"25-696b77b771","name":"磯尾","reading":null,"pref":"滋賀県","prefCode":"25","municipality":"甲賀市","hazardTypes":["rockfall","debris_flow"],"evidenceLevel":0,"originLevel":0,"hasRecord":false,"recordRelation":null,"status":"historical","disputed":false,"precision":"koaza","areaKey":"252091150","elements":["iso_ishi"],"summary":"要素辞書に一致（iso_ishi）。出典による裏づけは未確認。","zones":[],"dataset":"old_maps"}},{"type":"Feature","geometry":{"type":"Point","coordinates":[136.156775,34.888527]},"properties":{"id":"25-3799bd8088","name":"上磯尾","reading":null,"pref":"滋賀県","prefCode":"25","municipality":"甲賀市","hazardTypes":["rockfall","debris_flow"],"evidenceLevel":0,"originLevel":0,"hasRecord":false,"recordRelation":null,"status":"historical","disputed":false,"precision":"koaza","areaKey":null,"elements":["iso_ishi"],"summary":"要素辞書に一致（iso_ishi）。出典による裏づけは未確認。","zones":[],"dataset":"old_maps"}},{"type":"Feature","geometry":{"type":"Point","coordinates":[136.290495,35.304246]},"properties":{"id":"25-388999855f","name":"梅原","reading":null,"pref":"滋賀県","prefCode":"25","municipality":"米原市","hazardTypes":["landslide","slope_failure"],"evidenceLevel":0,"originLevel":0,"hasRecord":false,"recordRelation":null,"status":"historical","disputed":false,"precision":"koaza","areaKey":"252140500","elements":["ume"],"summary":"要素辞書に一致（ume）。出典による裏づけは未確認。","zones":[],"dataset":"old_maps"}},{"type":"Feature","geometry":{"type":"Point","coordinates":[136.287082,35.290819]},"properties":{"id":"25-f731279a4b","name":"下矢倉","reading":null,"pref":"滋賀県","prefCode":"25","municipality":"彦根市","hazardTypes":["slope_failure","rockfall"],"evidenceLevel":0,"originLevel":0,"hasRecord":false,"recordRelation":null,"status":"historical","disputed":false,"precision":"koaza","areaKey":"252020770","elements":["kura"],"summary":"要素辞書に一致（kura）。出典による裏づけは未確認。","zones":[],"dataset":"old_maps"}},{"type":"Feature","geometry":{"type":"Point","coordinates":[136.335984,35.323851]},"properties":{"id":"25-129584aeb7","name":"牛出","reading":null,"pref":"滋賀県","prefCode":"25","municipality":"米原市","hazardTypes":["debris_flow"],"evidenceLevel":0,"originLevel":0,"hasRecord":false,"recordRelation":null,"status":"historical","disputed":false,"precision":"koaza","areaKey":"252140650","elements":["oshidashi"],"summary":"要素辞書に一致（oshidashi）。出典による裏づけは未確認。","zones":[],"dataset":"old_maps"}},{"type":"Feature","geometry":{"type":"Point","coordinates":[136.350648,35.258119]},"properties":{"id":"25-22c46162b4","name":"芹谷村","reading":null,"pref":"滋賀県","prefCode":"25","municipality":"犬上郡多賀町","hazardTypes":["landslide","soft_ground"],"evidenceLevel":0,"originLevel":0,"hasRecord":false,"recordRelation":null,"status":"historical","disputed":false,"precision":"village","areaKey":null,"elements":["wetland_plants"],"summary":"要素辞書に一致（wetland_plants）。出典による裏づけは未確認。","zones":[],"dataset":"old_maps"}},{"type":"Feature","geometry":{"type":"Point","coordinates":[136.330966,35.257954]},"properties":{"id":"25-e232fc7f81","name":"甲頭倉","reading":null,"pref":"滋賀県","prefCode":"25","municipality":"犬上郡多賀町","hazardTypes":["slope_failure","rockfall"],"evidenceLevel":0,"originLevel":0,"hasRecord":false,"recordRelation":null,"status":"historical","disputed":false,"precision":"koaza","areaKey":null,"elements":["kura"],"summary":"要素辞書に一致（kura）。出典による裏づけは未確認。","zones":[],"dataset":"old_maps"}},{"type":"Feature","geometry":{"type":"Point","coordinates":[136.268405,35.252104]},"properties":{"id":"25-eebfa360b7","name":"地蔵","reading":null,"pref":"滋賀県","prefCode":"25","municipality":"彦根市","hazardTypes":["slope_failure","rockfall"],"evidenceLevel":0,"originLevel":0,"hasRecord":false,"recordRelation":null,"status":"historical","disputed":false,"precision":"koaza","areaKey":"25202059001","elements":["kura"],"summary":"要素辞書に一致（kura）。出典による裏づけは未確認。","zones":[],"dataset":"old_maps"}},{"type":"Feature","geometry":{"type":"Point","coordinates":[136.261275,35.260094]},"properties":{"id":"25-af7667a7e4","name":"芹川","reading":null,"pref":"滋賀県","prefCode":"25","municipality":"彦根市","hazardTypes":["landslide","soft_ground"],"evidenceLevel":0,"originLevel":0,"hasRecord":false,"recordRelation":null,"status":"historical","disputed":false,"precision":"koaza","areaKey":"25202051001","elements":["wetland_plants"],"summary":"要素辞書に一致（wetland_plants）。出典による裏づけは未確認。","zones":[],"dataset":"old_maps"}},{"type":"Feature","geometry":{"type":"Point","coordinates":[136.333878,35.248316]},"properties":{"id":"25-bc4c5bbb12","name":"向之倉","reading":null,"pref":"滋賀県","prefCode":"25","municipality":"犬上郡多賀町","hazardTypes":["slope_failure","rockfall"],"evidenceLevel":0,"originLevel":0,"hasRecord":false,"recordRelation":null,"status":"historical","disputed":false,"precision":"koaza","areaKey":null,"elements":["kura"],"summary":"要素辞書に一致（kura）。出典による裏づけは未確認。","zones":[],"dataset":"old_maps"}},{"type":"Feature","geometry":{"type":"Point","coordinates":[136.285678,35.233817]},"properties":{"id":"25-03eb474b71","name":"中川原","reading":null,"pref":"滋賀県","prefCode":"25","municipality":"犬上郡多賀町","hazardTypes":["flood"],"evidenceLevel":0,"originLevel":0,"hasRecord":false,"recordRelation":null,"status":"historical","disputed":false,"precision":"koaza","areaKey":null,"elements":["kawara"],"summary":"要素辞書に一致（kawara）。出典による裏づけは未確認。","zones":[],"dataset":"old_maps"}},{"type":"Feature","geometry":{"type":"Point","coordinates":[136.260473,35.220555]},"properties":{"id":"25-5f0e68873c","name":"小川原","reading":null,"pref":"滋賀県","prefCode":"25","municipality":"犬上郡甲良町","hazardTypes":["flood"],"evidenceLevel":0,"originLevel":0,"hasRecord":false,"recordRelation":null,"status":"historical","disputed":false,"precision":"koaza","areaKey":null,"elements":["kawara"],"summary":"要素辞書に一致（kawara）。出典による裏づけは未確認。","zones":[],"dataset":"old_maps"}},{"type":"Feature","geometry":{"type":"Point","coordinates":[136.263385,35.227227]},"properties":{"id":"25-453cbf736b","name":"猿木","reading":null,"pref":"滋賀県","prefCode":"25","municipality":"犬上郡多賀町","hazardTypes":["slope_failure"],"evidenceLevel":0,"originLevel":0,"hasRecord":false,"recordRelation":null,"status":"historical","disputed":false,"precision":"koaza","areaKey":null,"elements":["saru"],"summary":"要素辞書に一致（saru）。出典による裏づけは未確認。","zones":[],"dataset":"old_maps"}},{"type":"Feature","geometry":{"type":"Point","coordinates":[136.265394,35.206058]},"properties":{"id":"25-8d8b75c136","name":"古川","reading":null,"pref":"滋賀県","prefCode":"25","municipality":"犬上郡甲良町","hazardTypes":["flood","inundation"],"evidenceLevel":0,"originLevel":0,"hasRecord":false,"recordRelation":null,"status":"historical","disputed":false,"precision":"koaza","areaKey":null,"elements":["furukawa"],"summary":"要素辞書に一致（furukawa）。出典による裏づけは未確認。","zones":[],"dataset":"old_maps"}},{"type":"Feature","geometry":{"type":"Point","coordinates":[135.902142,35.33291]},"properties":{"id":"25-714c228c16","name":"古川","reading":null,"pref":"滋賀県","prefCode":"25","municipality":"高島市","hazardTypes":["flood","inundation"],"evidenceLevel":0,"originLevel":0,"hasRecord":false,"recordRelation":null,"status":"historical","disputed":false,"precision":"koaza","areaKey":"252120740","elements":["furukawa"],"summary":"要素辞書に一致（furukawa）。出典による裏づけは未確認。","zones":[],"dataset":"old_maps"}},{"type":"Feature","geometry":{"type":"Point","coordinates":[135.877261,35.268073]},"properties":{"id":"25-154357ef0c","name":"梅ノ木","reading":null,"pref":"滋賀県","prefCode":"25","municipality":"大津市","hazardTypes":["landslide","slope_failure"],"evidenceLevel":0,"originLevel":0,"hasRecord":false,"recordRelation":null,"status":"historical","disputed":false,"precision":"koaza","areaKey":"252010070","elements":["ume"],"summary":"要素辞書に一致（ume）。出典による裏づけは未確認。","zones":[],"dataset":"old_maps"}},{"type":"Feature","geometry":{"type":"Point","coordinates":[135.993189,35.413192]},"properties":{"id":"25-7a83110b18","name":"梅ヶ原","reading":null,"pref":"滋賀県","prefCode":"25","municipality":"高島市","hazardTypes":["landslide","slope_failure"],"evidenceLevel":0,"originLevel":0,"hasRecord":false,"recordRelation":null,"status":"historical","disputed":false,"precision":"koaza","areaKey":"252120300","elements":["ume"],"summary":"要素辞書に一致（ume）。出典による裏づけは未確認。","zones":[],"dataset":"old_maps"}},{"type":"Feature","geometry":{"type":"Point","coordinates":[136.239067,35.475374]},"properties":{"id":"25-d9ea62f1a2","name":"渡岸寺","reading":null,"pref":"滋賀県","prefCode":"25","municipality":"長浜市","hazardTypes":["slope_failure"],"evidenceLevel":0,"originLevel":0,"hasRecord":false,"recordRelation":null,"status":"historical","disputed":false,"precision":"koaza","areaKey":"252032180","elements":["kake"],"summary":"要素辞書に一致（kake）。出典による裏づけは未確認。","zones":[],"dataset":"old_maps"}},{"type":"Feature","geometry":{"type":"Point","coordinates":[136.213051,35.477693]},"properties":{"id":"25-0dd307766b","name":"磯野","reading":null,"pref":"滋賀県","prefCode":"25","municipality":"長浜市","hazardTypes":["rockfall","debris_flow"],"evidenceLevel":0,"originLevel":0,"hasRecord":false,"recordRelation":null,"status":"historical","disputed":false,"precision":"koaza","areaKey":"252032400","elements":["iso_ishi"],"summary":"要素辞書に一致（iso_ishi）。出典による裏づけは未確認。","zones":[],"dataset":"old_maps"}},{"type":"Feature","geometry":{"type":"Point","coordinates":[136.142558,35.458785]},"properties":{"id":"25-4e16dc5f85","name":"菅浦","reading":null,"pref":"滋賀県","prefCode":"25","municipality":"長浜市","hazardTypes":["landslide","soft_ground"],"evidenceLevel":0,"originLevel":0,"hasRecord":false,"recordRelation":null,"status":"historical","disputed":false,"precision":"koaza","areaKey":"252032950","elements":["wetland_plants"],"summary":"要素辞書に一致（wetland_plants）。出典による裏づけは未確認。","zones":[],"dataset":"old_maps"}},{"type":"Feature","geometry":{"type":"Point","coordinates":[136.237437,35.436858]},"properties":{"id":"25-e433a591aa","name":"小倉","reading":null,"pref":"滋賀県","prefCode":"25","municipality":"長浜市","hazardTypes":["slope_failure","rockfall"],"evidenceLevel":0,"originLevel":0,"hasRecord":false,"recordRelation":null,"status":"historical","disputed":false,"precision":"koaza","areaKey":"252031830","elements":["kura"],"summary":"要素辞書に一致（kura）。出典による裏づけは未確認。","zones":[],"dataset":"old_maps"}},{"type":"Feature","geometry":{"type":"Point","coordinates":[136.011019,35.415556]},"properties":{"id":"25-013d0dcb69","name":"岸脇","reading":null,"pref":"滋賀県","prefCode":"25","municipality":"高島市","hazardTypes":["slope_failure"],"evidenceLevel":0,"originLevel":0,"hasRecord":false,"recordRelation":null,"status":"historical","disputed":false,"precision":"koaza","areaKey":"252120320","elements":["kake"],"summary":"要素辞書に一致（kake）。出典による裏づけは未確認。","zones":[],"dataset":"old_maps"}},{"type":"Feature","geometry":{"type":"Point","coordinates":[136.229911,35.59397]},"properties":{"id":"25-49c0516fe7","name":"菅並","reading":null,"pref":"滋賀県","prefCode":"25","municipality":"長浜市","hazardTypes":["landslide","soft_ground"],"evidenceLevel":0,"originLevel":0,"hasRecord":false,"recordRelation":null,"status":"historical","disputed":false,"precision":"koaza","areaKey":"252032700","elements":["wetland_plants"],"summary":"要素辞書に一致（wetland_plants）。出典による裏づけは未確認。","zones":[],"dataset":"old_maps"}},{"type":"Feature","geometry":{"type":"Point","coordinates":[135.987762,34.993688]},"properties":{"id":"25-a735f045d2","name":"馬場","reading":null,"pref":"滋賀県","prefCode":"25","municipality":"草津市","hazardTypes":["slope_failure"],"evidenceLevel":0,"originLevel":0,"hasRecord":false,"recordRelation":null,"status":"historical","disputed":false,"precision":"koaza","areaKey":"252060010","elements":["baba"],"summary":"要素辞書に一致（baba）。出典による裏づけは未確認。","zones":[],"dataset":"old_maps"}},{"type":"Feature","geometry":{"type":"Point","coordinates":[135.882978,35.001203]},"properties":{"id":"25-e9c6ea96d2","name":"馬場","reading":null,"pref":"滋賀県","prefCode":"25","municipality":"大津市","hazardTypes":["slope_failure"],"evidenceLevel":0,"originLevel":0,"hasRecord":false,"recordRelation":null,"status":"historical","disputed":false,"precision":"koaza","areaKey":"25201191001","elements":["baba"],"summary":"要素辞書に一致（baba）。出典による裏づけは未確認。","zones":[],"dataset":"old_maps"}},{"type":"Feature","geometry":{"type":"Point","coordinates":[135.903584,34.96741]},"properties":{"id":"25-f8b2d657da","name":"地蔵堂","reading":null,"pref":"滋賀県","prefCode":"25","municipality":"大津市","hazardTypes":["slope_failure","rockfall"],"evidenceLevel":0,"originLevel":0,"hasRecord":false,"recordRelation":null,"status":"historical","disputed":false,"precision":"koaza","areaKey":"252012440","elements":["kura"],"summary":"要素辞書に一致（kura）。出典による裏づけは未確認。","zones":[],"dataset":"old_maps"}},{"type":"Feature","geometry":{"type":"Point","coordinates":[135.963544,34.971692]},"properties":{"id":"25-e914f1fcca","name":"川原田","reading":null,"pref":"滋賀県","prefCode":"25","municipality":"大津市","hazardTypes":["flood"],"evidenceLevel":0,"originLevel":0,"hasRecord":false,"recordRelation":null,"status":"historical","disputed":false,"precision":"koaza","areaKey":"25201290105","elements":["kawara"],"summary":"要素辞書に一致（kawara）。出典による裏づけは未確認。","zones":[],"dataset":"old_maps"}},{"type":"Feature","geometry":{"type":"Point","coordinates":[135.9846,34.974148]},"properties":{"id":"25-112708b5e7","name":"川原","reading":null,"pref":"滋賀県","prefCode":"25","municipality":"大津市","hazardTypes":["flood"],"evidenceLevel":0,"originLevel":0,"hasRecord":false,"recordRelation":null,"status":"historical","disputed":false,"precision":"koaza","areaKey":"25201292101","elements":["kawara"],"summary":"要素辞書に一致（kawara）。出典による裏づけは未確認。","zones":[],"dataset":"old_maps"}},{"type":"Feature","geometry":{"type":"Point","coordinates":[135.881082,34.948719]},"properties":{"id":"25-a67c52aec3","name":"鈴鹿","reading":null,"pref":"滋賀県","prefCode":"25","municipality":"大津市","hazardTypes":["landslide","soft_ground"],"evidenceLevel":0,"originLevel":0,"hasRecord":false,"recordRelation":null,"status":"historical","disputed":false,"precision":"koaza","areaKey":"252012590","elements":["shishi"],"summary":"要素辞書に一致（shishi）。出典による裏づけは未確認。","zones":[],"dataset":"old_maps"}},{"type":"Feature","geometry":{"type":"Point","coordinates":[135.945365,34.906576]},"properties":{"id":"25-364d3d4792","name":"石倉","reading":null,"pref":"滋賀県","prefCode":"25","municipality":"大津市","hazardTypes":["slope_failure","rockfall"],"evidenceLevel":0,"originLevel":0,"hasRecord":false,"recordRelation":null,"status":"historical","disputed":false,"precision":"koaza","areaKey":"25201279101","elements":["kura"],"summary":"要素辞書に一致（kura）。出典による裏づけは未確認。","zones":[],"dataset":"old_maps"}},{"type":"Feature","geometry":{"type":"Point","coordinates":[135.927342,34.91532]},"properties":{"id":"25-029298ddbe","name":"倉骨","reading":null,"pref":"滋賀県","prefCode":"25","municipality":"大津市","hazardTypes":["slope_failure","rockfall"],"evidenceLevel":0,"originLevel":0,"hasRecord":false,"recordRelation":null,"status":"historical","disputed":false,"precision":"koaza","areaKey":"25201278103","elements":["kura"],"summary":"要素辞書に一致（kura）。出典による裏づけは未確認。","zones":[],"dataset":"old_maps"}},{"type":"Feature","geometry":{"type":"Point","coordinates":[135.956344,35.067167]},"properties":{"id":"25-42ba09b153","name":"森川原","reading":null,"pref":"滋賀県","prefCode":"25","municipality":"守山市","hazardTypes":["flood"],"evidenceLevel":0,"originLevel":0,"hasRecord":false,"recordRelation":null,"status":"historical","disputed":false,"precision":"koaza","areaKey":"252070220","elements":["kawara"],"summary":"要素辞書に一致（kawara）。出典による裏づけは未確認。","zones":[],"dataset":"old_maps"}},{"type":"Feature","geometry":{"type":"Point","coordinates":[135.954467,35.064416]},"properties":{"id":"25-ce76cec456","name":"川原森","reading":null,"pref":"滋賀県","prefCode":"25","municipality":"守山市","hazardTypes":["flood"],"evidenceLevel":0,"originLevel":0,"hasRecord":false,"recordRelation":null,"status":"historical","disputed":false,"precision":"koaza","areaKey":"252070220","elements":["kawara"],"summary":"要素辞書に一致（kawara）。出典による裏づけは未確認。","zones":[],"dataset":"old_maps"}},{"type":"Feature","geometry":{"type":"Point","coordinates":[135.956507,35.058378]},"properties":{"id":"25-e7d04b0db1","name":"芦浦","reading":null,"pref":"滋賀県","prefCode":"25","municipality":"草津市","hazardTypes":["flood","inundation"],"evidenceLevel":0,"originLevel":0,"hasRecord":false,"recordRelation":null,"status":"historical","disputed":false,"precision":"koaza","areaKey":"252060780","elements":["ashi"],"summary":"要素辞書に一致（ashi）。出典による裏づけは未確認。","zones":[],"dataset":"old_maps"}},{"type":"Feature","geometry":{"type":"Point","coordinates":[135.889906,35.084541]},"properties":{"id":"25-ce0b1c9b7d","name":"苗鹿","reading":null,"pref":"滋賀県","prefCode":"25","municipality":"大津市","hazardTypes":["landslide","soft_ground"],"evidenceLevel":0,"originLevel":0,"hasRecord":false,"recordRelation":null,"status":"historical","disputed":false,"precision":"koaza","areaKey":"25201064002","elements":["shishi"],"summary":"要素辞書に一致（shishi）。出典による裏づけは未確認。","zones":[],"dataset":"old_maps"}},{"type":"Feature","geometry":{"type":"Point","coordinates":[135.931207,35.016514]},"properties":{"id":"25-7dfac9487c","name":"御倉","reading":null,"pref":"滋賀県","prefCode":"25","municipality":"草津市","hazardTypes":["slope_failure","rockfall"],"evidenceLevel":0,"originLevel":0,"hasRecord":false,"recordRelation":null,"status":"historical","disputed":false,"precision":"koaza","areaKey":"252060500","elements":["kura"],"summary":"要素辞書に一致（kura）。出典による裏づけは未確認。","zones":[],"dataset":"old_maps"}},{"type":"Feature","geometry":{"type":"Point","coordinates":[135.956346,35.011013]},"properties":{"id":"25-348c99333a","name":"矢倉","reading":null,"pref":"滋賀県","prefCode":"25","municipality":"草津市","hazardTypes":["slope_failure","rockfall"],"evidenceLevel":0,"originLevel":0,"hasRecord":false,"recordRelation":null,"status":"historical","disputed":false,"precision":"koaza","areaKey":"25206025001","elements":["kura"],"summary":"要素辞書に一致（kura）。出典による裏づけは未確認。","zones":[],"dataset":"old_maps"}},{"type":"Feature","geometry":{"type":"Point","coordinates":[135.976342,35.023224]},"properties":{"id":"25-e4812bae50","name":"小柿","reading":null,"pref":"滋賀県","prefCode":"25","municipality":"栗東市","hazardTypes":["slope_failure"],"evidenceLevel":0,"originLevel":0,"hasRecord":false,"recordRelation":null,"status":"historical","disputed":false,"precision":"koaza","areaKey":"25208009104","elements":["kake"],"summary":"要素辞書に一致（kake）。出典による裏づけは未確認。","zones":[],"dataset":"old_maps"}},{"type":"Feature","geometry":{"type":"Point","coordinates":[135.973566,35.031677]},"properties":{"id":"25-1cb3b8a0c6","name":"市川原","reading":null,"pref":"滋賀県","prefCode":"25","municipality":"栗東市","hazardTypes":["flood"],"evidenceLevel":0,"originLevel":0,"hasRecord":false,"recordRelation":null,"status":"historical","disputed":false,"precision":"koaza","areaKey":"252080300","elements":["kawara"],"summary":"要素辞書に一致（kawara）。出典による裏づけは未確認。","zones":[],"dataset":"old_maps"}},{"type":"Feature","geometry":{"type":"Point","coordinates":[135.954876,35.035769]},"properties":{"id":"25-ea62348865","name":"川原","reading":null,"pref":"滋賀県","prefCode":"25","municipality":"草津市","hazardTypes":["flood"],"evidenceLevel":0,"originLevel":0,"hasRecord":false,"recordRelation":null,"status":"historical","disputed":false,"precision":"koaza","areaKey":"25206070003","elements":["kawara"],"summary":"要素辞書に一致（kawara）。出典による裏づけは未確認。","zones":[],"dataset":"old_maps"}},{"type":"Feature","geometry":{"type":"Point","coordinates":[136.303811,35.605796]},"properties":{"id":"25-c271eff1fa","name":"土倉","reading":null,"pref":"滋賀県","prefCode":"25","municipality":"長浜市","hazardTypes":["slope_failure","rockfall"],"evidenceLevel":0,"originLevel":0,"hasRecord":false,"recordRelation":null,"status":"historical","disputed":false,"precision":"koaza","areaKey":null,"elements":["kura"],"summary":"要素辞書に一致（kura）。出典による裏づけは未確認。","zones":[],"dataset":"old_maps"}},{"type":"Feature","geometry":{"type":"Point","coordinates":[136.299383,35.5888]},"properties":{"id":"25-edd3dcead1","name":"出口土倉","reading":null,"pref":"滋賀県","prefCode":"25","municipality":"長浜市","hazardTypes":["slope_failure","rockfall"],"evidenceLevel":0,"originLevel":0,"hasRecord":false,"recordRelation":null,"status":"historical","disputed":false,"precision":"koaza","areaKey":null,"elements":["kura"],"summary":"要素辞書に一致（kura）。出典による裏づけは未確認。","zones":[],"dataset":"old_maps"}},{"type":"Feature","geometry":{"type":"Point","coordinates":[136.307061,35.39003]},"properties":{"id":"25-af629df292","name":"南小足","reading":null,"pref":"滋賀県","prefCode":"25","municipality":"長浜市","hazardTypes":["flood","inundation"],"evidenceLevel":0,"originLevel":0,"hasRecord":false,"recordRelation":null,"status":"historical","disputed":false,"precision":"koaza","areaKey":"252030380","elements":["ashi"],"summary":"要素辞書に一致（ashi）。出典による裏づけは未確認。","zones":[],"dataset":"old_maps"}},{"type":"Feature","geometry":{"type":"Point","coordinates":[136.268536,35.40296]},"properties":{"id":"25-97de1501e6","name":"新荘馬場","reading":null,"pref":"滋賀県","prefCode":"25","municipality":"長浜市","hazardTypes":["slope_failure"],"evidenceLevel":0,"originLevel":0,"hasRecord":false,"recordRelation":null,"status":"historical","disputed":false,"precision":"koaza","areaKey":"252030530","elements":["baba"],"summary":"要素辞書に一致（baba）。出典による裏づけは未確認。","zones":[],"dataset":"old_maps"}},{"type":"Feature","geometry":{"type":"Point","coordinates":[136.296089,35.457483]},"properties":{"id":"25-0d482998b0","name":"竜岸寺","reading":null,"pref":"滋賀県","prefCode":"25","municipality":"長浜市","hazardTypes":["slope_failure"],"evidenceLevel":0,"originLevel":0,"hasRecord":false,"recordRelation":null,"status":"historical","disputed":false,"precision":"koaza","areaKey":"252030970","elements":["kake"],"summary":"要素辞書に一致（kake）。出典による裏づけは未確認。","zones":[],"dataset":"old_maps"}},{"type":"Feature","geometry":{"type":"Point","coordinates":[136.319433,35.438519]},"properties":{"id":"25-c054aac8ae","name":"乗倉","reading":null,"pref":"滋賀県","prefCode":"25","municipality":"長浜市","hazardTypes":["slope_failure","rockfall"],"evidenceLevel":0,"originLevel":0,"hasRecord":false,"recordRelation":null,"status":"historical","disputed":false,"precision":"koaza","areaKey":"252031180","elements":["kura"],"summary":"要素辞書に一致（kura）。出典による裏づけは未確認。","zones":[],"dataset":"old_maps"}},{"type":"Feature","geometry":{"type":"Point","coordinates":[136.332683,35.456406]},"properties":{"id":"25-06359762c4","name":"鍛冶屋","reading":null,"pref":"滋賀県","prefCode":"25","municipality":"長浜市","hazardTypes":["slope_failure"],"evidenceLevel":0,"originLevel":0,"hasRecord":false,"recordRelation":null,"status":"historical","disputed":false,"precision":"koaza","areaKey":"252031360","elements":["kaji_kamu"],"summary":"要素辞書に一致（kaji_kamu）。出典による裏づけは未確認。","zones":[],"dataset":"old_maps"}}]}
