{"type":"FeatureCollection","features":[{"type":"Feature","geometry":{"type":"Point","coordinates":[135.965608,34.64271]},"properties":{"id":"29-5a8052eafb","name":"荻町","reading":"オオギチョウ","pref":"奈良県","prefCode":"29","municipality":"奈良市","hazardTypes":["slope_failure"],"evidenceLevel":0,"status":"current","disputed":false,"precision":"oaza","areaKey":"292018850","elements":["suki_hagu"],"summary":"要素辞書に一致（suki_hagu）。出典による裏づけは未確認。","zones":[],"dataset":"candidates"}},{"type":"Feature","geometry":{"type":"Point","coordinates":[135.986267,34.618883]},"properties":{"id":"29-bcf3771111","name":"小倉町","reading":"オグラチョウ","pref":"奈良県","prefCode":"29","municipality":"奈良市","hazardTypes":["slope_failure","rockfall"],"evidenceLevel":0,"status":"current","disputed":false,"precision":"oaza","areaKey":"292018820","elements":["kura"],"summary":"要素辞書に一致（kura）。出典による裏づけは未確認。","zones":[],"dataset":"candidates"}},{"type":"Feature","geometry":{"type":"Point","coordinates":[135.831771,34.674161]},"properties":{"id":"29-e00f405554","name":"川之上突抜町","reading":"カワノカミツキヌケチョウ","pref":"奈良県","prefCode":"29","municipality":"奈良市","hazardTypes":["slope_failure"],"evidenceLevel":0,"status":"current","disputed":false,"precision":"oaza","areaKey":"292010610","elements":["nuke"],"summary":"要素辞書に一致（nuke）。出典による裏づけは未確認。","zones":[],"dataset":"candidates"}},{"type":"Feature","geometry":{"type":"Point","coordinates":[135.855155,34.625974]},"properties":{"id":"29-f17e69b631","name":"虚空蔵町","reading":"コクゾウチョウ","pref":"奈良県","prefCode":"29","municipality":"奈良市","hazardTypes":["slope_failure","rockfall"],"evidenceLevel":0,"status":"current","disputed":false,"precision":"oaza","areaKey":"292018150","elements":["kura"],"summary":"要素辞書に一致（kura）。出典による裏づけは未確認。","zones":[],"dataset":"candidates"}},{"type":"Feature","geometry":{"type":"Point","coordinates":[135.772954,34.698767]},"properties":{"id":"29-5b95241066","name":"西大寺赤田町一丁目","reading":"サイダイジアコダチョウ 1","pref":"奈良県","prefCode":"29","municipality":"奈良市","hazardTypes":["landslide"],"evidenceLevel":0,"status":"current","disputed":false,"precision":"oaza","areaKey":"29201532001","elements":["geology_names"],"summary":"要素辞書に一致（geology_names）。出典による裏づけは未確認。","zones":[],"dataset":"candidates"}},{"type":"Feature","geometry":{"type":"Point","coordinates":[135.831196,34.677297]},"properties":{"id":"29-cee17e76bc","name":"芝突抜町","reading":"シバツキヌケチョウ","pref":"奈良県","prefCode":"29","municipality":"奈良市","hazardTypes":["slope_failure"],"evidenceLevel":0,"status":"current","disputed":false,"precision":"oaza","areaKey":"292010690","elements":["nuke"],"summary":"要素辞書に一致（nuke）。出典による裏づけは未確認。","zones":[],"dataset":"candidates"}},{"type":"Feature","geometry":{"type":"Point","coordinates":[135.82427,34.686826]},"properties":{"id":"29-4ef9067cd2","name":"菖蒲池町","reading":"ショウブイケチョウ","pref":"奈良県","prefCode":"29","municipality":"奈良市","hazardTypes":["landslide","soft_ground"],"evidenceLevel":0,"status":"current","disputed":false,"precision":"oaza","areaKey":"292012650","elements":["wetland_plants"],"summary":"要素辞書に一致（wetland_plants）。出典による裏づけは未確認。","zones":[],"dataset":"candidates"}},{"type":"Feature","geometry":{"type":"Point","coordinates":[135.758741,34.678206]},"properties":{"id":"29-d8280e57a7","name":"菅野台","reading":"スガノダイ","pref":"奈良県","prefCode":"29","municipality":"奈良市","hazardTypes":["landslide","soft_ground"],"evidenceLevel":0,"status":"current","disputed":false,"precision":"oaza","areaKey":"292016680","elements":["wetland_plants","tai"],"summary":"要素辞書に一致（wetland_plants・tai）。出典による裏づけは未確認。","zones":[],"dataset":"candidates"}},{"type":"Feature","geometry":{"type":"Point","coordinates":[135.774646,34.686793]},"properties":{"id":"29-b608f7398f","name":"菅原町","reading":"スガハラチョウ","pref":"奈良県","prefCode":"29","municipality":"奈良市","hazardTypes":["landslide","soft_ground"],"evidenceLevel":0,"status":"current","disputed":false,"precision":"oaza","areaKey":"292014930","elements":["wetland_plants"],"summary":"要素辞書に一致（wetland_plants）。出典による裏づけは未確認。","zones":[],"dataset":"candidates"}},{"type":"Feature","geometry":{"type":"Point","coordinates":[135.779543,34.685375]},"properties":{"id":"29-6c391f47f9","name":"菅原東一丁目","reading":"スガハラヒガシ 1","pref":"奈良県","prefCode":"29","municipality":"奈良市","hazardTypes":["landslide","soft_ground"],"evidenceLevel":0,"status":"current","disputed":false,"precision":"oaza","areaKey":"29201887001","elements":["wetland_plants"],"summary":"要素辞書に一致（wetland_plants）。出典による裏づけは未確認。","zones":[],"dataset":"candidates"}},{"type":"Feature","geometry":{"type":"Point","coordinates":[135.952316,34.632125]},"properties":{"id":"29-616d1d7168","name":"都祁馬場町","reading":"ツゲババチョウ","pref":"奈良県","prefCode":"29","municipality":"奈良市","hazardTypes":["slope_failure"],"evidenceLevel":0,"status":"current","disputed":false,"precision":"oaza","areaKey":"292018860","elements":["baba"],"summary":"要素辞書に一致（baba）。出典による裏づけは未確認。","zones":[],"dataset":"candidates"}},{"type":"Feature","geometry":{"type":"Point","coordinates":[135.831374,34.688592]},"properties":{"id":"29-ed6fe6a2a8","name":"半田突抜町","reading":"ハンダツキヌケチョウ","pref":"奈良県","prefCode":"29","municipality":"奈良市","hazardTypes":["slope_failure"],"evidenceLevel":0,"status":"current","disputed":false,"precision":"oaza","areaKey":"292012420","elements":["nuke"],"summary":"要素辞書に一致（nuke）。出典による裏づけは未確認。","zones":[],"dataset":"candidates"}},{"type":"Feature","geometry":{"type":"Point","coordinates":[135.82577,34.678927]},"properties":{"id":"29-ea6444fa1f","name":"馬場町","reading":"ババチョウ","pref":"奈良県","prefCode":"29","municipality":"奈良市","hazardTypes":["slope_failure"],"evidenceLevel":0,"status":"current","disputed":false,"precision":"oaza","areaKey":"292012190","elements":["baba"],"summary":"要素辞書に一致（baba）。出典による裏づけは未確認。","zones":[],"dataset":"candidates"}},{"type":"Feature","geometry":{"type":"Point","coordinates":[135.828177,34.686165]},"properties":{"id":"29-df3e2ce08d","name":"大豆山突抜町","reading":"マメヤマツキヌケチョウ","pref":"奈良県","prefCode":"29","municipality":"奈良市","hazardTypes":["slope_failure"],"evidenceLevel":0,"status":"current","disputed":false,"precision":"oaza","areaKey":"292012370","elements":["nuke"],"summary":"要素辞書に一致（nuke）。出典による裏づけは未確認。","zones":[],"dataset":"candidates"}},{"type":"Feature","geometry":{"type":"Point","coordinates":[135.849247,34.662321]},"properties":{"id":"29-22da325523","name":"鹿野園町","reading":"ロクヤオンチョウ","pref":"奈良県","prefCode":"29","municipality":"奈良市","hazardTypes":["landslide","soft_ground"],"evidenceLevel":0,"status":"current","disputed":false,"precision":"oaza","areaKey":"292017930","elements":["shishi"],"summary":"要素辞書に一致（shishi）。出典による裏づけは未確認。","zones":[],"dataset":"candidates"}},{"type":"Feature","geometry":{"type":"Point","coordinates":[135.759763,34.482613]},"properties":{"id":"29-adf5ba1f5c","name":"大字根成柿","reading":null,"pref":"奈良県","prefCode":"29","municipality":"大和高田市","hazardTypes":["slope_failure","landslide"],"evidenceLevel":0,"status":"current","disputed":false,"precision":"oaza","areaKey":"292020660","elements":["kake","nari"],"summary":"要素辞書に一致（kake・nari）。出典による裏づけは未確認。","zones":[],"dataset":"candidates"}},{"type":"Feature","geometry":{"type":"Point","coordinates":[135.749025,34.498603]},"properties":{"id":"29-89fbca5753","name":"蔵之宮町","reading":"クラノミヤチョウ","pref":"奈良県","prefCode":"29","municipality":"大和高田市","hazardTypes":["slope_failure","rockfall"],"evidenceLevel":0,"status":"current","disputed":false,"precision":"oaza","areaKey":"292020450","elements":["kura"],"summary":"要素辞書に一致（kura）。出典による裏づけは未確認。","zones":[],"dataset":"candidates"}},{"type":"Feature","geometry":{"type":"Point","coordinates":[135.745502,34.504765]},"properties":{"id":"29-6ed80b24b1","name":"中三倉堂一丁目","reading":"ナカミクラドウ 1","pref":"奈良県","prefCode":"29","municipality":"大和高田市","hazardTypes":["slope_failure","rockfall"],"evidenceLevel":0,"status":"current","disputed":false,"precision":"oaza","areaKey":"29202051001","elements":["kura"],"summary":"要素辞書に一致（kura）。出典による裏づけは未確認。","zones":[],"dataset":"candidates"}},{"type":"Feature","geometry":{"type":"Point","coordinates":[135.743147,34.50527]},"properties":{"id":"29-e50dfc3569","name":"西三倉堂一丁目","reading":"ニシミクラドウ 1","pref":"奈良県","prefCode":"29","municipality":"大和高田市","hazardTypes":["slope_failure","rockfall"],"evidenceLevel":0,"status":"current","disputed":false,"precision":"oaza","areaKey":"29202049001","elements":["kura"],"summary":"要素辞書に一致（kura）。出典による裏づけは未確認。","zones":[],"dataset":"candidates"}},{"type":"Feature","geometry":{"type":"Point","coordinates":[135.747607,34.505515]},"properties":{"id":"29-b4098e6a2d","name":"東三倉堂町","reading":"ヒガシミクラドウチョウ","pref":"奈良県","prefCode":"29","municipality":"大和高田市","hazardTypes":["slope_failure","rockfall"],"evidenceLevel":0,"status":"current","disputed":false,"precision":"oaza","areaKey":"292020530","elements":["kura"],"summary":"要素辞書に一致（kura）。出典による裏づけは未確認。","zones":[],"dataset":"candidates"}},{"type":"Feature","geometry":{"type":"Point","coordinates":[135.788595,34.652461]},"properties":{"id":"29-12c42cfee4","name":"北鍛冶町","reading":"キタカジマチ","pref":"奈良県","prefCode":"29","municipality":"大和郡山市","hazardTypes":["slope_failure"],"evidenceLevel":0,"status":"current","disputed":false,"precision":"oaza","areaKey":"292030100","elements":["kaji_kamu"],"summary":"要素辞書に一致（kaji_kamu）。出典による裏づけは未確認。","zones":[],"dataset":"candidates"}},{"type":"Feature","geometry":{"type":"Point","coordinates":[135.788184,34.651726]},"properties":{"id":"29-a693dc28d2","name":"中鍛冶町","reading":"ナカカジマチ","pref":"奈良県","prefCode":"29","municipality":"大和郡山市","hazardTypes":["slope_failure"],"evidenceLevel":0,"status":"current","disputed":false,"precision":"oaza","areaKey":"292030110","elements":["kaji_kamu"],"summary":"要素辞書に一致（kaji_kamu）。出典による裏づけは未確認。","zones":[],"dataset":"candidates"}},{"type":"Feature","geometry":{"type":"Point","coordinates":[135.788185,34.651378]},"properties":{"id":"29-3bc5cfc921","name":"南鍛冶町","reading":"ミナミカジマチ","pref":"奈良県","prefCode":"29","municipality":"大和郡山市","hazardTypes":["slope_failure"],"evidenceLevel":0,"status":"current","disputed":false,"precision":"oaza","areaKey":"292030120","elements":["kaji_kamu"],"summary":"要素辞書に一致（kaji_kamu）。出典による裏づけは未確認。","zones":[],"dataset":"candidates"}},{"type":"Feature","geometry":{"type":"Point","coordinates":[135.862855,34.593026]},"properties":{"id":"29-f167507d9f","name":"内馬場町","reading":"ウチババチョウ","pref":"奈良県","prefCode":"29","municipality":"天理市","hazardTypes":["slope_failure"],"evidenceLevel":0,"status":"current","disputed":false,"precision":"oaza","areaKey":"292040060","elements":["baba"],"summary":"要素辞書に一致（baba）。出典による裏づけは未確認。","zones":[],"dataset":"candidates"}},{"type":"Feature","geometry":{"type":"Point","coordinates":[135.834639,34.599518]},"properties":{"id":"29-bfcfa4b306","name":"川原城町","reading":"カワハラジョウチョウ","pref":"奈良県","prefCode":"29","municipality":"天理市","hazardTypes":["flood"],"evidenceLevel":0,"status":"current","disputed":false,"precision":"oaza","areaKey":"292040150","elements":["kawara"],"summary":"要素辞書に一致（kawara）。出典による裏づけは未確認。","zones":[],"dataset":"candidates"}},{"type":"Feature","geometry":{"type":"Point","coordinates":[135.832589,34.565066]},"properties":{"id":"29-b6921c75b1","name":"岸田町","reading":"キシダチョウ","pref":"奈良県","prefCode":"29","municipality":"天理市","hazardTypes":["slope_failure"],"evidenceLevel":0,"status":"current","disputed":false,"precision":"oaza","areaKey":"292040560","elements":["kake"],"summary":"要素辞書に一致（kake）。出典による裏づけは未確認。","zones":[],"dataset":"candidates"}},{"type":"Feature","geometry":{"type":"Point","coordinates":[135.826598,34.63263]},"properties":{"id":"29-7168aa8232","name":"蔵之庄町","reading":"クラノショウチョウ","pref":"奈良県","prefCode":"29","municipality":"天理市","hazardTypes":["slope_failure","rockfall"],"evidenceLevel":0,"status":"current","disputed":false,"precision":"oaza","areaKey":"292040710","elements":["kura"],"summary":"要素辞書に一致（kura）。出典による裏づけは未確認。","zones":[],"dataset":"candidates"}},{"type":"Feature","geometry":{"type":"Point","coordinates":[135.792971,34.599176]},"properties":{"id":"29-1926b10199","name":"二階堂北菅田町","reading":"ニカイドウキタスガタチョウ","pref":"奈良県","prefCode":"29","municipality":"天理市","hazardTypes":["landslide","soft_ground"],"evidenceLevel":0,"status":"current","disputed":false,"precision":"oaza","areaKey":"292040450","elements":["wetland_plants"],"summary":"要素辞書に一致（wetland_plants）。出典による裏づけは未確認。","zones":[],"dataset":"candidates"}},{"type":"Feature","geometry":{"type":"Point","coordinates":[135.792562,34.595028]},"properties":{"id":"29-ebb3f5f2ac","name":"二階堂南菅田町","reading":"ニカイドウミナミスガタチョウ","pref":"奈良県","prefCode":"29","municipality":"天理市","hazardTypes":["landslide","soft_ground"],"evidenceLevel":0,"status":"current","disputed":false,"precision":"oaza","areaKey":"292040440","elements":["wetland_plants"],"summary":"要素辞書に一致（wetland_plants）。出典による裏づけは未確認。","zones":[],"dataset":"candidates"}},{"type":"Feature","geometry":{"type":"Point","coordinates":[135.814967,34.565523]},"properties":{"id":"29-7218f551ee","name":"武蔵町","reading":"ムサシチョウ","pref":"奈良県","prefCode":"29","municipality":"天理市","hazardTypes":["slope_failure","rockfall"],"evidenceLevel":0,"status":"current","disputed":false,"precision":"oaza","areaKey":"292040680","elements":["kura"],"summary":"要素辞書に一致（kura）。出典による裏づけは未確認。","zones":[],"dataset":"candidates"}},{"type":"Feature","geometry":{"type":"Point","coordinates":[135.790591,34.495612]},"properties":{"id":"29-99c8ef0002","name":"大久保町","reading":"オオクボチョウ","pref":"奈良県","prefCode":"29","municipality":"橿原市","hazardTypes":["slope_failure","inundation","landslide"],"evidenceLevel":0,"status":"current","disputed":false,"precision":"oaza","areaKey":"292050150","elements":["afu_oo","kubo"],"summary":"要素辞書に一致（afu_oo・kubo）。出典による裏づけは未確認。","zones":[],"dataset":"candidates"}},{"type":"Feature","geometry":{"type":"Point","coordinates":[135.807119,34.493581]},"properties":{"id":"29-a8ffb54f4e","name":"上飛騨町","reading":"カミヒダチョウ","pref":"奈良県","prefCode":"29","municipality":"橿原市","hazardTypes":["slope_failure","debris_flow"],"evidenceLevel":0,"status":"current","disputed":false,"precision":"oaza","areaKey":"292050360","elements":["tobi"],"summary":"要素辞書に一致（tobi）。出典による裏づけは未確認。","zones":[],"dataset":"candidates"}},{"type":"Feature","geometry":{"type":"Point","coordinates":[135.806345,34.481]},"properties":{"id":"29-d41b82d76d","name":"菖蒲町一丁目","reading":"ショウブチョウ 1","pref":"奈良県","prefCode":"29","municipality":"橿原市","hazardTypes":["landslide","soft_ground"],"evidenceLevel":0,"status":"current","disputed":false,"precision":"oaza","areaKey":"29205082001","elements":["wetland_plants"],"summary":"要素辞書に一致（wetland_plants）。出典による裏づけは未確認。","zones":[],"dataset":"candidates"}},{"type":"Feature","geometry":{"type":"Point","coordinates":[135.80319,34.495967]},"properties":{"id":"29-a2b7082f82","name":"飛騨町","reading":"ヒダチョウ","pref":"奈良県","prefCode":"29","municipality":"橿原市","hazardTypes":["slope_failure","debris_flow"],"evidenceLevel":0,"status":"current","disputed":false,"precision":"oaza","areaKey":"292050350","elements":["tobi"],"summary":"要素辞書に一致（tobi）。出典による裏づけは未確認。","zones":[],"dataset":"candidates"}},{"type":"Feature","geometry":{"type":"Point","coordinates":[135.771323,34.490186]},"properties":{"id":"29-681c276863","name":"古川町","reading":"フルカワチョウ","pref":"奈良県","prefCode":"29","municipality":"橿原市","hazardTypes":["flood","inundation"],"evidenceLevel":0,"status":"current","disputed":false,"precision":"oaza","areaKey":"292050650","elements":["furukawa"],"summary":"要素辞書に一致（furukawa）。出典による裏づけは未確認。","zones":[],"dataset":"candidates"}},{"type":"Feature","geometry":{"type":"Point","coordinates":[135.836643,34.528898]},"properties":{"id":"29-b30518cfc9","name":"馬場方","reading":null,"pref":"奈良県","prefCode":"29","municipality":"桜井市","hazardTypes":["slope_failure"],"evidenceLevel":0,"status":"current","disputed":false,"precision":"koaza","areaKey":"29206063001","elements":["baba"],"summary":"要素辞書に一致（baba）。出典による裏づけは未確認。","zones":[],"dataset":"candidates"}},{"type":"Feature","geometry":{"type":"Point","coordinates":[135.867076,34.49408]},"properties":{"id":"29-60706c7749","name":"大字倉橋","reading":null,"pref":"奈良県","prefCode":"29","municipality":"桜井市","hazardTypes":["slope_failure","rockfall"],"evidenceLevel":0,"status":"current","disputed":false,"precision":"oaza","areaKey":"292060200","elements":["kura"],"summary":"要素辞書に一致（kura）。出典による裏づけは未確認。","zones":[],"dataset":"candidates"}},{"type":"Feature","geometry":{"type":"Point","coordinates":[135.858836,34.479309]},"properties":{"id":"29-136b21a5b4","name":"大字横柿","reading":null,"pref":"奈良県","prefCode":"29","municipality":"桜井市","hazardTypes":["slope_failure"],"evidenceLevel":0,"status":"current","disputed":false,"precision":"oaza","areaKey":"292060220","elements":["kake"],"summary":"要素辞書に一致（kake）。出典による裏づけは未確認。","zones":[],"dataset":"candidates"}},{"type":"Feature","geometry":{"type":"Point","coordinates":[135.914492,34.562725]},"properties":{"id":"29-49ac83974d","name":"大字瀧倉","reading":null,"pref":"奈良県","prefCode":"29","municipality":"桜井市","hazardTypes":["slope_failure","rockfall"],"evidenceLevel":0,"status":"current","disputed":false,"precision":"oaza","areaKey":"292060520","elements":["kura"],"summary":"要素辞書に一致（kura）。出典による裏づけは未確認。","zones":[],"dataset":"candidates"}},{"type":"Feature","geometry":{"type":"Point","coordinates":[135.93155,34.565073]},"properties":{"id":"29-9c4de5827e","name":"大字芹井","reading":null,"pref":"奈良県","prefCode":"29","municipality":"桜井市","hazardTypes":["landslide","soft_ground"],"evidenceLevel":0,"status":"current","disputed":false,"precision":"oaza","areaKey":"292060510","elements":["wetland_plants"],"summary":"要素辞書に一致（wetland_plants）。出典による裏づけは未確認。","zones":[],"dataset":"candidates"}},{"type":"Feature","geometry":{"type":"Point","coordinates":[135.872209,34.453143]},"properties":{"id":"29-d8ba09cf2a","name":"大字鹿路","reading":null,"pref":"奈良県","prefCode":"29","municipality":"桜井市","hazardTypes":["landslide","soft_ground"],"evidenceLevel":0,"status":"current","disputed":false,"precision":"oaza","areaKey":"292060260","elements":["shishi"],"summary":"要素辞書に一致（shishi）。出典による裏づけは未確認。","zones":[],"dataset":"candidates"}},{"type":"Feature","geometry":{"type":"Point","coordinates":[135.869791,34.513755]},"properties":{"id":"29-68d320af45","name":"朝倉台西一丁目","reading":"アサクラダイニシ 1","pref":"奈良県","prefCode":"29","municipality":"桜井市","hazardTypes":["slope_failure","rockfall","landslide"],"evidenceLevel":0,"status":"current","disputed":false,"precision":"oaza","areaKey":"29206042001","elements":["kura","tai"],"summary":"要素辞書に一致（kura・tai）。出典による裏づけは未確認。","zones":[],"dataset":"candidates"}},{"type":"Feature","geometry":{"type":"Point","coordinates":[135.875282,34.516308]},"properties":{"id":"29-87c3b7ea92","name":"朝倉台東一丁目","reading":"アサクラダイヒガシ 1","pref":"奈良県","prefCode":"29","municipality":"桜井市","hazardTypes":["slope_failure","rockfall","landslide"],"evidenceLevel":0,"status":"current","disputed":false,"precision":"oaza","areaKey":"29206042009","elements":["kura","tai"],"summary":"要素辞書に一致（kura・tai）。出典による裏づけは未確認。","zones":[],"dataset":"candidates"}},{"type":"Feature","geometry":{"type":"Point","coordinates":[135.729183,34.173815]},"properties":{"id":"29-b3014edf18","name":"大塔町猿谷","reading":"オオトウチョウサルタニ","pref":"奈良県","prefCode":"29","municipality":"五條市","hazardTypes":["slope_failure"],"evidenceLevel":0,"status":"current","disputed":false,"precision":"oaza","areaKey":null,"elements":["saru"],"summary":"要素辞書に一致（saru）。出典による裏づけは未確認。","zones":[],"dataset":"candidates"}},{"type":"Feature","geometry":{"type":"Point","coordinates":[135.734956,34.166113]},"properties":{"id":"29-ea8fb8e418","name":"大塔町飛養曽","reading":"オオトウチョウヒヨソ","pref":"奈良県","prefCode":"29","municipality":"五條市","hazardTypes":["slope_failure","debris_flow"],"evidenceLevel":0,"status":"current","disputed":false,"precision":"oaza","areaKey":"292071390","elements":["tobi"],"summary":"要素辞書に一致（tobi）。出典による裏づけは未確認。","zones":[],"dataset":"candidates"}},{"type":"Feature","geometry":{"type":"Point","coordinates":[135.677982,34.286049]},"properties":{"id":"29-2be02e5852","name":"大深町","reading":"オオブカチョウ","pref":"奈良県","prefCode":"29","municipality":"五條市","hazardTypes":["soft_ground","inundation"],"evidenceLevel":0,"status":"current","disputed":false,"precision":"oaza","areaKey":"292070530","elements":["fuke"],"summary":"要素辞書に一致（fuke）。出典による裏づけは未確認。","zones":[],"dataset":"candidates"}},{"type":"Feature","geometry":{"type":"Point","coordinates":[135.762891,34.290415]},"properties":{"id":"29-a632ae975d","name":"西吉野町川岸","reading":"ニシヨシノチョウカワギシ","pref":"奈良県","prefCode":"29","municipality":"五條市","hazardTypes":["slope_failure"],"evidenceLevel":0,"status":"current","disputed":false,"precision":"oaza","areaKey":"292071290","elements":["kake"],"summary":"要素辞書に一致（kake）。出典による裏づけは未確認。","zones":[],"dataset":"candidates"}},{"type":"Feature","geometry":{"type":"Point","coordinates":[135.753213,34.301775]},"properties":{"id":"29-6d81b74b3d","name":"西吉野町鹿場","reading":"ニシヨシノチョウシシバ","pref":"奈良県","prefCode":"29","municipality":"五條市","hazardTypes":["landslide","soft_ground"],"evidenceLevel":0,"status":"current","disputed":false,"precision":"oaza","areaKey":"292071030","elements":["shishi"],"summary":"要素辞書に一致（shishi）。出典による裏づけは未確認。","zones":[],"dataset":"candidates"}},{"type":"Feature","geometry":{"type":"Point","coordinates":[135.730307,34.353252]},"properties":{"id":"29-c0551ab9f8","name":"六倉町","reading":"ムツクラチョウ","pref":"奈良県","prefCode":"29","municipality":"五條市","hazardTypes":["slope_failure","rockfall"],"evidenceLevel":0,"status":"current","disputed":false,"precision":"oaza","areaKey":"292070350","elements":["kura"],"summary":"要素辞書に一致（kura）。出典による裏づけは未確認。","zones":[],"dataset":"candidates"}},{"type":"Feature","geometry":{"type":"Point","coordinates":[135.735645,34.453507]},"properties":{"id":"29-beac07332b","name":"大字蛇穴","reading":null,"pref":"奈良県","prefCode":"29","municipality":"御所市","hazardTypes":["slope_failure","debris_flow"],"evidenceLevel":0,"status":"current","disputed":false,"precision":"oaza","areaKey":"292080030","elements":["ja"],"summary":"要素辞書に一致（ja）。出典による裏づけは未確認。","zones":[],"dataset":"candidates"}},{"type":"Feature","geometry":{"type":"Point","coordinates":[135.742087,34.464177]},"properties":{"id":"29-b27b5a6465","name":"柿ケ坪町","reading":null,"pref":"奈良県","prefCode":"29","municipality":"御所市","hazardTypes":["slope_failure"],"evidenceLevel":0,"status":"current","disputed":false,"precision":"koaza","areaKey":null,"elements":["kake"],"summary":"要素辞書に一致（kake）。出典による裏づけは未確認。","zones":[],"dataset":"candidates"}},{"type":"Feature","geometry":{"type":"Point","coordinates":[135.690653,34.673646]},"properties":{"id":"29-e92f9b2318","name":"小倉寺町","reading":"オグラジチョウ","pref":"奈良県","prefCode":"29","municipality":"生駒市","hazardTypes":["slope_failure","rockfall"],"evidenceLevel":0,"status":"current","disputed":false,"precision":"oaza","areaKey":"292090810","elements":["kura"],"summary":"要素辞書に一致（kura）。出典による裏づけは未確認。","zones":[],"dataset":"candidates"}},{"type":"Feature","geometry":{"type":"Point","coordinates":[135.7509,34.737938]},"properties":{"id":"29-c62e6ae26d","name":"鹿ノ台北一丁目","reading":"シカノダイキタ 1","pref":"奈良県","prefCode":"29","municipality":"生駒市","hazardTypes":["landslide","soft_ground"],"evidenceLevel":0,"status":"current","disputed":false,"precision":"oaza","areaKey":"29209234001","elements":["shishi","tai"],"summary":"要素辞書に一致（shishi・tai）。出典による裏づけは未確認。","zones":[],"dataset":"candidates"}},{"type":"Feature","geometry":{"type":"Point","coordinates":[135.7463,34.735136]},"properties":{"id":"29-c5357ded6a","name":"鹿ノ台西一丁目","reading":"シカノダイニシ 1","pref":"奈良県","prefCode":"29","municipality":"生駒市","hazardTypes":["landslide","soft_ground"],"evidenceLevel":0,"status":"current","disputed":false,"precision":"oaza","areaKey":"29209232001","elements":["shishi","tai"],"summary":"要素辞書に一致（shishi・tai）。出典による裏づけは未確認。","zones":[],"dataset":"candidates"}},{"type":"Feature","geometry":{"type":"Point","coordinates":[135.753944,34.732428]},"properties":{"id":"29-3e940ac1f7","name":"鹿ノ台東一丁目","reading":"シカノダイヒガシ 1","pref":"奈良県","prefCode":"29","municipality":"生駒市","hazardTypes":["landslide","soft_ground"],"evidenceLevel":0,"status":"current","disputed":false,"precision":"oaza","areaKey":"29209231001","elements":["shishi","tai"],"summary":"要素辞書に一致（shishi・tai）。出典による裏づけは未確認。","zones":[],"dataset":"candidates"}},{"type":"Feature","geometry":{"type":"Point","coordinates":[135.750696,34.731099]},"properties":{"id":"29-4529a6bbbe","name":"鹿ノ台南一丁目","reading":"シカノダイミナミ 1","pref":"奈良県","prefCode":"29","municipality":"生駒市","hazardTypes":["landslide","soft_ground"],"evidenceLevel":0,"status":"current","disputed":false,"precision":"oaza","areaKey":"29209233001","elements":["shishi","tai"],"summary":"要素辞書に一致（shishi・tai）。出典による裏づけは未確認。","zones":[],"dataset":"candidates"}},{"type":"Feature","geometry":{"type":"Point","coordinates":[135.739362,34.731414]},"properties":{"id":"29-eac9504495","name":"鹿畑町","reading":"シカハタチョウ","pref":"奈良県","prefCode":"29","municipality":"生駒市","hazardTypes":["landslide","soft_ground"],"evidenceLevel":0,"status":"current","disputed":false,"precision":"oaza","areaKey":"292092210","elements":["shishi"],"summary":"要素辞書に一致（shishi）。出典による裏づけは未確認。","zones":[],"dataset":"candidates"}},{"type":"Feature","geometry":{"type":"Point","coordinates":[135.743975,34.730994]},"properties":{"id":"29-0283c76445","name":"美鹿の台","reading":"ミカノダイ","pref":"奈良県","prefCode":"29","municipality":"生駒市","hazardTypes":["landslide","soft_ground"],"evidenceLevel":0,"status":"current","disputed":false,"precision":"oaza","areaKey":"292096240","elements":["shishi","tai"],"summary":"要素辞書に一致（shishi・tai）。出典による裏づけは未確認。","zones":[],"dataset":"candidates"}},{"type":"Feature","geometry":{"type":"Point","coordinates":[135.698779,34.527143]},"properties":{"id":"29-60a99bdd05","name":"磯壁","reading":"イソカベ","pref":"奈良県","prefCode":"29","municipality":"香芝市","hazardTypes":["rockfall","debris_flow"],"evidenceLevel":0,"status":"current","disputed":false,"precision":"oaza","areaKey":"29210046000","elements":["iso_ishi"],"summary":"要素辞書に一致（iso_ishi）。出典による裏づけは未確認。","zones":[],"dataset":"candidates"}},{"type":"Feature","geometry":{"type":"Point","coordinates":[135.696147,34.468217]},"properties":{"id":"29-b594d6f544","name":"梅室","reading":"ウメムロ","pref":"奈良県","prefCode":"29","municipality":"葛城市","hazardTypes":["landslide","slope_failure"],"evidenceLevel":0,"status":"current","disputed":false,"precision":"oaza","areaKey":"292110260","elements":["ume"],"summary":"要素辞書に一致（ume）。出典による裏づけは未確認。","zones":[],"dataset":"candidates"}},{"type":"Feature","geometry":{"type":"Point","coordinates":[135.731586,34.490602]},"properties":{"id":"29-75ef7720ef","name":"柿本","reading":"カキノモト","pref":"奈良県","prefCode":"29","municipality":"葛城市","hazardTypes":["slope_failure"],"evidenceLevel":0,"status":"current","disputed":false,"precision":"oaza","areaKey":"292110130","elements":["kake"],"summary":"要素辞書に一致（kake）。出典による裏づけは未確認。","zones":[],"dataset":"candidates"}},{"type":"Feature","geometry":{"type":"Point","coordinates":[135.981455,34.448596]},"properties":{"id":"29-c0cff1041f","name":"菟田野佐倉","reading":"ウタノサクラ","pref":"奈良県","prefCode":"29","municipality":"宇陀市","hazardTypes":["slope_failure","rockfall"],"evidenceLevel":0,"status":"current","disputed":false,"precision":"oaza","areaKey":"292120840","elements":["kura"],"summary":"要素辞書に一致（kura）。出典による裏づけは未確認。","zones":[],"dataset":"candidates"}},{"type":"Feature","geometry":{"type":"Point","coordinates":[135.91308,34.487928]},"properties":{"id":"29-28f72d8942","name":"大宇陀嬉河原","reading":"オオウダウレシガワラ","pref":"奈良県","prefCode":"29","municipality":"宇陀市","hazardTypes":["flood"],"evidenceLevel":0,"status":"current","disputed":false,"precision":"oaza","areaKey":"292120410","elements":["kawara"],"summary":"要素辞書に一致（kawara）。出典による裏づけは未確認。","zones":[],"dataset":"candidates"}},{"type":"Feature","geometry":{"type":"Point","coordinates":[135.912191,34.495445]},"properties":{"id":"29-ee37540bfc","name":"大宇陀馬取柿","reading":"オオウダマトリガキ","pref":"奈良県","prefCode":"29","municipality":"宇陀市","hazardTypes":["slope_failure"],"evidenceLevel":0,"status":"current","disputed":false,"precision":"oaza","areaKey":"292120440","elements":["kake"],"summary":"要素辞書に一致（kake）。出典による裏づけは未確認。","zones":[],"dataset":"candidates"}},{"type":"Feature","geometry":{"type":"Point","coordinates":[135.946337,34.508235]},"properties":{"id":"29-9c5a995c8e","name":"榛原足立","reading":"ハイバラアダチ","pref":"奈良県","prefCode":"29","municipality":"宇陀市","hazardTypes":["flood","inundation"],"evidenceLevel":0,"status":"current","disputed":false,"precision":"oaza","areaKey":"292121050","elements":["ashi"],"summary":"要素辞書に一致（ashi）。出典による裏づけは未確認。","zones":[],"dataset":"candidates"}},{"type":"Feature","geometry":{"type":"Point","coordinates":[135.955302,34.512716]},"properties":{"id":"29-95761d76b8","name":"榛原上井足","reading":"ハイバラカミイダニ","pref":"奈良県","prefCode":"29","municipality":"宇陀市","hazardTypes":["flood","inundation"],"evidenceLevel":0,"status":"current","disputed":false,"precision":"oaza","areaKey":"292121040","elements":["ashi"],"summary":"要素辞書に一致（ashi）。出典による裏づけは未確認。","zones":[],"dataset":"candidates"}},{"type":"Feature","geometry":{"type":"Point","coordinates":[135.94974,34.524439]},"properties":{"id":"29-ed72558bde","name":"榛原下井足","reading":"ハイバラシモイダニ","pref":"奈良県","prefCode":"29","municipality":"宇陀市","hazardTypes":["flood","inundation"],"evidenceLevel":0,"status":"current","disputed":false,"precision":"oaza","areaKey":"292120990","elements":["ashi"],"summary":"要素辞書に一致（ashi）。出典による裏づけは未確認。","zones":[],"dataset":"candidates"}},{"type":"Feature","geometry":{"type":"Point","coordinates":[136.041137,34.667543]},"properties":{"id":"29-d11a5771c7","name":"大字菅生","reading":null,"pref":"奈良県","prefCode":"29","municipality":"山辺郡山添村","hazardTypes":["landslide","soft_ground"],"evidenceLevel":0,"status":"current","disputed":false,"precision":"oaza","areaKey":null,"elements":["wetland_plants"],"summary":"要素辞書に一致（wetland_plants）。出典による裏づけは未確認。","zones":[],"dataset":"candidates"}},{"type":"Feature","geometry":{"type":"Point","coordinates":[135.767963,34.58514]},"properties":{"id":"29-6ef0987c18","name":"大字梅戸","reading":null,"pref":"奈良県","prefCode":"29","municipality":"磯城郡川西町","hazardTypes":["landslide","slope_failure"],"evidenceLevel":0,"status":"current","disputed":false,"precision":"oaza","areaKey":null,"elements":["ume"],"summary":"要素辞書に一致（ume）。出典による裏づけは未確認。","zones":[],"dataset":"candidates"}},{"type":"Feature","geometry":{"type":"Point","coordinates":[135.820651,34.547074]},"properties":{"id":"29-c69ba9ab10","name":"大字藏堂","reading":null,"pref":"奈良県","prefCode":"29","municipality":"磯城郡田原本町","hazardTypes":["slope_failure","rockfall"],"evidenceLevel":0,"status":"current","disputed":false,"precision":"oaza","areaKey":null,"elements":["kura"],"summary":"要素辞書に一致（kura）。出典による裏づけは未確認。","zones":[],"dataset":"candidates"}},{"type":"Feature","geometry":{"type":"Point","coordinates":[136.165917,34.482602]},"properties":{"id":"29-3d633d27f5","name":"大字菅野","reading":null,"pref":"奈良県","prefCode":"29","municipality":"宇陀郡御杖村","hazardTypes":["landslide","soft_ground"],"evidenceLevel":0,"status":"current","disputed":false,"precision":"oaza","areaKey":null,"elements":["wetland_plants"],"summary":"要素辞書に一致（wetland_plants）。出典による裏づけは未確認。","zones":[],"dataset":"candidates"}},{"type":"Feature","geometry":{"type":"Point","coordinates":[135.813263,34.473751]},"properties":{"id":"29-2de79590b3","name":"大字川原","reading":null,"pref":"奈良県","prefCode":"29","municipality":"高市郡明日香村","hazardTypes":["flood"],"evidenceLevel":0,"status":"current","disputed":false,"precision":"oaza","areaKey":null,"elements":["kawara"],"summary":"要素辞書に一致（kawara）。出典による裏づけは未確認。","zones":[],"dataset":"candidates"}},{"type":"Feature","geometry":{"type":"Point","coordinates":[135.823245,34.479741]},"properties":{"id":"29-af5573534a","name":"大字飛鳥","reading":null,"pref":"奈良県","prefCode":"29","municipality":"高市郡明日香村","hazardTypes":["slope_failure","debris_flow"],"evidenceLevel":0,"status":"current","disputed":false,"precision":"oaza","areaKey":null,"elements":["tobi"],"summary":"要素辞書に一致（tobi）。出典による裏づけは未確認。","zones":[],"dataset":"candidates"}},{"type":"Feature","geometry":{"type":"Point","coordinates":[135.740632,34.585292]},"properties":{"id":"29-c82ba660d8","name":"大字穴闇","reading":null,"pref":"奈良県","prefCode":"29","municipality":"北葛城郡河合町","hazardTypes":["slope_failure","rockfall"],"evidenceLevel":0,"status":"current","disputed":false,"precision":"oaza","areaKey":null,"elements":["kura"],"summary":"要素辞書に一致（kura）。出典による裏づけは未確認。","zones":[],"dataset":"candidates"}},{"type":"Feature","geometry":{"type":"Point","coordinates":[135.73607,34.586946]},"properties":{"id":"29-d4121ba585","name":"大字西穴闇","reading":null,"pref":"奈良県","prefCode":"29","municipality":"北葛城郡河合町","hazardTypes":["slope_failure","rockfall"],"evidenceLevel":0,"status":"current","disputed":false,"precision":"oaza","areaKey":null,"elements":["kura"],"summary":"要素辞書に一致（kura）。出典による裏づけは未確認。","zones":[],"dataset":"candidates"}},{"type":"Feature","geometry":{"type":"Point","coordinates":[135.880338,34.39476]},"properties":{"id":"29-3d7c1a878c","name":"大字河原屋","reading":null,"pref":"奈良県","prefCode":"29","municipality":"吉野郡吉野町","hazardTypes":["flood"],"evidenceLevel":0,"status":"current","disputed":false,"precision":"oaza","areaKey":null,"elements":["kawara"],"summary":"要素辞書に一致（kawara）。出典による裏づけは未確認。","zones":[],"dataset":"candidates"}},{"type":"Feature","geometry":{"type":"Point","coordinates":[135.797479,34.413958]},"properties":{"id":"29-63bc4ba421","name":"大字芦原","reading":null,"pref":"奈良県","prefCode":"29","municipality":"吉野郡大淀町","hazardTypes":["flood","inundation"],"evidenceLevel":0,"status":"current","disputed":false,"precision":"oaza","areaKey":null,"elements":["ashi"],"summary":"要素辞書に一致（ashi）。出典による裏づけは未確認。","zones":[],"dataset":"candidates"}},{"type":"Feature","geometry":{"type":"Point","coordinates":[135.811094,33.991315]},"properties":{"id":"29-142b121b77","name":"大字武蔵","reading":null,"pref":"奈良県","prefCode":"29","municipality":"吉野郡十津川村","hazardTypes":["slope_failure","rockfall"],"evidenceLevel":0,"status":"current","disputed":false,"precision":"oaza","areaKey":null,"elements":["kura"],"summary":"要素辞書に一致（kura）。出典による裏づけは未確認。","zones":[],"dataset":"candidates"}},{"type":"Feature","geometry":{"type":"Point","coordinates":[135.781461,33.93382]},"properties":{"id":"29-73940c303d","name":"大字猿飼","reading":null,"pref":"奈良県","prefCode":"29","municipality":"吉野郡十津川村","hazardTypes":["slope_failure"],"evidenceLevel":0,"status":"current","disputed":false,"precision":"oaza","areaKey":null,"elements":["saru"],"summary":"要素辞書に一致（saru）。出典による裏づけは未確認。","zones":[],"dataset":"candidates"}}]}
