{"type":"FeatureCollection","features":[{"type":"Feature","geometry":{"type":"Point","coordinates":[135.175487,34.223697]},"properties":{"id":"30-a02d703bb4","name":"芦辺丁","reading":"アシベチョウ","pref":"和歌山県","prefCode":"30","municipality":"和歌山市","hazardTypes":["flood","inundation"],"evidenceLevel":0,"originLevel":0,"hasRecord":false,"recordRelation":null,"status":"current","disputed":false,"precision":"oaza","areaKey":"302011040","elements":["ashi"],"summary":"要素辞書に一致（ashi）。出典による裏づけは未確認。","zones":[],"dataset":"candidates"}},{"type":"Feature","geometry":{"type":"Point","coordinates":[135.229079,34.252869]},"properties":{"id":"30-19294e7dfc","name":"小豆島","reading":"アズシマ","pref":"和歌山県","prefCode":"30","municipality":"和歌山市","hazardTypes":["debris_flow","slope_failure"],"evidenceLevel":0,"originLevel":0,"hasRecord":false,"recordRelation":null,"status":"current","disputed":false,"precision":"oaza","areaKey":"302013450","elements":["azu"],"summary":"要素辞書に一致（azu）。出典による裏づけは未確認。","zones":[],"dataset":"candidates"}},{"type":"Feature","geometry":{"type":"Point","coordinates":[135.091693,34.268912]},"properties":{"id":"30-389b6111f5","name":"磯の浦","reading":"イソノウラ","pref":"和歌山県","prefCode":"30","municipality":"和歌山市","hazardTypes":["rockfall","debris_flow"],"evidenceLevel":0,"originLevel":0,"hasRecord":false,"recordRelation":null,"status":"current","disputed":false,"precision":"oaza","areaKey":"302013890","elements":["iso_ishi"],"summary":"要素辞書に一致（iso_ishi）。出典による裏づけは未確認。","zones":[],"dataset":"candidates"}},{"type":"Feature","geometry":{"type":"Point","coordinates":[135.139844,34.269961]},"properties":{"id":"30-8e7af49f54","name":"梅原","reading":"ウメハラ","pref":"和歌山県","prefCode":"30","municipality":"和歌山市","hazardTypes":["landslide","slope_failure"],"evidenceLevel":0,"originLevel":0,"hasRecord":false,"recordRelation":null,"status":"current","disputed":false,"precision":"oaza","areaKey":null,"elements":["ume"],"summary":"要素辞書に一致（ume）。出典による裏づけは未確認。","zones":[],"dataset":"candidates"}},{"type":"Feature","geometry":{"type":"Point","coordinates":[135.291682,34.251608]},"properties":{"id":"30-8cd58fd108","name":"小倉","reading":"オグラ","pref":"和歌山県","prefCode":"30","municipality":"和歌山市","hazardTypes":["slope_failure","rockfall"],"evidenceLevel":0,"originLevel":0,"hasRecord":false,"recordRelation":null,"status":"current","disputed":false,"precision":"oaza","areaKey":null,"elements":["kura"],"summary":"要素辞書に一致（kura）。出典による裏づけは未確認。","zones":[],"dataset":"candidates"}},{"type":"Feature","geometry":{"type":"Point","coordinates":[135.184934,34.229421]},"properties":{"id":"30-bda243ad25","name":"蔵小路","reading":"クラショウジ","pref":"和歌山県","prefCode":"30","municipality":"和歌山市","hazardTypes":["slope_failure","rockfall"],"evidenceLevel":0,"originLevel":0,"hasRecord":false,"recordRelation":null,"status":"current","disputed":false,"precision":"oaza","areaKey":"302011980","elements":["kura"],"summary":"要素辞書に一致（kura）。出典による裏づけは未確認。","zones":[],"dataset":"candidates"}},{"type":"Feature","geometry":{"type":"Point","coordinates":[135.172694,34.241065]},"properties":{"id":"30-ab6dcc6971","name":"源蔵馬場一丁目","reading":"ゲンゾウババ 1","pref":"和歌山県","prefCode":"30","municipality":"和歌山市","hazardTypes":["slope_failure","rockfall"],"evidenceLevel":0,"originLevel":0,"hasRecord":false,"recordRelation":null,"status":"current","disputed":false,"precision":"oaza","areaKey":null,"elements":["kura","baba"],"summary":"要素辞書に一致（kura・baba）。出典による裏づけは未確認。","zones":[],"dataset":"candidates"}},{"type":"Feature","geometry":{"type":"Point","coordinates":[135.168508,34.235662]},"properties":{"id":"30-9dc70cfbbf","name":"杉ノ馬場一丁目","reading":"スギノババ 1","pref":"和歌山県","prefCode":"30","municipality":"和歌山市","hazardTypes":["slope_failure"],"evidenceLevel":0,"originLevel":0,"hasRecord":false,"recordRelation":null,"status":"current","disputed":false,"precision":"oaza","areaKey":"30201080001","elements":["baba"],"summary":"要素辞書に一致（baba）。出典による裏づけは未確認。","zones":[],"dataset":"candidates"}},{"type":"Feature","geometry":{"type":"Point","coordinates":[135.170948,34.234302]},"properties":{"id":"30-a8e70c5d32","name":"西鍛冶屋町","reading":"ニシカジヤマチ","pref":"和歌山県","prefCode":"30","municipality":"和歌山市","hazardTypes":["slope_failure"],"evidenceLevel":0,"originLevel":0,"hasRecord":false,"recordRelation":null,"status":"current","disputed":false,"precision":"oaza","areaKey":null,"elements":["kaji_kamu"],"summary":"要素辞書に一致（kaji_kamu）。出典による裏づけは未確認。","zones":[],"dataset":"candidates"}},{"type":"Feature","geometry":{"type":"Point","coordinates":[135.159335,34.226963]},"properties":{"id":"30-ad9fbbdfe0","name":"西河岸町","reading":"ニシカワギシチョウ","pref":"和歌山県","prefCode":"30","municipality":"和歌山市","hazardTypes":["slope_failure"],"evidenceLevel":0,"originLevel":0,"hasRecord":false,"recordRelation":null,"status":"current","disputed":false,"precision":"oaza","areaKey":"302011460","elements":["kake"],"summary":"要素辞書に一致（kake）。出典による裏づけは未確認。","zones":[],"dataset":"candidates"}},{"type":"Feature","geometry":{"type":"Point","coordinates":[135.164552,34.236894]},"properties":{"id":"30-2d3e922d8f","name":"西蔵前丁","reading":"ニシクラマエチョウ","pref":"和歌山県","prefCode":"30","municipality":"和歌山市","hazardTypes":["slope_failure","rockfall"],"evidenceLevel":0,"originLevel":0,"hasRecord":false,"recordRelation":null,"status":"current","disputed":false,"precision":"oaza","areaKey":"302010680","elements":["kura"],"summary":"要素辞書に一致（kura）。出典による裏づけは未確認。","zones":[],"dataset":"candidates"}},{"type":"Feature","geometry":{"type":"Point","coordinates":[135.22595,34.193901]},"properties":{"id":"30-c0a1047f32","name":"馬場","reading":"ババ","pref":"和歌山県","prefCode":"30","municipality":"和歌山市","hazardTypes":["slope_failure"],"evidenceLevel":0,"originLevel":0,"hasRecord":false,"recordRelation":null,"status":"current","disputed":false,"precision":"oaza","areaKey":null,"elements":["baba"],"summary":"要素辞書に一致（baba）。出典による裏づけは未確認。","zones":[],"dataset":"candidates"}},{"type":"Feature","geometry":{"type":"Point","coordinates":[135.172487,34.234579]},"properties":{"id":"30-bc3d14e825","name":"東鍛冶屋町","reading":"ヒガシカジヤマチ","pref":"和歌山県","prefCode":"30","municipality":"和歌山市","hazardTypes":["slope_failure"],"evidenceLevel":0,"originLevel":0,"hasRecord":false,"recordRelation":null,"status":"current","disputed":false,"precision":"oaza","areaKey":"302010640","elements":["kaji_kamu"],"summary":"要素辞書に一致（kaji_kamu）。出典による裏づけは未確認。","zones":[],"dataset":"candidates"}},{"type":"Feature","geometry":{"type":"Point","coordinates":[135.166325,34.236007]},"properties":{"id":"30-33e329e301","name":"東蔵前丁","reading":"ヒガシクラマエチョウ","pref":"和歌山県","prefCode":"30","municipality":"和歌山市","hazardTypes":["slope_failure","rockfall"],"evidenceLevel":0,"originLevel":0,"hasRecord":false,"recordRelation":null,"status":"current","disputed":false,"precision":"oaza","areaKey":null,"elements":["kura"],"summary":"要素辞書に一致（kura）。出典による裏づけは未確認。","zones":[],"dataset":"candidates"}},{"type":"Feature","geometry":{"type":"Point","coordinates":[135.180658,34.132322]},"properties":{"id":"30-453fdc16c6","name":"下津町梅田","reading":"シモツチョウウメダ","pref":"和歌山県","prefCode":"30","municipality":"海南市","hazardTypes":["landslide","slope_failure"],"evidenceLevel":0,"originLevel":0,"hasRecord":false,"recordRelation":null,"status":"current","disputed":false,"precision":"oaza","areaKey":"302020360","elements":["ume"],"summary":"要素辞書に一致（ume）。出典による裏づけは未確認。","zones":[],"dataset":"candidates"}},{"type":"Feature","geometry":{"type":"Point","coordinates":[135.213334,34.158655]},"properties":{"id":"30-eaf786a080","name":"馬場町一丁目","reading":"ババチョウ 1","pref":"和歌山県","prefCode":"30","municipality":"海南市","hazardTypes":["slope_failure"],"evidenceLevel":0,"originLevel":0,"hasRecord":false,"recordRelation":null,"status":"current","disputed":false,"precision":"oaza","areaKey":"30202003301","elements":["baba"],"summary":"要素辞書に一致（baba）。出典による裏づけは未確認。","zones":[],"dataset":"candidates"}},{"type":"Feature","geometry":{"type":"Point","coordinates":[135.594598,34.339818]},"properties":{"id":"30-ebc5d767f8","name":"柿の木坂","reading":"カキノキザカ","pref":"和歌山県","prefCode":"30","municipality":"橋本市","hazardTypes":["slope_failure"],"evidenceLevel":0,"originLevel":0,"hasRecord":false,"recordRelation":null,"status":"current","disputed":false,"precision":"oaza","areaKey":"30203046001","elements":["kake"],"summary":"要素辞書に一致（kake）。出典による裏づけは未確認。","zones":[],"dataset":"candidates"}},{"type":"Feature","geometry":{"type":"Point","coordinates":[135.586099,34.310249]},"properties":{"id":"30-94c6865513","name":"岸上","reading":"キシカミ","pref":"和歌山県","prefCode":"30","municipality":"橋本市","hazardTypes":["slope_failure"],"evidenceLevel":0,"originLevel":0,"hasRecord":false,"recordRelation":null,"status":"current","disputed":false,"precision":"oaza","areaKey":"30203010001","elements":["kake"],"summary":"要素辞書に一致（kake）。出典による裏づけは未確認。","zones":[],"dataset":"candidates"}},{"type":"Feature","geometry":{"type":"Point","coordinates":[135.613592,34.328534]},"properties":{"id":"30-7a46611a1f","name":"北馬場","reading":"キタババ","pref":"和歌山県","prefCode":"30","municipality":"橋本市","hazardTypes":["slope_failure"],"evidenceLevel":0,"originLevel":0,"hasRecord":false,"recordRelation":null,"status":"current","disputed":false,"precision":"oaza","areaKey":"302030380","elements":["baba"],"summary":"要素辞書に一致（baba）。出典による裏づけは未確認。","zones":[],"dataset":"candidates"}},{"type":"Feature","geometry":{"type":"Point","coordinates":[135.557822,34.311202]},"properties":{"id":"30-5474a0f374","name":"高野口町名倉","reading":"コウヤグチチョウナグラ","pref":"和歌山県","prefCode":"30","municipality":"橋本市","hazardTypes":["slope_failure","rockfall"],"evidenceLevel":0,"originLevel":0,"hasRecord":false,"recordRelation":null,"status":"current","disputed":false,"precision":"oaza","areaKey":"302030980","elements":["kura"],"summary":"要素辞書に一致（kura）。出典による裏づけは未確認。","zones":[],"dataset":"candidates"}},{"type":"Feature","geometry":{"type":"Point","coordinates":[135.587869,34.345732]},"properties":{"id":"30-f096618ddf","name":"菖蒲谷","reading":"ショウブタニ","pref":"和歌山県","prefCode":"30","municipality":"橋本市","hazardTypes":["landslide","soft_ground"],"evidenceLevel":0,"originLevel":0,"hasRecord":false,"recordRelation":null,"status":"current","disputed":false,"precision":"oaza","areaKey":"30203008101","elements":["wetland_plants"],"summary":"要素辞書に一致（wetland_plants）。出典による裏づけは未確認。","zones":[],"dataset":"candidates"}},{"type":"Feature","geometry":{"type":"Point","coordinates":[135.645566,34.336932]},"properties":{"id":"30-86b70327c2","name":"隅田町垂井","reading":"スダチョウタルイ","pref":"和歌山県","prefCode":"30","municipality":"橋本市","hazardTypes":["slope_failure"],"evidenceLevel":0,"originLevel":0,"hasRecord":false,"recordRelation":null,"status":"current","disputed":false,"precision":"oaza","areaKey":"30203057001","elements":["kake"],"summary":"要素辞書に一致（kake）。出典による裏づけは未確認。","zones":[],"dataset":"candidates"}},{"type":"Feature","geometry":{"type":"Point","coordinates":[135.594369,34.296509]},"properties":{"id":"30-ec16993ba8","name":"南馬場","reading":"ミナミババ","pref":"和歌山県","prefCode":"30","municipality":"橋本市","hazardTypes":["slope_failure"],"evidenceLevel":0,"originLevel":0,"hasRecord":false,"recordRelation":null,"status":"current","disputed":false,"precision":"oaza","areaKey":"30203091001","elements":["baba"],"summary":"要素辞書に一致（baba）。出典による裏づけは未確認。","zones":[],"dataset":"candidates"}},{"type":"Feature","geometry":{"type":"Point","coordinates":[135.58874,34.369108]},"properties":{"id":"30-2f954a860d","name":"矢倉脇","reading":"ヤグラワキ","pref":"和歌山県","prefCode":"30","municipality":"橋本市","hazardTypes":["slope_failure","rockfall"],"evidenceLevel":0,"originLevel":0,"hasRecord":false,"recordRelation":null,"status":"current","disputed":false,"precision":"oaza","areaKey":"30203033001","elements":["kura"],"summary":"要素辞書に一致（kura）。出典による裏づけは未確認。","zones":[],"dataset":"candidates"}},{"type":"Feature","geometry":{"type":"Point","coordinates":[135.165422,34.079454]},"properties":{"id":"30-99b4f1b181","name":"宮原町滝川原","reading":"ミヤハラチョウタキガハラ","pref":"和歌山県","prefCode":"30","municipality":"有田市","hazardTypes":["flood"],"evidenceLevel":0,"originLevel":0,"hasRecord":false,"recordRelation":null,"status":"current","disputed":false,"precision":"oaza","areaKey":"302040250","elements":["kawara"],"summary":"要素辞書に一致（kawara）。出典による裏づけは未確認。","zones":[],"dataset":"candidates"}},{"type":"Feature","geometry":{"type":"Point","coordinates":[135.38172,33.720815]},"properties":{"id":"30-3b61c2af5e","name":"磯間","reading":"イソマ","pref":"和歌山県","prefCode":"30","municipality":"田辺市","hazardTypes":["rockfall","debris_flow"],"evidenceLevel":0,"originLevel":0,"hasRecord":false,"recordRelation":null,"status":"current","disputed":false,"precision":"oaza","areaKey":"302060151","elements":["iso_ishi"],"summary":"要素辞書に一致（iso_ishi）。出典による裏づけは未確認。","zones":[],"dataset":"candidates"}},{"type":"Feature","geometry":{"type":"Point","coordinates":[135.997968,33.729275]},"properties":{"id":"30-5b664c6980","name":"阿須賀一丁目","reading":"アスカ 1","pref":"和歌山県","prefCode":"30","municipality":"新宮市","hazardTypes":["debris_flow","slope_failure"],"evidenceLevel":0,"originLevel":0,"hasRecord":false,"recordRelation":null,"status":"current","disputed":false,"precision":"oaza","areaKey":"30207004001","elements":["azu"],"summary":"要素辞書に一致（azu）。出典による裏づけは未確認。","zones":[],"dataset":"candidates"}},{"type":"Feature","geometry":{"type":"Point","coordinates":[135.985127,33.723041]},"properties":{"id":"30-0f6691b4e7","name":"神倉一丁目","reading":"カミクラ 1","pref":"和歌山県","prefCode":"30","municipality":"新宮市","hazardTypes":["slope_failure","rockfall"],"evidenceLevel":0,"originLevel":0,"hasRecord":false,"recordRelation":null,"status":"current","disputed":false,"precision":"oaza","areaKey":"30207010001","elements":["kura"],"summary":"要素辞書に一致（kura）。出典による裏づけは未確認。","zones":[],"dataset":"candidates"}},{"type":"Feature","geometry":{"type":"Point","coordinates":[135.85161,33.808156]},"properties":{"id":"30-2ea68d9b12","name":"熊野川町日足","reading":"クマノガワチョウヒタリ","pref":"和歌山県","prefCode":"30","municipality":"新宮市","hazardTypes":["flood","inundation"],"evidenceLevel":0,"originLevel":0,"hasRecord":false,"recordRelation":null,"status":"current","disputed":false,"precision":"oaza","areaKey":"302070550","elements":["ashi"],"summary":"要素辞書に一致（ashi）。出典による裏づけは未確認。","zones":[],"dataset":"candidates"}},{"type":"Feature","geometry":{"type":"Point","coordinates":[135.397184,34.281816]},"properties":{"id":"30-78c371df9b","name":"猪垣","reading":"イノカケ","pref":"和歌山県","prefCode":"30","municipality":"紀の川市","hazardTypes":["landslide","soft_ground"],"evidenceLevel":0,"originLevel":0,"hasRecord":false,"recordRelation":null,"status":"current","disputed":false,"precision":"oaza","areaKey":null,"elements":["shishi"],"summary":"要素辞書に一致（shishi）。出典による裏づけは未確認。","zones":[],"dataset":"candidates"}},{"type":"Feature","geometry":{"type":"Point","coordinates":[135.328616,34.206688]},"properties":{"id":"30-3facfb4acc","name":"貴志川町岸小野","reading":"キシガワチョウキシオノ","pref":"和歌山県","prefCode":"30","municipality":"紀の川市","hazardTypes":["slope_failure"],"evidenceLevel":0,"originLevel":0,"hasRecord":false,"recordRelation":null,"status":"current","disputed":false,"precision":"oaza","areaKey":null,"elements":["kake"],"summary":"要素辞書に一致（kake）。出典による裏づけは未確認。","zones":[],"dataset":"candidates"}},{"type":"Feature","geometry":{"type":"Point","coordinates":[135.297064,34.223849]},"properties":{"id":"30-3aaba1d17c","name":"貴志川町岸宮","reading":"キシガワチョウキシミヤ","pref":"和歌山県","prefCode":"30","municipality":"紀の川市","hazardTypes":["slope_failure"],"evidenceLevel":0,"originLevel":0,"hasRecord":false,"recordRelation":null,"status":"current","disputed":false,"precision":"oaza","areaKey":null,"elements":["kake"],"summary":"要素辞書に一致（kake）。出典による裏づけは未確認。","zones":[],"dataset":"candidates"}},{"type":"Feature","geometry":{"type":"Point","coordinates":[135.354581,34.26747]},"properties":{"id":"30-59337366e3","name":"田中馬場","reading":"タナカババ","pref":"和歌山県","prefCode":"30","municipality":"紀の川市","hazardTypes":["slope_failure"],"evidenceLevel":0,"originLevel":0,"hasRecord":false,"recordRelation":null,"status":"current","disputed":false,"precision":"oaza","areaKey":null,"elements":["baba"],"summary":"要素辞書に一致（baba）。出典による裏づけは未確認。","zones":[],"dataset":"candidates"}},{"type":"Feature","geometry":{"type":"Point","coordinates":[135.42487,34.308723]},"properties":{"id":"30-0e5c4902e9","name":"西川原","reading":"ニシカワハラ","pref":"和歌山県","prefCode":"30","municipality":"紀の川市","hazardTypes":["flood"],"evidenceLevel":0,"originLevel":0,"hasRecord":false,"recordRelation":null,"status":"current","disputed":false,"precision":"oaza","areaKey":null,"elements":["kawara"],"summary":"要素辞書に一致（kawara）。出典による裏づけは未確認。","zones":[],"dataset":"candidates"}},{"type":"Feature","geometry":{"type":"Point","coordinates":[135.434287,34.307673]},"properties":{"id":"30-7f23923f7a","name":"東川原","reading":"ヒガシカワハラ","pref":"和歌山県","prefCode":"30","municipality":"紀の川市","hazardTypes":["flood"],"evidenceLevel":0,"originLevel":0,"hasRecord":false,"recordRelation":null,"status":"current","disputed":false,"precision":"oaza","areaKey":null,"elements":["kawara"],"summary":"要素辞書に一致（kawara）。出典による裏づけは未確認。","zones":[],"dataset":"candidates"}},{"type":"Feature","geometry":{"type":"Point","coordinates":[135.394405,34.27036]},"properties":{"id":"30-df30f87734","name":"深田","reading":"フケダ","pref":"和歌山県","prefCode":"30","municipality":"紀の川市","hazardTypes":["soft_ground","inundation"],"evidenceLevel":0,"originLevel":0,"hasRecord":false,"recordRelation":null,"status":"current","disputed":false,"precision":"oaza","areaKey":null,"elements":["fuke"],"summary":"要素辞書に一致（fuke）。出典による裏づけは未確認。","zones":[],"dataset":"candidates"}},{"type":"Feature","geometry":{"type":"Point","coordinates":[135.300348,34.273106]},"properties":{"id":"30-86506a0d4d","name":"波分","reading":"ハブ","pref":"和歌山県","prefCode":"30","municipality":"岩出市","hazardTypes":["tsunami"],"evidenceLevel":0,"originLevel":0,"hasRecord":false,"recordRelation":null,"status":"current","disputed":false,"precision":"oaza","areaKey":null,"elements":["namiwake"],"summary":"要素辞書に一致（namiwake）。出典による裏づけは未確認。","zones":[],"dataset":"candidates"}},{"type":"Feature","geometry":{"type":"Point","coordinates":[135.333533,34.119196]},"properties":{"id":"30-52a4e89fd7","name":"梅本","reading":"ウメモト","pref":"和歌山県","prefCode":"30","municipality":"海草郡紀美野町","hazardTypes":["landslide","slope_failure"],"evidenceLevel":0,"originLevel":0,"hasRecord":false,"recordRelation":null,"status":"current","disputed":false,"precision":"oaza","areaKey":null,"elements":["ume"],"summary":"要素辞書に一致（ume）。出典による裏づけは未確認。","zones":[],"dataset":"candidates"}},{"type":"Feature","geometry":{"type":"Point","coordinates":[135.412776,34.138009]},"properties":{"id":"30-ec453f2dc4","name":"菅沢","reading":"スゲザワ","pref":"和歌山県","prefCode":"30","municipality":"海草郡紀美野町","hazardTypes":["landslide","soft_ground"],"evidenceLevel":0,"originLevel":0,"hasRecord":false,"recordRelation":null,"status":"current","disputed":false,"precision":"oaza","areaKey":null,"elements":["wetland_plants"],"summary":"要素辞書に一致（wetland_plants）。出典による裏づけは未確認。","zones":[],"dataset":"candidates"}},{"type":"Feature","geometry":{"type":"Point","coordinates":[135.189671,34.031859]},"properties":{"id":"30-09b97cf7e2","name":"大字青木","reading":null,"pref":"和歌山県","prefCode":"30","municipality":"有田郡湯浅町","hazardTypes":["slope_failure"],"evidenceLevel":0,"originLevel":0,"hasRecord":false,"recordRelation":null,"status":"current","disputed":false,"precision":"oaza","areaKey":null,"elements":["afu_oo"],"summary":"要素辞書に一致（afu_oo）。出典による裏づけは未確認。","zones":[],"dataset":"candidates"}},{"type":"Feature","geometry":{"type":"Point","coordinates":[135.235738,34.061619]},"properties":{"id":"30-7d93b1b9ce","name":"大字垣倉","reading":null,"pref":"和歌山県","prefCode":"30","municipality":"有田郡有田川町","hazardTypes":["slope_failure","rockfall"],"evidenceLevel":0,"originLevel":0,"hasRecord":false,"recordRelation":null,"status":"current","disputed":false,"precision":"oaza","areaKey":null,"elements":["kura"],"summary":"要素辞書に一致（kura）。出典による裏づけは未確認。","zones":[],"dataset":"candidates"}},{"type":"Feature","geometry":{"type":"Point","coordinates":[135.448896,34.115974]},"properties":{"id":"30-897150db3b","name":"大字大蔵","reading":null,"pref":"和歌山県","prefCode":"30","municipality":"有田郡有田川町","hazardTypes":["slope_failure","rockfall"],"evidenceLevel":0,"originLevel":0,"hasRecord":false,"recordRelation":null,"status":"current","disputed":false,"precision":"oaza","areaKey":null,"elements":["kura"],"summary":"要素辞書に一致（kura）。出典による裏づけは未確認。","zones":[],"dataset":"candidates"}},{"type":"Feature","geometry":{"type":"Point","coordinates":[135.322486,33.782267]},"properties":{"id":"30-a70e3dfab7","name":"徳蔵","reading":"トクゾウ","pref":"和歌山県","prefCode":"30","municipality":"日高郡みなべ町","hazardTypes":["slope_failure","rockfall"],"evidenceLevel":0,"originLevel":0,"hasRecord":false,"recordRelation":null,"status":"current","disputed":false,"precision":"oaza","areaKey":null,"elements":["kura"],"summary":"要素辞書に一致（kura）。出典による裏づけは未確認。","zones":[],"dataset":"candidates"}},{"type":"Feature","geometry":{"type":"Point","coordinates":[135.368388,33.976599]},"properties":{"id":"30-cca28d4cb5","name":"大字川原河","reading":null,"pref":"和歌山県","prefCode":"30","municipality":"日高郡日高川町","hazardTypes":["flood"],"evidenceLevel":0,"originLevel":0,"hasRecord":false,"recordRelation":null,"status":"current","disputed":false,"precision":"oaza","areaKey":null,"elements":["kawara"],"summary":"要素辞書に一致（kawara）。出典による裏づけは未確認。","zones":[],"dataset":"candidates"}},{"type":"Feature","geometry":{"type":"Point","coordinates":[135.21607,33.940897]},"properties":{"id":"30-14cf65b621","name":"大字蛇尾","reading":null,"pref":"和歌山県","prefCode":"30","municipality":"日高郡日高川町","hazardTypes":["slope_failure","debris_flow"],"evidenceLevel":0,"originLevel":0,"hasRecord":false,"recordRelation":null,"status":"current","disputed":false,"precision":"oaza","areaKey":null,"elements":["ja"],"summary":"要素辞書に一致（ja）。出典による裏づけは未確認。","zones":[],"dataset":"candidates"}},{"type":"Feature","geometry":{"type":"Point","coordinates":[135.539618,33.665708]},"properties":{"id":"30-3d891a1744","name":"市鹿野","reading":"イチカノ","pref":"和歌山県","prefCode":"30","municipality":"西牟婁郡白浜町","hazardTypes":["landslide","soft_ground"],"evidenceLevel":0,"originLevel":0,"hasRecord":false,"recordRelation":null,"status":"current","disputed":false,"precision":"oaza","areaKey":null,"elements":["shishi"],"summary":"要素辞書に一致（shishi）。出典による裏づけは未確認。","zones":[],"dataset":"candidates"}},{"type":"Feature","geometry":{"type":"Point","coordinates":[135.640207,33.593532]},"properties":{"id":"30-30255382bd","name":"佐本根倉","reading":"サモトネクラ","pref":"和歌山県","prefCode":"30","municipality":"西牟婁郡すさみ町","hazardTypes":["slope_failure","rockfall"],"evidenceLevel":0,"originLevel":0,"hasRecord":false,"recordRelation":null,"status":"current","disputed":false,"precision":"oaza","areaKey":null,"elements":["kura"],"summary":"要素辞書に一致（kura）。出典による裏づけは未確認。","zones":[],"dataset":"candidates"}},{"type":"Feature","geometry":{"type":"Point","coordinates":[135.893662,33.613735]},"properties":{"id":"30-482dbf3a27","name":"大字井鹿","reading":null,"pref":"和歌山県","prefCode":"30","municipality":"東牟婁郡那智勝浦町","hazardTypes":["landslide","soft_ground"],"evidenceLevel":0,"originLevel":0,"hasRecord":false,"recordRelation":null,"status":"current","disputed":false,"precision":"oaza","areaKey":null,"elements":["shishi"],"summary":"要素辞書に一致（shishi）。出典による裏づけは未確認。","zones":[],"dataset":"candidates"}},{"type":"Feature","geometry":{"type":"Point","coordinates":[135.814227,33.667951]},"properties":{"id":"30-7fc14268b0","name":"大字坂足","reading":null,"pref":"和歌山県","prefCode":"30","municipality":"東牟婁郡那智勝浦町","hazardTypes":["flood","inundation"],"evidenceLevel":0,"originLevel":0,"hasRecord":false,"recordRelation":null,"status":"current","disputed":false,"precision":"oaza","areaKey":null,"elements":["ashi"],"summary":"要素辞書に一致（ashi）。出典による裏づけは未確認。","zones":[],"dataset":"candidates"}},{"type":"Feature","geometry":{"type":"Point","coordinates":[135.701786,33.547432]},"properties":{"id":"30-715be9dd54","name":"蔵土","reading":"クロズ","pref":"和歌山県","prefCode":"30","municipality":"東牟婁郡古座川町","hazardTypes":["slope_failure","rockfall"],"evidenceLevel":0,"originLevel":0,"hasRecord":false,"recordRelation":null,"status":"current","disputed":false,"precision":"oaza","areaKey":null,"elements":["kura"],"summary":"要素辞書に一致（kura）。出典による裏づけは未確認。","zones":[],"dataset":"candidates"}},{"type":"Feature","geometry":{"type":"Point","coordinates":[135.762808,33.888278]},"properties":{"id":"30-67b1075d19","name":"鹿淵","reading":null,"pref":"和歌山県","prefCode":"30","municipality":"田辺市","hazardTypes":["landslide","soft_ground"],"evidenceLevel":0,"originLevel":0,"hasRecord":false,"recordRelation":null,"status":"historical","disputed":false,"precision":"koaza","areaKey":"302068450","elements":["shishi"],"summary":"要素辞書に一致（shishi）。出典による裏づけは未確認。","zones":[],"dataset":"old_maps"}},{"type":"Feature","geometry":{"type":"Point","coordinates":[135.256989,34.163565]},"properties":{"id":"30-3cbbf9b413","name":"下河原","reading":null,"pref":"和歌山県","prefCode":"30","municipality":"海南市","hazardTypes":["flood"],"evidenceLevel":0,"originLevel":0,"hasRecord":false,"recordRelation":null,"status":"historical","disputed":false,"precision":"koaza","areaKey":"302020071","elements":["kawara"],"summary":"要素辞書に一致（kawara）。出典による裏づけは未確認。","zones":[],"dataset":"old_maps"}},{"type":"Feature","geometry":{"type":"Point","coordinates":[135.25212,34.153031]},"properties":{"id":"30-cbc495710f","name":"河原","reading":null,"pref":"和歌山県","prefCode":"30","municipality":"海南市","hazardTypes":["flood"],"evidenceLevel":0,"originLevel":0,"hasRecord":false,"recordRelation":null,"status":"historical","disputed":false,"precision":"koaza","areaKey":"30202006702","elements":["kawara"],"summary":"要素辞書に一致（kawara）。出典による裏づけは未確認。","zones":[],"dataset":"old_maps"}},{"type":"Feature","geometry":{"type":"Point","coordinates":[135.270623,34.140657]},"properties":{"id":"30-cc444ebdf5","name":"亀欠","reading":null,"pref":"和歌山県","prefCode":"30","municipality":"海南市","hazardTypes":["slope_failure"],"evidenceLevel":0,"originLevel":0,"hasRecord":false,"recordRelation":null,"status":"historical","disputed":false,"precision":"koaza","areaKey":"302020104","elements":["kake"],"summary":"要素辞書に一致（kake）。出典による裏づけは未確認。","zones":[],"dataset":"old_maps"}},{"type":"Feature","geometry":{"type":"Point","coordinates":[135.302494,34.142646]},"properties":{"id":"30-14fbc6a3ce","name":"小倉郷","reading":null,"pref":"和歌山県","prefCode":"30","municipality":"海南市","hazardTypes":["slope_failure","rockfall"],"evidenceLevel":0,"originLevel":0,"hasRecord":false,"recordRelation":null,"status":"historical","disputed":false,"precision":"koaza","areaKey":"302020101","elements":["kura"],"summary":"要素辞書に一致（kura）。出典による裏づけは未確認。","zones":[],"dataset":"old_maps"}},{"type":"Feature","geometry":{"type":"Point","coordinates":[135.422612,34.149014]},"properties":{"id":"30-b22596bbff","name":"猿川村","reading":null,"pref":"和歌山県","prefCode":"30","municipality":"海草郡紀美野町","hazardTypes":["slope_failure"],"evidenceLevel":0,"originLevel":0,"hasRecord":false,"recordRelation":null,"status":"historical","disputed":false,"precision":"village","areaKey":null,"elements":["saru"],"summary":"要素辞書に一致（saru）。出典による裏づけは未確認。","zones":[],"dataset":"old_maps"}},{"type":"Feature","geometry":{"type":"Point","coordinates":[135.422214,34.141444]},"properties":{"id":"30-2d68ce364a","name":"猿川中","reading":null,"pref":"和歌山県","prefCode":"30","municipality":"海草郡紀美野町","hazardTypes":["slope_failure"],"evidenceLevel":0,"originLevel":0,"hasRecord":false,"recordRelation":null,"status":"historical","disputed":false,"precision":"koaza","areaKey":null,"elements":["saru"],"summary":"要素辞書に一致（saru）。出典による裏づけは未確認。","zones":[],"dataset":"old_maps"}},{"type":"Feature","geometry":{"type":"Point","coordinates":[135.445583,34.115266]},"properties":{"id":"30-8a5a1e243e","name":"大蔵","reading":null,"pref":"和歌山県","prefCode":"30","municipality":"有田郡有田川町","hazardTypes":["slope_failure","rockfall"],"evidenceLevel":0,"originLevel":0,"hasRecord":false,"recordRelation":null,"status":"historical","disputed":false,"precision":"koaza","areaKey":null,"elements":["kura"],"summary":"要素辞書に一致（kura）。出典による裏づけは未確認。","zones":[],"dataset":"old_maps"}},{"type":"Feature","geometry":{"type":"Point","coordinates":[135.379558,34.101672]},"properties":{"id":"30-bd2f25dd28","name":"田倉","reading":null,"pref":"和歌山県","prefCode":"30","municipality":"有田郡有田川町","hazardTypes":["slope_failure","rockfall"],"evidenceLevel":0,"originLevel":0,"hasRecord":false,"recordRelation":null,"status":"historical","disputed":false,"precision":"koaza","areaKey":null,"elements":["kura"],"summary":"要素辞書に一致（kura）。出典による裏づけは未確認。","zones":[],"dataset":"old_maps"}},{"type":"Feature","geometry":{"type":"Point","coordinates":[135.37321,34.095333]},"properties":{"id":"30-096af933fe","name":"菖蒲","reading":null,"pref":"和歌山県","prefCode":"30","municipality":"有田郡有田川町","hazardTypes":["landslide","soft_ground"],"evidenceLevel":0,"originLevel":0,"hasRecord":false,"recordRelation":null,"status":"historical","disputed":false,"precision":"koaza","areaKey":null,"elements":["wetland_plants"],"summary":"要素辞書に一致（wetland_plants）。出典による裏づけは未確認。","zones":[],"dataset":"old_maps"}},{"type":"Feature","geometry":{"type":"Point","coordinates":[135.334527,34.053074]},"properties":{"id":"30-c980edb852","name":"岩倉村","reading":null,"pref":"和歌山県","prefCode":"30","municipality":"有田郡有田川町","hazardTypes":["slope_failure","rockfall"],"evidenceLevel":0,"originLevel":0,"hasRecord":false,"recordRelation":null,"status":"historical","disputed":false,"precision":"village","areaKey":null,"elements":["kura"],"summary":"要素辞書に一致（kura）。出典による裏づけは未確認。","zones":[],"dataset":"old_maps"}},{"type":"Feature","geometry":{"type":"Point","coordinates":[135.320561,34.004406]},"properties":{"id":"30-d3daaa6cc0","name":"船着村","reading":null,"pref":"和歌山県","prefCode":"30","municipality":"日高郡日高川町","hazardTypes":["tsunami"],"evidenceLevel":0,"originLevel":0,"hasRecord":false,"recordRelation":null,"status":"historical","disputed":false,"precision":"village","areaKey":null,"elements":["tsunami_drift"],"summary":"要素辞書に一致（tsunami_drift）。出典による裏づけは未確認。","zones":[],"dataset":"old_maps"}},{"type":"Feature","geometry":{"type":"Point","coordinates":[135.190755,34.031111]},"properties":{"id":"30-0705183938","name":"青木","reading":null,"pref":"和歌山県","prefCode":"30","municipality":"有田郡湯浅町","hazardTypes":["slope_failure"],"evidenceLevel":0,"originLevel":0,"hasRecord":false,"recordRelation":null,"status":"historical","disputed":false,"precision":"koaza","areaKey":null,"elements":["afu_oo"],"summary":"要素辞書に一致（afu_oo）。出典による裏づけは未確認。","zones":[],"dataset":"old_maps"}},{"type":"Feature","geometry":{"type":"Point","coordinates":[135.164323,34.081247]},"properties":{"id":"30-9a51d491df","name":"滝河原","reading":null,"pref":"和歌山県","prefCode":"30","municipality":"有田市","hazardTypes":["flood"],"evidenceLevel":0,"originLevel":0,"hasRecord":false,"recordRelation":null,"status":"historical","disputed":false,"precision":"koaza","areaKey":"302040250","elements":["kawara"],"summary":"要素辞書に一致（kawara）。出典による裏づけは未確認。","zones":[],"dataset":"old_maps"}},{"type":"Feature","geometry":{"type":"Point","coordinates":[135.174927,34.056464]},"properties":{"id":"30-0c7e800a84","name":"鹿打坂","reading":null,"pref":"和歌山県","prefCode":"30","municipality":"有田郡湯浅町","hazardTypes":["landslide","soft_ground"],"evidenceLevel":0,"originLevel":0,"hasRecord":false,"recordRelation":null,"status":"historical","disputed":false,"precision":"feature","areaKey":null,"elements":["shishi"],"summary":"要素辞書に一致（shishi）。出典による裏づけは未確認。","zones":[],"dataset":"old_maps"}},{"type":"Feature","geometry":{"type":"Point","coordinates":[135.184883,34.06697]},"properties":{"id":"30-8d731635be","name":"地蔵堂","reading":null,"pref":"和歌山県","prefCode":"30","municipality":"有田市","hazardTypes":["slope_failure","rockfall"],"evidenceLevel":0,"originLevel":0,"hasRecord":false,"recordRelation":null,"status":"historical","disputed":false,"precision":"koaza","areaKey":"302040260","elements":["kura"],"summary":"要素辞書に一致（kura）。出典による裏づけは未確認。","zones":[],"dataset":"old_maps"}},{"type":"Feature","geometry":{"type":"Point","coordinates":[135.228349,34.068251]},"properties":{"id":"30-7fde5132b1","name":"垣倉","reading":null,"pref":"和歌山県","prefCode":"30","municipality":"有田郡有田川町","hazardTypes":["slope_failure","rockfall"],"evidenceLevel":0,"originLevel":0,"hasRecord":false,"recordRelation":null,"status":"historical","disputed":false,"precision":"koaza","areaKey":null,"elements":["kura"],"summary":"要素辞書に一致（kura）。出典による裏づけは未確認。","zones":[],"dataset":"old_maps"}},{"type":"Feature","geometry":{"type":"Point","coordinates":[135.176914,34.129659]},"properties":{"id":"30-8db8c6a6cc","name":"梅田","reading":null,"pref":"和歌山県","prefCode":"30","municipality":"海南市","hazardTypes":["landslide","slope_failure"],"evidenceLevel":0,"originLevel":0,"hasRecord":false,"recordRelation":null,"status":"historical","disputed":false,"precision":"koaza","areaKey":"302020360","elements":["ume"],"summary":"要素辞書に一致（ume）。出典による裏づけは未確認。","zones":[],"dataset":"old_maps"}},{"type":"Feature","geometry":{"type":"Point","coordinates":[135.223218,34.169069]},"properties":{"id":"30-9356f10550","name":"倉垣内","reading":null,"pref":"和歌山県","prefCode":"30","municipality":"海南市","hazardTypes":["slope_failure","rockfall","inundation"],"evidenceLevel":0,"originLevel":0,"hasRecord":false,"recordRelation":null,"status":"historical","disputed":false,"precision":"koaza","areaKey":"302020074","elements":["kura","yato"],"summary":"要素辞書に一致（kura・yato）。出典による裏づけは未確認。","zones":[],"dataset":"old_maps"}},{"type":"Feature","geometry":{"type":"Point","coordinates":[135.647909,34.337369]},"properties":{"id":"30-dae06135a8","name":"垂井","reading":null,"pref":"和歌山県","prefCode":"30","municipality":"橋本市","hazardTypes":["slope_failure"],"evidenceLevel":0,"originLevel":0,"hasRecord":false,"recordRelation":null,"status":"historical","disputed":false,"precision":"koaza","areaKey":"30203057001","elements":["kake"],"summary":"要素辞書に一致（kake）。出典による裏づけは未確認。","zones":[],"dataset":"old_maps"}},{"type":"Feature","geometry":{"type":"Point","coordinates":[135.552366,34.312035]},"properties":{"id":"30-770303fb89","name":"名倉村","reading":null,"pref":"和歌山県","prefCode":"30","municipality":"橋本市","hazardTypes":["slope_failure","rockfall"],"evidenceLevel":0,"originLevel":0,"hasRecord":false,"recordRelation":null,"status":"historical","disputed":false,"precision":"village","areaKey":"302030970","elements":["kura"],"summary":"要素辞書に一致（kura）。出典による裏づけは未確認。","zones":[],"dataset":"old_maps"}},{"type":"Feature","geometry":{"type":"Point","coordinates":[135.53939,34.307902]},"properties":{"id":"30-ae42919580","name":"高岸","reading":null,"pref":"和歌山県","prefCode":"30","municipality":"橋本市","hazardTypes":["slope_failure"],"evidenceLevel":0,"originLevel":0,"hasRecord":false,"recordRelation":null,"status":"historical","disputed":false,"precision":"koaza","areaKey":"302030970","elements":["kake"],"summary":"要素辞書に一致（kake）。出典による裏づけは未確認。","zones":[],"dataset":"old_maps"}},{"type":"Feature","geometry":{"type":"Point","coordinates":[135.554225,34.305398]},"properties":{"id":"30-0a0df5b984","name":"名倉","reading":null,"pref":"和歌山県","prefCode":"30","municipality":"橋本市","hazardTypes":["slope_failure","rockfall"],"evidenceLevel":0,"originLevel":0,"hasRecord":false,"recordRelation":null,"status":"historical","disputed":false,"precision":"koaza","areaKey":"302030980","elements":["kura"],"summary":"要素辞書に一致（kura）。出典による裏づけは未確認。","zones":[],"dataset":"old_maps"}},{"type":"Feature","geometry":{"type":"Point","coordinates":[135.587763,34.312872]},"properties":{"id":"30-7e23aa622d","name":"岸上村","reading":null,"pref":"和歌山県","prefCode":"30","municipality":"橋本市","hazardTypes":["slope_failure"],"evidenceLevel":0,"originLevel":0,"hasRecord":false,"recordRelation":null,"status":"historical","disputed":false,"precision":"village","areaKey":"30203010001","elements":["kake"],"summary":"要素辞書に一致（kake）。出典による裏づけは未確認。","zones":[],"dataset":"old_maps"}},{"type":"Feature","geometry":{"type":"Point","coordinates":[135.629368,34.26902]},"properties":{"id":"30-1b331de9da","name":"柿平","reading":null,"pref":"和歌山県","prefCode":"30","municipality":"伊都郡九度山町","hazardTypes":["slope_failure"],"evidenceLevel":0,"originLevel":0,"hasRecord":false,"recordRelation":null,"status":"historical","disputed":false,"precision":"koaza","areaKey":null,"elements":["kake"],"summary":"要素辞書に一致（kake）。出典による裏づけは未確認。","zones":[],"dataset":"old_maps"}},{"type":"Feature","geometry":{"type":"Point","coordinates":[135.552103,34.285234]},"properties":{"id":"30-74d8950a5d","name":"名倉村地","reading":null,"pref":"和歌山県","prefCode":"30","municipality":"伊都郡九度山町","hazardTypes":["slope_failure","rockfall"],"evidenceLevel":0,"originLevel":0,"hasRecord":false,"recordRelation":null,"status":"historical","disputed":false,"precision":"village","areaKey":null,"elements":["kura"],"summary":"要素辞書に一致（kura）。出典による裏づけは未確認。","zones":[],"dataset":"old_maps"}},{"type":"Feature","geometry":{"type":"Point","coordinates":[135.414686,33.761916]},"properties":{"id":"30-2be9f3ce42","name":"川原","reading":null,"pref":"和歌山県","prefCode":"30","municipality":"田辺市","hazardTypes":["flood"],"evidenceLevel":0,"originLevel":0,"hasRecord":false,"recordRelation":null,"status":"historical","disputed":false,"precision":"koaza","areaKey":"302065740","elements":["kawara"],"summary":"要素辞書に一致（kawara）。出典による裏づけは未確認。","zones":[],"dataset":"old_maps"}},{"type":"Feature","geometry":{"type":"Point","coordinates":[135.351312,33.750965]},"properties":{"id":"30-f124e9fe60","name":"崖","reading":null,"pref":"和歌山県","prefCode":"30","municipality":"田辺市","hazardTypes":["slope_failure"],"evidenceLevel":0,"originLevel":0,"hasRecord":false,"recordRelation":null,"status":"historical","disputed":false,"precision":"koaza","areaKey":"302061600","elements":["kake"],"summary":"要素辞書に一致（kake）。出典による裏づけは未確認。","zones":[],"dataset":"old_maps"}},{"type":"Feature","geometry":{"type":"Point","coordinates":[135.389413,33.745566]},"properties":{"id":"30-2b634df458","name":"青木","reading":null,"pref":"和歌山県","prefCode":"30","municipality":"田辺市","hazardTypes":["slope_failure"],"evidenceLevel":0,"originLevel":0,"hasRecord":false,"recordRelation":null,"status":"historical","disputed":false,"precision":"koaza","areaKey":"302060400","elements":["afu_oo"],"summary":"要素辞書に一致（afu_oo）。出典による裏づけは未確認。","zones":[],"dataset":"old_maps"}},{"type":"Feature","geometry":{"type":"Point","coordinates":[135.429928,33.715613]},"properties":{"id":"30-2b7ddf2f9f","name":"生馬村飛地","reading":null,"pref":"和歌山県","prefCode":"30","municipality":"西牟婁郡上富田町","hazardTypes":["slope_failure","debris_flow"],"evidenceLevel":0,"originLevel":0,"hasRecord":false,"recordRelation":null,"status":"historical","disputed":false,"precision":"village","areaKey":null,"elements":["tobi"],"summary":"要素辞書に一致（tobi）。出典による裏づけは未確認。","zones":[],"dataset":"old_maps"}},{"type":"Feature","geometry":{"type":"Point","coordinates":[135.494061,33.677452]},"properties":{"id":"30-00f09c1582","name":"芦山","reading":null,"pref":"和歌山県","prefCode":"30","municipality":"西牟婁郡白浜町","hazardTypes":["flood","inundation"],"evidenceLevel":0,"originLevel":0,"hasRecord":false,"recordRelation":null,"status":"historical","disputed":false,"precision":"koaza","areaKey":null,"elements":["ashi"],"summary":"要素辞書に一致（ashi）。出典による裏づけは未確認。","zones":[],"dataset":"old_maps"}},{"type":"Feature","geometry":{"type":"Point","coordinates":[135.42036,33.706972]},"properties":{"id":"30-7bd3656de3","name":"千足","reading":null,"pref":"和歌山県","prefCode":"30","municipality":"西牟婁郡上富田町","hazardTypes":["flood","inundation"],"evidenceLevel":0,"originLevel":0,"hasRecord":false,"recordRelation":null,"status":"historical","disputed":false,"precision":"koaza","areaKey":null,"elements":["ashi"],"summary":"要素辞書に一致（ashi）。出典による裏づけは未確認。","zones":[],"dataset":"old_maps"}},{"type":"Feature","geometry":{"type":"Point","coordinates":[135.457132,33.566086]},"properties":{"id":"30-69b7792716","name":"蛇原","reading":null,"pref":"和歌山県","prefCode":"30","municipality":"西牟婁郡白浜町","hazardTypes":["slope_failure","debris_flow"],"evidenceLevel":0,"originLevel":0,"hasRecord":false,"recordRelation":null,"status":"historical","disputed":false,"precision":"koaza","areaKey":null,"elements":["ja"],"summary":"要素辞書に一致（ja）。出典による裏づけは未確認。","zones":[],"dataset":"old_maps"}},{"type":"Feature","geometry":{"type":"Point","coordinates":[135.181399,33.870587]},"properties":{"id":"30-9585e2e33b","name":"猪ノ野","reading":null,"pref":"和歌山県","prefCode":"30","municipality":"御坊市","hazardTypes":["landslide","soft_ground"],"evidenceLevel":0,"originLevel":0,"hasRecord":false,"recordRelation":null,"status":"historical","disputed":false,"precision":"koaza","areaKey":"302050140","elements":["shishi"],"summary":"要素辞書に一致（shishi）。出典による裏づけは未確認。","zones":[],"dataset":"old_maps"}},{"type":"Feature","geometry":{"type":"Point","coordinates":[135.22165,33.936267]},"properties":{"id":"30-4988d8f296","name":"東蛇尾","reading":null,"pref":"和歌山県","prefCode":"30","municipality":"日高郡日高川町","hazardTypes":["slope_failure","debris_flow"],"evidenceLevel":0,"originLevel":0,"hasRecord":false,"recordRelation":null,"status":"historical","disputed":false,"precision":"koaza","areaKey":null,"elements":["ja"],"summary":"要素辞書に一致（ja）。出典による裏づけは未確認。","zones":[],"dataset":"old_maps"}},{"type":"Feature","geometry":{"type":"Point","coordinates":[135.216133,33.938926]},"properties":{"id":"30-869b572317","name":"蛇尾","reading":null,"pref":"和歌山県","prefCode":"30","municipality":"日高郡日高川町","hazardTypes":["slope_failure","debris_flow"],"evidenceLevel":0,"originLevel":0,"hasRecord":false,"recordRelation":null,"status":"historical","disputed":false,"precision":"koaza","areaKey":null,"elements":["ja"],"summary":"要素辞書に一致（ja）。出典による裏づけは未確認。","zones":[],"dataset":"old_maps"}},{"type":"Feature","geometry":{"type":"Point","coordinates":[135.213203,33.936698]},"properties":{"id":"30-e65bb34a00","name":"西蛇尾","reading":null,"pref":"和歌山県","prefCode":"30","municipality":"日高郡日高川町","hazardTypes":["slope_failure","debris_flow"],"evidenceLevel":0,"originLevel":0,"hasRecord":false,"recordRelation":null,"status":"historical","disputed":false,"precision":"koaza","areaKey":null,"elements":["ja"],"summary":"要素辞書に一致（ja）。出典による裏づけは未確認。","zones":[],"dataset":"old_maps"}},{"type":"Feature","geometry":{"type":"Point","coordinates":[135.205271,33.988221]},"properties":{"id":"30-7324a1d84e","name":"猿川","reading":null,"pref":"和歌山県","prefCode":"30","municipality":"有田郡広川町","hazardTypes":["slope_failure"],"evidenceLevel":0,"originLevel":0,"hasRecord":false,"recordRelation":null,"status":"historical","disputed":false,"precision":"koaza","areaKey":null,"elements":["saru"],"summary":"要素辞書に一致（saru）。出典による裏づけは未確認。","zones":[],"dataset":"old_maps"}},{"type":"Feature","geometry":{"type":"Point","coordinates":[135.196221,33.972196]},"properties":{"id":"30-6eef75e539","name":"夏明","reading":null,"pref":"和歌山県","prefCode":"30","municipality":"有田郡広川町","hazardTypes":["debris_flow","slope_failure"],"evidenceLevel":0,"originLevel":0,"hasRecord":false,"recordRelation":null,"status":"historical","disputed":false,"precision":"koaza","areaKey":null,"elements":["nazu_natsu"],"summary":"要素辞書に一致（nazu_natsu）。出典による裏づけは未確認。","zones":[],"dataset":"old_maps"}},{"type":"Feature","geometry":{"type":"Point","coordinates":[135.19079,33.991885]},"properties":{"id":"30-cb4bd9c142","name":"鹿ヶ瀬","reading":null,"pref":"和歌山県","prefCode":"30","municipality":"有田郡広川町","hazardTypes":["landslide","soft_ground"],"evidenceLevel":0,"originLevel":0,"hasRecord":false,"recordRelation":null,"status":"historical","disputed":false,"precision":"koaza","areaKey":null,"elements":["shishi"],"summary":"要素辞書に一致（shishi）。出典による裏づけは未確認。","zones":[],"dataset":"old_maps"}},{"type":"Feature","geometry":{"type":"Point","coordinates":[135.185791,33.978663]},"properties":{"id":"30-17a97fb9fd","name":"猪谷","reading":null,"pref":"和歌山県","prefCode":"30","municipality":"有田郡広川町","hazardTypes":["landslide","soft_ground"],"evidenceLevel":0,"originLevel":0,"hasRecord":false,"recordRelation":null,"status":"historical","disputed":false,"precision":"koaza","areaKey":null,"elements":["shishi"],"summary":"要素辞書に一致（shishi）。出典による裏づけは未確認。","zones":[],"dataset":"old_maps"}},{"type":"Feature","geometry":{"type":"Point","coordinates":[135.875513,33.80395]},"properties":{"id":"30-ea4cf3e7ad","name":"日足","reading":null,"pref":"和歌山県","prefCode":"30","municipality":"新宮市","hazardTypes":["flood","inundation"],"evidenceLevel":0,"originLevel":0,"hasRecord":false,"recordRelation":null,"status":"historical","disputed":false,"precision":"koaza","areaKey":null,"elements":["ashi"],"summary":"要素辞書に一致（ashi）。出典による裏づけは未確認。","zones":[],"dataset":"old_maps"}},{"type":"Feature","geometry":{"type":"Point","coordinates":[135.825471,33.768054]},"properties":{"id":"30-3329b2f074","name":"三津村飛地","reading":null,"pref":"和歌山県","prefCode":"30","municipality":"新宮市","hazardTypes":["slope_failure","debris_flow"],"evidenceLevel":0,"originLevel":0,"hasRecord":false,"recordRelation":null,"status":"historical","disputed":false,"precision":"village","areaKey":"302070430","elements":["tobi"],"summary":"要素辞書に一致（tobi）。出典による裏づけは未確認。","zones":[],"dataset":"old_maps"}},{"type":"Feature","geometry":{"type":"Point","coordinates":[135.826722,33.671481]},"properties":{"id":"30-fc7b17bfe1","name":"坂足","reading":null,"pref":"和歌山県","prefCode":"30","municipality":"東牟婁郡那智勝浦町","hazardTypes":["flood","inundation"],"evidenceLevel":0,"originLevel":0,"hasRecord":false,"recordRelation":null,"status":"historical","disputed":false,"precision":"koaza","areaKey":null,"elements":["ashi"],"summary":"要素辞書に一致（ashi）。出典による裏づけは未確認。","zones":[],"dataset":"old_maps"}},{"type":"Feature","geometry":{"type":"Point","coordinates":[135.932445,33.613843]},"properties":{"id":"30-fb6aa36abb","name":"夏山","reading":null,"pref":"和歌山県","prefCode":"30","municipality":"東牟婁郡那智勝浦町","hazardTypes":["debris_flow","slope_failure"],"evidenceLevel":0,"originLevel":0,"hasRecord":false,"recordRelation":null,"status":"historical","disputed":false,"precision":"koaza","areaKey":null,"elements":["nazu_natsu"],"summary":"要素辞書に一致（nazu_natsu）。出典による裏づけは未確認。","zones":[],"dataset":"old_maps"}},{"type":"Feature","geometry":{"type":"Point","coordinates":[135.898035,33.605749]},"properties":{"id":"30-6e5896c8c1","name":"井鹿","reading":null,"pref":"和歌山県","prefCode":"30","municipality":"東牟婁郡那智勝浦町","hazardTypes":["landslide","soft_ground"],"evidenceLevel":0,"originLevel":0,"hasRecord":false,"recordRelation":null,"status":"historical","disputed":false,"precision":"koaza","areaKey":null,"elements":["shishi"],"summary":"要素辞書に一致（shishi）。出典による裏づけは未確認。","zones":[],"dataset":"old_maps"}},{"type":"Feature","geometry":{"type":"Point","coordinates":[135.742065,33.841585]},"properties":{"id":"30-6279ebe221","name":"柿原","reading":null,"pref":"和歌山県","prefCode":"30","municipality":"田辺市","hazardTypes":["slope_failure"],"evidenceLevel":0,"originLevel":0,"hasRecord":false,"recordRelation":null,"status":"historical","disputed":false,"precision":"koaza","areaKey":"302068600","elements":["kake"],"summary":"要素辞書に一致（kake）。出典による裏づけは未確認。","zones":[],"dataset":"old_maps"}},{"type":"Feature","geometry":{"type":"Point","coordinates":[135.569582,33.995155]},"properties":{"id":"30-3312c2d943","name":"古川","reading":null,"pref":"和歌山県","prefCode":"30","municipality":"田辺市","hazardTypes":["flood","inundation"],"evidenceLevel":0,"originLevel":0,"hasRecord":false,"recordRelation":null,"status":"historical","disputed":false,"precision":"koaza","areaKey":"302067820","elements":["furukawa"],"summary":"要素辞書に一致（furukawa）。出典による裏づけは未確認。","zones":[],"dataset":"old_maps"}},{"type":"Feature","geometry":{"type":"Point","coordinates":[135.606116,33.917555]},"properties":{"id":"30-b2c5294b77","name":"菅野","reading":null,"pref":"和歌山県","prefCode":"30","municipality":"田辺市","hazardTypes":["landslide","soft_ground"],"evidenceLevel":0,"originLevel":0,"hasRecord":false,"recordRelation":null,"status":"historical","disputed":false,"precision":"koaza","areaKey":"302067880","elements":["wetland_plants"],"summary":"要素辞書に一致（wetland_plants）。出典による裏づけは未確認。","zones":[],"dataset":"old_maps"}},{"type":"Feature","geometry":{"type":"Point","coordinates":[135.693293,33.767709]},"properties":{"id":"30-995fd3ab37","name":"黒蔵谷","reading":null,"pref":"和歌山県","prefCode":"30","municipality":"田辺市","hazardTypes":["slope_failure","rockfall"],"evidenceLevel":0,"originLevel":0,"hasRecord":false,"recordRelation":null,"status":"historical","disputed":false,"precision":"feature","areaKey":"302068620","elements":["kura"],"summary":"要素辞書に一致（kura）。出典による裏づけは未確認。","zones":[],"dataset":"old_maps"}},{"type":"Feature","geometry":{"type":"Point","coordinates":[135.607086,33.808277]},"properties":{"id":"30-0db8425293","name":"柿平","reading":null,"pref":"和歌山県","prefCode":"30","municipality":"田辺市","hazardTypes":["slope_failure"],"evidenceLevel":0,"originLevel":0,"hasRecord":false,"recordRelation":null,"status":"historical","disputed":false,"precision":"koaza","areaKey":null,"elements":["kake"],"summary":"要素辞書に一致（kake）。出典による裏づけは未確認。","zones":[],"dataset":"old_maps"}},{"type":"Feature","geometry":{"type":"Point","coordinates":[135.553301,33.816162]},"properties":{"id":"30-1fa889b13e","name":"蛇越","reading":null,"pref":"和歌山県","prefCode":"30","municipality":"田辺市","hazardTypes":["slope_failure","debris_flow"],"evidenceLevel":0,"originLevel":0,"hasRecord":false,"recordRelation":null,"status":"historical","disputed":false,"precision":"koaza","areaKey":null,"elements":["ja"],"summary":"要素辞書に一致（ja）。出典による裏づけは未確認。","zones":[],"dataset":"old_maps"}},{"type":"Feature","geometry":{"type":"Point","coordinates":[135.720925,33.701595]},"properties":{"id":"30-983cb76f0b","name":"崩谷","reading":null,"pref":"和歌山県","prefCode":"30","municipality":"東牟婁郡古座川町","hazardTypes":["slope_failure","landslide"],"evidenceLevel":0,"originLevel":0,"hasRecord":false,"recordRelation":null,"status":"historical","disputed":false,"precision":"feature","areaKey":null,"elements":["kuzure"],"summary":"要素辞書に一致（kuzure）。出典による裏づけは未確認。","zones":[],"dataset":"old_maps"}},{"type":"Feature","geometry":{"type":"Point","coordinates":[135.605804,33.750976]},"properties":{"id":"30-220285c7c4","name":"大泓","reading":null,"pref":"和歌山県","prefCode":"30","municipality":"田辺市","hazardTypes":["soft_ground","inundation"],"evidenceLevel":0,"originLevel":0,"hasRecord":false,"recordRelation":null,"status":"historical","disputed":false,"precision":"koaza","areaKey":"302068180","elements":["fuke"],"summary":"要素辞書に一致（fuke）。出典による裏づけは未確認。","zones":[],"dataset":"old_maps"}},{"type":"Feature","geometry":{"type":"Point","coordinates":[135.513448,33.681678]},"properties":{"id":"30-8cdb60cdc3","name":"川原谷","reading":null,"pref":"和歌山県","prefCode":"30","municipality":"西牟婁郡白浜町","hazardTypes":["flood"],"evidenceLevel":0,"originLevel":0,"hasRecord":false,"recordRelation":null,"status":"historical","disputed":false,"precision":"koaza","areaKey":null,"elements":["kawara"],"summary":"要素辞書に一致（kawara）。出典による裏づけは未確認。","zones":[],"dataset":"old_maps"}},{"type":"Feature","geometry":{"type":"Point","coordinates":[135.589187,33.684086]},"properties":{"id":"30-9599f1fc57","name":"猪之谷","reading":null,"pref":"和歌山県","prefCode":"30","municipality":"田辺市","hazardTypes":["landslide","soft_ground"],"evidenceLevel":0,"originLevel":0,"hasRecord":false,"recordRelation":null,"status":"historical","disputed":false,"precision":"koaza","areaKey":"302068270","elements":["shishi"],"summary":"要素辞書に一致（shishi）。出典による裏づけは未確認。","zones":[],"dataset":"old_maps"}},{"type":"Feature","geometry":{"type":"Point","coordinates":[135.641072,33.596562]},"properties":{"id":"30-9e0efb6982","name":"根倉","reading":null,"pref":"和歌山県","prefCode":"30","municipality":"西牟婁郡すさみ町","hazardTypes":["slope_failure","rockfall"],"evidenceLevel":0,"originLevel":0,"hasRecord":false,"recordRelation":null,"status":"historical","disputed":false,"precision":"feature","areaKey":null,"elements":["kura"],"summary":"要素辞書に一致（kura）。出典による裏づけは未確認。","zones":[],"dataset":"old_maps"}},{"type":"Feature","geometry":{"type":"Point","coordinates":[135.641378,33.593878]},"properties":{"id":"30-2d71d3dd84","name":"根倉平","reading":null,"pref":"和歌山県","prefCode":"30","municipality":"西牟婁郡すさみ町","hazardTypes":["slope_failure","rockfall"],"evidenceLevel":0,"originLevel":0,"hasRecord":false,"recordRelation":null,"status":"historical","disputed":false,"precision":"koaza","areaKey":null,"elements":["kura"],"summary":"要素辞書に一致（kura）。出典による裏づけは未確認。","zones":[],"dataset":"old_maps"}},{"type":"Feature","geometry":{"type":"Point","coordinates":[135.547917,33.626596]},"properties":{"id":"30-14eabb2499","name":"柿垣内","reading":null,"pref":"和歌山県","prefCode":"30","municipality":"西牟婁郡すさみ町","hazardTypes":["slope_failure","inundation"],"evidenceLevel":0,"originLevel":0,"hasRecord":false,"recordRelation":null,"status":"historical","disputed":false,"precision":"koaza","areaKey":null,"elements":["kake","yato"],"summary":"要素辞書に一致（kake・yato）。出典による裏づけは未確認。","zones":[],"dataset":"old_maps"}},{"type":"Feature","geometry":{"type":"Point","coordinates":[135.553324,33.602797]},"properties":{"id":"30-7d08f24175","name":"古川","reading":null,"pref":"和歌山県","prefCode":"30","municipality":"西牟婁郡すさみ町","hazardTypes":["flood","inundation"],"evidenceLevel":0,"originLevel":0,"hasRecord":false,"recordRelation":null,"status":"historical","disputed":false,"precision":"koaza","areaKey":null,"elements":["furukawa"],"summary":"要素辞書に一致（furukawa）。出典による裏づけは未確認。","zones":[],"dataset":"old_maps"}},{"type":"Feature","geometry":{"type":"Point","coordinates":[135.744519,33.571053]},"properties":{"id":"30-9c73a26778","name":"猿川","reading":null,"pref":"和歌山県","prefCode":"30","municipality":"東牟婁郡古座川町","hazardTypes":["slope_failure"],"evidenceLevel":0,"originLevel":0,"hasRecord":false,"recordRelation":null,"status":"historical","disputed":false,"precision":"koaza","areaKey":null,"elements":["saru"],"summary":"要素辞書に一致（saru）。出典による裏づけは未確認。","zones":[],"dataset":"old_maps"}},{"type":"Feature","geometry":{"type":"Point","coordinates":[135.66841,33.517702]},"properties":{"id":"30-447d69192e","name":"鹿淵根","reading":null,"pref":"和歌山県","prefCode":"30","municipality":"東牟婁郡串本町","hazardTypes":["landslide","soft_ground"],"evidenceLevel":0,"originLevel":0,"hasRecord":false,"recordRelation":null,"status":"historical","disputed":false,"precision":"koaza","areaKey":null,"elements":["shishi"],"summary":"要素辞書に一致（shishi）。出典による裏づけは未確認。","zones":[],"dataset":"old_maps"}},{"type":"Feature","geometry":{"type":"Point","coordinates":[135.703685,33.548058]},"properties":{"id":"30-731807b902","name":"蔵土郷","reading":null,"pref":"和歌山県","prefCode":"30","municipality":"東牟婁郡古座川町","hazardTypes":["slope_failure","rockfall"],"evidenceLevel":0,"originLevel":0,"hasRecord":false,"recordRelation":null,"status":"historical","disputed":false,"precision":"koaza","areaKey":null,"elements":["kura"],"summary":"要素辞書に一致（kura）。出典による裏づけは未確認。","zones":[],"dataset":"old_maps"}},{"type":"Feature","geometry":{"type":"Point","coordinates":[135.424737,33.970435]},"properties":{"id":"30-9b25f54bb2","name":"猪谷","reading":null,"pref":"和歌山県","prefCode":"30","municipality":"日高郡日高川町","hazardTypes":["landslide","soft_ground"],"evidenceLevel":0,"originLevel":0,"hasRecord":false,"recordRelation":null,"status":"historical","disputed":false,"precision":"koaza","areaKey":null,"elements":["shishi"],"summary":"要素辞書に一致（shishi）。出典による裏づけは未確認。","zones":[],"dataset":"old_maps"}},{"type":"Feature","geometry":{"type":"Point","coordinates":[135.370909,33.982532]},"properties":{"id":"30-d493fdd25a","name":"川原河","reading":null,"pref":"和歌山県","prefCode":"30","municipality":"日高郡日高川町","hazardTypes":["flood"],"evidenceLevel":0,"originLevel":0,"hasRecord":false,"recordRelation":null,"status":"historical","disputed":false,"precision":"koaza","areaKey":null,"elements":["kawara"],"summary":"要素辞書に一致（kawara）。出典による裏づけは未確認。","zones":[],"dataset":"old_maps"}},{"type":"Feature","geometry":{"type":"Point","coordinates":[135.428515,33.940755]},"properties":{"id":"30-8c7d8dbad9","name":"天倉","reading":null,"pref":"和歌山県","prefCode":"30","municipality":"日高郡日高川町","hazardTypes":["slope_failure","rockfall"],"evidenceLevel":0,"originLevel":0,"hasRecord":false,"recordRelation":null,"status":"historical","disputed":false,"precision":"koaza","areaKey":null,"elements":["kura"],"summary":"要素辞書に一致（kura）。出典による裏づけは未確認。","zones":[],"dataset":"old_maps"}},{"type":"Feature","geometry":{"type":"Point","coordinates":[135.420436,33.928602]},"properties":{"id":"30-f40d6ac239","name":"菅","reading":null,"pref":"和歌山県","prefCode":"30","municipality":"田辺市","hazardTypes":["landslide","soft_ground"],"evidenceLevel":0,"originLevel":0,"hasRecord":false,"recordRelation":null,"status":"historical","disputed":false,"precision":"koaza","areaKey":"302067960","elements":["wetland_plants"],"summary":"要素辞書に一致（wetland_plants）。出典による裏づけは未確認。","zones":[],"dataset":"old_maps"}},{"type":"Feature","geometry":{"type":"Point","coordinates":[135.440721,33.895521]},"properties":{"id":"30-e3bca16a0a","name":"小菅","reading":null,"pref":"和歌山県","prefCode":"30","municipality":"田辺市","hazardTypes":["landslide","soft_ground"],"evidenceLevel":0,"originLevel":0,"hasRecord":false,"recordRelation":null,"status":"historical","disputed":false,"precision":"koaza","areaKey":"302067940","elements":["wetland_plants"],"summary":"要素辞書に一致（wetland_plants）。出典による裏づけは未確認。","zones":[],"dataset":"old_maps"}},{"type":"Feature","geometry":{"type":"Point","coordinates":[135.346319,33.894491]},"properties":{"id":"30-03673a1e14","name":"青木","reading":null,"pref":"和歌山県","prefCode":"30","municipality":"日高郡印南町","hazardTypes":["slope_failure"],"evidenceLevel":0,"originLevel":0,"hasRecord":false,"recordRelation":null,"status":"historical","disputed":false,"precision":"koaza","areaKey":null,"elements":["afu_oo"],"summary":"要素辞書に一致（afu_oo）。出典による裏づけは未確認。","zones":[],"dataset":"old_maps"}},{"type":"Feature","geometry":{"type":"Point","coordinates":[135.333163,33.885236]},"properties":{"id":"30-a9de7f8832","name":"柿原","reading":null,"pref":"和歌山県","prefCode":"30","municipality":"日高郡印南町","hazardTypes":["slope_failure"],"evidenceLevel":0,"originLevel":0,"hasRecord":false,"recordRelation":null,"status":"historical","disputed":false,"precision":"koaza","areaKey":null,"elements":["kake"],"summary":"要素辞書に一致（kake）。出典による裏づけは未確認。","zones":[],"dataset":"old_maps"}},{"type":"Feature","geometry":{"type":"Point","coordinates":[135.258579,33.87927]},"properties":{"id":"30-aa64f418b2","name":"猪内川","reading":null,"pref":"和歌山県","prefCode":"30","municipality":"日高郡印南町","hazardTypes":["landslide","soft_ground"],"evidenceLevel":0,"originLevel":0,"hasRecord":false,"recordRelation":null,"status":"historical","disputed":false,"precision":"koaza","areaKey":null,"elements":["shishi"],"summary":"要素辞書に一致（shishi）。出典による裏づけは未確認。","zones":[],"dataset":"old_maps"}},{"type":"Feature","geometry":{"type":"Point","coordinates":[135.269929,33.840468]},"properties":{"id":"30-37ae866170","name":"内田","reading":null,"pref":"和歌山県","prefCode":"30","municipality":"日高郡印南町","hazardTypes":["debris_flow","flood"],"evidenceLevel":0,"originLevel":0,"hasRecord":false,"recordRelation":null,"status":"historical","disputed":false,"precision":"koaza","areaKey":null,"elements":["uchide"],"summary":"要素辞書に一致（uchide）。出典による裏づけは未確認。","zones":[],"dataset":"old_maps"}},{"type":"Feature","geometry":{"type":"Point","coordinates":[135.48644,34.344123]},"properties":{"id":"30-92432d21d9","name":"東大久保","reading":null,"pref":"和歌山県","prefCode":"30","municipality":"伊都郡かつらぎ町","hazardTypes":["slope_failure","inundation","landslide"],"evidenceLevel":0,"originLevel":0,"hasRecord":false,"recordRelation":null,"status":"historical","disputed":false,"precision":"koaza","areaKey":null,"elements":["afu_oo","kubo"],"summary":"要素辞書に一致（afu_oo・kubo）。出典による裏づけは未確認。","zones":[],"dataset":"old_maps"}},{"type":"Feature","geometry":{"type":"Point","coordinates":[135.481931,34.343355]},"properties":{"id":"30-a519c44935","name":"西大久保","reading":null,"pref":"和歌山県","prefCode":"30","municipality":"伊都郡かつらぎ町","hazardTypes":["slope_failure","inundation","landslide"],"evidenceLevel":0,"originLevel":0,"hasRecord":false,"recordRelation":null,"status":"historical","disputed":false,"precision":"koaza","areaKey":null,"elements":["afu_oo","kubo"],"summary":"要素辞書に一致（afu_oo・kubo）。出典による裏づけは未確認。","zones":[],"dataset":"old_maps"}},{"type":"Feature","geometry":{"type":"Point","coordinates":[135.217816,34.188909]},"properties":{"id":"30-bf8caa85ee","name":"安原村","reading":null,"pref":"和歌山県","prefCode":"30","municipality":"和歌山市","hazardTypes":["inundation","flood"],"evidenceLevel":0,"originLevel":0,"hasRecord":false,"recordRelation":null,"status":"historical","disputed":false,"precision":"village","areaKey":"302014400","elements":["awara"],"summary":"要素辞書に一致（awara）。出典による裏づけは未確認。","zones":[],"dataset":"old_maps"}},{"type":"Feature","geometry":{"type":"Point","coordinates":[135.232153,34.199611]},"properties":{"id":"30-4f610f844f","name":"菖蒲谷","reading":null,"pref":"和歌山県","prefCode":"30","municipality":"和歌山市","hazardTypes":["landslide","soft_ground"],"evidenceLevel":0,"originLevel":0,"hasRecord":false,"recordRelation":null,"status":"historical","disputed":false,"precision":"koaza","areaKey":"302014410","elements":["wetland_plants"],"summary":"要素辞書に一致（wetland_plants）。出典による裏づけは未確認。","zones":[],"dataset":"old_maps"}},{"type":"Feature","geometry":{"type":"Point","coordinates":[135.167878,34.206832]},"properties":{"id":"30-17542479ec","name":"●硝蔵","reading":null,"pref":"和歌山県","prefCode":"30","municipality":"和歌山市","hazardTypes":["slope_failure","rockfall"],"evidenceLevel":0,"originLevel":0,"hasRecord":false,"recordRelation":null,"status":"historical","disputed":false,"precision":"koaza","areaKey":"30201298001","elements":["kura"],"summary":"要素辞書に一致（kura）。出典による裏づけは未確認。","zones":[],"dataset":"old_maps"}},{"type":"Feature","geometry":{"type":"Point","coordinates":[135.158536,34.185831]},"properties":{"id":"30-58fae2b5a9","name":"天神磯","reading":null,"pref":"和歌山県","prefCode":"30","municipality":"和歌山市","hazardTypes":["rockfall","debris_flow"],"evidenceLevel":0,"originLevel":0,"hasRecord":false,"recordRelation":null,"status":"historical","disputed":false,"precision":"feature","areaKey":"302014270","elements":["iso_ishi"],"summary":"要素辞書に一致（iso_ishi）。出典による裏づけは未確認。","zones":[],"dataset":"old_maps"}},{"type":"Feature","geometry":{"type":"Point","coordinates":[135.137194,34.237936]},"properties":{"id":"30-aa4d98f12f","name":"庚申","reading":null,"pref":"和歌山県","prefCode":"30","municipality":"和歌山市","hazardTypes":["slope_failure"],"evidenceLevel":0,"originLevel":0,"hasRecord":false,"recordRelation":null,"status":"historical","disputed":false,"precision":"koaza","areaKey":"30201354001","elements":["saru"],"summary":"要素辞書に一致（saru）。出典による裏づけは未確認。","zones":[],"dataset":"old_maps"}},{"type":"Feature","geometry":{"type":"Point","coordinates":[135.146333,34.221436]},"properties":{"id":"30-e04ced765e","name":"青岸","reading":null,"pref":"和歌山県","prefCode":"30","municipality":"和歌山市","hazardTypes":["slope_failure"],"evidenceLevel":0,"originLevel":0,"hasRecord":false,"recordRelation":null,"status":"historical","disputed":false,"precision":"koaza","areaKey":"302012610","elements":["kake"],"summary":"要素辞書に一致（kake）。出典による裏づけは未確認。","zones":[],"dataset":"old_maps"}},{"type":"Feature","geometry":{"type":"Point","coordinates":[135.185906,34.221577]},"properties":{"id":"30-f03176ea59","name":"川岸","reading":null,"pref":"和歌山県","prefCode":"30","municipality":"和歌山市","hazardTypes":["slope_failure"],"evidenceLevel":0,"originLevel":0,"hasRecord":false,"recordRelation":null,"status":"historical","disputed":false,"precision":"koaza","areaKey":"30201320002","elements":["kake"],"summary":"要素辞書に一致（kake）。出典による裏づけは未確認。","zones":[],"dataset":"old_maps"}},{"type":"Feature","geometry":{"type":"Point","coordinates":[135.186912,34.243994]},"properties":{"id":"30-0296160421","name":"地蔵ノ辻","reading":null,"pref":"和歌山県","prefCode":"30","municipality":"和歌山市","hazardTypes":["slope_failure","rockfall"],"evidenceLevel":0,"originLevel":0,"hasRecord":false,"recordRelation":null,"status":"historical","disputed":false,"precision":"koaza","areaKey":"30201317000","elements":["kura"],"summary":"要素辞書に一致（kura）。出典による裏づけは未確認。","zones":[],"dataset":"old_maps"}},{"type":"Feature","geometry":{"type":"Point","coordinates":[135.221874,34.235293]},"properties":{"id":"30-c17143483c","name":"馬場栗棲","reading":null,"pref":"和歌山県","prefCode":"30","municipality":"和歌山市","hazardTypes":["slope_failure"],"evidenceLevel":0,"originLevel":0,"hasRecord":false,"recordRelation":null,"status":"historical","disputed":false,"precision":"koaza","areaKey":"302013810","elements":["baba"],"summary":"要素辞書に一致（baba）。出典による裏づけは未確認。","zones":[],"dataset":"old_maps"}},{"type":"Feature","geometry":{"type":"Point","coordinates":[135.182048,34.267943]},"properties":{"id":"30-839a16ed06","name":"大久保","reading":null,"pref":"和歌山県","prefCode":"30","municipality":"和歌山市","hazardTypes":["slope_failure","inundation","landslide"],"evidenceLevel":0,"originLevel":0,"hasRecord":false,"recordRelation":null,"status":"historical","disputed":false,"precision":"koaza","areaKey":null,"elements":["afu_oo","kubo"],"summary":"要素辞書に一致（afu_oo・kubo）。出典による裏づけは未確認。","zones":[],"dataset":"old_maps"}},{"type":"Feature","geometry":{"type":"Point","coordinates":[135.098207,34.260701]},"properties":{"id":"30-fc50076417","name":"磯脇","reading":null,"pref":"和歌山県","prefCode":"30","municipality":"和歌山市","hazardTypes":["rockfall","debris_flow"],"evidenceLevel":0,"originLevel":0,"hasRecord":false,"recordRelation":null,"status":"historical","disputed":false,"precision":"koaza","areaKey":"302013920","elements":["iso_ishi"],"summary":"要素辞書に一致（iso_ishi）。出典による裏づけは未確認。","zones":[],"dataset":"old_maps"}},{"type":"Feature","geometry":{"type":"Point","coordinates":[135.061987,34.264877]},"properties":{"id":"30-a7fed29c68","name":"田倉崎","reading":null,"pref":"和歌山県","prefCode":"30","municipality":"和歌山市","hazardTypes":["slope_failure","rockfall"],"evidenceLevel":0,"originLevel":0,"hasRecord":false,"recordRelation":null,"status":"historical","disputed":false,"precision":"feature","areaKey":"302014940","elements":["kura"],"summary":"要素辞書に一致（kura）。出典による裏づけは未確認。","zones":[],"dataset":"old_maps"}},{"type":"Feature","geometry":{"type":"Point","coordinates":[135.014281,34.280471]},"properties":{"id":"30-52996608aa","name":"南垂水","reading":null,"pref":"和歌山県","prefCode":"30","municipality":"和歌山市","hazardTypes":["slope_failure"],"evidenceLevel":0,"originLevel":0,"hasRecord":false,"recordRelation":null,"status":"historical","disputed":false,"precision":"koaza","areaKey":"302014940","elements":["kake"],"summary":"要素辞書に一致（kake）。出典による裏づけは未確認。","zones":[],"dataset":"old_maps"}},{"type":"Feature","geometry":{"type":"Point","coordinates":[135.428379,34.298761]},"properties":{"id":"30-6a2c4ca75e","name":"川原村","reading":null,"pref":"和歌山県","prefCode":"30","municipality":"紀の川市","hazardTypes":["flood"],"evidenceLevel":0,"originLevel":0,"hasRecord":false,"recordRelation":null,"status":"historical","disputed":false,"precision":"village","areaKey":null,"elements":["kawara"],"summary":"要素辞書に一致（kawara）。出典による裏づけは未確認。","zones":[],"dataset":"old_maps"}},{"type":"Feature","geometry":{"type":"Point","coordinates":[135.436487,34.306302]},"properties":{"id":"30-1b52a3c833","name":"芦上","reading":null,"pref":"和歌山県","prefCode":"30","municipality":"紀の川市","hazardTypes":["flood","inundation"],"evidenceLevel":0,"originLevel":0,"hasRecord":false,"recordRelation":null,"status":"historical","disputed":false,"precision":"koaza","areaKey":null,"elements":["ashi"],"summary":"要素辞書に一致（ashi）。出典による裏づけは未確認。","zones":[],"dataset":"old_maps"}},{"type":"Feature","geometry":{"type":"Point","coordinates":[135.341898,34.273891]},"properties":{"id":"30-c84a3313ee","name":"馬場出","reading":null,"pref":"和歌山県","prefCode":"30","municipality":"紀の川市","hazardTypes":["slope_failure"],"evidenceLevel":0,"originLevel":0,"hasRecord":false,"recordRelation":null,"status":"historical","disputed":false,"precision":"koaza","areaKey":null,"elements":["baba"],"summary":"要素辞書に一致（baba）。出典による裏づけは未確認。","zones":[],"dataset":"old_maps"}},{"type":"Feature","geometry":{"type":"Point","coordinates":[135.443637,34.290909]},"properties":{"id":"30-b4c67301a4","name":"猪ノ岡","reading":null,"pref":"和歌山県","prefCode":"30","municipality":"紀の川市","hazardTypes":["landslide","soft_ground"],"evidenceLevel":0,"originLevel":0,"hasRecord":false,"recordRelation":null,"status":"historical","disputed":false,"precision":"koaza","areaKey":null,"elements":["shishi"],"summary":"要素辞書に一致（shishi）。出典による裏づけは未確認。","zones":[],"dataset":"old_maps"}},{"type":"Feature","geometry":{"type":"Point","coordinates":[135.409086,34.233128]},"properties":{"id":"30-363f6aa76a","name":"田中村飛地","reading":null,"pref":"和歌山県","prefCode":"30","municipality":"紀の川市","hazardTypes":["slope_failure","debris_flow"],"evidenceLevel":0,"originLevel":0,"hasRecord":false,"recordRelation":null,"status":"historical","disputed":false,"precision":"village","areaKey":null,"elements":["tobi"],"summary":"要素辞書に一致（tobi）。出典による裏づけは未確認。","zones":[],"dataset":"old_maps"}},{"type":"Feature","geometry":{"type":"Point","coordinates":[135.315478,34.234572]},"properties":{"id":"30-a5e7e8b312","name":"中貴志村飛地","reading":null,"pref":"和歌山県","prefCode":"30","municipality":"紀の川市","hazardTypes":["slope_failure","debris_flow"],"evidenceLevel":0,"originLevel":0,"hasRecord":false,"recordRelation":null,"status":"historical","disputed":false,"precision":"village","areaKey":null,"elements":["tobi"],"summary":"要素辞書に一致（tobi）。出典による裏づけは未確認。","zones":[],"dataset":"old_maps"}},{"type":"Feature","geometry":{"type":"Point","coordinates":[135.293952,34.238277]},"properties":{"id":"30-3609338310","name":"小倉村","reading":null,"pref":"和歌山県","prefCode":"30","municipality":"和歌山市","hazardTypes":["slope_failure","rockfall"],"evidenceLevel":0,"originLevel":0,"hasRecord":false,"recordRelation":null,"status":"historical","disputed":false,"precision":"village","areaKey":"302014910","elements":["kura"],"summary":"要素辞書に一致（kura）。出典による裏づけは未確認。","zones":[],"dataset":"old_maps"}},{"type":"Feature","geometry":{"type":"Point","coordinates":[135.317228,34.224036]},"properties":{"id":"30-7a71abbbf6","name":"片岸","reading":null,"pref":"和歌山県","prefCode":"30","municipality":"紀の川市","hazardTypes":["slope_failure"],"evidenceLevel":0,"originLevel":0,"hasRecord":false,"recordRelation":null,"status":"historical","disputed":false,"precision":"koaza","areaKey":null,"elements":["kake"],"summary":"要素辞書に一致（kake）。出典による裏づけは未確認。","zones":[],"dataset":"old_maps"}},{"type":"Feature","geometry":{"type":"Point","coordinates":[135.297277,34.220475]},"properties":{"id":"30-b77377a88e","name":"岸宮","reading":null,"pref":"和歌山県","prefCode":"30","municipality":"紀の川市","hazardTypes":["slope_failure"],"evidenceLevel":0,"originLevel":0,"hasRecord":false,"recordRelation":null,"status":"historical","disputed":false,"precision":"koaza","areaKey":null,"elements":["kake"],"summary":"要素辞書に一致（kake）。出典による裏づけは未確認。","zones":[],"dataset":"old_maps"}},{"type":"Feature","geometry":{"type":"Point","coordinates":[135.325074,34.208741]},"properties":{"id":"30-c7f6acbf78","name":"岸小野","reading":null,"pref":"和歌山県","prefCode":"30","municipality":"紀の川市","hazardTypes":["slope_failure"],"evidenceLevel":0,"originLevel":0,"hasRecord":false,"recordRelation":null,"status":"historical","disputed":false,"precision":"koaza","areaKey":null,"elements":["kake"],"summary":"要素辞書に一致（kake）。出典による裏づけは未確認。","zones":[],"dataset":"old_maps"}},{"type":"Feature","geometry":{"type":"Point","coordinates":[135.330858,34.178482]},"properties":{"id":"30-14078dd122","name":"黒蔵","reading":null,"pref":"和歌山県","prefCode":"30","municipality":"海草郡紀美野町","hazardTypes":["slope_failure","rockfall"],"evidenceLevel":0,"originLevel":0,"hasRecord":false,"recordRelation":null,"status":"historical","disputed":false,"precision":"koaza","areaKey":null,"elements":["kura"],"summary":"要素辞書に一致（kura）。出典による裏づけは未確認。","zones":[],"dataset":"old_maps"}},{"type":"Feature","geometry":{"type":"Point","coordinates":[135.380882,34.203331]},"properties":{"id":"30-00728f5dad","name":"安楽川村飛地","reading":null,"pref":"和歌山県","prefCode":"30","municipality":"紀の川市","hazardTypes":["slope_failure","debris_flow"],"evidenceLevel":0,"originLevel":0,"hasRecord":false,"recordRelation":null,"status":"historical","disputed":false,"precision":"village","areaKey":null,"elements":["tobi"],"summary":"要素辞書に一致（tobi）。出典による裏づけは未確認。","zones":[],"dataset":"old_maps"}},{"type":"Feature","geometry":{"type":"Point","coordinates":[135.484513,34.183288]},"properties":{"id":"30-30b3f13762","name":"馬場","reading":null,"pref":"和歌山県","prefCode":"30","municipality":"海草郡紀美野町","hazardTypes":["slope_failure"],"evidenceLevel":0,"originLevel":0,"hasRecord":false,"recordRelation":null,"status":"historical","disputed":false,"precision":"koaza","areaKey":null,"elements":["baba"],"summary":"要素辞書に一致（baba）。出典による裏づけは未確認。","zones":[],"dataset":"old_maps"}}]}
