{"type":"FeatureCollection","features":[{"type":"Feature","geometry":{"type":"Point","coordinates":[134.018569,35.463054]},"properties":{"id":"31-368d47e678","name":"青谷町河原","reading":"アオヤチョウカワラ","pref":"鳥取県","prefCode":"31","municipality":"鳥取市","hazardTypes":["flood"],"evidenceLevel":0,"status":"current","disputed":false,"precision":"oaza","areaKey":"312014460","elements":["kawara"],"summary":"要素辞書に一致（kawara）。出典による裏づけは未確認。","zones":[],"dataset":"candidates"}},{"type":"Feature","geometry":{"type":"Point","coordinates":[133.977807,35.497423]},"properties":{"id":"31-391d90252f","name":"青谷町北河原","reading":"アオヤチョウキタガワラ","pref":"鳥取県","prefCode":"31","municipality":"鳥取市","hazardTypes":["flood"],"evidenceLevel":0,"status":"current","disputed":false,"precision":"oaza","areaKey":null,"elements":["kawara"],"summary":"要素辞書に一致（kawara）。出典による裏づけは未確認。","zones":[],"dataset":"candidates"}},{"type":"Feature","geometry":{"type":"Point","coordinates":[134.023629,35.480459]},"properties":{"id":"31-a9b975ba04","name":"青谷町蔵内","reading":"アオヤチョウクラウチ","pref":"鳥取県","prefCode":"31","municipality":"鳥取市","hazardTypes":["slope_failure","rockfall"],"evidenceLevel":0,"status":"current","disputed":false,"precision":"oaza","areaKey":null,"elements":["kura"],"summary":"要素辞書に一致（kura）。出典による裏づけは未確認。","zones":[],"dataset":"candidates"}},{"type":"Feature","geometry":{"type":"Point","coordinates":[134.177791,35.443766]},"properties":{"id":"31-04aa5b9c23","name":"猪子","reading":"イノコ","pref":"鳥取県","prefCode":"31","municipality":"鳥取市","hazardTypes":["landslide","soft_ground"],"evidenceLevel":0,"status":"current","disputed":false,"precision":"oaza","areaKey":"312011610","elements":["shishi"],"summary":"要素辞書に一致（shishi）。出典による裏づけは未確認。","zones":[],"dataset":"candidates"}},{"type":"Feature","geometry":{"type":"Point","coordinates":[134.272115,35.490559]},"properties":{"id":"31-b8a7656973","name":"岩倉","reading":"イワクラ","pref":"鳥取県","prefCode":"31","municipality":"鳥取市","hazardTypes":["slope_failure","rockfall"],"evidenceLevel":0,"status":"current","disputed":false,"precision":"oaza","areaKey":"312011160","elements":["kura"],"summary":"要素辞書に一致（kura）。出典による裏づけは未確認。","zones":[],"dataset":"candidates"}},{"type":"Feature","geometry":{"type":"Point","coordinates":[134.251112,35.452211]},"properties":{"id":"31-c6953af360","name":"海蔵寺","reading":"カイゾウジ","pref":"鳥取県","prefCode":"31","municipality":"鳥取市","hazardTypes":["slope_failure","rockfall"],"evidenceLevel":0,"status":"current","disputed":false,"precision":"oaza","areaKey":"312012710","elements":["kura"],"summary":"要素辞書に一致（kura）。出典による裏づけは未確認。","zones":[],"dataset":"candidates"}},{"type":"Feature","geometry":{"type":"Point","coordinates":[134.234974,35.499288]},"properties":{"id":"31-756d7b2bce","name":"鍛冶町","reading":"カジマチ","pref":"鳥取県","prefCode":"31","municipality":"鳥取市","hazardTypes":["slope_failure"],"evidenceLevel":0,"status":"current","disputed":false,"precision":"oaza","areaKey":"312010420","elements":["kaji_kamu"],"summary":"要素辞書に一致（kaji_kamu）。出典による裏づけは未確認。","zones":[],"dataset":"candidates"}},{"type":"Feature","geometry":{"type":"Point","coordinates":[134.197785,35.411291]},"properties":{"id":"31-e8e9139b8c","name":"河原町鮎ヶ丘","reading":"カワハラチョウアユガオカ","pref":"鳥取県","prefCode":"31","municipality":"鳥取市","hazardTypes":["flood"],"evidenceLevel":0,"status":"current","disputed":false,"precision":"oaza","areaKey":"312014710","elements":["kawara"],"summary":"要素辞書に一致（kawara）。出典による裏づけは未確認。","zones":[],"dataset":"candidates"}},{"type":"Feature","geometry":{"type":"Point","coordinates":[134.214499,35.419534]},"properties":{"id":"31-8ecaa0ff3b","name":"河原町稲常","reading":"カワハラチョウイナツネ","pref":"鳥取県","prefCode":"31","municipality":"鳥取市","hazardTypes":["flood"],"evidenceLevel":0,"status":"current","disputed":false,"precision":"oaza","areaKey":"312013450","elements":["kawara"],"summary":"要素辞書に一致（kawara）。出典による裏づけは未確認。","zones":[],"dataset":"candidates"}},{"type":"Feature","geometry":{"type":"Point","coordinates":[134.210058,35.401902]},"properties":{"id":"31-53bcceaa48","name":"河原町今在家","reading":"カワハラチョウイマザイケ","pref":"鳥取県","prefCode":"31","municipality":"鳥取市","hazardTypes":["flood"],"evidenceLevel":0,"status":"current","disputed":false,"precision":"oaza","areaKey":"312013520","elements":["kawara"],"summary":"要素辞書に一致（kawara）。出典による裏づけは未確認。","zones":[],"dataset":"candidates"}},{"type":"Feature","geometry":{"type":"Point","coordinates":[134.161647,35.383226]},"properties":{"id":"31-76b8f7a472","name":"河原町牛戸","reading":"カワハラチョウウシト","pref":"鳥取県","prefCode":"31","municipality":"鳥取市","hazardTypes":["flood"],"evidenceLevel":0,"status":"current","disputed":false,"precision":"oaza","areaKey":"312013640","elements":["kawara"],"summary":"要素辞書に一致（kawara）。出典による裏づけは未確認。","zones":[],"dataset":"candidates"}},{"type":"Feature","geometry":{"type":"Point","coordinates":[134.177286,35.35932]},"properties":{"id":"31-226af6106c","name":"河原町小倉","reading":"カワハラチョウオグラ","pref":"鳥取県","prefCode":"31","municipality":"鳥取市","hazardTypes":["flood","slope_failure","rockfall"],"evidenceLevel":0,"status":"current","disputed":false,"precision":"oaza","areaKey":null,"elements":["kawara","kura"],"summary":"要素辞書に一致（kawara・kura）。出典による裏づけは未確認。","zones":[],"dataset":"candidates"}},{"type":"Feature","geometry":{"type":"Point","coordinates":[134.12466,35.368022]},"properties":{"id":"31-b92ec070e2","name":"河原町小河内","reading":"カワハラチョウオゴウチ","pref":"鳥取県","prefCode":"31","municipality":"鳥取市","hazardTypes":["flood"],"evidenceLevel":0,"status":"current","disputed":false,"precision":"oaza","areaKey":null,"elements":["kawara"],"summary":"要素辞書に一致（kawara）。出典による裏づけは未確認。","zones":[],"dataset":"candidates"}},{"type":"Feature","geometry":{"type":"Point","coordinates":[134.143931,35.39069]},"properties":{"id":"31-5a9f95ff0c","name":"河原町小畑","reading":"カワハラチョウオバタ","pref":"鳥取県","prefCode":"31","municipality":"鳥取市","hazardTypes":["flood"],"evidenceLevel":0,"status":"current","disputed":false,"precision":"oaza","areaKey":"312013620","elements":["kawara"],"summary":"要素辞書に一致（kawara）。出典による裏づけは未確認。","zones":[],"dataset":"candidates"}},{"type":"Feature","geometry":{"type":"Point","coordinates":[134.209673,35.40928]},"properties":{"id":"31-b9890b1d3b","name":"河原町片山","reading":"カワハラチョウカタヤマ","pref":"鳥取県","prefCode":"31","municipality":"鳥取市","hazardTypes":["flood"],"evidenceLevel":0,"status":"current","disputed":false,"precision":"oaza","areaKey":"312013530","elements":["kawara"],"summary":"要素辞書に一致（kawara）。出典による裏づけは未確認。","zones":[],"dataset":"candidates"}},{"type":"Feature","geometry":{"type":"Point","coordinates":[134.22219,35.372295]},"properties":{"id":"31-d1bd01d19f","name":"河原町釜口","reading":"カワハラチョウカマグチ","pref":"鳥取県","prefCode":"31","municipality":"鳥取市","hazardTypes":["flood"],"evidenceLevel":0,"status":"current","disputed":false,"precision":"oaza","areaKey":null,"elements":["kawara"],"summary":"要素辞書に一致（kawara）。出典による裏づけは未確認。","zones":[],"dataset":"candidates"}},{"type":"Feature","geometry":{"type":"Point","coordinates":[134.201534,35.4081]},"properties":{"id":"31-2e270975ae","name":"河原町河原","reading":"カワハラチョウカワハラ","pref":"鳥取県","prefCode":"31","municipality":"鳥取市","hazardTypes":["flood"],"evidenceLevel":0,"status":"current","disputed":false,"precision":"oaza","areaKey":null,"elements":["kawara"],"summary":"要素辞書に一致（kawara）。出典による裏づけは未確認。","zones":[],"dataset":"candidates"}},{"type":"Feature","geometry":{"type":"Point","coordinates":[134.132038,35.356633]},"properties":{"id":"31-74fe1ccd4c","name":"河原町神馬","reading":"カワハラチョウカンバ","pref":"鳥取県","prefCode":"31","municipality":"鳥取市","hazardTypes":["flood"],"evidenceLevel":0,"status":"current","disputed":false,"precision":"oaza","areaKey":"312013680","elements":["kawara"],"summary":"要素辞書に一致（kawara）。出典による裏づけは未確認。","zones":[],"dataset":"candidates"}},{"type":"Feature","geometry":{"type":"Point","coordinates":[134.093661,35.375883]},"properties":{"id":"31-7541cf8b87","name":"河原町北村","reading":"カワハラチョウキタムラ","pref":"鳥取県","prefCode":"31","municipality":"鳥取市","hazardTypes":["flood"],"evidenceLevel":0,"status":"current","disputed":false,"precision":"oaza","areaKey":null,"elements":["kawara"],"summary":"要素辞書に一致（kawara）。出典による裏づけは未確認。","zones":[],"dataset":"candidates"}},{"type":"Feature","geometry":{"type":"Point","coordinates":[134.218743,35.388614]},"properties":{"id":"31-e1f1097261","name":"河原町郷原","reading":"カワハラチョウゴウバラ","pref":"鳥取県","prefCode":"31","municipality":"鳥取市","hazardTypes":["flood"],"evidenceLevel":0,"status":"current","disputed":false,"precision":"oaza","areaKey":"312013500","elements":["kawara"],"summary":"要素辞書に一致（kawara）。出典による裏づけは未確認。","zones":[],"dataset":"candidates"}},{"type":"Feature","geometry":{"type":"Point","coordinates":[134.198549,35.370522]},"properties":{"id":"31-4b7f02822c","name":"河原町佐貫","reading":"カワハラチョウサヌキ","pref":"鳥取県","prefCode":"31","municipality":"鳥取市","hazardTypes":["flood"],"evidenceLevel":0,"status":"current","disputed":false,"precision":"oaza","areaKey":null,"elements":["kawara"],"summary":"要素辞書に一致（kawara）。出典による裏づけは未確認。","zones":[],"dataset":"candidates"}},{"type":"Feature","geometry":{"type":"Point","coordinates":[134.202926,35.386893]},"properties":{"id":"31-fb45e042af","name":"河原町高福","reading":"カワハラチョウタカフク","pref":"鳥取県","prefCode":"31","municipality":"鳥取市","hazardTypes":["flood"],"evidenceLevel":0,"status":"current","disputed":false,"precision":"oaza","areaKey":null,"elements":["kawara"],"summary":"要素辞書に一致（kawara）。出典による裏づけは未確認。","zones":[],"dataset":"candidates"}},{"type":"Feature","geometry":{"type":"Point","coordinates":[134.186115,35.398849]},"properties":{"id":"31-69d3e84c34","name":"河原町谷一木","reading":"カワハラチョウタニヒトツギ","pref":"鳥取県","prefCode":"31","municipality":"鳥取市","hazardTypes":["flood"],"evidenceLevel":0,"status":"current","disputed":false,"precision":"oaza","areaKey":"312013400","elements":["kawara"],"summary":"要素辞書に一致（kawara）。出典による裏づけは未確認。","zones":[],"dataset":"candidates"}},{"type":"Feature","geometry":{"type":"Point","coordinates":[134.168833,35.392409]},"properties":{"id":"31-412019b1e8","name":"河原町天神原","reading":"カワハラチョウテンジンバラ","pref":"鳥取県","prefCode":"31","municipality":"鳥取市","hazardTypes":["flood"],"evidenceLevel":0,"status":"current","disputed":false,"precision":"oaza","areaKey":"312013370","elements":["kawara"],"summary":"要素辞書に一致（kawara）。出典による裏づけは未確認。","zones":[],"dataset":"candidates"}},{"type":"Feature","geometry":{"type":"Point","coordinates":[134.206273,35.396897]},"properties":{"id":"31-1a9b24e8a8","name":"河原町徳吉","reading":"カワハラチョウトクヨシ","pref":"鳥取県","prefCode":"31","municipality":"鳥取市","hazardTypes":["flood"],"evidenceLevel":0,"status":"current","disputed":false,"precision":"oaza","areaKey":"312013480","elements":["kawara"],"summary":"要素辞書に一致（kawara）。出典による裏づけは未確認。","zones":[],"dataset":"candidates"}},{"type":"Feature","geometry":{"type":"Point","coordinates":[134.169748,35.384373]},"properties":{"id":"31-eab62a3b6d","name":"河原町中井","reading":"カワハラチョウナカイ","pref":"鳥取県","prefCode":"31","municipality":"鳥取市","hazardTypes":["flood"],"evidenceLevel":0,"status":"current","disputed":false,"precision":"oaza","areaKey":null,"elements":["kawara"],"summary":"要素辞書に一致（kawara）。出典による裏づけは未確認。","zones":[],"dataset":"candidates"}},{"type":"Feature","geometry":{"type":"Point","coordinates":[134.186638,35.409314]},"properties":{"id":"31-23e726dc6f","name":"河原町長瀬","reading":"カワハラチョウナガセ","pref":"鳥取県","prefCode":"31","municipality":"鳥取市","hazardTypes":["flood"],"evidenceLevel":0,"status":"current","disputed":false,"precision":"oaza","areaKey":"312013420","elements":["kawara"],"summary":"要素辞書に一致（kawara）。出典による裏づけは未確認。","zones":[],"dataset":"candidates"}},{"type":"Feature","geometry":{"type":"Point","coordinates":[134.192661,35.391675]},"properties":{"id":"31-447702f775","name":"河原町曳田","reading":"カワハラチョウヒケタ","pref":"鳥取県","prefCode":"31","municipality":"鳥取市","hazardTypes":["flood"],"evidenceLevel":0,"status":"current","disputed":false,"precision":"oaza","areaKey":null,"elements":["kawara"],"summary":"要素辞書に一致（kawara）。出典による裏づけは未確認。","zones":[],"dataset":"candidates"}},{"type":"Feature","geometry":{"type":"Point","coordinates":[134.196365,35.416746]},"properties":{"id":"31-9f4d20efc1","name":"河原町袋河原","reading":"カワハラチョウフクロガワラ","pref":"鳥取県","prefCode":"31","municipality":"鳥取市","hazardTypes":["flood"],"evidenceLevel":0,"status":"current","disputed":false,"precision":"oaza","areaKey":"312013430","elements":["kawara"],"summary":"要素辞書に一致（kawara）。出典による裏づけは未確認。","zones":[],"dataset":"candidates"}},{"type":"Feature","geometry":{"type":"Point","coordinates":[134.223833,35.421315]},"properties":{"id":"31-bbc53b1d72","name":"河原町布袋","reading":"カワハラチョウホテイ","pref":"鳥取県","prefCode":"31","municipality":"鳥取市","hazardTypes":["flood"],"evidenceLevel":0,"status":"current","disputed":false,"precision":"oaza","areaKey":"312013440","elements":["kawara"],"summary":"要素辞書に一致（kawara）。出典による裏づけは未確認。","zones":[],"dataset":"candidates"}},{"type":"Feature","geometry":{"type":"Point","coordinates":[134.167799,35.37469]},"properties":{"id":"31-ce5e2ec263","name":"河原町本鹿","reading":"カワハラチョウホンガ","pref":"鳥取県","prefCode":"31","municipality":"鳥取市","hazardTypes":["flood","landslide","soft_ground"],"evidenceLevel":0,"status":"current","disputed":false,"precision":"oaza","areaKey":null,"elements":["kawara","shishi"],"summary":"要素辞書に一致（kawara・shishi）。出典による裏づけは未確認。","zones":[],"dataset":"candidates"}},{"type":"Feature","geometry":{"type":"Point","coordinates":[134.179574,35.370511]},"properties":{"id":"31-d52ed73ae8","name":"河原町水根","reading":"カワハラチョウミズネ","pref":"鳥取県","prefCode":"31","municipality":"鳥取市","hazardTypes":["flood"],"evidenceLevel":0,"status":"current","disputed":false,"precision":"oaza","areaKey":"312013570","elements":["kawara"],"summary":"要素辞書に一致（kawara）。出典による裏づけは未確認。","zones":[],"dataset":"candidates"}},{"type":"Feature","geometry":{"type":"Point","coordinates":[134.227466,35.383134]},"properties":{"id":"31-a1077f3621","name":"河原町三谷","reading":"カワハラチョウミタニ","pref":"鳥取県","prefCode":"31","municipality":"鳥取市","hazardTypes":["flood"],"evidenceLevel":0,"status":"current","disputed":false,"precision":"oaza","areaKey":"312013510","elements":["kawara"],"summary":"要素辞書に一致（kawara）。出典による裏づけは未確認。","zones":[],"dataset":"candidates"}},{"type":"Feature","geometry":{"type":"Point","coordinates":[134.158623,35.359918]},"properties":{"id":"31-e609c5c488","name":"河原町山上","reading":"カワハラチョウヤマガミ","pref":"鳥取県","prefCode":"31","municipality":"鳥取市","hazardTypes":["flood"],"evidenceLevel":0,"status":"current","disputed":false,"precision":"oaza","areaKey":"312013590","elements":["kawara"],"summary":"要素辞書に一致（kawara）。出典による裏づけは未確認。","zones":[],"dataset":"candidates"}},{"type":"Feature","geometry":{"type":"Point","coordinates":[134.211228,35.392296]},"properties":{"id":"31-3ad9276c4f","name":"河原町山手","reading":"カワハラチョウヤマテ","pref":"鳥取県","prefCode":"31","municipality":"鳥取市","hazardTypes":["flood"],"evidenceLevel":0,"status":"current","disputed":false,"precision":"oaza","areaKey":null,"elements":["kawara"],"summary":"要素辞書に一致（kawara）。出典による裏づけは未確認。","zones":[],"dataset":"candidates"}},{"type":"Feature","geometry":{"type":"Point","coordinates":[134.155399,35.389352]},"properties":{"id":"31-323fdffc95","name":"河原町湯谷","reading":"カワハラチョウユダニ","pref":"鳥取県","prefCode":"31","municipality":"鳥取市","hazardTypes":["flood"],"evidenceLevel":0,"status":"current","disputed":false,"precision":"oaza","areaKey":"312013630","elements":["kawara"],"summary":"要素辞書に一致（kawara）。出典による裏づけは未確認。","zones":[],"dataset":"candidates"}},{"type":"Feature","geometry":{"type":"Point","coordinates":[134.139244,35.38526]},"properties":{"id":"31-3cf46959ac","name":"河原町弓河内","reading":"カワハラチョウユミゴウチ","pref":"鳥取県","prefCode":"31","municipality":"鳥取市","hazardTypes":["flood"],"evidenceLevel":0,"status":"current","disputed":false,"precision":"oaza","areaKey":"312013610","elements":["kawara"],"summary":"要素辞書に一致（kawara）。出典による裏づけは未確認。","zones":[],"dataset":"candidates"}},{"type":"Feature","geometry":{"type":"Point","coordinates":[134.209537,35.374288]},"properties":{"id":"31-0e845065d8","name":"河原町八日市","reading":"カワハラチョウヨウカイチ","pref":"鳥取県","prefCode":"31","municipality":"鳥取市","hazardTypes":["flood"],"evidenceLevel":0,"status":"current","disputed":false,"precision":"oaza","areaKey":"312013550","elements":["kawara"],"summary":"要素辞書に一致（kawara）。出典による裏づけは未確認。","zones":[],"dataset":"candidates"}},{"type":"Feature","geometry":{"type":"Point","coordinates":[134.200061,35.401599]},"properties":{"id":"31-9abeadd384","name":"河原町渡一木","reading":"カワハラチョウワタリヒトツギ","pref":"鳥取県","prefCode":"31","municipality":"鳥取市","hazardTypes":["flood"],"evidenceLevel":0,"status":"current","disputed":false,"precision":"oaza","areaKey":null,"elements":["kawara"],"summary":"要素辞書に一致（kawara）。出典による裏づけは未確認。","zones":[],"dataset":"candidates"}},{"type":"Feature","geometry":{"type":"Point","coordinates":[134.209321,35.365272]},"properties":{"id":"31-e9ee7a7e0c","name":"河原町和奈見","reading":"カワハラチョウワナミ","pref":"鳥取県","prefCode":"31","municipality":"鳥取市","hazardTypes":["flood"],"evidenceLevel":0,"status":"current","disputed":false,"precision":"oaza","areaKey":"312013540","elements":["kawara"],"summary":"要素辞書に一致（kawara）。出典による裏づけは未確認。","zones":[],"dataset":"candidates"}},{"type":"Feature","geometry":{"type":"Point","coordinates":[134.221828,35.460031]},"properties":{"id":"31-9683e877d3","name":"蔵田","reading":"クラダ","pref":"鳥取県","prefCode":"31","municipality":"鳥取市","hazardTypes":["slope_failure","rockfall"],"evidenceLevel":0,"status":"current","disputed":false,"precision":"oaza","areaKey":"312011490","elements":["kura"],"summary":"要素辞書に一致（kura）。出典による裏づけは未確認。","zones":[],"dataset":"candidates"}},{"type":"Feature","geometry":{"type":"Point","coordinates":[134.373221,35.457857]},"properties":{"id":"31-19793dee91","name":"国府町菅野","reading":"コクフチョウスガノ","pref":"鳥取県","prefCode":"31","municipality":"鳥取市","hazardTypes":["landslide","soft_ground"],"evidenceLevel":0,"status":"current","disputed":false,"precision":"oaza","areaKey":"312012880","elements":["wetland_plants"],"summary":"要素辞書に一致（wetland_plants）。出典による裏づけは未確認。","zones":[],"dataset":"candidates"}},{"type":"Feature","geometry":{"type":"Point","coordinates":[134.337923,35.438264]},"properties":{"id":"31-7e4d81b06f","name":"国府町中河原","reading":"コクフチョウナカガワラ","pref":"鳥取県","prefCode":"31","municipality":"鳥取市","hazardTypes":["flood"],"evidenceLevel":0,"status":"current","disputed":false,"precision":"oaza","areaKey":"312012970","elements":["kawara"],"summary":"要素辞書に一致（kawara）。出典による裏づけは未確認。","zones":[],"dataset":"candidates"}},{"type":"Feature","geometry":{"type":"Point","coordinates":[134.167361,35.332922]},"properties":{"id":"31-a467b1eeee","name":"佐治町刈地","reading":"サジチョウカルチ","pref":"鳥取県","prefCode":"31","municipality":"鳥取市","hazardTypes":["slope_failure"],"evidenceLevel":0,"status":"current","disputed":false,"precision":"oaza","areaKey":"312013850","elements":["kake"],"summary":"要素辞書に一致（kake）。出典による裏づけは未確認。","zones":[],"dataset":"candidates"}},{"type":"Feature","geometry":{"type":"Point","coordinates":[134.052315,35.466598]},"properties":{"id":"31-bed0fcf7b9","name":"鹿野町今市","reading":"シカノチョウイマイチ","pref":"鳥取県","prefCode":"31","municipality":"鳥取市","hazardTypes":["landslide","soft_ground"],"evidenceLevel":0,"status":"current","disputed":false,"precision":"oaza","areaKey":null,"elements":["shishi"],"summary":"要素辞書に一致（shishi）。出典による裏づけは未確認。","zones":[],"dataset":"candidates"}},{"type":"Feature","geometry":{"type":"Point","coordinates":[134.053616,35.49258]},"properties":{"id":"31-0c88bc128f","name":"鹿野町岡木","reading":"シカノチョウオカキ","pref":"鳥取県","prefCode":"31","municipality":"鳥取市","hazardTypes":["landslide","soft_ground"],"evidenceLevel":0,"status":"current","disputed":false,"precision":"oaza","areaKey":null,"elements":["shishi"],"summary":"要素辞書に一致（shishi）。出典による裏づけは未確認。","zones":[],"dataset":"candidates"}},{"type":"Feature","geometry":{"type":"Point","coordinates":[134.053203,35.499454]},"properties":{"id":"31-10b1120afb","name":"鹿野町乙亥正","reading":"シカノチョウオツガセ","pref":"鳥取県","prefCode":"31","municipality":"鳥取市","hazardTypes":["landslide","soft_ground"],"evidenceLevel":0,"status":"current","disputed":false,"precision":"oaza","areaKey":null,"elements":["shishi"],"summary":"要素辞書に一致（shishi）。出典による裏づけは未確認。","zones":[],"dataset":"candidates"}},{"type":"Feature","geometry":{"type":"Point","coordinates":[134.021415,35.408075]},"properties":{"id":"31-5ba7e8ba66","name":"鹿野町河内","reading":"シカノチョウコウチ","pref":"鳥取県","prefCode":"31","municipality":"鳥取市","hazardTypes":["landslide","soft_ground"],"evidenceLevel":0,"status":"current","disputed":false,"precision":"oaza","areaKey":null,"elements":["shishi"],"summary":"要素辞書に一致（shishi）。出典による裏づけは未確認。","zones":[],"dataset":"candidates"}},{"type":"Feature","geometry":{"type":"Point","coordinates":[134.024597,35.446713]},"properties":{"id":"31-c763c5e3fd","name":"鹿野町小別所","reading":"シカノチョウコベツシヨ","pref":"鳥取県","prefCode":"31","municipality":"鳥取市","hazardTypes":["landslide","soft_ground"],"evidenceLevel":0,"status":"current","disputed":false,"precision":"oaza","areaKey":"312014430","elements":["shishi"],"summary":"要素辞書に一致（shishi）。出典による裏づけは未確認。","zones":[],"dataset":"candidates"}},{"type":"Feature","geometry":{"type":"Point","coordinates":[134.062575,35.458935]},"properties":{"id":"31-6d2be5a1d3","name":"鹿野町鹿野","reading":"シカノチョウシカノ","pref":"鳥取県","prefCode":"31","municipality":"鳥取市","hazardTypes":["landslide","soft_ground"],"evidenceLevel":0,"status":"current","disputed":false,"precision":"oaza","areaKey":null,"elements":["shishi"],"summary":"要素辞書に一致（shishi）。出典による裏づけは未確認。","zones":[],"dataset":"candidates"}},{"type":"Feature","geometry":{"type":"Point","coordinates":[134.034637,35.438497]},"properties":{"id":"31-6c73787130","name":"鹿野町鷲峯","reading":"シカノチョウジュウボウ","pref":"鳥取県","prefCode":"31","municipality":"鳥取市","hazardTypes":["landslide","soft_ground"],"evidenceLevel":0,"status":"current","disputed":false,"precision":"oaza","areaKey":null,"elements":["shishi"],"summary":"要素辞書に一致（shishi）。出典による裏づけは未確認。","zones":[],"dataset":"candidates"}},{"type":"Feature","geometry":{"type":"Point","coordinates":[134.073968,35.440579]},"properties":{"id":"31-d047bef34a","name":"鹿野町末用","reading":"シカノチョウスエモチ","pref":"鳥取県","prefCode":"31","municipality":"鳥取市","hazardTypes":["landslide","soft_ground"],"evidenceLevel":0,"status":"current","disputed":false,"precision":"oaza","areaKey":null,"elements":["shishi"],"summary":"要素辞書に一致（shishi）。出典による裏づけは未確認。","zones":[],"dataset":"candidates"}},{"type":"Feature","geometry":{"type":"Point","coordinates":[134.051376,35.476935]},"properties":{"id":"31-0dc1667cd9","name":"鹿野町寺内","reading":"シカノチョウテラウチ","pref":"鳥取県","prefCode":"31","municipality":"鳥取市","hazardTypes":["landslide","soft_ground"],"evidenceLevel":0,"status":"current","disputed":false,"precision":"oaza","areaKey":"312014370","elements":["shishi"],"summary":"要素辞書に一致（shishi）。出典による裏づけは未確認。","zones":[],"dataset":"candidates"}},{"type":"Feature","geometry":{"type":"Point","coordinates":[134.076922,35.463895]},"properties":{"id":"31-2988ad7da0","name":"鹿野町閉野","reading":"シカノチョウトジノ","pref":"鳥取県","prefCode":"31","municipality":"鳥取市","hazardTypes":["landslide","soft_ground"],"evidenceLevel":0,"status":"current","disputed":false,"precision":"oaza","areaKey":"312014320","elements":["shishi"],"summary":"要素辞書に一致（shishi）。出典による裏づけは未確認。","zones":[],"dataset":"candidates"}},{"type":"Feature","geometry":{"type":"Point","coordinates":[134.051555,35.485738]},"properties":{"id":"31-7bb6c5a084","name":"鹿野町中園","reading":"シカノチョウナカゾノ","pref":"鳥取県","prefCode":"31","municipality":"鳥取市","hazardTypes":["landslide","soft_ground"],"evidenceLevel":0,"status":"current","disputed":false,"precision":"oaza","areaKey":null,"elements":["shishi"],"summary":"要素辞書に一致（shishi）。出典による裏づけは未確認。","zones":[],"dataset":"candidates"}},{"type":"Feature","geometry":{"type":"Point","coordinates":[134.083694,35.467295]},"properties":{"id":"31-5de3f10686","name":"鹿野町広木","reading":"シカノチョウヒロギ","pref":"鳥取県","prefCode":"31","municipality":"鳥取市","hazardTypes":["landslide","soft_ground"],"evidenceLevel":0,"status":"current","disputed":false,"precision":"oaza","areaKey":"312014330","elements":["shishi"],"summary":"要素辞書に一致（shishi）。出典による裏づけは未確認。","zones":[],"dataset":"candidates"}},{"type":"Feature","geometry":{"type":"Point","coordinates":[134.054664,35.4367]},"properties":{"id":"31-b7bd94d884","name":"鹿野町水谷","reading":"シカノチョウミズタニ","pref":"鳥取県","prefCode":"31","municipality":"鳥取市","hazardTypes":["landslide","soft_ground"],"evidenceLevel":0,"status":"current","disputed":false,"precision":"oaza","areaKey":"312014340","elements":["shishi"],"summary":"要素辞書に一致（shishi）。出典による裏づけは未確認。","zones":[],"dataset":"candidates"}},{"type":"Feature","geometry":{"type":"Point","coordinates":[134.051578,35.48083]},"properties":{"id":"31-3aef397899","name":"鹿野町宮方","reading":"シカノチョウミヤカタ","pref":"鳥取県","prefCode":"31","municipality":"鳥取市","hazardTypes":["landslide","soft_ground"],"evidenceLevel":0,"status":"current","disputed":false,"precision":"oaza","areaKey":"312014380","elements":["shishi"],"summary":"要素辞書に一致（shishi）。出典による裏づけは未確認。","zones":[],"dataset":"candidates"}},{"type":"Feature","geometry":{"type":"Point","coordinates":[134.208372,35.485418]},"properties":{"id":"31-9863bfb8f6","name":"菖蒲","reading":"ショウブ","pref":"鳥取県","prefCode":"31","municipality":"鳥取市","hazardTypes":["landslide","soft_ground"],"evidenceLevel":0,"status":"current","disputed":false,"precision":"oaza","areaKey":"312011700","elements":["wetland_plants"],"summary":"要素辞書に一致（wetland_plants）。出典による裏づけは未確認。","zones":[],"dataset":"candidates"}},{"type":"Feature","geometry":{"type":"Point","coordinates":[134.107276,35.470822]},"properties":{"id":"31-c9670360a3","name":"瀬田蔵","reading":"セタグラ","pref":"鳥取県","prefCode":"31","municipality":"鳥取市","hazardTypes":["slope_failure","rockfall"],"evidenceLevel":0,"status":"current","disputed":false,"precision":"oaza","areaKey":"312012100","elements":["kura"],"summary":"要素辞書に一致（kura）。出典による裏づけは未確認。","zones":[],"dataset":"candidates"}},{"type":"Feature","geometry":{"type":"Point","coordinates":[134.185283,35.509261]},"properties":{"id":"31-17aad4eb2d","name":"足山","reading":"タリヤマ","pref":"鳥取県","prefCode":"31","municipality":"鳥取市","hazardTypes":["flood","inundation"],"evidenceLevel":0,"status":"current","disputed":false,"precision":"oaza","areaKey":"312011950","elements":["ashi"],"summary":"要素辞書に一致（ashi）。出典による裏づけは未確認。","zones":[],"dataset":"candidates"}},{"type":"Feature","geometry":{"type":"Point","coordinates":[134.227702,35.463522]},"properties":{"id":"31-3e4f3dc46c","name":"馬場","reading":"ババ","pref":"鳥取県","prefCode":"31","municipality":"鳥取市","hazardTypes":["slope_failure"],"evidenceLevel":0,"status":"current","disputed":false,"precision":"oaza","areaKey":"312011470","elements":["baba"],"summary":"要素辞書に一致（baba）。出典による裏づけは未確認。","zones":[],"dataset":"candidates"}},{"type":"Feature","geometry":{"type":"Point","coordinates":[134.241983,35.501025]},"properties":{"id":"31-6965aa76ba","name":"馬場町","reading":"ババノチョウ","pref":"鳥取県","prefCode":"31","municipality":"鳥取市","hazardTypes":["slope_failure"],"evidenceLevel":0,"status":"current","disputed":false,"precision":"oaza","areaKey":"312010020","elements":["baba"],"summary":"要素辞書に一致（baba）。出典による裏づけは未確認。","zones":[],"dataset":"candidates"}},{"type":"Feature","geometry":{"type":"Point","coordinates":[134.316535,35.525893]},"properties":{"id":"31-012144456a","name":"福部町蔵見","reading":"フクベチョウクラミ","pref":"鳥取県","prefCode":"31","municipality":"鳥取市","hazardTypes":["slope_failure","rockfall"],"evidenceLevel":0,"status":"current","disputed":false,"precision":"oaza","areaKey":"312013330","elements":["kura"],"summary":"要素辞書に一致（kura）。出典による裏づけは未確認。","zones":[],"dataset":"candidates"}},{"type":"Feature","geometry":{"type":"Point","coordinates":[134.179839,35.297936]},"properties":{"id":"31-d59b9401cf","name":"用瀬町安蔵","reading":"モチガセチョウアゾウ","pref":"鳥取県","prefCode":"31","municipality":"鳥取市","hazardTypes":["slope_failure","rockfall"],"evidenceLevel":0,"status":"current","disputed":false,"precision":"oaza","areaKey":null,"elements":["kura"],"summary":"要素辞書に一致（kura）。出典による裏づけは未確認。","zones":[],"dataset":"candidates"}},{"type":"Feature","geometry":{"type":"Point","coordinates":[133.364157,35.3954]},"properties":{"id":"31-9ac87b37f8","name":"青木","reading":"アオキ","pref":"鳥取県","prefCode":"31","municipality":"米子市","hazardTypes":["slope_failure"],"evidenceLevel":0,"status":"current","disputed":false,"precision":"oaza","areaKey":"312020640","elements":["afu_oo"],"summary":"要素辞書に一致（afu_oo）。出典による裏づけは未確認。","zones":[],"dataset":"candidates"}},{"type":"Feature","geometry":{"type":"Point","coordinates":[133.327673,35.4324]},"properties":{"id":"31-814055fc08","name":"岩倉町","reading":"イワクラマチ","pref":"鳥取県","prefCode":"31","municipality":"米子市","hazardTypes":["slope_failure","rockfall"],"evidenceLevel":0,"status":"current","disputed":false,"precision":"oaza","areaKey":"312020380","elements":["kura"],"summary":"要素辞書に一致（kura）。出典による裏づけは未確認。","zones":[],"dataset":"candidates"}},{"type":"Feature","geometry":{"type":"Point","coordinates":[133.330172,35.43087]},"properties":{"id":"31-837b7479f0","name":"西倉吉町","reading":"ニシクラヨシマチ","pref":"鳥取県","prefCode":"31","municipality":"米子市","hazardTypes":["slope_failure","rockfall"],"evidenceLevel":0,"status":"current","disputed":false,"precision":"oaza","areaKey":"312020310","elements":["kura"],"summary":"要素辞書に一致（kura）。出典による裏づけは未確認。","zones":[],"dataset":"candidates"}},{"type":"Feature","geometry":{"type":"Point","coordinates":[133.331681,35.430406]},"properties":{"id":"31-f5e7ca4fea","name":"東倉吉町","reading":"ヒガシクラヨシマチ","pref":"鳥取県","prefCode":"31","municipality":"米子市","hazardTypes":["slope_failure","rockfall"],"evidenceLevel":0,"status":"current","disputed":false,"precision":"oaza","areaKey":"312020340","elements":["kura"],"summary":"要素辞書に一致（kura）。出典による裏づけは未確認。","zones":[],"dataset":"candidates"}},{"type":"Feature","geometry":{"type":"Point","coordinates":[133.241262,35.477369]},"properties":{"id":"31-f4c2267eb8","name":"葭津","reading":"ヨシヅ","pref":"鳥取県","prefCode":"31","municipality":"米子市","hazardTypes":["landslide","soft_ground"],"evidenceLevel":0,"status":"current","disputed":false,"precision":"oaza","areaKey":"312020840","elements":["wetland_plants"],"summary":"要素辞書に一致（wetland_plants）。出典による裏づけは未確認。","zones":[],"dataset":"candidates"}},{"type":"Feature","geometry":{"type":"Point","coordinates":[133.817792,35.381646]},"properties":{"id":"31-257d6a933e","name":"岩倉","reading":"イワクラ","pref":"鳥取県","prefCode":"31","municipality":"倉吉市","hazardTypes":["slope_failure","rockfall"],"evidenceLevel":0,"status":"current","disputed":false,"precision":"oaza","areaKey":"312031450","elements":["kura"],"summary":"要素辞書に一致（kura）。出典による裏づけは未確認。","zones":[],"dataset":"candidates"}},{"type":"Feature","geometry":{"type":"Point","coordinates":[133.81658,35.428824]},"properties":{"id":"31-697e146128","name":"鍛冶町一丁目","reading":"カジマチ 1","pref":"鳥取県","prefCode":"31","municipality":"倉吉市","hazardTypes":["slope_failure"],"evidenceLevel":0,"status":"current","disputed":false,"precision":"oaza","areaKey":"31203079001","elements":["kaji_kamu"],"summary":"要素辞書に一致（kaji_kamu）。出典による裏づけは未確認。","zones":[],"dataset":"candidates"}},{"type":"Feature","geometry":{"type":"Point","coordinates":[133.783801,35.402251]},"properties":{"id":"31-cba9972541","name":"上古川","reading":"カミフルカワ","pref":"鳥取県","prefCode":"31","municipality":"倉吉市","hazardTypes":["flood","inundation"],"evidenceLevel":0,"status":"current","disputed":false,"precision":"oaza","areaKey":"312031580","elements":["furukawa"],"summary":"要素辞書に一致（furukawa）。出典による裏づけは未確認。","zones":[],"dataset":"candidates"}},{"type":"Feature","geometry":{"type":"Point","coordinates":[133.811102,35.429621]},"properties":{"id":"31-172ee88dd9","name":"河原町","reading":"カワラマチ","pref":"鳥取県","prefCode":"31","municipality":"倉吉市","hazardTypes":["flood"],"evidenceLevel":0,"status":"current","disputed":false,"precision":"oaza","areaKey":"312030810","elements":["kawara"],"summary":"要素辞書に一致（kawara）。出典による裏づけは未確認。","zones":[],"dataset":"candidates"}},{"type":"Feature","geometry":{"type":"Point","coordinates":[133.793853,35.397116]},"properties":{"id":"31-4926cf2d6e","name":"蔵内","reading":"クラウチ","pref":"鳥取県","prefCode":"31","municipality":"倉吉市","hazardTypes":["slope_failure","rockfall"],"evidenceLevel":0,"status":"current","disputed":false,"precision":"oaza","areaKey":"312031570","elements":["kura"],"summary":"要素辞書に一致（kura）。出典による裏づけは未確認。","zones":[],"dataset":"candidates"}},{"type":"Feature","geometry":{"type":"Point","coordinates":[133.830283,35.46389]},"properties":{"id":"31-feadedb2c0","name":"下古川","reading":"シモフルカワ","pref":"鳥取県","prefCode":"31","municipality":"倉吉市","hazardTypes":["flood","inundation"],"evidenceLevel":0,"status":"current","disputed":false,"precision":"oaza","areaKey":"312030060","elements":["furukawa"],"summary":"要素辞書に一致（furukawa）。出典による裏づけは未確認。","zones":[],"dataset":"candidates"}},{"type":"Feature","geometry":{"type":"Point","coordinates":[133.822947,35.365904]},"properties":{"id":"31-40562c18b2","name":"菅原","reading":"スゲガハラ","pref":"鳥取県","prefCode":"31","municipality":"倉吉市","hazardTypes":["landslide","soft_ground"],"evidenceLevel":0,"status":"current","disputed":false,"precision":"oaza","areaKey":"312031460","elements":["wetland_plants"],"summary":"要素辞書に一致（wetland_plants）。出典による裏づけは未確認。","zones":[],"dataset":"candidates"}},{"type":"Feature","geometry":{"type":"Point","coordinates":[133.740092,35.365586]},"properties":{"id":"31-1638bca8e3","name":"関金町松河原","reading":"セキガネチョウマツガワラ","pref":"鳥取県","prefCode":"31","municipality":"倉吉市","hazardTypes":["flood"],"evidenceLevel":0,"status":"current","disputed":false,"precision":"oaza","areaKey":"312031670","elements":["kawara"],"summary":"要素辞書に一致（kawara）。出典による裏づけは未確認。","zones":[],"dataset":"candidates"}},{"type":"Feature","geometry":{"type":"Point","coordinates":[133.802612,35.410356]},"properties":{"id":"31-0b3344f2dc","name":"中河原","reading":"ナカガワラ","pref":"鳥取県","prefCode":"31","municipality":"倉吉市","hazardTypes":["flood"],"evidenceLevel":0,"status":"current","disputed":false,"precision":"oaza","areaKey":"312031500","elements":["kawara"],"summary":"要素辞書に一致（kawara）。出典による裏づけは未確認。","zones":[],"dataset":"candidates"}},{"type":"Feature","geometry":{"type":"Point","coordinates":[133.817601,35.432579]},"properties":{"id":"31-cf55543719","name":"西岩倉町","reading":"ニシイワクラマチ","pref":"鳥取県","prefCode":"31","municipality":"倉吉市","hazardTypes":["slope_failure","rockfall"],"evidenceLevel":0,"status":"current","disputed":false,"precision":"oaza","areaKey":"312030750","elements":["kura"],"summary":"要素辞書に一致（kura）。出典による裏づけは未確認。","zones":[],"dataset":"candidates"}},{"type":"Feature","geometry":{"type":"Point","coordinates":[133.806337,35.428746]},"properties":{"id":"31-75c0d336e8","name":"西倉吉町","reading":"ニシクラヨシチョウ","pref":"鳥取県","prefCode":"31","municipality":"倉吉市","hazardTypes":["slope_failure","rockfall"],"evidenceLevel":0,"status":"current","disputed":false,"precision":"oaza","areaKey":"312031530","elements":["kura"],"summary":"要素辞書に一致（kura）。出典による裏づけは未確認。","zones":[],"dataset":"candidates"}},{"type":"Feature","geometry":{"type":"Point","coordinates":[133.816135,35.443883]},"properties":{"id":"31-7671e97c0a","name":"馬場町","reading":"ババチョウ","pref":"鳥取県","prefCode":"31","municipality":"倉吉市","hazardTypes":["slope_failure"],"evidenceLevel":0,"status":"current","disputed":false,"precision":"oaza","areaKey":"312031080","elements":["baba"],"summary":"要素辞書に一致（baba）。出典による裏づけは未確認。","zones":[],"dataset":"candidates"}},{"type":"Feature","geometry":{"type":"Point","coordinates":[133.819347,35.432634]},"properties":{"id":"31-83083500a6","name":"東岩倉町","reading":"ヒガシイワクラマチ","pref":"鳥取県","prefCode":"31","municipality":"倉吉市","hazardTypes":["slope_failure","rockfall"],"evidenceLevel":0,"status":"current","disputed":false,"precision":"oaza","areaKey":"312030740","elements":["kura"],"summary":"要素辞書に一致（kura）。出典による裏づけは未確認。","zones":[],"dataset":"candidates"}},{"type":"Feature","geometry":{"type":"Point","coordinates":[133.821857,35.458184]},"properties":{"id":"31-47f407f145","name":"古川沢","reading":"フルカワサワ","pref":"鳥取県","prefCode":"31","municipality":"倉吉市","hazardTypes":["flood","inundation"],"evidenceLevel":0,"status":"current","disputed":false,"precision":"oaza","areaKey":"312030070","elements":["furukawa"],"summary":"要素辞書に一致（furukawa）。出典による裏づけは未確認。","zones":[],"dataset":"candidates"}},{"type":"Feature","geometry":{"type":"Point","coordinates":[133.227113,35.540427]},"properties":{"id":"31-a4ae2cbeb8","name":"馬場崎町","reading":"ババサキチョウ","pref":"鳥取県","prefCode":"31","municipality":"境港市","hazardTypes":["slope_failure"],"evidenceLevel":0,"status":"current","disputed":false,"precision":"oaza","areaKey":"312040230","elements":["baba"],"summary":"要素辞書に一致（baba）。出典による裏づけは未確認。","zones":[],"dataset":"candidates"}},{"type":"Feature","geometry":{"type":"Point","coordinates":[134.397377,35.522647]},"properties":{"id":"31-11b9bcd82c","name":"大字蒲生","reading":null,"pref":"鳥取県","prefCode":"31","municipality":"岩美郡岩美町","hazardTypes":["landslide","soft_ground"],"evidenceLevel":0,"status":"current","disputed":false,"precision":"oaza","areaKey":null,"elements":["wetland_plants"],"summary":"要素辞書に一致（wetland_plants）。出典による裏づけは未確認。","zones":[],"dataset":"candidates"}},{"type":"Feature","geometry":{"type":"Point","coordinates":[134.380897,35.531325]},"properties":{"id":"31-c8f50d0cc3","name":"大字馬場","reading":null,"pref":"鳥取県","prefCode":"31","municipality":"岩美郡岩美町","hazardTypes":["slope_failure"],"evidenceLevel":0,"status":"current","disputed":false,"precision":"oaza","areaKey":null,"elements":["baba"],"summary":"要素辞書に一致（baba）。出典による裏づけは未確認。","zones":[],"dataset":"candidates"}},{"type":"Feature","geometry":{"type":"Point","coordinates":[134.391621,35.337762]},"properties":{"id":"31-835f63c762","name":"大字三倉","reading":null,"pref":"鳥取県","prefCode":"31","municipality":"八頭郡若桜町","hazardTypes":["slope_failure","rockfall"],"evidenceLevel":0,"status":"current","disputed":false,"precision":"oaza","areaKey":null,"elements":["kura"],"summary":"要素辞書に一致（kura）。出典による裏づけは未確認。","zones":[],"dataset":"candidates"}},{"type":"Feature","geometry":{"type":"Point","coordinates":[134.403087,35.329862]},"properties":{"id":"31-3df5cb2c74","name":"大字岸野","reading":null,"pref":"鳥取県","prefCode":"31","municipality":"八頭郡若桜町","hazardTypes":["slope_failure"],"evidenceLevel":0,"status":"current","disputed":false,"precision":"oaza","areaKey":null,"elements":["kake"],"summary":"要素辞書に一致（kake）。出典による裏づけは未確認。","zones":[],"dataset":"candidates"}},{"type":"Feature","geometry":{"type":"Point","coordinates":[134.45952,35.407333]},"properties":{"id":"31-6fe8a933e8","name":"大字諸鹿","reading":null,"pref":"鳥取県","prefCode":"31","municipality":"八頭郡若桜町","hazardTypes":["landslide","soft_ground"],"evidenceLevel":0,"status":"current","disputed":false,"precision":"oaza","areaKey":null,"elements":["shishi"],"summary":"要素辞書に一致（shishi）。出典による裏づけは未確認。","zones":[],"dataset":"candidates"}},{"type":"Feature","geometry":{"type":"Point","coordinates":[134.220545,35.202526]},"properties":{"id":"31-df1603e527","name":"大字真鹿野","reading":null,"pref":"鳥取県","prefCode":"31","municipality":"八頭郡智頭町","hazardTypes":["landslide","soft_ground"],"evidenceLevel":0,"status":"current","disputed":false,"precision":"oaza","areaKey":null,"elements":["shishi"],"summary":"要素辞書に一致（shishi）。出典による裏づけは未確認。","zones":[],"dataset":"candidates"}},{"type":"Feature","geometry":{"type":"Point","coordinates":[134.347762,35.278365]},"properties":{"id":"31-b274b899f0","name":"大字芦津","reading":null,"pref":"鳥取県","prefCode":"31","municipality":"八頭郡智頭町","hazardTypes":["flood","inundation"],"evidenceLevel":0,"status":"current","disputed":false,"precision":"oaza","areaKey":null,"elements":["ashi"],"summary":"要素辞書に一致（ashi）。出典による裏づけは未確認。","zones":[],"dataset":"candidates"}},{"type":"Feature","geometry":{"type":"Point","coordinates":[134.427669,35.409915]},"properties":{"id":"31-b5f5df9f79","name":"妻鹿野","reading":null,"pref":"鳥取県","prefCode":"31","municipality":"八頭郡八頭町","hazardTypes":["landslide","soft_ground"],"evidenceLevel":0,"status":"current","disputed":false,"precision":"oaza","areaKey":null,"elements":["shishi"],"summary":"要素辞書に一致（shishi）。出典による裏づけは未確認。","zones":[],"dataset":"candidates"}},{"type":"Feature","geometry":{"type":"Point","coordinates":[134.324533,35.328837]},"properties":{"id":"31-22b7dd8d83","name":"柿原","reading":"カキハラ","pref":"鳥取県","prefCode":"31","municipality":"八頭郡八頭町","hazardTypes":["slope_failure"],"evidenceLevel":0,"status":"current","disputed":false,"precision":"oaza","areaKey":null,"elements":["kake"],"summary":"要素辞書に一致（kake）。出典による裏づけは未確認。","zones":[],"dataset":"candidates"}},{"type":"Feature","geometry":{"type":"Point","coordinates":[134.345948,35.347275]},"properties":{"id":"31-d227a84f3c","name":"鍛冶屋","reading":"カジヤ","pref":"鳥取県","prefCode":"31","municipality":"八頭郡八頭町","hazardTypes":["slope_failure"],"evidenceLevel":0,"status":"current","disputed":false,"precision":"oaza","areaKey":null,"elements":["kaji_kamu"],"summary":"要素辞書に一致（kaji_kamu）。出典による裏づけは未確認。","zones":[],"dataset":"candidates"}},{"type":"Feature","geometry":{"type":"Point","coordinates":[133.845,35.372157]},"properties":{"id":"31-0e20cbca42","name":"大字大柿","reading":null,"pref":"鳥取県","prefCode":"31","municipality":"東伯郡三朝町","hazardTypes":["slope_failure"],"evidenceLevel":0,"status":"current","disputed":false,"precision":"oaza","areaKey":null,"elements":["kake"],"summary":"要素辞書に一致（kake）。出典による裏づけは未確認。","zones":[],"dataset":"candidates"}},{"type":"Feature","geometry":{"type":"Point","coordinates":[133.943076,35.382969]},"properties":{"id":"31-ffeb113011","name":"大字東小鹿","reading":null,"pref":"鳥取県","prefCode":"31","municipality":"東伯郡三朝町","hazardTypes":["landslide","soft_ground"],"evidenceLevel":0,"status":"current","disputed":false,"precision":"oaza","areaKey":null,"elements":["shishi"],"summary":"要素辞書に一致（shishi）。出典による裏づけは未確認。","zones":[],"dataset":"candidates"}},{"type":"Feature","geometry":{"type":"Point","coordinates":[133.913182,35.354415]},"properties":{"id":"31-c6ce3d133f","name":"大字柿谷","reading":null,"pref":"鳥取県","prefCode":"31","municipality":"東伯郡三朝町","hazardTypes":["slope_failure"],"evidenceLevel":0,"status":"current","disputed":false,"precision":"oaza","areaKey":null,"elements":["kake"],"summary":"要素辞書に一致（kake）。出典による裏づけは未確認。","zones":[],"dataset":"candidates"}},{"type":"Feature","geometry":{"type":"Point","coordinates":[133.957734,35.366686]},"properties":{"id":"31-59ea0956f5","name":"大字神倉","reading":null,"pref":"鳥取県","prefCode":"31","municipality":"東伯郡三朝町","hazardTypes":["slope_failure","rockfall"],"evidenceLevel":0,"status":"current","disputed":false,"precision":"oaza","areaKey":null,"elements":["kura"],"summary":"要素辞書に一致（kura）。出典による裏づけは未確認。","zones":[],"dataset":"candidates"}},{"type":"Feature","geometry":{"type":"Point","coordinates":[133.925715,35.378602]},"properties":{"id":"31-178f364dea","name":"大字西小鹿","reading":null,"pref":"鳥取県","prefCode":"31","municipality":"東伯郡三朝町","hazardTypes":["landslide","soft_ground"],"evidenceLevel":0,"status":"current","disputed":false,"precision":"oaza","areaKey":null,"elements":["shishi"],"summary":"要素辞書に一致（shishi）。出典による裏づけは未確認。","zones":[],"dataset":"candidates"}},{"type":"Feature","geometry":{"type":"Point","coordinates":[133.901615,35.45348]},"properties":{"id":"31-6b23a19789","name":"大字小鹿谷","reading":null,"pref":"鳥取県","prefCode":"31","municipality":"東伯郡湯梨浜町","hazardTypes":["landslide","soft_ground"],"evidenceLevel":0,"status":"current","disputed":false,"precision":"oaza","areaKey":null,"elements":["shishi"],"summary":"要素辞書に一致（shishi）。出典による裏づけは未確認。","zones":[],"dataset":"candidates"}},{"type":"Feature","geometry":{"type":"Point","coordinates":[133.651287,35.450793]},"properties":{"id":"31-e84b3d6266","name":"大字倉坂","reading":null,"pref":"鳥取県","prefCode":"31","municipality":"東伯郡琴浦町","hazardTypes":["slope_failure","rockfall"],"evidenceLevel":0,"status":"current","disputed":false,"precision":"oaza","areaKey":null,"elements":["kura"],"summary":"要素辞書に一致（kura）。出典による裏づけは未確認。","zones":[],"dataset":"candidates"}},{"type":"Feature","geometry":{"type":"Point","coordinates":[133.604572,35.506839]},"properties":{"id":"31-29d1a1486f","name":"大字梅田","reading":null,"pref":"鳥取県","prefCode":"31","municipality":"東伯郡琴浦町","hazardTypes":["landslide","slope_failure"],"evidenceLevel":0,"status":"current","disputed":false,"precision":"oaza","areaKey":null,"elements":["ume"],"summary":"要素辞書に一致（ume）。出典による裏づけは未確認。","zones":[],"dataset":"candidates"}},{"type":"Feature","geometry":{"type":"Point","coordinates":[133.617972,35.389761]},"properties":{"id":"31-e3578a6bcb","name":"大字野井倉","reading":null,"pref":"鳥取県","prefCode":"31","municipality":"東伯郡琴浦町","hazardTypes":["slope_failure","rockfall"],"evidenceLevel":0,"status":"current","disputed":false,"precision":"oaza","areaKey":null,"elements":["kura"],"summary":"要素辞書に一致（kura）。出典による裏づけは未確認。","zones":[],"dataset":"candidates"}},{"type":"Feature","geometry":{"type":"Point","coordinates":[133.541711,35.488055]},"properties":{"id":"31-ae24182eb8","name":"倉谷","reading":"クラダニ","pref":"鳥取県","prefCode":"31","municipality":"西伯郡大山町","hazardTypes":["slope_failure","rockfall"],"evidenceLevel":0,"status":"current","disputed":false,"precision":"oaza","areaKey":null,"elements":["kura"],"summary":"要素辞書に一致（kura）。出典による裏づけは未確認。","zones":[],"dataset":"candidates"}},{"type":"Feature","geometry":{"type":"Point","coordinates":[133.551041,35.465944]},"properties":{"id":"31-38386e931f","name":"松河原","reading":"マツガワラ","pref":"鳥取県","prefCode":"31","municipality":"西伯郡大山町","hazardTypes":["flood"],"evidenceLevel":0,"status":"current","disputed":false,"precision":"oaza","areaKey":null,"elements":["kawara"],"summary":"要素辞書に一致（kawara）。出典による裏づけは未確認。","zones":[],"dataset":"candidates"}},{"type":"Feature","geometry":{"type":"Point","coordinates":[133.438704,35.465594]},"properties":{"id":"31-84e621710d","name":"安原","reading":"ヤスハラ","pref":"鳥取県","prefCode":"31","municipality":"西伯郡大山町","hazardTypes":["inundation","flood"],"evidenceLevel":0,"status":"current","disputed":false,"precision":"oaza","areaKey":null,"elements":["awara"],"summary":"要素辞書に一致（awara）。出典による裏づけは未確認。","zones":[],"dataset":"candidates"}},{"type":"Feature","geometry":{"type":"Point","coordinates":[133.308573,35.356293]},"properties":{"id":"31-c7c294d624","name":"猪小路","reading":"イノコウジ","pref":"鳥取県","prefCode":"31","municipality":"西伯郡南部町","hazardTypes":["landslide","soft_ground"],"evidenceLevel":0,"status":"current","disputed":false,"precision":"oaza","areaKey":null,"elements":["shishi"],"summary":"要素辞書に一致（shishi）。出典による裏づけは未確認。","zones":[],"dataset":"candidates"}},{"type":"Feature","geometry":{"type":"Point","coordinates":[133.394577,35.363775]},"properties":{"id":"31-17349a16e6","name":"荻名","reading":"オギナ","pref":"鳥取県","prefCode":"31","municipality":"西伯郡南部町","hazardTypes":["slope_failure"],"evidenceLevel":0,"status":"current","disputed":false,"precision":"oaza","areaKey":null,"elements":["suki_hagu"],"summary":"要素辞書に一致（suki_hagu）。出典による裏づけは未確認。","zones":[],"dataset":"candidates"}},{"type":"Feature","geometry":{"type":"Point","coordinates":[133.307539,35.342368]},"properties":{"id":"31-9f4f1ffb70","name":"鍋倉","reading":"ナベクラ","pref":"鳥取県","prefCode":"31","municipality":"西伯郡南部町","hazardTypes":["slope_failure","rockfall"],"evidenceLevel":0,"status":"current","disputed":false,"precision":"oaza","areaKey":null,"elements":["kura"],"summary":"要素辞書に一致（kura）。出典による裏づけは未確認。","zones":[],"dataset":"candidates"}},{"type":"Feature","geometry":{"type":"Point","coordinates":[133.318267,35.334523]},"properties":{"id":"31-323ae27bda","name":"馬場","reading":"ババ","pref":"鳥取県","prefCode":"31","municipality":"西伯郡南部町","hazardTypes":["slope_failure"],"evidenceLevel":0,"status":"current","disputed":false,"precision":"oaza","areaKey":null,"elements":["baba"],"summary":"要素辞書に一致（baba）。出典による裏づけは未確認。","zones":[],"dataset":"candidates"}},{"type":"Feature","geometry":{"type":"Point","coordinates":[133.463036,35.335878]},"properties":{"id":"31-c976673fc3","name":"大倉","reading":"オオクラ","pref":"鳥取県","prefCode":"31","municipality":"西伯郡伯耆町","hazardTypes":["slope_failure","rockfall"],"evidenceLevel":0,"status":"current","disputed":false,"precision":"oaza","areaKey":null,"elements":["kura"],"summary":"要素辞書に一致（kura）。出典による裏づけは未確認。","zones":[],"dataset":"candidates"}},{"type":"Feature","geometry":{"type":"Point","coordinates":[133.415207,35.383874]},"properties":{"id":"31-e865e97f22","name":"岸本","reading":"キシモト","pref":"鳥取県","prefCode":"31","municipality":"西伯郡伯耆町","hazardTypes":["slope_failure"],"evidenceLevel":0,"status":"current","disputed":false,"precision":"oaza","areaKey":null,"elements":["kake"],"summary":"要素辞書に一致（kake）。出典による裏づけは未確認。","zones":[],"dataset":"candidates"}},{"type":"Feature","geometry":{"type":"Point","coordinates":[133.320191,35.236308]},"properties":{"id":"31-675376fa8c","name":"菅沢","reading":"スゲザワ","pref":"鳥取県","prefCode":"31","municipality":"日野郡日南町","hazardTypes":["landslide","soft_ground"],"evidenceLevel":0,"status":"current","disputed":false,"precision":"oaza","areaKey":null,"elements":["wetland_plants"],"summary":"要素辞書に一致（wetland_plants）。出典による裏づけは未確認。","zones":[],"dataset":"candidates"}},{"type":"Feature","geometry":{"type":"Point","coordinates":[133.342299,35.177199]},"properties":{"id":"31-1ec5c1c099","name":"上菅","reading":"カミスゲ","pref":"鳥取県","prefCode":"31","municipality":"日野郡日野町","hazardTypes":["landslide","soft_ground"],"evidenceLevel":0,"status":"current","disputed":false,"precision":"oaza","areaKey":null,"elements":["wetland_plants"],"summary":"要素辞書に一致（wetland_plants）。出典による裏づけは未確認。","zones":[],"dataset":"candidates"}},{"type":"Feature","geometry":{"type":"Point","coordinates":[133.393406,35.20715]},"properties":{"id":"31-053f73c990","name":"下菅","reading":"シモスゲ","pref":"鳥取県","prefCode":"31","municipality":"日野郡日野町","hazardTypes":["landslide","soft_ground"],"evidenceLevel":0,"status":"current","disputed":false,"precision":"oaza","areaKey":null,"elements":["wetland_plants"],"summary":"要素辞書に一致（wetland_plants）。出典による裏づけは未確認。","zones":[],"dataset":"candidates"}},{"type":"Feature","geometry":{"type":"Point","coordinates":[133.378089,35.183296]},"properties":{"id":"31-8a8b20a5f4","name":"中菅","reading":"ナカスゲ","pref":"鳥取県","prefCode":"31","municipality":"日野郡日野町","hazardTypes":["landslide","soft_ground"],"evidenceLevel":0,"status":"current","disputed":false,"precision":"oaza","areaKey":null,"elements":["wetland_plants"],"summary":"要素辞書に一致（wetland_plants）。出典による裏づけは未確認。","zones":[],"dataset":"candidates"}},{"type":"Feature","geometry":{"type":"Point","coordinates":[133.407443,35.241569]},"properties":{"id":"31-e417a33504","name":"安原","reading":"ヤスハラ","pref":"鳥取県","prefCode":"31","municipality":"日野郡日野町","hazardTypes":["inundation","flood"],"evidenceLevel":0,"status":"current","disputed":false,"precision":"oaza","areaKey":null,"elements":["awara"],"summary":"要素辞書に一致（awara）。出典による裏づけは未確認。","zones":[],"dataset":"candidates"}},{"type":"Feature","geometry":{"type":"Point","coordinates":[133.540498,35.33341]},"properties":{"id":"31-e5cffcb37d","name":"大字大河原","reading":null,"pref":"鳥取県","prefCode":"31","municipality":"日野郡江府町","hazardTypes":["flood"],"evidenceLevel":0,"status":"current","disputed":false,"precision":"oaza","areaKey":null,"elements":["kawara"],"summary":"要素辞書に一致（kawara）。出典による裏づけは未確認。","zones":[],"dataset":"candidates"}},{"type":"Feature","geometry":{"type":"Point","coordinates":[133.488565,35.315679]},"properties":{"id":"31-c2ef09b2a8","name":"大字柿原","reading":null,"pref":"鳥取県","prefCode":"31","municipality":"日野郡江府町","hazardTypes":["slope_failure"],"evidenceLevel":0,"status":"current","disputed":false,"precision":"oaza","areaKey":null,"elements":["kake"],"summary":"要素辞書に一致（kake）。出典による裏づけは未確認。","zones":[],"dataset":"candidates"}}]}
