{"type":"FeatureCollection","features":[{"type":"Feature","geometry":{"type":"Point","coordinates":[133.803348,34.72929]},"properties":{"id":"33-af0ca5ea73","name":"足守","reading":"アシモリ","pref":"岡山県","prefCode":"33","municipality":"岡山市北区","hazardTypes":["flood","inundation"],"evidenceLevel":0,"status":"current","disputed":false,"precision":"oaza","areaKey":"331012570","elements":["ashi"],"summary":"要素辞書に一致（ashi）。出典による裏づけは未確認。","zones":[],"dataset":"candidates"}},{"type":"Feature","geometry":{"type":"Point","coordinates":[133.839692,34.626791]},"properties":{"id":"33-a264369ebc","name":"大内田","reading":"オオウチダ","pref":"岡山県","prefCode":"33","municipality":"岡山市北区","hazardTypes":["debris_flow","flood"],"evidenceLevel":0,"status":"current","disputed":false,"precision":"oaza","areaKey":"331012390","elements":["uchide"],"summary":"要素辞書に一致（uchide）。出典による裏づけは未確認。","zones":[],"dataset":"candidates"}},{"type":"Feature","geometry":{"type":"Point","coordinates":[133.800814,34.786821]},"properties":{"id":"33-a2c97c14d3","name":"河原","reading":"カワハラ","pref":"岡山県","prefCode":"33","municipality":"岡山市北区","hazardTypes":["flood"],"evidenceLevel":0,"status":"current","disputed":false,"precision":"oaza","areaKey":"331012440","elements":["kawara"],"summary":"要素辞書に一致（kawara）。出典による裏づけは未確認。","zones":[],"dataset":"candidates"}},{"type":"Feature","geometry":{"type":"Point","coordinates":[133.918918,34.653829]},"properties":{"id":"33-947dfd3607","name":"鹿田町一丁目","reading":"シカタチョウ 1","pref":"岡山県","prefCode":"33","municipality":"岡山市北区","hazardTypes":["landslide","soft_ground"],"evidenceLevel":0,"status":"current","disputed":false,"precision":"oaza","areaKey":"33101108001","elements":["shishi"],"summary":"要素辞書に一致（shishi）。出典による裏づけは未確認。","zones":[],"dataset":"candidates"}},{"type":"Feature","geometry":{"type":"Point","coordinates":[133.916381,34.651662]},"properties":{"id":"33-8267b8534a","name":"鹿田本町","reading":"シカタホンマチ","pref":"岡山県","prefCode":"33","municipality":"岡山市北区","hazardTypes":["landslide","soft_ground"],"evidenceLevel":0,"status":"current","disputed":false,"precision":"oaza","areaKey":"331011090","elements":["shishi"],"summary":"要素辞書に一致（shishi）。出典による裏づけは未確認。","zones":[],"dataset":"candidates"}},{"type":"Feature","geometry":{"type":"Point","coordinates":[133.813877,34.720538]},"properties":{"id":"33-161b55d52f","name":"下足守","reading":"シモアシモリ","pref":"岡山県","prefCode":"33","municipality":"岡山市北区","hazardTypes":["flood","inundation"],"evidenceLevel":0,"status":"current","disputed":false,"precision":"oaza","areaKey":"331012580","elements":["ashi"],"summary":"要素辞書に一致（ashi）。出典による裏づけは未確認。","zones":[],"dataset":"candidates"}},{"type":"Feature","geometry":{"type":"Point","coordinates":[133.927975,34.647612]},"properties":{"id":"33-6283fb440d","name":"下内田町","reading":"シモウチダチョウ","pref":"岡山県","prefCode":"33","municipality":"岡山市北区","hazardTypes":["debris_flow","flood"],"evidenceLevel":0,"status":"current","disputed":false,"precision":"oaza","areaKey":"331011680","elements":["uchide"],"summary":"要素辞書に一致（uchide）。出典による裏づけは未確認。","zones":[],"dataset":"candidates"}},{"type":"Feature","geometry":{"type":"Point","coordinates":[133.894616,34.748885]},"properties":{"id":"33-5dd1132474","name":"菅野","reading":"スガノ","pref":"岡山県","prefCode":"33","municipality":"岡山市北区","hazardTypes":["landslide","soft_ground"],"evidenceLevel":0,"status":"current","disputed":false,"precision":"oaza","areaKey":"331011860","elements":["wetland_plants"],"summary":"要素辞書に一致（wetland_plants）。出典による裏づけは未確認。","zones":[],"dataset":"candidates"}},{"type":"Feature","geometry":{"type":"Point","coordinates":[133.941086,34.833708]},"properties":{"id":"33-2991d87a44","name":"建部町小倉","reading":"タケベチョウオグラ","pref":"岡山県","prefCode":"33","municipality":"岡山市北区","hazardTypes":["slope_failure","rockfall"],"evidenceLevel":0,"status":"current","disputed":false,"precision":"oaza","areaKey":"331012940","elements":["kura"],"summary":"要素辞書に一致（kura）。出典による裏づけは未確認。","zones":[],"dataset":"candidates"}},{"type":"Feature","geometry":{"type":"Point","coordinates":[133.909066,34.670131]},"properties":{"id":"33-f106df8524","name":"津倉町一丁目","reading":"ツクラチョウ 1","pref":"岡山県","prefCode":"33","municipality":"岡山市北区","hazardTypes":["slope_failure","rockfall"],"evidenceLevel":0,"status":"current","disputed":false,"precision":"oaza","areaKey":"33101063001","elements":["kura"],"summary":"要素辞書に一致（kura）。出典による裏づけは未確認。","zones":[],"dataset":"candidates"}},{"type":"Feature","geometry":{"type":"Point","coordinates":[133.771402,34.784658]},"properties":{"id":"33-2dc0072f3f","name":"間倉","reading":"マグラ","pref":"岡山県","prefCode":"33","municipality":"岡山市北区","hazardTypes":["slope_failure","rockfall"],"evidenceLevel":0,"status":"current","disputed":false,"precision":"oaza","areaKey":"331012460","elements":["kura"],"summary":"要素辞書に一致（kura）。出典による裏づけは未確認。","zones":[],"dataset":"candidates"}},{"type":"Feature","geometry":{"type":"Point","coordinates":[133.923051,34.834001]},"properties":{"id":"33-5718b46fed","name":"御津鹿瀬","reading":"ミツカセ","pref":"岡山県","prefCode":"33","municipality":"岡山市北区","hazardTypes":["landslide","soft_ground"],"evidenceLevel":0,"status":"current","disputed":false,"precision":"oaza","areaKey":"331012690","elements":["shishi"],"summary":"要素辞書に一致（shishi）。出典による裏づけは未確認。","zones":[],"dataset":"candidates"}},{"type":"Feature","geometry":{"type":"Point","coordinates":[133.829287,34.823727]},"properties":{"id":"33-bdb4c510ce","name":"御津虎倉","reading":"ミツコグラ","pref":"岡山県","prefCode":"33","municipality":"岡山市北区","hazardTypes":["slope_failure","rockfall"],"evidenceLevel":0,"status":"current","disputed":false,"precision":"oaza","areaKey":"331012760","elements":["kura"],"summary":"要素辞書に一致（kura）。出典による裏づけは未確認。","zones":[],"dataset":"candidates"}},{"type":"Feature","geometry":{"type":"Point","coordinates":[133.963095,34.679775]},"properties":{"id":"33-43d0599112","name":"赤田","reading":"アコダ","pref":"岡山県","prefCode":"33","municipality":"岡山市中区","hazardTypes":["landslide"],"evidenceLevel":0,"status":"current","disputed":false,"precision":"oaza","areaKey":"331020670","elements":["geology_names"],"summary":"要素辞書に一致（geology_names）。出典による裏づけは未確認。","zones":[],"dataset":"candidates"}},{"type":"Feature","geometry":{"type":"Point","coordinates":[133.960536,34.636578]},"properties":{"id":"33-5db35b9447","name":"倉田","reading":"クラタ","pref":"岡山県","prefCode":"33","municipality":"岡山市中区","hazardTypes":["slope_failure","rockfall"],"evidenceLevel":0,"status":"current","disputed":false,"precision":"oaza","areaKey":"331020290","elements":["kura"],"summary":"要素辞書に一致（kura）。出典による裏づけは未確認。","zones":[],"dataset":"candidates"}},{"type":"Feature","geometry":{"type":"Point","coordinates":[133.969279,34.641699]},"properties":{"id":"33-1b9bff573a","name":"倉富","reading":"クラトミ","pref":"岡山県","prefCode":"33","municipality":"岡山市中区","hazardTypes":["slope_failure","rockfall"],"evidenceLevel":0,"status":"current","disputed":false,"precision":"oaza","areaKey":"331020280","elements":["kura"],"summary":"要素辞書に一致（kura）。出典による裏づけは未確認。","zones":[],"dataset":"candidates"}},{"type":"Feature","geometry":{"type":"Point","coordinates":[133.977934,34.642511]},"properties":{"id":"33-5d549ff8b7","name":"倉益","reading":"クラマス","pref":"岡山県","prefCode":"33","municipality":"岡山市中区","hazardTypes":["slope_failure","rockfall"],"evidenceLevel":0,"status":"current","disputed":false,"precision":"oaza","areaKey":"331020270","elements":["kura"],"summary":"要素辞書に一致（kura）。出典による裏づけは未確認。","zones":[],"dataset":"candidates"}},{"type":"Feature","geometry":{"type":"Point","coordinates":[133.940961,34.678026]},"properties":{"id":"33-d73120be31","name":"西川原","reading":"ニシガワラ","pref":"岡山県","prefCode":"33","municipality":"岡山市中区","hazardTypes":["flood"],"evidenceLevel":0,"status":"current","disputed":false,"precision":"oaza","areaKey":"33102046000","elements":["kawara"],"summary":"要素辞書に一致（kawara）。出典による裏づけは未確認。","zones":[],"dataset":"candidates"}},{"type":"Feature","geometry":{"type":"Point","coordinates":[133.946052,34.677217]},"properties":{"id":"33-e29e456478","name":"東川原","reading":"ヒガシガワラ","pref":"岡山県","prefCode":"33","municipality":"岡山市中区","hazardTypes":["flood"],"evidenceLevel":0,"status":"current","disputed":false,"precision":"oaza","areaKey":"331020450","elements":["kawara"],"summary":"要素辞書に一致（kawara）。出典による裏づけは未確認。","zones":[],"dataset":"candidates"}},{"type":"Feature","geometry":{"type":"Point","coordinates":[133.991446,34.693744]},"properties":{"id":"33-8f40e7049e","name":"宍甘","reading":"シジカイ","pref":"岡山県","prefCode":"33","municipality":"岡山市東区","hazardTypes":["landslide","soft_ground"],"evidenceLevel":0,"status":"current","disputed":false,"precision":"oaza","areaKey":"331030010","elements":["shishi"],"summary":"要素辞書に一致（shishi）。出典による裏づけは未確認。","zones":[],"dataset":"candidates"}},{"type":"Feature","geometry":{"type":"Point","coordinates":[134.06525,34.76817]},"properties":{"id":"33-500da08d39","name":"瀬戸町鍛冶屋","reading":"セトチョウカジヤ","pref":"岡山県","prefCode":"33","municipality":"岡山市東区","hazardTypes":["slope_failure"],"evidenceLevel":0,"status":"current","disputed":false,"precision":"oaza","areaKey":"331031050","elements":["kaji_kamu"],"summary":"要素辞書に一致（kaji_kamu）。出典による裏づけは未確認。","zones":[],"dataset":"candidates"}},{"type":"Feature","geometry":{"type":"Point","coordinates":[133.962945,34.605471]},"properties":{"id":"33-ef58d9e4f8","name":"海岸通一丁目","reading":"カイガンドオリ 1","pref":"岡山県","prefCode":"33","municipality":"岡山市南区","hazardTypes":["slope_failure"],"evidenceLevel":0,"status":"current","disputed":false,"precision":"oaza","areaKey":"33104019001","elements":["kake"],"summary":"要素辞書に一致（kake）。出典による裏づけは未確認。","zones":[],"dataset":"candidates"}},{"type":"Feature","geometry":{"type":"Point","coordinates":[133.893456,34.628725]},"properties":{"id":"33-96000ffa54","name":"米倉","reading":"ヨネグラ","pref":"岡山県","prefCode":"33","municipality":"岡山市南区","hazardTypes":["slope_failure","rockfall"],"evidenceLevel":0,"status":"current","disputed":false,"precision":"oaza","areaKey":"331040020","elements":["kura"],"summary":"要素辞書に一致（kura）。出典による裏づけは未確認。","zones":[],"dataset":"candidates"}},{"type":"Feature","geometry":{"type":"Point","coordinates":[133.792021,34.582545]},"properties":{"id":"33-d3efc037ff","name":"倉敷ハイツ","reading":"クラシキハイツ","pref":"岡山県","prefCode":"33","municipality":"倉敷市","hazardTypes":["slope_failure","rockfall"],"evidenceLevel":0,"status":"current","disputed":false,"precision":"oaza","areaKey":"332020600","elements":["kura"],"summary":"要素辞書に一致（kura）。出典による裏づけは未確認。","zones":[],"dataset":"candidates"}},{"type":"Feature","geometry":{"type":"Point","coordinates":[133.776659,34.562689]},"properties":{"id":"33-826780a034","name":"黒石","reading":"クロイシ","pref":"岡山県","prefCode":"33","municipality":"倉敷市","hazardTypes":["landslide"],"evidenceLevel":0,"status":"current","disputed":false,"precision":"oaza","areaKey":"332020480","elements":["geology_names"],"summary":"要素辞書に一致（geology_names）。出典による裏づけは未確認。","zones":[],"dataset":"candidates"}},{"type":"Feature","geometry":{"type":"Point","coordinates":[133.67819,34.56285]},"properties":{"id":"33-df1bcabbfa","name":"新倉敷駅前一丁目","reading":"シンクラシキエキマエ 1","pref":"岡山県","prefCode":"33","municipality":"倉敷市","hazardTypes":["slope_failure","rockfall"],"evidenceLevel":0,"status":"current","disputed":false,"precision":"oaza","areaKey":"33202178101","elements":["kura"],"summary":"要素辞書に一致（kura）。出典による裏づけは未確認。","zones":[],"dataset":"candidates"}},{"type":"Feature","geometry":{"type":"Point","coordinates":[133.773294,34.591498]},"properties":{"id":"33-cbbd00b4a3","name":"船倉町","reading":"フナグラチョウ","pref":"岡山県","prefCode":"33","municipality":"倉敷市","hazardTypes":["slope_failure","rockfall"],"evidenceLevel":0,"status":"current","disputed":false,"precision":"oaza","areaKey":"332020060","elements":["kura"],"summary":"要素辞書に一致（kura）。出典による裏づけは未確認。","zones":[],"dataset":"candidates"}},{"type":"Feature","geometry":{"type":"Point","coordinates":[133.733777,34.525702]},"properties":{"id":"33-bb2d8363c0","name":"水島海岸通一丁目","reading":"ミズシマカイガンドオリ 1","pref":"岡山県","prefCode":"33","municipality":"倉敷市","hazardTypes":["slope_failure"],"evidenceLevel":0,"status":"current","disputed":false,"precision":"oaza","areaKey":"33202086001","elements":["kake"],"summary":"要素辞書に一致（kake）。出典による裏づけは未確認。","zones":[],"dataset":"candidates"}},{"type":"Feature","geometry":{"type":"Point","coordinates":[134.003667,35.085397]},"properties":{"id":"33-85cfc1625e","name":"上河原","reading":"カミガワラ","pref":"岡山県","prefCode":"33","municipality":"津山市","hazardTypes":["flood"],"evidenceLevel":0,"status":"current","disputed":false,"precision":"oaza","areaKey":"332030810","elements":["kawara"],"summary":"要素辞書に一致（kawara）。出典による裏づけは未確認。","zones":[],"dataset":"candidates"}},{"type":"Feature","geometry":{"type":"Point","coordinates":[134.051212,35.116798]},"properties":{"id":"33-f7c3a1f545","name":"上高倉","reading":"カミタカクラ","pref":"岡山県","prefCode":"33","municipality":"津山市","hazardTypes":["slope_failure","rockfall"],"evidenceLevel":0,"status":"current","disputed":false,"precision":"oaza","areaKey":"332031810","elements":["kura"],"summary":"要素辞書に一致（kura）。出典による裏づけは未確認。","zones":[],"dataset":"candidates"}},{"type":"Feature","geometry":{"type":"Point","coordinates":[134.052789,35.266393]},"properties":{"id":"33-71adf8640b","name":"加茂町倉見","reading":"カモチョウクラミ","pref":"岡山県","prefCode":"33","municipality":"津山市","hazardTypes":["slope_failure","rockfall"],"evidenceLevel":0,"status":"current","disputed":false,"precision":"oaza","areaKey":"332032650","elements":["kura"],"summary":"要素辞書に一致（kura）。出典による裏づけは未確認。","zones":[],"dataset":"candidates"}},{"type":"Feature","geometry":{"type":"Point","coordinates":[134.045741,35.064667]},"properties":{"id":"33-cb41bc2cc7","name":"北川原角右エ門","reading":null,"pref":"岡山県","prefCode":"33","municipality":"津山市","hazardTypes":["flood"],"evidenceLevel":0,"status":"current","disputed":false,"precision":"koaza","areaKey":"332032540","elements":["kawara"],"summary":"要素辞書に一致（kawara）。出典による裏づけは未確認。","zones":[],"dataset":"candidates"}},{"type":"Feature","geometry":{"type":"Point","coordinates":[134.005137,35.058268]},"properties":{"id":"33-0446772eec","name":"河原町","reading":"カワラマチ","pref":"岡山県","prefCode":"33","municipality":"津山市","hazardTypes":["flood"],"evidenceLevel":0,"status":"current","disputed":false,"precision":"oaza","areaKey":"332030340","elements":["kawara"],"summary":"要素辞書に一致（kawara）。出典による裏づけは未確認。","zones":[],"dataset":"candidates"}},{"type":"Feature","geometry":{"type":"Point","coordinates":[134.04075,35.093588]},"properties":{"id":"33-00e177c836","name":"下高倉西","reading":"シモタカクラニシ","pref":"岡山県","prefCode":"33","municipality":"津山市","hazardTypes":["slope_failure","rockfall"],"evidenceLevel":0,"status":"current","disputed":false,"precision":"oaza","areaKey":"332031830","elements":["kura"],"summary":"要素辞書に一致（kura）。出典による裏づけは未確認。","zones":[],"dataset":"candidates"}},{"type":"Feature","geometry":{"type":"Point","coordinates":[134.053581,35.095107]},"properties":{"id":"33-7139043ad6","name":"下高倉東","reading":"シモタカクラヒガシ","pref":"岡山県","prefCode":"33","municipality":"津山市","hazardTypes":["slope_failure","rockfall"],"evidenceLevel":0,"status":"current","disputed":false,"precision":"oaza","areaKey":"332031820","elements":["kura"],"summary":"要素辞書に一致（kura）。出典による裏づけは未確認。","zones":[],"dataset":"candidates"}},{"type":"Feature","geometry":{"type":"Point","coordinates":[133.518413,34.499254]},"properties":{"id":"33-6428ef5eba","name":"大磯","reading":null,"pref":"岡山県","prefCode":"33","municipality":"笠岡市","hazardTypes":["rockfall","debris_flow"],"evidenceLevel":0,"status":"current","disputed":false,"precision":"koaza","areaKey":null,"elements":["iso_ishi"],"summary":"要素辞書に一致（iso_ishi）。出典による裏づけは未確認。","zones":[],"dataset":"candidates"}},{"type":"Feature","geometry":{"type":"Point","coordinates":[133.503527,34.342772]},"properties":{"id":"33-23f4f31eba","name":"飛島","reading":"ヒシマ","pref":"岡山県","prefCode":"33","municipality":"笠岡市","hazardTypes":["slope_failure","debris_flow"],"evidenceLevel":0,"status":"current","disputed":false,"precision":"oaza","areaKey":"33205077001","elements":["tobi"],"summary":"要素辞書に一致（tobi）。出典による裏づけは未確認。","zones":[],"dataset":"candidates"}},{"type":"Feature","geometry":{"type":"Point","coordinates":[133.477628,34.565461]},"properties":{"id":"33-6de71f6901","name":"岩倉町","reading":"イワクラチョウ","pref":"岡山県","prefCode":"33","municipality":"井原市","hazardTypes":["slope_failure","rockfall"],"evidenceLevel":0,"status":"current","disputed":false,"precision":"oaza","areaKey":"332070100","elements":["kura"],"summary":"要素辞書に一致（kura）。出典による裏づけは未確認。","zones":[],"dataset":"candidates"}},{"type":"Feature","geometry":{"type":"Point","coordinates":[133.552077,34.671993]},"properties":{"id":"33-0cf5356c35","name":"美星町大倉","reading":"ビセイチョウオオクラ","pref":"岡山県","prefCode":"33","municipality":"井原市","hazardTypes":["slope_failure","rockfall"],"evidenceLevel":0,"status":"current","disputed":false,"precision":"oaza","areaKey":null,"elements":["kura"],"summary":"要素辞書に一致（kura）。出典による裏づけは未確認。","zones":[],"dataset":"candidates"}},{"type":"Feature","geometry":{"type":"Point","coordinates":[133.737184,34.656102]},"properties":{"id":"33-50e7b44999","name":"清音柿木","reading":"キヨネカキノキ","pref":"岡山県","prefCode":"33","municipality":"総社市","hazardTypes":["slope_failure"],"evidenceLevel":0,"status":"current","disputed":false,"precision":"oaza","areaKey":"33208063003","elements":["kake"],"summary":"要素辞書に一致（kake）。出典による裏づけは未確認。","zones":[],"dataset":"candidates"}},{"type":"Feature","geometry":{"type":"Point","coordinates":[133.714447,34.714187]},"properties":{"id":"33-6e66f4ae72","name":"宍粟","reading":"シサワ","pref":"岡山県","prefCode":"33","municipality":"総社市","hazardTypes":["landslide","soft_ground"],"evidenceLevel":0,"status":"current","disputed":false,"precision":"oaza","areaKey":"33208043001","elements":["shishi"],"summary":"要素辞書に一致（shishi）。出典による裏づけは未確認。","zones":[],"dataset":"candidates"}},{"type":"Feature","geometry":{"type":"Point","coordinates":[133.652159,34.706237]},"properties":{"id":"33-d3f6aea781","name":"下倉","reading":"シタグラ","pref":"岡山県","prefCode":"33","municipality":"総社市","hazardTypes":["slope_failure","rockfall"],"evidenceLevel":0,"status":"current","disputed":false,"precision":"oaza","areaKey":"33208051001","elements":["kura"],"summary":"要素辞書に一致（kura）。出典による裏づけは未確認。","zones":[],"dataset":"candidates"}},{"type":"Feature","geometry":{"type":"Point","coordinates":[133.617408,34.795479]},"properties":{"id":"33-1f7b248aae","name":"柿木町","reading":"カキノキチョウ","pref":"岡山県","prefCode":"33","municipality":"高梁市","hazardTypes":["slope_failure"],"evidenceLevel":0,"status":"current","disputed":false,"precision":"oaza","areaKey":"332090180","elements":["kake"],"summary":"要素辞書に一致（kake）。出典による裏づけは未確認。","zones":[],"dataset":"candidates"}},{"type":"Feature","geometry":{"type":"Point","coordinates":[133.544042,34.858546]},"properties":{"id":"33-144f2bc0e2","name":"高倉町飯部","reading":"タカクラチョウイイベ","pref":"岡山県","prefCode":"33","municipality":"高梁市","hazardTypes":["slope_failure","rockfall"],"evidenceLevel":0,"status":"current","disputed":false,"precision":"oaza","areaKey":null,"elements":["kura"],"summary":"要素辞書に一致（kura）。出典による裏づけは未確認。","zones":[],"dataset":"candidates"}},{"type":"Feature","geometry":{"type":"Point","coordinates":[133.606738,34.812238]},"properties":{"id":"33-2732460f3c","name":"高倉町大瀬八長","reading":"タカクラチョウオオセオナガ","pref":"岡山県","prefCode":"33","municipality":"高梁市","hazardTypes":["slope_failure","rockfall"],"evidenceLevel":0,"status":"current","disputed":false,"precision":"oaza","areaKey":"33209901001","elements":["kura"],"summary":"要素辞書に一致（kura）。出典による裏づけは未確認。","zones":[],"dataset":"candidates"}},{"type":"Feature","geometry":{"type":"Point","coordinates":[133.583358,34.83816]},"properties":{"id":"33-6a6bfb811f","name":"高倉町田井","reading":"タカクラチョウタイ","pref":"岡山県","prefCode":"33","municipality":"高梁市","hazardTypes":["slope_failure","rockfall","landslide"],"evidenceLevel":0,"status":"current","disputed":false,"precision":"oaza","areaKey":null,"elements":["kura","tai"],"summary":"要素辞書に一致（kura・tai）。出典による裏づけは未確認。","zones":[],"dataset":"candidates"}},{"type":"Feature","geometry":{"type":"Point","coordinates":[133.400714,35.048881]},"properties":{"id":"33-ec810301a9","name":"足立","reading":"アシダチ","pref":"岡山県","prefCode":"33","municipality":"新見市","hazardTypes":["flood","inundation"],"evidenceLevel":0,"status":"current","disputed":false,"precision":"oaza","areaKey":"332108210","elements":["ashi"],"summary":"要素辞書に一致（ashi）。出典による裏づけは未確認。","zones":[],"dataset":"candidates"}},{"type":"Feature","geometry":{"type":"Point","coordinates":[133.506919,34.927948]},"properties":{"id":"33-012ab4969e","name":"井倉","reading":"イクラ","pref":"岡山県","prefCode":"33","municipality":"新見市","hazardTypes":["slope_failure","rockfall"],"evidenceLevel":0,"status":"current","disputed":false,"precision":"oaza","areaKey":"332103080","elements":["kura"],"summary":"要素辞書に一致（kura）。出典による裏づけは未確認。","zones":[],"dataset":"candidates"}},{"type":"Feature","geometry":{"type":"Point","coordinates":[133.501113,35.080187]},"properties":{"id":"33-44e85c0a0f","name":"菅生","reading":"スゴウ","pref":"岡山県","prefCode":"33","municipality":"新見市","hazardTypes":["landslide","soft_ground"],"evidenceLevel":0,"status":"current","disputed":false,"precision":"oaza","areaKey":"332107180","elements":["wetland_plants"],"summary":"要素辞書に一致（wetland_plants）。出典による裏づけは未確認。","zones":[],"dataset":"candidates"}},{"type":"Feature","geometry":{"type":"Point","coordinates":[133.519638,34.94626]},"properties":{"id":"33-3067cc4d83","name":"足見","reading":"タルミ","pref":"岡山県","prefCode":"33","municipality":"新見市","hazardTypes":["flood","inundation"],"evidenceLevel":0,"status":"current","disputed":false,"precision":"oaza","areaKey":"332104110","elements":["ashi"],"summary":"要素辞書に一致（ashi）。出典による裏づけは未確認。","zones":[],"dataset":"candidates"}},{"type":"Feature","geometry":{"type":"Point","coordinates":[133.484251,34.89807]},"properties":{"id":"33-0e01edce3b","name":"哲多町荻尾","reading":"テッタチョウオギョオ","pref":"岡山県","prefCode":"33","municipality":"新見市","hazardTypes":["slope_failure"],"evidenceLevel":0,"status":"current","disputed":false,"precision":"oaza","areaKey":"332109440","elements":["suki_hagu"],"summary":"要素辞書に一致（suki_hagu）。出典による裏づけは未確認。","zones":[],"dataset":"candidates"}},{"type":"Feature","geometry":{"type":"Point","coordinates":[134.133803,34.61429]},"properties":{"id":"33-61f22fdd03","name":"牛窓町鹿忍","reading":"ウシマドチョウカシノ","pref":"岡山県","prefCode":"33","municipality":"瀬戸内市","hazardTypes":["landslide","soft_ground"],"evidenceLevel":0,"status":"current","disputed":false,"precision":"oaza","areaKey":"33212088001","elements":["shishi"],"summary":"要素辞書に一致（shishi）。出典による裏づけは未確認。","zones":[],"dataset":"candidates"}},{"type":"Feature","geometry":{"type":"Point","coordinates":[134.143141,34.711375]},"properties":{"id":"33-4c0093b526","name":"長船町磯上","reading":"オサフネチョウイソカミ","pref":"岡山県","prefCode":"33","municipality":"瀬戸内市","hazardTypes":["rockfall","debris_flow"],"evidenceLevel":0,"status":"current","disputed":false,"precision":"oaza","areaKey":"33212097001","elements":["iso_ishi"],"summary":"要素辞書に一致（iso_ishi）。出典による裏づけは未確認。","zones":[],"dataset":"candidates"}},{"type":"Feature","geometry":{"type":"Point","coordinates":[134.063454,34.933821]},"properties":{"id":"33-636a73c64b","name":"河原屋","reading":"カワラヤ","pref":"岡山県","prefCode":"33","municipality":"赤磐市","hazardTypes":["flood"],"evidenceLevel":0,"status":"current","disputed":false,"precision":"oaza","areaKey":"332130750","elements":["kawara"],"summary":"要素辞書に一致（kawara）。出典による裏づけは未確認。","zones":[],"dataset":"candidates"}},{"type":"Feature","geometry":{"type":"Point","coordinates":[133.748688,35.013228]},"properties":{"id":"33-990c06e8c3","name":"落合垂水","reading":"オチアイタルミ","pref":"岡山県","prefCode":"33","municipality":"真庭市","hazardTypes":["slope_failure"],"evidenceLevel":0,"status":"current","disputed":false,"precision":"oaza","areaKey":null,"elements":["kake"],"summary":"要素辞書に一致（kake）。出典による裏づけは未確認。","zones":[],"dataset":"candidates"}},{"type":"Feature","geometry":{"type":"Point","coordinates":[133.733816,34.982679]},"properties":{"id":"33-49ca1ee504","name":"鹿田","reading":"カツタ","pref":"岡山県","prefCode":"33","municipality":"真庭市","hazardTypes":["landslide","soft_ground"],"evidenceLevel":0,"status":"current","disputed":false,"precision":"oaza","areaKey":null,"elements":["shishi"],"summary":"要素辞書に一致（shishi）。出典による裏づけは未確認。","zones":[],"dataset":"candidates"}},{"type":"Feature","geometry":{"type":"Point","coordinates":[133.687012,35.135384]},"properties":{"id":"33-09b18baaaa","name":"菅谷","reading":"スガタニ","pref":"岡山県","prefCode":"33","municipality":"真庭市","hazardTypes":["landslide","soft_ground"],"evidenceLevel":0,"status":"current","disputed":false,"precision":"oaza","areaKey":"332140120","elements":["wetland_plants"],"summary":"要素辞書に一致（wetland_plants）。出典による裏づけは未確認。","zones":[],"dataset":"candidates"}},{"type":"Feature","geometry":{"type":"Point","coordinates":[133.726125,35.145154]},"properties":{"id":"33-590c786d4d","name":"都喜足","reading":"ツギタル","pref":"岡山県","prefCode":"33","municipality":"真庭市","hazardTypes":["flood","inundation"],"evidenceLevel":0,"status":"current","disputed":false,"precision":"oaza","areaKey":"332140800","elements":["ashi"],"summary":"要素辞書に一致（ashi）。出典による裏づけは未確認。","zones":[],"dataset":"candidates"}},{"type":"Feature","geometry":{"type":"Point","coordinates":[134.116201,34.998663]},"properties":{"id":"33-fae677f86a","name":"青木","reading":"アオキ","pref":"岡山県","prefCode":"33","municipality":"美作市","hazardTypes":["slope_failure"],"evidenceLevel":0,"status":"current","disputed":false,"precision":"oaza","areaKey":"332152070","elements":["afu_oo"],"summary":"要素辞書に一致（afu_oo）。出典による裏づけは未確認。","zones":[],"dataset":"candidates"}},{"type":"Feature","geometry":{"type":"Point","coordinates":[134.287476,35.082368]},"properties":{"id":"33-9fcfe971ac","name":"赤田","reading":"アカダ","pref":"岡山県","prefCode":"33","municipality":"美作市","hazardTypes":["landslide"],"evidenceLevel":0,"status":"current","disputed":false,"precision":"oaza","areaKey":"332158350","elements":["geology_names"],"summary":"要素辞書に一致（geology_names）。出典による裏づけは未確認。","zones":[],"dataset":"candidates"}},{"type":"Feature","geometry":{"type":"Point","coordinates":[134.222535,35.03664]},"properties":{"id":"33-52044f5686","name":"芦河内","reading":"アシゴウチ","pref":"岡山県","prefCode":"33","municipality":"美作市","hazardTypes":["flood","inundation"],"evidenceLevel":0,"status":"current","disputed":false,"precision":"oaza","areaKey":"332158590","elements":["ashi"],"summary":"要素辞書に一致（ashi）。出典による裏づけは未確認。","zones":[],"dataset":"candidates"}},{"type":"Feature","geometry":{"type":"Point","coordinates":[134.177092,34.986124]},"properties":{"id":"33-62e73b373f","name":"猪臥","reading":"イブシ","pref":"岡山県","prefCode":"33","municipality":"美作市","hazardTypes":["landslide","soft_ground"],"evidenceLevel":0,"status":"current","disputed":false,"precision":"oaza","areaKey":"332154060","elements":["shishi"],"summary":"要素辞書に一致（shishi）。出典による裏づけは未確認。","zones":[],"dataset":"candidates"}},{"type":"Feature","geometry":{"type":"Point","coordinates":[134.23071,34.950398]},"properties":{"id":"33-76200a5a4c","name":"柿ケ原","reading":"カキガハラ","pref":"岡山県","prefCode":"33","municipality":"美作市","hazardTypes":["slope_failure"],"evidenceLevel":0,"status":"current","disputed":false,"precision":"oaza","areaKey":"332158750","elements":["kake"],"summary":"要素辞書に一致（kake）。出典による裏づけは未確認。","zones":[],"dataset":"candidates"}},{"type":"Feature","geometry":{"type":"Point","coordinates":[134.153726,34.992215]},"properties":{"id":"33-640da14275","name":"三倉田","reading":"ミクラダ","pref":"岡山県","prefCode":"33","municipality":"美作市","hazardTypes":["slope_failure","rockfall"],"evidenceLevel":0,"status":"current","disputed":false,"precision":"oaza","areaKey":null,"elements":["kura"],"summary":"要素辞書に一致（kura）。出典による裏づけは未確認。","zones":[],"dataset":"candidates"}},{"type":"Feature","geometry":{"type":"Point","coordinates":[133.576361,34.538412]},"properties":{"id":"33-78fd643a8e","name":"鴨方町深田","reading":"カモガタチョウフカダ","pref":"岡山県","prefCode":"33","municipality":"浅口市","hazardTypes":["soft_ground","inundation"],"evidenceLevel":0,"status":"current","disputed":false,"precision":"oaza","areaKey":null,"elements":["fuke"],"summary":"要素辞書に一致（fuke）。出典による裏づけは未確認。","zones":[],"dataset":"candidates"}},{"type":"Feature","geometry":{"type":"Point","coordinates":[134.146578,34.845926]},"properties":{"id":"33-56ad157a80","name":"木倉","reading":"キノクラ","pref":"岡山県","prefCode":"33","municipality":"和気郡和気町","hazardTypes":["slope_failure","rockfall"],"evidenceLevel":0,"status":"current","disputed":false,"precision":"oaza","areaKey":null,"elements":["kura"],"summary":"要素辞書に一致（kura）。出典による裏づけは未確認。","zones":[],"dataset":"candidates"}},{"type":"Feature","geometry":{"type":"Point","coordinates":[133.572941,34.656187]},"properties":{"id":"33-55ae370421","name":"内田","reading":"ウチダ","pref":"岡山県","prefCode":"33","municipality":"小田郡矢掛町","hazardTypes":["debris_flow","flood"],"evidenceLevel":0,"status":"current","disputed":false,"precision":"oaza","areaKey":null,"elements":["uchide"],"summary":"要素辞書に一致（uchide）。出典による裏づけは未確認。","zones":[],"dataset":"candidates"}},{"type":"Feature","geometry":{"type":"Point","coordinates":[133.569149,35.182117]},"properties":{"id":"33-eb6e077c66","name":"鍛冶屋","reading":null,"pref":"岡山県","prefCode":"33","municipality":"真庭郡新庄村","hazardTypes":["slope_failure"],"evidenceLevel":0,"status":"current","disputed":false,"precision":"oaza","areaKey":null,"elements":["kaji_kamu"],"summary":"要素辞書に一致（kaji_kamu）。出典による裏づけは未確認。","zones":[],"dataset":"candidates"}},{"type":"Feature","geometry":{"type":"Point","coordinates":[133.915437,35.128695]},"properties":{"id":"33-e19170ddff","name":"馬場","reading":"ババ","pref":"岡山県","prefCode":"33","municipality":"苫田郡鏡野町","hazardTypes":["slope_failure"],"evidenceLevel":0,"status":"current","disputed":false,"precision":"oaza","areaKey":null,"elements":["baba"],"summary":"要素辞書に一致（baba）。出典による裏づけは未確認。","zones":[],"dataset":"candidates"}},{"type":"Feature","geometry":{"type":"Point","coordinates":[133.935187,35.076728]},"properties":{"id":"33-a296962c85","name":"古川","reading":"フルカワ","pref":"岡山県","prefCode":"33","municipality":"苫田郡鏡野町","hazardTypes":["flood","inundation"],"evidenceLevel":0,"status":"current","disputed":false,"precision":"oaza","areaKey":null,"elements":["furukawa"],"summary":"要素辞書に一致（furukawa）。出典による裏づけは未確認。","zones":[],"dataset":"candidates"}},{"type":"Feature","geometry":{"type":"Point","coordinates":[134.161927,35.088083]},"properties":{"id":"33-e0bdb9ba01","name":"河原","reading":"カワラ","pref":"岡山県","prefCode":"33","municipality":"勝田郡勝央町","hazardTypes":["flood"],"evidenceLevel":0,"status":"current","disputed":false,"precision":"oaza","areaKey":null,"elements":["kawara"],"summary":"要素辞書に一致（kawara）。出典による裏づけは未確認。","zones":[],"dataset":"candidates"}},{"type":"Feature","geometry":{"type":"Point","coordinates":[134.185474,35.109239]},"properties":{"id":"33-b4fdeabc41","name":"柿","reading":"カキ","pref":"岡山県","prefCode":"33","municipality":"勝田郡奈義町","hazardTypes":["slope_failure"],"evidenceLevel":0,"status":"current","disputed":false,"precision":"oaza","areaKey":null,"elements":["kake"],"summary":"要素辞書に一致（kake）。出典による裏づけは未確認。","zones":[],"dataset":"candidates"}}]}
