{"type":"FeatureCollection","features":[{"type":"Feature","geometry":{"type":"Point","coordinates":[134.549209,34.103249]},"properties":{"id":"36-8c8f84bd24","name":"応神町古川","reading":"オウジンチョウフルカワ","pref":"徳島県","prefCode":"36","municipality":"徳島市","hazardTypes":["flood","inundation"],"evidenceLevel":0,"status":"current","disputed":false,"precision":"oaza","areaKey":null,"elements":["furukawa"],"summary":"要素辞書に一致（furukawa）。出典による裏づけは未確認。","zones":[],"dataset":"candidates"}},{"type":"Feature","geometry":{"type":"Point","coordinates":[134.533094,34.034772]},"properties":{"id":"36-42c5595399","name":"梅ノ井","reading":null,"pref":"徳島県","prefCode":"36","municipality":"徳島市","hazardTypes":["landslide","slope_failure"],"evidenceLevel":0,"status":"current","disputed":false,"precision":"koaza","areaKey":null,"elements":["ume"],"summary":"要素辞書に一致（ume）。出典による裏づけは未確認。","zones":[],"dataset":"candidates"}},{"type":"Feature","geometry":{"type":"Point","coordinates":[134.538253,34.030774]},"properties":{"id":"36-1928c1f8c3","name":"猿楽","reading":null,"pref":"徳島県","prefCode":"36","municipality":"徳島市","hazardTypes":["slope_failure"],"evidenceLevel":0,"status":"current","disputed":false,"precision":"koaza","areaKey":null,"elements":["saru"],"summary":"要素辞書に一致（saru）。出典による裏づけは未確認。","zones":[],"dataset":"candidates"}},{"type":"Feature","geometry":{"type":"Point","coordinates":[134.556617,34.025932]},"properties":{"id":"36-80890aaa99","name":"大久保","reading":null,"pref":"徳島県","prefCode":"36","municipality":"徳島市","hazardTypes":["slope_failure","inundation","landslide"],"evidenceLevel":0,"status":"current","disputed":false,"precision":"koaza","areaKey":null,"elements":["afu_oo","kubo"],"summary":"要素辞書に一致（afu_oo・kubo）。出典による裏づけは未確認。","zones":[],"dataset":"candidates"}},{"type":"Feature","geometry":{"type":"Point","coordinates":[134.528759,34.017545]},"properties":{"id":"36-9167c4c514","name":"馬場ノ上","reading":null,"pref":"徳島県","prefCode":"36","municipality":"徳島市","hazardTypes":["slope_failure"],"evidenceLevel":0,"status":"current","disputed":false,"precision":"koaza","areaKey":null,"elements":["baba"],"summary":"要素辞書に一致（baba）。出典による裏づけは未確認。","zones":[],"dataset":"candidates"}},{"type":"Feature","geometry":{"type":"Point","coordinates":[134.553417,34.020344]},"properties":{"id":"36-edb721bb90","name":"下河原","reading":null,"pref":"徳島県","prefCode":"36","municipality":"徳島市","hazardTypes":["flood"],"evidenceLevel":0,"status":"current","disputed":false,"precision":"koaza","areaKey":null,"elements":["kawara"],"summary":"要素辞書に一致（kawara）。出典による裏づけは未確認。","zones":[],"dataset":"candidates"}},{"type":"Feature","geometry":{"type":"Point","coordinates":[134.519947,34.077262]},"properties":{"id":"36-55d1835362","name":"蔵本町一丁目","reading":"クラモトチョウ 1","pref":"徳島県","prefCode":"36","municipality":"徳島市","hazardTypes":["slope_failure","rockfall"],"evidenceLevel":0,"status":"current","disputed":false,"precision":"oaza","areaKey":"36201119001","elements":["kura"],"summary":"要素辞書に一致（kura）。出典による裏づけは未確認。","zones":[],"dataset":"candidates"}},{"type":"Feature","geometry":{"type":"Point","coordinates":[134.519835,34.078747]},"properties":{"id":"36-67e7134cda","name":"蔵本元町一丁目","reading":"クラモトモトマチ 1","pref":"徳島県","prefCode":"36","municipality":"徳島市","hazardTypes":["slope_failure","rockfall"],"evidenceLevel":0,"status":"current","disputed":false,"precision":"oaza","areaKey":"36201120001","elements":["kura"],"summary":"要素辞書に一致（kura）。出典による裏づけは未確認。","zones":[],"dataset":"candidates"}},{"type":"Feature","geometry":{"type":"Point","coordinates":[134.472214,34.090992]},"properties":{"id":"36-6c717ad3cf","name":"国府町川原田","reading":"コクフチョウカワラダ","pref":"徳島県","prefCode":"36","municipality":"徳島市","hazardTypes":["flood"],"evidenceLevel":0,"status":"current","disputed":false,"precision":"oaza","areaKey":"362011670","elements":["kawara"],"summary":"要素辞書に一致（kawara）。出典による裏づけは未確認。","zones":[],"dataset":"candidates"}},{"type":"Feature","geometry":{"type":"Point","coordinates":[134.467156,34.0846]},"properties":{"id":"36-69bee6a38a","name":"家内田","reading":null,"pref":"徳島県","prefCode":"36","municipality":"徳島市","hazardTypes":["debris_flow","flood"],"evidenceLevel":0,"status":"current","disputed":false,"precision":"koaza","areaKey":"362011680","elements":["uchide"],"summary":"要素辞書に一致（uchide）。出典による裏づけは未確認。","zones":[],"dataset":"candidates"}},{"type":"Feature","geometry":{"type":"Point","coordinates":[134.475302,34.096932]},"properties":{"id":"36-6f0651c32a","name":"古川","reading":null,"pref":"徳島県","prefCode":"36","municipality":"徳島市","hazardTypes":["flood","inundation"],"evidenceLevel":0,"status":"current","disputed":false,"precision":"koaza","areaKey":null,"elements":["furukawa"],"summary":"要素辞書に一致（furukawa）。出典による裏づけは未確認。","zones":[],"dataset":"candidates"}},{"type":"Feature","geometry":{"type":"Point","coordinates":[134.477171,34.099124]},"properties":{"id":"36-5d0c15da66","name":"高岸","reading":null,"pref":"徳島県","prefCode":"36","municipality":"徳島市","hazardTypes":["slope_failure"],"evidenceLevel":0,"status":"current","disputed":false,"precision":"koaza","areaKey":null,"elements":["kake"],"summary":"要素辞書に一致（kake）。出典による裏づけは未確認。","zones":[],"dataset":"candidates"}},{"type":"Feature","geometry":{"type":"Point","coordinates":[134.55795,34.070208]},"properties":{"id":"36-71f0dd51f0","name":"新蔵町一丁目","reading":"シンクラチョウ 1","pref":"徳島県","prefCode":"36","municipality":"徳島市","hazardTypes":["slope_failure","rockfall"],"evidenceLevel":0,"status":"current","disputed":false,"precision":"oaza","areaKey":"36201005001","elements":["kura"],"summary":"要素辞書に一致（kura）。出典による裏づけは未確認。","zones":[],"dataset":"candidates"}},{"type":"Feature","geometry":{"type":"Point","coordinates":[134.551413,34.011227]},"properties":{"id":"36-69da0593e6","name":"柿町","reading":null,"pref":"徳島県","prefCode":"36","municipality":"徳島市","hazardTypes":["slope_failure"],"evidenceLevel":0,"status":"current","disputed":false,"precision":"koaza","areaKey":null,"elements":["kake"],"summary":"要素辞書に一致（kake）。出典による裏づけは未確認。","zones":[],"dataset":"candidates"}},{"type":"Feature","geometry":{"type":"Point","coordinates":[134.58684,34.046618]},"properties":{"id":"36-139e656e46","name":"津田海岸町","reading":"ツダカイガンチョウ","pref":"徳島県","prefCode":"36","municipality":"徳島市","hazardTypes":["slope_failure"],"evidenceLevel":0,"status":"current","disputed":false,"precision":"oaza","areaKey":"362011040","elements":["kake"],"summary":"要素辞書に一致（kake）。出典による裏づけは未確認。","zones":[],"dataset":"candidates"}},{"type":"Feature","geometry":{"type":"Point","coordinates":[134.489638,33.988542]},"properties":{"id":"36-a9760d3f70","name":"夏焼","reading":null,"pref":"徳島県","prefCode":"36","municipality":"徳島市","hazardTypes":["debris_flow","slope_failure"],"evidenceLevel":0,"status":"current","disputed":false,"precision":"koaza","areaKey":null,"elements":["nazu_natsu"],"summary":"要素辞書に一致（nazu_natsu）。出典による裏づけは未確認。","zones":[],"dataset":"candidates"}},{"type":"Feature","geometry":{"type":"Point","coordinates":[134.523788,33.993662]},"properties":{"id":"36-0b78183747","name":"小倉","reading":null,"pref":"徳島県","prefCode":"36","municipality":"徳島市","hazardTypes":["slope_failure","rockfall"],"evidenceLevel":0,"status":"current","disputed":false,"precision":"koaza","areaKey":null,"elements":["kura"],"summary":"要素辞書に一致（kura）。出典による裏づけは未確認。","zones":[],"dataset":"candidates"}},{"type":"Feature","geometry":{"type":"Point","coordinates":[134.519457,33.993579]},"properties":{"id":"36-2a976b08ff","name":"蔵ノ内","reading":null,"pref":"徳島県","prefCode":"36","municipality":"徳島市","hazardTypes":["slope_failure","rockfall"],"evidenceLevel":0,"status":"current","disputed":false,"precision":"koaza","areaKey":null,"elements":["kura"],"summary":"要素辞書に一致（kura）。出典による裏づけは未確認。","zones":[],"dataset":"candidates"}},{"type":"Feature","geometry":{"type":"Point","coordinates":[134.498867,33.974991]},"properties":{"id":"36-ab9ae08382","name":"鹿ノ首","reading":null,"pref":"徳島県","prefCode":"36","municipality":"徳島市","hazardTypes":["landslide","soft_ground"],"evidenceLevel":0,"status":"current","disputed":false,"precision":"koaza","areaKey":null,"elements":["shishi"],"summary":"要素辞書に一致（shishi）。出典による裏づけは未確認。","zones":[],"dataset":"candidates"}},{"type":"Feature","geometry":{"type":"Point","coordinates":[134.524466,34.051827]},"properties":{"id":"36-8e266edf18","name":"柿谷","reading":null,"pref":"徳島県","prefCode":"36","municipality":"徳島市","hazardTypes":["slope_failure"],"evidenceLevel":0,"status":"current","disputed":false,"precision":"koaza","areaKey":null,"elements":["kake"],"summary":"要素辞書に一致（kake）。出典による裏づけは未確認。","zones":[],"dataset":"candidates"}},{"type":"Feature","geometry":{"type":"Point","coordinates":[134.519591,34.046817]},"properties":{"id":"36-8c4709af54","name":"馬場山","reading":null,"pref":"徳島県","prefCode":"36","municipality":"徳島市","hazardTypes":["slope_failure"],"evidenceLevel":0,"status":"current","disputed":false,"precision":"koaza","areaKey":null,"elements":["baba"],"summary":"要素辞書に一致（baba）。出典による裏づけは未確認。","zones":[],"dataset":"candidates"}},{"type":"Feature","geometry":{"type":"Point","coordinates":[134.520378,34.074911]},"properties":{"id":"36-683b1e5b05","name":"南蔵本町一丁目","reading":"ミナミクラモトチョウ 1","pref":"徳島県","prefCode":"36","municipality":"徳島市","hazardTypes":["slope_failure","rockfall"],"evidenceLevel":0,"status":"current","disputed":false,"precision":"oaza","areaKey":"36201123001","elements":["kura"],"summary":"要素辞書に一致（kura）。出典による裏づけは未確認。","zones":[],"dataset":"candidates"}},{"type":"Feature","geometry":{"type":"Point","coordinates":[134.497876,34.148786]},"properties":{"id":"36-c4694233de","name":"川原バ","reading":null,"pref":"徳島県","prefCode":"36","municipality":"鳴門市","hazardTypes":["flood"],"evidenceLevel":0,"status":"current","disputed":false,"precision":"koaza","areaKey":"36202007021","elements":["kawara"],"summary":"要素辞書に一致（kawara）。出典による裏づけは未確認。","zones":[],"dataset":"candidates"}},{"type":"Feature","geometry":{"type":"Point","coordinates":[134.549836,34.195846]},"properties":{"id":"36-b1eec35389","name":"倉谷","reading":null,"pref":"徳島県","prefCode":"36","municipality":"鳴門市","hazardTypes":["slope_failure","rockfall"],"evidenceLevel":0,"status":"current","disputed":false,"precision":"koaza","areaKey":"36202007002","elements":["kura"],"summary":"要素辞書に一致（kura）。出典による裏づけは未確認。","zones":[],"dataset":"candidates"}},{"type":"Feature","geometry":{"type":"Point","coordinates":[134.539002,34.158027]},"properties":{"id":"36-56cb3a1794","name":"川原尻","reading":null,"pref":"徳島県","prefCode":"36","municipality":"鳴門市","hazardTypes":["flood"],"evidenceLevel":0,"status":"current","disputed":false,"precision":"koaza","areaKey":"36202007002","elements":["kawara"],"summary":"要素辞書に一致（kawara）。出典による裏づけは未確認。","zones":[],"dataset":"candidates"}},{"type":"Feature","geometry":{"type":"Point","coordinates":[134.543198,34.159066]},"properties":{"id":"36-627ed1bc03","name":"蔵の内","reading":null,"pref":"徳島県","prefCode":"36","municipality":"鳴門市","hazardTypes":["slope_failure","rockfall"],"evidenceLevel":0,"status":"current","disputed":false,"precision":"koaza","areaKey":"36202007002","elements":["kura"],"summary":"要素辞書に一致（kura）。出典による裏づけは未確認。","zones":[],"dataset":"candidates"}},{"type":"Feature","geometry":{"type":"Point","coordinates":[134.512647,34.153215]},"properties":{"id":"36-4a66277095","name":"川原ノ上","reading":null,"pref":"徳島県","prefCode":"36","municipality":"鳴門市","hazardTypes":["flood"],"evidenceLevel":0,"status":"current","disputed":false,"precision":"koaza","areaKey":"36202007023","elements":["kawara"],"summary":"要素辞書に一致（kawara）。出典による裏づけは未確認。","zones":[],"dataset":"candidates"}},{"type":"Feature","geometry":{"type":"Point","coordinates":[134.505282,34.154205]},"properties":{"id":"36-ec62166e2d","name":"宝蔵","reading":null,"pref":"徳島県","prefCode":"36","municipality":"鳴門市","hazardTypes":["slope_failure","rockfall"],"evidenceLevel":0,"status":"current","disputed":false,"precision":"koaza","areaKey":"36202007022","elements":["kura"],"summary":"要素辞書に一致（kura）。出典による裏づけは未確認。","zones":[],"dataset":"candidates"}},{"type":"Feature","geometry":{"type":"Point","coordinates":[134.548042,34.160661]},"properties":{"id":"36-530e355c42","name":"内田","reading":null,"pref":"徳島県","prefCode":"36","municipality":"鳴門市","hazardTypes":["debris_flow","flood"],"evidenceLevel":0,"status":"current","disputed":false,"precision":"koaza","areaKey":"36202007001","elements":["uchide"],"summary":"要素辞書に一致（uchide）。出典による裏づけは未確認。","zones":[],"dataset":"candidates"}},{"type":"Feature","geometry":{"type":"Point","coordinates":[134.587032,34.163617]},"properties":{"id":"36-5a50a486bc","name":"蒲の越","reading":null,"pref":"徳島県","prefCode":"36","municipality":"鳴門市","hazardTypes":["landslide","soft_ground"],"evidenceLevel":0,"status":"current","disputed":false,"precision":"koaza","areaKey":"36202005005","elements":["wetland_plants"],"summary":"要素辞書に一致（wetland_plants）。出典による裏づけは未確認。","zones":[],"dataset":"candidates"}},{"type":"Feature","geometry":{"type":"Point","coordinates":[134.56226,34.153293]},"properties":{"id":"36-be239dc764","name":"蒲ノ本","reading":null,"pref":"徳島県","prefCode":"36","municipality":"鳴門市","hazardTypes":["landslide","soft_ground"],"evidenceLevel":0,"status":"current","disputed":false,"precision":"koaza","areaKey":"36202005002","elements":["wetland_plants"],"summary":"要素辞書に一致（wetland_plants）。出典による裏づけは未確認。","zones":[],"dataset":"candidates"}},{"type":"Feature","geometry":{"type":"Point","coordinates":[134.605211,34.153639]},"properties":{"id":"36-7c80b67c04","name":"地蔵元","reading":null,"pref":"徳島県","prefCode":"36","municipality":"鳴門市","hazardTypes":["slope_failure","rockfall"],"evidenceLevel":0,"status":"current","disputed":false,"precision":"koaza","areaKey":"36202005009","elements":["kura"],"summary":"要素辞書に一致（kura）。出典による裏づけは未確認。","zones":[],"dataset":"candidates"}},{"type":"Feature","geometry":{"type":"Point","coordinates":[134.588831,34.152347]},"properties":{"id":"36-a30f8bbfac","name":"大津町矢倉","reading":"オオツチョウヤグラ","pref":"徳島県","prefCode":"36","municipality":"鳴門市","hazardTypes":["slope_failure","rockfall"],"evidenceLevel":0,"status":"current","disputed":false,"precision":"oaza","areaKey":"36202005007","elements":["kura"],"summary":"要素辞書に一致（kura）。出典による裏づけは未確認。","zones":[],"dataset":"candidates"}},{"type":"Feature","geometry":{"type":"Point","coordinates":[134.620661,34.160828]},"properties":{"id":"36-d58f962963","name":"大久保","reading":null,"pref":"徳島県","prefCode":"36","municipality":"鳴門市","hazardTypes":["slope_failure","inundation","landslide"],"evidenceLevel":0,"status":"current","disputed":false,"precision":"koaza","areaKey":"36202002001","elements":["afu_oo","kubo"],"summary":"要素辞書に一致（afu_oo・kubo）。出典による裏づけは未確認。","zones":[],"dataset":"candidates"}},{"type":"Feature","geometry":{"type":"Point","coordinates":[134.622387,34.159839]},"properties":{"id":"36-2b518d9ce4","name":"梅原","reading":null,"pref":"徳島県","prefCode":"36","municipality":"鳴門市","hazardTypes":["landslide","slope_failure"],"evidenceLevel":0,"status":"current","disputed":false,"precision":"koaza","areaKey":"36202002001","elements":["ume"],"summary":"要素辞書に一致（ume）。出典による裏づけは未確認。","zones":[],"dataset":"candidates"}},{"type":"Feature","geometry":{"type":"Point","coordinates":[134.574409,34.205038]},"properties":{"id":"36-4ec89782e1","name":"菅谷","reading":null,"pref":"徳島県","prefCode":"36","municipality":"鳴門市","hazardTypes":["landslide","soft_ground"],"evidenceLevel":0,"status":"current","disputed":false,"precision":"koaza","areaKey":"36202004004","elements":["wetland_plants"],"summary":"要素辞書に一致（wetland_plants）。出典による裏づけは未確認。","zones":[],"dataset":"candidates"}},{"type":"Feature","geometry":{"type":"Point","coordinates":[134.597754,34.241432]},"properties":{"id":"36-a946086bf8","name":"飛越","reading":null,"pref":"徳島県","prefCode":"36","municipality":"鳴門市","hazardTypes":["slope_failure","debris_flow"],"evidenceLevel":0,"status":"current","disputed":false,"precision":"koaza","areaKey":"36202004009","elements":["tobi"],"summary":"要素辞書に一致（tobi）。出典による裏づけは未確認。","zones":[],"dataset":"candidates"}},{"type":"Feature","geometry":{"type":"Point","coordinates":[134.594128,34.192593]},"properties":{"id":"36-72bc36b7bb","name":"磯崎","reading":null,"pref":"徳島県","prefCode":"36","municipality":"鳴門市","hazardTypes":["rockfall","debris_flow"],"evidenceLevel":0,"status":"current","disputed":false,"precision":"koaza","areaKey":"36202001004","elements":["iso_ishi"],"summary":"要素辞書に一致（iso_ishi）。出典による裏づけは未確認。","zones":[],"dataset":"candidates"}},{"type":"Feature","geometry":{"type":"Point","coordinates":[134.610531,33.982217]},"properties":{"id":"36-804425b6ff","name":"赤石町","reading":"アカイシチョウ","pref":"徳島県","prefCode":"36","municipality":"小松島市","hazardTypes":["landslide"],"evidenceLevel":0,"status":"current","disputed":false,"precision":"oaza","areaKey":"36203021000","elements":["geology_names"],"summary":"要素辞書に一致（geology_names）。出典による裏づけは未確認。","zones":[],"dataset":"candidates"}},{"type":"Feature","geometry":{"type":"Point","coordinates":[134.603127,33.991943]},"properties":{"id":"36-b62f1a1508","name":"金磯町","reading":"カナイソチョウ","pref":"徳島県","prefCode":"36","municipality":"小松島市","hazardTypes":["rockfall","debris_flow"],"evidenceLevel":0,"status":"current","disputed":false,"precision":"oaza","areaKey":"362030070","elements":["iso_ishi"],"summary":"要素辞書に一致（iso_ishi）。出典による裏づけは未確認。","zones":[],"dataset":"candidates"}},{"type":"Feature","geometry":{"type":"Point","coordinates":[134.573651,34.006004]},"properties":{"id":"36-2a91cdd4ec","name":"菖蒲田","reading":null,"pref":"徳島県","prefCode":"36","municipality":"小松島市","hazardTypes":["landslide","soft_ground"],"evidenceLevel":0,"status":"current","disputed":false,"precision":"koaza","areaKey":null,"elements":["wetland_plants"],"summary":"要素辞書に一致（wetland_plants）。出典による裏づけは未確認。","zones":[],"dataset":"candidates"}},{"type":"Feature","geometry":{"type":"Point","coordinates":[134.577606,34.012248]},"properties":{"id":"36-1423a6c02a","name":"馬場ノ本","reading":null,"pref":"徳島県","prefCode":"36","municipality":"小松島市","hazardTypes":["slope_failure"],"evidenceLevel":0,"status":"current","disputed":false,"precision":"koaza","areaKey":null,"elements":["baba"],"summary":"要素辞書に一致（baba）。出典による裏づけは未確認。","zones":[],"dataset":"candidates"}},{"type":"Feature","geometry":{"type":"Point","coordinates":[134.636083,33.985598]},"properties":{"id":"36-af0ce5af7a","name":"中岸","reading":null,"pref":"徳島県","prefCode":"36","municipality":"小松島市","hazardTypes":["slope_failure"],"evidenceLevel":0,"status":"current","disputed":false,"precision":"koaza","areaKey":null,"elements":["kake"],"summary":"要素辞書に一致（kake）。出典による裏づけは未確認。","zones":[],"dataset":"candidates"}},{"type":"Feature","geometry":{"type":"Point","coordinates":[134.632754,33.985664]},"properties":{"id":"36-89eacaa5fe","name":"北大久保","reading":null,"pref":"徳島県","prefCode":"36","municipality":"小松島市","hazardTypes":["slope_failure","inundation","landslide"],"evidenceLevel":0,"status":"current","disputed":false,"precision":"koaza","areaKey":null,"elements":["afu_oo","kubo"],"summary":"要素辞書に一致（afu_oo・kubo）。出典による裏づけは未確認。","zones":[],"dataset":"candidates"}},{"type":"Feature","geometry":{"type":"Point","coordinates":[134.633457,33.98433]},"properties":{"id":"36-8a821548d1","name":"南大久保","reading":null,"pref":"徳島県","prefCode":"36","municipality":"小松島市","hazardTypes":["slope_failure","inundation","landslide"],"evidenceLevel":0,"status":"current","disputed":false,"precision":"koaza","areaKey":null,"elements":["afu_oo","kubo"],"summary":"要素辞書に一致（afu_oo・kubo）。出典による裏づけは未確認。","zones":[],"dataset":"candidates"}},{"type":"Feature","geometry":{"type":"Point","coordinates":[134.636205,33.982885]},"properties":{"id":"36-4d65b223a4","name":"大久保","reading":null,"pref":"徳島県","prefCode":"36","municipality":"小松島市","hazardTypes":["slope_failure","inundation","landslide"],"evidenceLevel":0,"status":"current","disputed":false,"precision":"koaza","areaKey":null,"elements":["afu_oo","kubo"],"summary":"要素辞書に一致（afu_oo・kubo）。出典による裏づけは未確認。","zones":[],"dataset":"candidates"}},{"type":"Feature","geometry":{"type":"Point","coordinates":[134.588689,33.995859]},"properties":{"id":"36-6543cf26bc","name":"赤石","reading":null,"pref":"徳島県","prefCode":"36","municipality":"小松島市","hazardTypes":["landslide"],"evidenceLevel":0,"status":"current","disputed":false,"precision":"koaza","areaKey":null,"elements":["geology_names"],"summary":"要素辞書に一致（geology_names）。出典による裏づけは未確認。","zones":[],"dataset":"candidates"}},{"type":"Feature","geometry":{"type":"Point","coordinates":[134.606877,33.957974]},"properties":{"id":"36-6461cf6d4e","name":"青木","reading":null,"pref":"徳島県","prefCode":"36","municipality":"小松島市","hazardTypes":["slope_failure"],"evidenceLevel":0,"status":"current","disputed":false,"precision":"koaza","areaKey":null,"elements":["afu_oo"],"summary":"要素辞書に一致（afu_oo）。出典による裏づけは未確認。","zones":[],"dataset":"candidates"}},{"type":"Feature","geometry":{"type":"Point","coordinates":[134.58895,33.987517]},"properties":{"id":"36-b6c7b6113a","name":"赤石中","reading":null,"pref":"徳島県","prefCode":"36","municipality":"小松島市","hazardTypes":["landslide"],"evidenceLevel":0,"status":"current","disputed":false,"precision":"koaza","areaKey":null,"elements":["geology_names"],"summary":"要素辞書に一致（geology_names）。出典による裏づけは未確認。","zones":[],"dataset":"candidates"}},{"type":"Feature","geometry":{"type":"Point","coordinates":[134.59499,33.991848]},"properties":{"id":"36-fe074f6749","name":"赤石北","reading":null,"pref":"徳島県","prefCode":"36","municipality":"小松島市","hazardTypes":["landslide"],"evidenceLevel":0,"status":"current","disputed":false,"precision":"koaza","areaKey":null,"elements":["geology_names"],"summary":"要素辞書に一致（geology_names）。出典による裏づけは未確認。","zones":[],"dataset":"candidates"}},{"type":"Feature","geometry":{"type":"Point","coordinates":[134.594356,33.984879]},"properties":{"id":"36-74e1707987","name":"赤石南","reading":null,"pref":"徳島県","prefCode":"36","municipality":"小松島市","hazardTypes":["landslide"],"evidenceLevel":0,"status":"current","disputed":false,"precision":"koaza","areaKey":null,"elements":["geology_names"],"summary":"要素辞書に一致（geology_names）。出典による裏づけは未確認。","zones":[],"dataset":"candidates"}},{"type":"Feature","geometry":{"type":"Point","coordinates":[134.573852,34.013058]},"properties":{"id":"36-ef02c8967f","name":"桜馬場","reading":null,"pref":"徳島県","prefCode":"36","municipality":"小松島市","hazardTypes":["slope_failure"],"evidenceLevel":0,"status":"current","disputed":false,"precision":"koaza","areaKey":null,"elements":["baba"],"summary":"要素辞書に一致（baba）。出典による裏づけは未確認。","zones":[],"dataset":"candidates"}},{"type":"Feature","geometry":{"type":"Point","coordinates":[134.561122,34.011097]},"properties":{"id":"36-006f519724","name":"中川原","reading":null,"pref":"徳島県","prefCode":"36","municipality":"小松島市","hazardTypes":["flood"],"evidenceLevel":0,"status":"current","disputed":false,"precision":"koaza","areaKey":null,"elements":["kawara"],"summary":"要素辞書に一致（kawara）。出典による裏づけは未確認。","zones":[],"dataset":"candidates"}},{"type":"Feature","geometry":{"type":"Point","coordinates":[134.583822,33.936306]},"properties":{"id":"36-eb253804ac","name":"中川原","reading":null,"pref":"徳島県","prefCode":"36","municipality":"阿南市","hazardTypes":["flood"],"evidenceLevel":0,"status":"current","disputed":false,"precision":"koaza","areaKey":"362040060","elements":["kawara"],"summary":"要素辞書に一致（kawara）。出典による裏づけは未確認。","zones":[],"dataset":"candidates"}},{"type":"Feature","geometry":{"type":"Point","coordinates":[134.670962,33.910706]},"properties":{"id":"36-d616aa1f0f","name":"三度川原","reading":null,"pref":"徳島県","prefCode":"36","municipality":"阿南市","hazardTypes":["flood"],"evidenceLevel":0,"status":"current","disputed":false,"precision":"koaza","areaKey":null,"elements":["kawara"],"summary":"要素辞書に一致（kawara）。出典による裏づけは未確認。","zones":[],"dataset":"candidates"}},{"type":"Feature","geometry":{"type":"Point","coordinates":[134.666145,33.915098]},"properties":{"id":"36-0283d5bbb9","name":"大深田","reading":null,"pref":"徳島県","prefCode":"36","municipality":"阿南市","hazardTypes":["soft_ground","inundation"],"evidenceLevel":0,"status":"current","disputed":false,"precision":"koaza","areaKey":null,"elements":["fuke"],"summary":"要素辞書に一致（fuke）。出典による裏づけは未確認。","zones":[],"dataset":"candidates"}},{"type":"Feature","geometry":{"type":"Point","coordinates":[134.668737,33.910302]},"properties":{"id":"36-1b54dc5d6e","name":"深田","reading":null,"pref":"徳島県","prefCode":"36","municipality":"阿南市","hazardTypes":["soft_ground","inundation"],"evidenceLevel":0,"status":"current","disputed":false,"precision":"koaza","areaKey":null,"elements":["fuke"],"summary":"要素辞書に一致（fuke）。出典による裏づけは未確認。","zones":[],"dataset":"candidates"}},{"type":"Feature","geometry":{"type":"Point","coordinates":[134.635385,33.926578]},"properties":{"id":"36-a65d7a6aec","name":"大久保","reading":null,"pref":"徳島県","prefCode":"36","municipality":"阿南市","hazardTypes":["slope_failure","inundation","landslide"],"evidenceLevel":0,"status":"current","disputed":false,"precision":"koaza","areaKey":"362040080","elements":["afu_oo","kubo"],"summary":"要素辞書に一致（afu_oo・kubo）。出典による裏づけは未確認。","zones":[],"dataset":"candidates"}},{"type":"Feature","geometry":{"type":"Point","coordinates":[134.648664,33.923108]},"properties":{"id":"36-4e377a900b","name":"川原","reading":null,"pref":"徳島県","prefCode":"36","municipality":"阿南市","hazardTypes":["flood"],"evidenceLevel":0,"status":"current","disputed":false,"precision":"koaza","areaKey":"362040080","elements":["kawara"],"summary":"要素辞書に一致（kawara）。出典による裏づけは未確認。","zones":[],"dataset":"candidates"}},{"type":"Feature","geometry":{"type":"Point","coordinates":[134.633316,33.921854]},"properties":{"id":"36-207fb40547","name":"梅の本","reading":null,"pref":"徳島県","prefCode":"36","municipality":"阿南市","hazardTypes":["landslide","slope_failure"],"evidenceLevel":0,"status":"current","disputed":false,"precision":"koaza","areaKey":"362040080","elements":["ume"],"summary":"要素辞書に一致（ume）。出典による裏づけは未確認。","zones":[],"dataset":"candidates"}},{"type":"Feature","geometry":{"type":"Point","coordinates":[134.604922,33.916106]},"properties":{"id":"36-eab8b66878","name":"三倉中ノ谷","reading":null,"pref":"徳島県","prefCode":"36","municipality":"阿南市","hazardTypes":["slope_failure","rockfall"],"evidenceLevel":0,"status":"current","disputed":false,"precision":"koaza","areaKey":"362040030","elements":["kura"],"summary":"要素辞書に一致（kura）。出典による裏づけは未確認。","zones":[],"dataset":"candidates"}},{"type":"Feature","geometry":{"type":"Point","coordinates":[134.620507,33.913567]},"properties":{"id":"36-833b4e83fc","name":"北千足","reading":null,"pref":"徳島県","prefCode":"36","municipality":"阿南市","hazardTypes":["flood","inundation"],"evidenceLevel":0,"status":"current","disputed":false,"precision":"koaza","areaKey":"362040030","elements":["ashi"],"summary":"要素辞書に一致（ashi）。出典による裏づけは未確認。","zones":[],"dataset":"candidates"}},{"type":"Feature","geometry":{"type":"Point","coordinates":[134.623154,33.912414]},"properties":{"id":"36-ec59310403","name":"南千足","reading":null,"pref":"徳島県","prefCode":"36","municipality":"阿南市","hazardTypes":["flood","inundation"],"evidenceLevel":0,"status":"current","disputed":false,"precision":"koaza","areaKey":"362040030","elements":["ashi"],"summary":"要素辞書に一致（ashi）。出典による裏づけは未確認。","zones":[],"dataset":"candidates"}},{"type":"Feature","geometry":{"type":"Point","coordinates":[134.60807,33.945594]},"properties":{"id":"36-85fdd9bcad","name":"猪ノ谷","reading":null,"pref":"徳島県","prefCode":"36","municipality":"阿南市","hazardTypes":["landslide","soft_ground"],"evidenceLevel":0,"status":"current","disputed":false,"precision":"koaza","areaKey":null,"elements":["shishi"],"summary":"要素辞書に一致（shishi）。出典による裏づけは未確認。","zones":[],"dataset":"candidates"}},{"type":"Feature","geometry":{"type":"Point","coordinates":[134.625398,33.951221]},"properties":{"id":"36-979999e5c1","name":"川原畑","reading":null,"pref":"徳島県","prefCode":"36","municipality":"阿南市","hazardTypes":["flood"],"evidenceLevel":0,"status":"current","disputed":false,"precision":"koaza","areaKey":null,"elements":["kawara"],"summary":"要素辞書に一致（kawara）。出典による裏づけは未確認。","zones":[],"dataset":"candidates"}},{"type":"Feature","geometry":{"type":"Point","coordinates":[134.625297,33.953001]},"properties":{"id":"36-0025a8a741","name":"砂川原","reading":null,"pref":"徳島県","prefCode":"36","municipality":"阿南市","hazardTypes":["flood"],"evidenceLevel":0,"status":"current","disputed":false,"precision":"koaza","areaKey":null,"elements":["kawara"],"summary":"要素辞書に一致（kawara）。出典による裏づけは未確認。","zones":[],"dataset":"candidates"}},{"type":"Feature","geometry":{"type":"Point","coordinates":[134.625493,33.953814]},"properties":{"id":"36-6b55f5291d","name":"蔵ノホケ","reading":null,"pref":"徳島県","prefCode":"36","municipality":"阿南市","hazardTypes":["slope_failure","rockfall"],"evidenceLevel":0,"status":"current","disputed":false,"precision":"koaza","areaKey":null,"elements":["kura"],"summary":"要素辞書に一致（kura）。出典による裏づけは未確認。","zones":[],"dataset":"candidates"}},{"type":"Feature","geometry":{"type":"Point","coordinates":[134.629513,33.943246]},"properties":{"id":"36-7f825c250b","name":"葭ノ本","reading":null,"pref":"徳島県","prefCode":"36","municipality":"阿南市","hazardTypes":["landslide","soft_ground"],"evidenceLevel":0,"status":"current","disputed":false,"precision":"koaza","areaKey":null,"elements":["wetland_plants"],"summary":"要素辞書に一致（wetland_plants）。出典による裏づけは未確認。","zones":[],"dataset":"candidates"}},{"type":"Feature","geometry":{"type":"Point","coordinates":[134.632424,33.943844]},"properties":{"id":"36-e2820b33ba","name":"金住川原","reading":null,"pref":"徳島県","prefCode":"36","municipality":"阿南市","hazardTypes":["flood"],"evidenceLevel":0,"status":"current","disputed":false,"precision":"koaza","areaKey":null,"elements":["kawara"],"summary":"要素辞書に一致（kawara）。出典による裏づけは未確認。","zones":[],"dataset":"candidates"}},{"type":"Feature","geometry":{"type":"Point","coordinates":[134.623292,33.960641]},"properties":{"id":"36-1f5dab7067","name":"羽ノ浦町宮倉","reading":"ハノウラチョウミヤグラ","pref":"徳島県","prefCode":"36","municipality":"阿南市","hazardTypes":["slope_failure","rockfall"],"evidenceLevel":0,"status":"current","disputed":false,"precision":"oaza","areaKey":null,"elements":["kura"],"summary":"要素辞書に一致（kura）。出典による裏づけは未確認。","zones":[],"dataset":"candidates"}},{"type":"Feature","geometry":{"type":"Point","coordinates":[134.663776,33.895476]},"properties":{"id":"36-5402c65d69","name":"青木","reading":null,"pref":"徳島県","prefCode":"36","municipality":"阿南市","hazardTypes":["slope_failure"],"evidenceLevel":0,"status":"current","disputed":false,"precision":"koaza","areaKey":null,"elements":["afu_oo"],"summary":"要素辞書に一致（afu_oo）。出典による裏づけは未確認。","zones":[],"dataset":"candidates"}},{"type":"Feature","geometry":{"type":"Point","coordinates":[134.647938,33.928374]},"properties":{"id":"36-8ff0aa4645","name":"南高川原","reading":null,"pref":"徳島県","prefCode":"36","municipality":"阿南市","hazardTypes":["flood"],"evidenceLevel":0,"status":"current","disputed":false,"precision":"koaza","areaKey":null,"elements":["kawara"],"summary":"要素辞書に一致（kawara）。出典による裏づけは未確認。","zones":[],"dataset":"candidates"}},{"type":"Feature","geometry":{"type":"Point","coordinates":[134.649863,33.93071]},"properties":{"id":"36-4919aefce4","name":"高川原","reading":null,"pref":"徳島県","prefCode":"36","municipality":"阿南市","hazardTypes":["flood"],"evidenceLevel":0,"status":"current","disputed":false,"precision":"koaza","areaKey":null,"elements":["kawara"],"summary":"要素辞書に一致（kawara）。出典による裏づけは未確認。","zones":[],"dataset":"candidates"}},{"type":"Feature","geometry":{"type":"Point","coordinates":[134.668766,33.920911]},"properties":{"id":"36-c6c23e2ee0","name":"土倉","reading":null,"pref":"徳島県","prefCode":"36","municipality":"阿南市","hazardTypes":["slope_failure","rockfall"],"evidenceLevel":0,"status":"current","disputed":false,"precision":"koaza","areaKey":null,"elements":["kura"],"summary":"要素辞書に一致（kura）。出典による裏づけは未確認。","zones":[],"dataset":"candidates"}},{"type":"Feature","geometry":{"type":"Point","coordinates":[134.667964,33.925149]},"properties":{"id":"36-a658316aeb","name":"船倉","reading":null,"pref":"徳島県","prefCode":"36","municipality":"阿南市","hazardTypes":["slope_failure","rockfall"],"evidenceLevel":0,"status":"current","disputed":false,"precision":"koaza","areaKey":null,"elements":["kura"],"summary":"要素辞書に一致（kura）。出典による裏づけは未確認。","zones":[],"dataset":"candidates"}},{"type":"Feature","geometry":{"type":"Point","coordinates":[134.224951,34.047982]},"properties":{"id":"36-0d6833fdfa","name":"山川町馬場崎","reading":null,"pref":"徳島県","prefCode":"36","municipality":"吉野川市","hazardTypes":["slope_failure"],"evidenceLevel":0,"status":"current","disputed":false,"precision":"oaza","areaKey":null,"elements":["baba"],"summary":"要素辞書に一致（baba）。出典による裏づけは未確認。","zones":[],"dataset":"candidates"}},{"type":"Feature","geometry":{"type":"Point","coordinates":[134.242233,34.052944]},"properties":{"id":"36-95cc87b631","name":"山川町青木","reading":"ヤマカワチョウアオギ","pref":"徳島県","prefCode":"36","municipality":"吉野川市","hazardTypes":["slope_failure"],"evidenceLevel":0,"status":"current","disputed":false,"precision":"oaza","areaKey":null,"elements":["afu_oo"],"summary":"要素辞書に一致（afu_oo）。出典による裏づけは未確認。","zones":[],"dataset":"candidates"}},{"type":"Feature","geometry":{"type":"Point","coordinates":[134.207219,34.050083]},"properties":{"id":"36-238e843980","name":"山川町柿木谷","reading":"ヤマカワチョウカキノキダニ","pref":"徳島県","prefCode":"36","municipality":"吉野川市","hazardTypes":["slope_failure"],"evidenceLevel":0,"status":"current","disputed":false,"precision":"oaza","areaKey":null,"elements":["kake"],"summary":"要素辞書に一致（kake）。出典による裏づけは未確認。","zones":[],"dataset":"candidates"}},{"type":"Feature","geometry":{"type":"Point","coordinates":[134.220878,34.053494]},"properties":{"id":"36-c13c3f904f","name":"山川町片岸","reading":"ヤマカワチョウカタギシ","pref":"徳島県","prefCode":"36","municipality":"吉野川市","hazardTypes":["slope_failure"],"evidenceLevel":0,"status":"current","disputed":false,"precision":"oaza","areaKey":null,"elements":["kake"],"summary":"要素辞書に一致（kake）。出典による裏づけは未確認。","zones":[],"dataset":"candidates"}},{"type":"Feature","geometry":{"type":"Point","coordinates":[134.201713,34.036807]},"properties":{"id":"36-fa3142c727","name":"山川町鍋倉","reading":"ヤマカワチョウナベクラ","pref":"徳島県","prefCode":"36","municipality":"吉野川市","hazardTypes":["slope_failure","rockfall"],"evidenceLevel":0,"status":"current","disputed":false,"precision":"oaza","areaKey":null,"elements":["kura"],"summary":"要素辞書に一致（kura）。出典による裏づけは未確認。","zones":[],"dataset":"candidates"}},{"type":"Feature","geometry":{"type":"Point","coordinates":[134.200942,34.079138]},"properties":{"id":"36-9c55c8300a","name":"阿波町梅川内","reading":"アワチョウウメカワウチ","pref":"徳島県","prefCode":"36","municipality":"阿波市","hazardTypes":["landslide","slope_failure"],"evidenceLevel":0,"status":"current","disputed":false,"precision":"oaza","areaKey":"36206002017","elements":["ume"],"summary":"要素辞書に一致（ume）。出典による裏づけは未確認。","zones":[],"dataset":"candidates"}},{"type":"Feature","geometry":{"type":"Point","coordinates":[134.223913,34.103709]},"properties":{"id":"36-07e448a303","name":"阿波町梅ノ木原","reading":"アワチョウウメノキバラ","pref":"徳島県","prefCode":"36","municipality":"阿波市","hazardTypes":["landslide","slope_failure"],"evidenceLevel":0,"status":"current","disputed":false,"precision":"oaza","areaKey":"36206003006","elements":["ume"],"summary":"要素辞書に一致（ume）。出典による裏づけは未確認。","zones":[],"dataset":"candidates"}},{"type":"Feature","geometry":{"type":"Point","coordinates":[134.226739,34.106256]},"properties":{"id":"36-d18aeb18df","name":"阿波町梅ノ東","reading":"アワチョウウメノヒガシ","pref":"徳島県","prefCode":"36","municipality":"阿波市","hazardTypes":["landslide","slope_failure"],"evidenceLevel":0,"status":"current","disputed":false,"precision":"oaza","areaKey":null,"elements":["ume"],"summary":"要素辞書に一致（ume）。出典による裏づけは未確認。","zones":[],"dataset":"candidates"}},{"type":"Feature","geometry":{"type":"Point","coordinates":[134.236896,34.131251]},"properties":{"id":"36-985f534b0b","name":"阿波町大久保","reading":"アワチョウオオクボ","pref":"徳島県","prefCode":"36","municipality":"阿波市","hazardTypes":["slope_failure","inundation","landslide"],"evidenceLevel":0,"status":"current","disputed":false,"precision":"oaza","areaKey":"36206003003","elements":["afu_oo","kubo"],"summary":"要素辞書に一致（afu_oo・kubo）。出典による裏づけは未確認。","zones":[],"dataset":"candidates"}},{"type":"Feature","geometry":{"type":"Point","coordinates":[134.217163,34.092972]},"properties":{"id":"36-507100d3bc","name":"阿波町小倉","reading":"アワチョウオグラ","pref":"徳島県","prefCode":"36","municipality":"阿波市","hazardTypes":["slope_failure","rockfall"],"evidenceLevel":0,"status":"current","disputed":false,"precision":"oaza","areaKey":"36206001002","elements":["kura"],"summary":"要素辞書に一致（kura）。出典による裏づけは未確認。","zones":[],"dataset":"candidates"}},{"type":"Feature","geometry":{"type":"Point","coordinates":[134.249379,34.081137]},"properties":{"id":"36-a5a27a4d9b","name":"阿波町庚申原","reading":"アワチョウコウシンバラ","pref":"徳島県","prefCode":"36","municipality":"阿波市","hazardTypes":["slope_failure"],"evidenceLevel":0,"status":"current","disputed":false,"precision":"oaza","areaKey":"36206004021","elements":["saru"],"summary":"要素辞書に一致（saru）。出典による裏づけは未確認。","zones":[],"dataset":"candidates"}},{"type":"Feature","geometry":{"type":"Point","coordinates":[134.202347,34.071196]},"properties":{"id":"36-0fb9229117","name":"阿波町中川原","reading":"アワチョウナカガワハラ","pref":"徳島県","prefCode":"36","municipality":"阿波市","hazardTypes":["flood"],"evidenceLevel":0,"status":"current","disputed":false,"precision":"oaza","areaKey":"36206002024","elements":["kawara"],"summary":"要素辞書に一致（kawara）。出典による裏づけは未確認。","zones":[],"dataset":"candidates"}},{"type":"Feature","geometry":{"type":"Point","coordinates":[134.195743,34.078347]},"properties":{"id":"36-9c03a9489f","name":"阿波町馬場","reading":"アワチョウババ","pref":"徳島県","prefCode":"36","municipality":"阿波市","hazardTypes":["slope_failure"],"evidenceLevel":0,"status":"current","disputed":false,"precision":"oaza","areaKey":"36206002010","elements":["baba"],"summary":"要素辞書に一致（baba）。出典による裏づけは未確認。","zones":[],"dataset":"candidates"}},{"type":"Feature","geometry":{"type":"Point","coordinates":[134.206144,34.071544]},"properties":{"id":"36-d2e886fecb","name":"阿波町東川原","reading":"アワチョウヒガシカワハラ","pref":"徳島県","prefCode":"36","municipality":"阿波市","hazardTypes":["flood"],"evidenceLevel":0,"status":"current","disputed":false,"precision":"oaza","areaKey":"36206002022","elements":["kawara"],"summary":"要素辞書に一致（kawara）。出典による裏づけは未確認。","zones":[],"dataset":"candidates"}},{"type":"Feature","geometry":{"type":"Point","coordinates":[134.274003,34.09034]},"properties":{"id":"36-37330c64ad","name":"阿波町平川原北","reading":"アワチョウヘイガワラキタ","pref":"徳島県","prefCode":"36","municipality":"阿波市","hazardTypes":["flood"],"evidenceLevel":0,"status":"current","disputed":false,"precision":"oaza","areaKey":null,"elements":["kawara"],"summary":"要素辞書に一致（kawara）。出典による裏づけは未確認。","zones":[],"dataset":"candidates"}},{"type":"Feature","geometry":{"type":"Point","coordinates":[134.274041,34.076496]},"properties":{"id":"36-f41fa2f242","name":"阿波町平川原南","reading":"アワチョウヘイガワラミナミ","pref":"徳島県","prefCode":"36","municipality":"阿波市","hazardTypes":["flood"],"evidenceLevel":0,"status":"current","disputed":false,"precision":"oaza","areaKey":null,"elements":["kawara"],"summary":"要素辞書に一致（kawara）。出典による裏づけは未確認。","zones":[],"dataset":"candidates"}},{"type":"Feature","geometry":{"type":"Point","coordinates":[134.204383,34.067916]},"properties":{"id":"36-baeb8e0587","name":"阿波町南川原","reading":"アワチョウミナミカワハラ","pref":"徳島県","prefCode":"36","municipality":"阿波市","hazardTypes":["flood"],"evidenceLevel":0,"status":"current","disputed":false,"precision":"oaza","areaKey":"36206002023","elements":["kawara"],"summary":"要素辞書に一致（kawara）。出典による裏づけは未確認。","zones":[],"dataset":"candidates"}},{"type":"Feature","geometry":{"type":"Point","coordinates":[134.352975,34.095321]},"properties":{"id":"36-2e693e90e3","name":"吉野町柿原","reading":"ヨシノチョウカキハラ","pref":"徳島県","prefCode":"36","municipality":"阿波市","hazardTypes":["slope_failure"],"evidenceLevel":0,"status":"current","disputed":false,"precision":"oaza","areaKey":"362060320","elements":["kake"],"summary":"要素辞書に一致（kake）。出典による裏づけは未確認。","zones":[],"dataset":"candidates"}},{"type":"Feature","geometry":{"type":"Point","coordinates":[134.156112,34.06574]},"properties":{"id":"36-7cc243288d","name":"脇町大字猪尻","reading":null,"pref":"徳島県","prefCode":"36","municipality":"美馬市","hazardTypes":["landslide","soft_ground"],"evidenceLevel":0,"status":"current","disputed":false,"precision":"oaza","areaKey":"362070100","elements":["shishi"],"summary":"要素辞書に一致（shishi）。出典による裏づけは未確認。","zones":[],"dataset":"candidates"}},{"type":"Feature","geometry":{"type":"Point","coordinates":[134.113349,34.065415]},"properties":{"id":"36-9ae23ca411","name":"脇町岩倉","reading":"ワキマチイワクラ","pref":"徳島県","prefCode":"36","municipality":"美馬市","hazardTypes":["slope_failure","rockfall"],"evidenceLevel":0,"status":"current","disputed":false,"precision":"oaza","areaKey":null,"elements":["kura"],"summary":"要素辞書に一致（kura）。出典による裏づけは未確認。","zones":[],"dataset":"candidates"}},{"type":"Feature","geometry":{"type":"Point","coordinates":[134.089539,34.05756]},"properties":{"id":"36-122294a1e3","name":"脇町川原町","reading":"ワキマチカワラマチ","pref":"徳島県","prefCode":"36","municipality":"美馬市","hazardTypes":["flood"],"evidenceLevel":0,"status":"current","disputed":false,"precision":"oaza","areaKey":null,"elements":["kawara"],"summary":"要素辞書に一致（kawara）。出典による裏づけは未確認。","zones":[],"dataset":"candidates"}},{"type":"Feature","geometry":{"type":"Point","coordinates":[133.846647,34.038707]},"properties":{"id":"36-b6eaa6e79b","name":"大深田","reading":null,"pref":"徳島県","prefCode":"36","municipality":"三好市","hazardTypes":["soft_ground","inundation"],"evidenceLevel":0,"status":"current","disputed":false,"precision":"koaza","areaKey":null,"elements":["fuke"],"summary":"要素辞書に一致（fuke）。出典による裏づけは未確認。","zones":[],"dataset":"candidates"}},{"type":"Feature","geometry":{"type":"Point","coordinates":[133.841228,34.044414]},"properties":{"id":"36-2c0d613d91","name":"蔵谷","reading":null,"pref":"徳島県","prefCode":"36","municipality":"三好市","hazardTypes":["slope_failure","rockfall"],"evidenceLevel":0,"status":"current","disputed":false,"precision":"koaza","areaKey":null,"elements":["kura"],"summary":"要素辞書に一致（kura）。出典による裏づけは未確認。","zones":[],"dataset":"candidates"}},{"type":"Feature","geometry":{"type":"Point","coordinates":[134.005909,33.87218]},"properties":{"id":"36-58e7d0590d","name":"東祖谷菅生","reading":"ヒガシイヤスゲオイ","pref":"徳島県","prefCode":"36","municipality":"三好市","hazardTypes":["landslide","soft_ground"],"evidenceLevel":0,"status":"current","disputed":false,"precision":"oaza","areaKey":null,"elements":["wetland_plants"],"summary":"要素辞書に一致（wetland_plants）。出典による裏づけは未確認。","zones":[],"dataset":"candidates"}},{"type":"Feature","geometry":{"type":"Point","coordinates":[133.902433,33.855966]},"properties":{"id":"36-755d6e97aa","name":"東祖谷麦生土","reading":"ヒガシイヤムジュウト","pref":"徳島県","prefCode":"36","municipality":"三好市","hazardTypes":["slope_failure"],"evidenceLevel":0,"status":"current","disputed":false,"precision":"oaza","areaKey":null,"elements":["suki_hagu"],"summary":"要素辞書に一致（suki_hagu）。出典による裏づけは未確認。","zones":[],"dataset":"candidates"}},{"type":"Feature","geometry":{"type":"Point","coordinates":[134.445787,34.080584]},"properties":{"id":"36-f06f9dbee9","name":"高川原","reading":"タカガワラ","pref":"徳島県","prefCode":"36","municipality":"名西郡石井町","hazardTypes":["flood"],"evidenceLevel":0,"status":"current","disputed":false,"precision":"oaza","areaKey":null,"elements":["kawara"],"summary":"要素辞書に一致（kawara）。出典による裏づけは未確認。","zones":[],"dataset":"candidates"}},{"type":"Feature","geometry":{"type":"Point","coordinates":[134.138317,33.843082]},"properties":{"id":"36-d0f8f5368e","name":"岩倉","reading":"イワクラ","pref":"徳島県","prefCode":"36","municipality":"那賀郡那賀町","hazardTypes":["slope_failure","rockfall"],"evidenceLevel":0,"status":"current","disputed":false,"precision":"oaza","areaKey":null,"elements":["kura"],"summary":"要素辞書に一致（kura）。出典による裏づけは未確認。","zones":[],"dataset":"candidates"}},{"type":"Feature","geometry":{"type":"Point","coordinates":[134.45029,33.802194]},"properties":{"id":"36-1a9f98fe71","name":"大久保","reading":"オオクボ","pref":"徳島県","prefCode":"36","municipality":"那賀郡那賀町","hazardTypes":["slope_failure","inundation","landslide"],"evidenceLevel":0,"status":"current","disputed":false,"precision":"oaza","areaKey":null,"elements":["afu_oo","kubo"],"summary":"要素辞書に一致（afu_oo・kubo）。出典による裏づけは未確認。","zones":[],"dataset":"candidates"}},{"type":"Feature","geometry":{"type":"Point","coordinates":[134.360332,33.83692]},"properties":{"id":"36-054db30886","name":"菖蒲","reading":"ショウブ","pref":"徳島県","prefCode":"36","municipality":"那賀郡那賀町","hazardTypes":["landslide","soft_ground"],"evidenceLevel":0,"status":"current","disputed":false,"precision":"oaza","areaKey":null,"elements":["wetland_plants"],"summary":"要素辞書に一致（wetland_plants）。出典による裏づけは未確認。","zones":[],"dataset":"candidates"}},{"type":"Feature","geometry":{"type":"Point","coordinates":[134.52983,33.739554]},"properties":{"id":"36-65f01cf6c0","name":"大久保","reading":null,"pref":"徳島県","prefCode":"36","municipality":"海部郡美波町","hazardTypes":["slope_failure","inundation","landslide"],"evidenceLevel":0,"status":"current","disputed":false,"precision":"koaza","areaKey":null,"elements":["afu_oo","kubo"],"summary":"要素辞書に一致（afu_oo・kubo）。出典による裏づけは未確認。","zones":[],"dataset":"candidates"}},{"type":"Feature","geometry":{"type":"Point","coordinates":[134.305973,33.566511]},"properties":{"id":"36-99e15180c4","name":"宍喰浦","reading":"シシクイウラ","pref":"徳島県","prefCode":"36","municipality":"海部郡海陽町","hazardTypes":["landslide","soft_ground"],"evidenceLevel":0,"status":"current","disputed":false,"precision":"oaza","areaKey":null,"elements":["shishi"],"summary":"要素辞書に一致（shishi）。出典による裏づけは未確認。","zones":[],"dataset":"candidates"}},{"type":"Feature","geometry":{"type":"Point","coordinates":[134.603444,34.123785]},"properties":{"id":"36-61fddcd716","name":"芦田鶴","reading":null,"pref":"徳島県","prefCode":"36","municipality":"板野郡松茂町","hazardTypes":["flood","inundation"],"evidenceLevel":0,"status":"current","disputed":false,"precision":"koaza","areaKey":null,"elements":["ashi"],"summary":"要素辞書に一致（ashi）。出典による裏づけは未確認。","zones":[],"dataset":"candidates"}},{"type":"Feature","geometry":{"type":"Point","coordinates":[134.58202,34.146495]},"properties":{"id":"36-2e934f48e8","name":"蔵野","reading":null,"pref":"徳島県","prefCode":"36","municipality":"板野郡松茂町","hazardTypes":["slope_failure","rockfall"],"evidenceLevel":0,"status":"current","disputed":false,"precision":"koaza","areaKey":null,"elements":["kura"],"summary":"要素辞書に一致（kura）。出典による裏づけは未確認。","zones":[],"dataset":"candidates"}},{"type":"Feature","geometry":{"type":"Point","coordinates":[134.564991,34.145453]},"properties":{"id":"36-2a5006bb24","name":"長岸","reading":"ナガギシ","pref":"徳島県","prefCode":"36","municipality":"板野郡松茂町","hazardTypes":["slope_failure"],"evidenceLevel":0,"status":"current","disputed":false,"precision":"oaza","areaKey":null,"elements":["kake"],"summary":"要素辞書に一致（kake）。出典による裏づけは未確認。","zones":[],"dataset":"candidates"}},{"type":"Feature","geometry":{"type":"Point","coordinates":[134.546777,34.119702]},"properties":{"id":"36-da450aa08d","name":"妙蛇池","reading":null,"pref":"徳島県","prefCode":"36","municipality":"板野郡北島町","hazardTypes":["slope_failure","debris_flow"],"evidenceLevel":0,"status":"current","disputed":false,"precision":"koaza","areaKey":null,"elements":["ja"],"summary":"要素辞書に一致（ja）。出典による裏づけは未確認。","zones":[],"dataset":"candidates"}},{"type":"Feature","geometry":{"type":"Point","coordinates":[134.541957,34.134424]},"properties":{"id":"36-928909de5f","name":"江古川","reading":null,"pref":"徳島県","prefCode":"36","municipality":"板野郡北島町","hazardTypes":["flood","inundation"],"evidenceLevel":0,"status":"current","disputed":false,"precision":"koaza","areaKey":null,"elements":["furukawa"],"summary":"要素辞書に一致（furukawa）。出典による裏づけは未確認。","zones":[],"dataset":"candidates"}},{"type":"Feature","geometry":{"type":"Point","coordinates":[134.559144,34.13764]},"properties":{"id":"36-c0a2500dc4","name":"長岸開","reading":null,"pref":"徳島県","prefCode":"36","municipality":"板野郡北島町","hazardTypes":["slope_failure"],"evidenceLevel":0,"status":"current","disputed":false,"precision":"koaza","areaKey":null,"elements":["kake"],"summary":"要素辞書に一致（kake）。出典による裏づけは未確認。","zones":[],"dataset":"candidates"}},{"type":"Feature","geometry":{"type":"Point","coordinates":[134.568399,34.128965]},"properties":{"id":"36-c9c1882dab","name":"岸ノ上","reading":null,"pref":"徳島県","prefCode":"36","municipality":"板野郡北島町","hazardTypes":["slope_failure"],"evidenceLevel":0,"status":"current","disputed":false,"precision":"koaza","areaKey":null,"elements":["kake"],"summary":"要素辞書に一致（kake）。出典による裏づけは未確認。","zones":[],"dataset":"candidates"}},{"type":"Feature","geometry":{"type":"Point","coordinates":[134.570253,34.130826]},"properties":{"id":"36-12d4efde6d","name":"河原","reading":null,"pref":"徳島県","prefCode":"36","municipality":"板野郡北島町","hazardTypes":["flood"],"evidenceLevel":0,"status":"current","disputed":false,"precision":"koaza","areaKey":null,"elements":["kawara"],"summary":"要素辞書に一致（kawara）。出典による裏づけは未確認。","zones":[],"dataset":"candidates"}},{"type":"Feature","geometry":{"type":"Point","coordinates":[134.553384,34.125356]},"properties":{"id":"36-bb736d3ca3","name":"蛇池","reading":null,"pref":"徳島県","prefCode":"36","municipality":"板野郡北島町","hazardTypes":["slope_failure","debris_flow"],"evidenceLevel":0,"status":"current","disputed":false,"precision":"koaza","areaKey":null,"elements":["ja"],"summary":"要素辞書に一致（ja）。出典による裏づけは未確認。","zones":[],"dataset":"candidates"}},{"type":"Feature","geometry":{"type":"Point","coordinates":[134.491964,34.124272]},"properties":{"id":"36-22bbca1f25","name":"猪熊","reading":null,"pref":"徳島県","prefCode":"36","municipality":"板野郡藍住町","hazardTypes":["landslide","soft_ground"],"evidenceLevel":0,"status":"current","disputed":false,"precision":"koaza","areaKey":null,"elements":["shishi"],"summary":"要素辞書に一致（shishi）。出典による裏づけは未確認。","zones":[],"dataset":"candidates"}},{"type":"Feature","geometry":{"type":"Point","coordinates":[134.491268,34.141687]},"properties":{"id":"36-db31d45875","name":"青木","reading":null,"pref":"徳島県","prefCode":"36","municipality":"板野郡藍住町","hazardTypes":["slope_failure"],"evidenceLevel":0,"status":"current","disputed":false,"precision":"koaza","areaKey":null,"elements":["afu_oo"],"summary":"要素辞書に一致（afu_oo）。出典による裏づけは未確認。","zones":[],"dataset":"candidates"}},{"type":"Feature","geometry":{"type":"Point","coordinates":[134.505221,34.123768]},"properties":{"id":"36-5fffe3340d","name":"神蔵","reading":null,"pref":"徳島県","prefCode":"36","municipality":"板野郡藍住町","hazardTypes":["slope_failure","rockfall"],"evidenceLevel":0,"status":"current","disputed":false,"precision":"koaza","areaKey":null,"elements":["kura"],"summary":"要素辞書に一致（kura）。出典による裏づけは未確認。","zones":[],"dataset":"candidates"}},{"type":"Feature","geometry":{"type":"Point","coordinates":[134.479897,34.14096]},"properties":{"id":"36-1b62af346b","name":"岸ノ下","reading":null,"pref":"徳島県","prefCode":"36","municipality":"板野郡藍住町","hazardTypes":["slope_failure"],"evidenceLevel":0,"status":"current","disputed":false,"precision":"koaza","areaKey":null,"elements":["kake"],"summary":"要素辞書に一致（kake）。出典による裏づけは未確認。","zones":[],"dataset":"candidates"}},{"type":"Feature","geometry":{"type":"Point","coordinates":[134.397489,34.119296]},"properties":{"id":"36-913e8e8c91","name":"鍛冶屋原","reading":"カジヤバラ","pref":"徳島県","prefCode":"36","municipality":"板野郡上板町","hazardTypes":["slope_failure"],"evidenceLevel":0,"status":"current","disputed":false,"precision":"oaza","areaKey":null,"elements":["kaji_kamu"],"summary":"要素辞書に一致（kaji_kamu）。出典による裏づけは未確認。","zones":[],"dataset":"candidates"}},{"type":"Feature","geometry":{"type":"Point","coordinates":[134.425623,34.107107]},"properties":{"id":"36-99c1d52413","name":"高磯","reading":"タカイソ","pref":"徳島県","prefCode":"36","municipality":"板野郡上板町","hazardTypes":["rockfall","debris_flow"],"evidenceLevel":0,"status":"current","disputed":false,"precision":"oaza","areaKey":null,"elements":["iso_ishi"],"summary":"要素辞書に一致（iso_ishi）。出典による裏づけは未確認。","zones":[],"dataset":"candidates"}},{"type":"Feature","geometry":{"type":"Point","coordinates":[133.909257,34.060503]},"properties":{"id":"36-0f9cd34765","name":"足代","reading":"アシロ","pref":"徳島県","prefCode":"36","municipality":"三好郡東みよし町","hazardTypes":["flood","inundation"],"evidenceLevel":0,"status":"current","disputed":false,"precision":"oaza","areaKey":null,"elements":["ashi"],"summary":"要素辞書に一致（ashi）。出典による裏づけは未確認。","zones":[],"dataset":"candidates"}}]}
