{"type":"FeatureCollection","features":[{"type":"Feature","geometry":{"type":"Point","coordinates":[134.05588,34.177491]},"properties":{"id":"37-6c0c4de44f","name":"塩江町安原下第一号","reading":null,"pref":"香川県","prefCode":"37","municipality":"高松市","hazardTypes":["inundation","flood"],"evidenceLevel":0,"status":"current","disputed":false,"precision":"oaza","areaKey":null,"elements":["awara"],"summary":"要素辞書に一致（awara）。出典による裏づけは未確認。","zones":[],"dataset":"candidates"}},{"type":"Feature","geometry":{"type":"Point","coordinates":[134.031132,34.192666]},"properties":{"id":"37-6241fbff6b","name":"塩江町安原下第三号","reading":null,"pref":"香川県","prefCode":"37","municipality":"高松市","hazardTypes":["inundation","flood"],"evidenceLevel":0,"status":"current","disputed":false,"precision":"oaza","areaKey":null,"elements":["awara"],"summary":"要素辞書に一致（awara）。出典による裏づけは未確認。","zones":[],"dataset":"candidates"}},{"type":"Feature","geometry":{"type":"Point","coordinates":[134.0381,34.1722]},"properties":{"id":"37-c37e0d529f","name":"塩江町安原下第二号","reading":null,"pref":"香川県","prefCode":"37","municipality":"高松市","hazardTypes":["inundation","flood"],"evidenceLevel":0,"status":"current","disputed":false,"precision":"oaza","areaKey":null,"elements":["awara"],"summary":"要素辞書に一致（awara）。出典による裏づけは未確認。","zones":[],"dataset":"candidates"}},{"type":"Feature","geometry":{"type":"Point","coordinates":[134.045206,34.207418]},"properties":{"id":"37-d4d227af98","name":"香川町安原下第一号","reading":null,"pref":"香川県","prefCode":"37","municipality":"高松市","hazardTypes":["inundation","flood"],"evidenceLevel":0,"status":"current","disputed":false,"precision":"oaza","areaKey":null,"elements":["awara"],"summary":"要素辞書に一致（awara）。出典による裏づけは未確認。","zones":[],"dataset":"candidates"}},{"type":"Feature","geometry":{"type":"Point","coordinates":[134.022993,34.205019]},"properties":{"id":"37-f4e8dd34fa","name":"香川町安原下第三号","reading":null,"pref":"香川県","prefCode":"37","municipality":"高松市","hazardTypes":["inundation","flood"],"evidenceLevel":0,"status":"current","disputed":false,"precision":"oaza","areaKey":null,"elements":["awara"],"summary":"要素辞書に一致（awara）。出典による裏づけは未確認。","zones":[],"dataset":"candidates"}},{"type":"Feature","geometry":{"type":"Point","coordinates":[134.048731,34.342877]},"properties":{"id":"37-8e3a09627f","name":"鍛冶屋町","reading":"カジヤマチ","pref":"香川県","prefCode":"37","municipality":"高松市","hazardTypes":["slope_failure"],"evidenceLevel":0,"status":"current","disputed":false,"precision":"oaza","areaKey":"372010670","elements":["kaji_kamu"],"summary":"要素辞書に一致（kaji_kamu）。出典による裏づけは未確認。","zones":[],"dataset":"candidates"}},{"type":"Feature","geometry":{"type":"Point","coordinates":[134.032095,34.300147]},"properties":{"id":"37-50c160a9ad","name":"鹿角町","reading":"カノツノチョウ","pref":"香川県","prefCode":"37","municipality":"高松市","hazardTypes":["landslide","soft_ground"],"evidenceLevel":0,"status":"current","disputed":false,"precision":"oaza","areaKey":"372011120","elements":["shishi"],"summary":"要素辞書に一致（shishi）。出典による裏づけは未確認。","zones":[],"dataset":"candidates"}},{"type":"Feature","geometry":{"type":"Point","coordinates":[134.064372,34.329537]},"properties":{"id":"37-41c5ec41d2","name":"深田","reading":null,"pref":"香川県","prefCode":"37","municipality":"高松市","hazardTypes":["soft_ground","inundation"],"evidenceLevel":0,"status":"current","disputed":false,"precision":"koaza","areaKey":"37201072100","elements":["fuke"],"summary":"要素辞書に一致（fuke）。出典による裏づけは未確認。","zones":[],"dataset":"candidates"}},{"type":"Feature","geometry":{"type":"Point","coordinates":[134.075681,34.178089]},"properties":{"id":"37-7df77f9904","name":"塩江町安原上","reading":"シオノエチョウヤスハラカミ","pref":"香川県","prefCode":"37","municipality":"高松市","hazardTypes":["inundation","flood"],"evidenceLevel":0,"status":"current","disputed":false,"precision":"oaza","areaKey":"372011570","elements":["awara"],"summary":"要素辞書に一致（awara）。出典による裏づけは未確認。","zones":[],"dataset":"candidates"}},{"type":"Feature","geometry":{"type":"Point","coordinates":[134.107728,34.155301]},"properties":{"id":"37-e8e096972a","name":"塩江町安原上東","reading":"シオノエチョウヤスハラカミヒガシ","pref":"香川県","prefCode":"37","municipality":"高松市","hazardTypes":["inundation","flood"],"evidenceLevel":0,"status":"current","disputed":false,"precision":"oaza","areaKey":"372011580","elements":["awara"],"summary":"要素辞書に一致（awara）。出典による裏づけは未確認。","zones":[],"dataset":"candidates"}},{"type":"Feature","geometry":{"type":"Point","coordinates":[134.054455,34.196733]},"properties":{"id":"37-14ea19eeea","name":"塩江町安原下","reading":"シオノエチョウヤスハラシモ","pref":"香川県","prefCode":"37","municipality":"高松市","hazardTypes":["inundation","flood"],"evidenceLevel":0,"status":"current","disputed":false,"precision":"oaza","areaKey":"372011560","elements":["awara"],"summary":"要素辞書に一致（awara）。出典による裏づけは未確認。","zones":[],"dataset":"candidates"}},{"type":"Feature","geometry":{"type":"Point","coordinates":[134.100356,34.194275]},"properties":{"id":"37-1990ce46da","name":"菅沢町","reading":"スゲザワチョウ","pref":"香川県","prefCode":"37","municipality":"高松市","hazardTypes":["landslide","soft_ground"],"evidenceLevel":0,"status":"current","disputed":false,"precision":"oaza","areaKey":"372011540","elements":["wetland_plants"],"summary":"要素辞書に一致（wetland_plants）。出典による裏づけは未確認。","zones":[],"dataset":"candidates"}},{"type":"Feature","geometry":{"type":"Point","coordinates":[134.051876,34.342523]},"properties":{"id":"37-29f19503aa","name":"古馬場町","reading":"フルババチョウ","pref":"香川県","prefCode":"37","municipality":"高松市","hazardTypes":["slope_failure"],"evidenceLevel":0,"status":"current","disputed":false,"precision":"oaza","areaKey":"372010080","elements":["baba"],"summary":"要素辞書に一致（baba）。出典による裏づけは未確認。","zones":[],"dataset":"candidates"}},{"type":"Feature","geometry":{"type":"Point","coordinates":[133.781076,34.266075]},"properties":{"id":"37-8de7eabf9e","name":"金倉町","reading":"カナクラチョウ","pref":"香川県","prefCode":"37","municipality":"丸亀市","hazardTypes":["slope_failure","rockfall"],"evidenceLevel":0,"status":"current","disputed":false,"precision":"oaza","areaKey":"372020270","elements":["kura"],"summary":"要素辞書に一致（kura）。出典による裏づけは未確認。","zones":[],"dataset":"candidates"}},{"type":"Feature","geometry":{"type":"Point","coordinates":[133.797975,34.292558]},"properties":{"id":"37-2875669530","name":"葭町","reading":"カヤマチ","pref":"香川県","prefCode":"37","municipality":"丸亀市","hazardTypes":["landslide","soft_ground"],"evidenceLevel":0,"status":"current","disputed":false,"precision":"oaza","areaKey":"372020030","elements":["wetland_plants"],"summary":"要素辞書に一致（wetland_plants）。出典による裏づけは未確認。","zones":[],"dataset":"candidates"}},{"type":"Feature","geometry":{"type":"Point","coordinates":[133.827712,34.232528]},"properties":{"id":"37-f7acd9491e","name":"垂水町","reading":"タルミチョウ","pref":"香川県","prefCode":"37","municipality":"丸亀市","hazardTypes":["slope_failure"],"evidenceLevel":0,"status":"current","disputed":false,"precision":"oaza","areaKey":"372020420","elements":["kake"],"summary":"要素辞書に一致（kake）。出典による裏づけは未確認。","zones":[],"dataset":"candidates"}},{"type":"Feature","geometry":{"type":"Point","coordinates":[133.86344,34.262758]},"properties":{"id":"37-2e9481b974","name":"飯山町川原","reading":"ハンザンチョウカワハラ","pref":"香川県","prefCode":"37","municipality":"丸亀市","hazardTypes":["flood"],"evidenceLevel":0,"status":"current","disputed":false,"precision":"oaza","areaKey":"372020840","elements":["kawara"],"summary":"要素辞書に一致（kawara）。出典による裏づけは未確認。","zones":[],"dataset":"candidates"}},{"type":"Feature","geometry":{"type":"Point","coordinates":[133.693251,34.366435]},"properties":{"id":"37-60c2317bfc","name":"広島町青木","reading":"ヒロシマチョウアオキ","pref":"香川県","prefCode":"37","municipality":"丸亀市","hazardTypes":["slope_failure"],"evidenceLevel":0,"status":"current","disputed":false,"precision":"oaza","areaKey":"372020580","elements":["afu_oo"],"summary":"要素辞書に一致（afu_oo）。出典による裏づけは未確認。","zones":[],"dataset":"candidates"}},{"type":"Feature","geometry":{"type":"Point","coordinates":[133.781442,34.248447]},"properties":{"id":"37-14abe8c13d","name":"金蔵寺町","reading":"コンゾウジチョウ","pref":"香川県","prefCode":"37","municipality":"善通寺市","hazardTypes":["slope_failure","rockfall"],"evidenceLevel":0,"status":"current","disputed":false,"precision":"oaza","areaKey":"372040110","elements":["kura"],"summary":"要素辞書に一致（kura）。出典による裏づけは未確認。","zones":[],"dataset":"candidates"}},{"type":"Feature","geometry":{"type":"Point","coordinates":[133.695349,34.126827]},"properties":{"id":"37-f3117d1510","name":"古川町","reading":"フルカワチョウ","pref":"香川県","prefCode":"37","municipality":"観音寺市","hazardTypes":["flood","inundation"],"evidenceLevel":0,"status":"current","disputed":false,"precision":"oaza","areaKey":"372050210","elements":["furukawa"],"summary":"要素辞書に一致（furukawa）。出典による裏づけは未確認。","zones":[],"dataset":"candidates"}},{"type":"Feature","geometry":{"type":"Point","coordinates":[134.315186,34.26684]},"properties":{"id":"37-8391b45239","name":"小磯","reading":"コイソ","pref":"香川県","prefCode":"37","municipality":"東かがわ市","hazardTypes":["rockfall","debris_flow"],"evidenceLevel":0,"status":"current","disputed":false,"precision":"oaza","areaKey":"372070250","elements":["iso_ishi"],"summary":"要素辞書に一致（iso_ishi）。出典による裏づけは未確認。","zones":[],"dataset":"candidates"}},{"type":"Feature","geometry":{"type":"Point","coordinates":[134.245405,34.43335]},"properties":{"id":"37-2bfcb26080","name":"蒲野","reading":"カマノ","pref":"香川県","prefCode":"37","municipality":"小豆郡小豆島町","hazardTypes":["landslide","soft_ground"],"evidenceLevel":0,"status":"current","disputed":false,"precision":"oaza","areaKey":null,"elements":["wetland_plants"],"summary":"要素辞書に一致（wetland_plants）。出典による裏づけは未確認。","zones":[],"dataset":"candidates"}},{"type":"Feature","geometry":{"type":"Point","coordinates":[134.211775,34.485952]},"properties":{"id":"37-af65b39bff","name":"蒲生","reading":"カモウ","pref":"香川県","prefCode":"37","municipality":"小豆郡小豆島町","hazardTypes":["landslide","soft_ground"],"evidenceLevel":0,"status":"current","disputed":false,"precision":"oaza","areaKey":null,"elements":["wetland_plants"],"summary":"要素辞書に一致（wetland_plants）。出典による裏づけは未確認。","zones":[],"dataset":"candidates"}},{"type":"Feature","geometry":{"type":"Point","coordinates":[134.121371,34.223289]},"properties":{"id":"37-fe3f30b024","name":"大字朝倉","reading":null,"pref":"香川県","prefCode":"37","municipality":"木田郡三木町","hazardTypes":["slope_failure","rockfall"],"evidenceLevel":0,"status":"current","disputed":false,"precision":"oaza","areaKey":null,"elements":["kura"],"summary":"要素辞書に一致（kura）。出典による裏づけは未確認。","zones":[],"dataset":"candidates"}},{"type":"Feature","geometry":{"type":"Point","coordinates":[134.139054,34.271465]},"properties":{"id":"37-8324d74875","name":"大字鹿伏","reading":null,"pref":"香川県","prefCode":"37","municipality":"木田郡三木町","hazardTypes":["landslide","soft_ground"],"evidenceLevel":0,"status":"current","disputed":false,"precision":"oaza","areaKey":null,"elements":["shishi"],"summary":"要素辞書に一致（shishi）。出典による裏づけは未確認。","zones":[],"dataset":"candidates"}},{"type":"Feature","geometry":{"type":"Point","coordinates":[134.15054,34.224863]},"properties":{"id":"37-a4ec164e3c","name":"大字鹿庭","reading":null,"pref":"香川県","prefCode":"37","municipality":"木田郡三木町","hazardTypes":["landslide","soft_ground"],"evidenceLevel":0,"status":"current","disputed":false,"precision":"oaza","areaKey":null,"elements":["shishi"],"summary":"要素辞書に一致（shishi）。出典による裏づけは未確認。","zones":[],"dataset":"candidates"}},{"type":"Feature","geometry":{"type":"Point","coordinates":[133.988623,34.447949]},"properties":{"id":"37-f41aedfe0b","name":"倉浦","reading":null,"pref":"香川県","prefCode":"37","municipality":"香川郡直島町","hazardTypes":["slope_failure","rockfall"],"evidenceLevel":0,"status":"current","disputed":false,"precision":"oaza","areaKey":null,"elements":["kura"],"summary":"要素辞書に一致（kura）。出典による裏づけは未確認。","zones":[],"dataset":"candidates"}},{"type":"Feature","geometry":{"type":"Point","coordinates":[133.980578,34.454859]},"properties":{"id":"37-4d680b46fa","name":"地蔵山","reading":null,"pref":"香川県","prefCode":"37","municipality":"香川郡直島町","hazardTypes":["slope_failure","rockfall"],"evidenceLevel":0,"status":"current","disputed":false,"precision":"oaza","areaKey":null,"elements":["kura"],"summary":"要素辞書に一致（kura）。出典による裏づけは未確認。","zones":[],"dataset":"candidates"}},{"type":"Feature","geometry":{"type":"Point","coordinates":[133.996256,34.457751]},"properties":{"id":"37-d449378a6d","name":"流レ","reading":null,"pref":"香川県","prefCode":"37","municipality":"香川郡直島町","hazardTypes":["flood"],"evidenceLevel":0,"status":"current","disputed":false,"precision":"oaza","areaKey":null,"elements":["nagare"],"summary":"要素辞書に一致（nagare）。出典による裏づけは未確認。","zones":[],"dataset":"candidates"}},{"type":"Feature","geometry":{"type":"Point","coordinates":[133.987934,34.456557]},"properties":{"id":"37-5d1b5c6090","name":"鍛冶屋","reading":null,"pref":"香川県","prefCode":"37","municipality":"香川郡直島町","hazardTypes":["slope_failure"],"evidenceLevel":0,"status":"current","disputed":false,"precision":"oaza","areaKey":null,"elements":["kaji_kamu"],"summary":"要素辞書に一致（kaji_kamu）。出典による裏づけは未確認。","zones":[],"dataset":"candidates"}},{"type":"Feature","geometry":{"type":"Point","coordinates":[133.74785,34.258192]},"properties":{"id":"37-217a1b881d","name":"大字青木","reading":null,"pref":"香川県","prefCode":"37","municipality":"仲多度郡多度津町","hazardTypes":["slope_failure"],"evidenceLevel":0,"status":"current","disputed":false,"precision":"oaza","areaKey":null,"elements":["afu_oo"],"summary":"要素辞書に一致（afu_oo）。出典による裏づけは未確認。","zones":[],"dataset":"candidates"}},{"type":"Feature","geometry":{"type":"Point","coordinates":[133.842634,34.171697]},"properties":{"id":"37-b687dfc751","name":"岸上","reading":"キシノウエ","pref":"香川県","prefCode":"37","municipality":"仲多度郡まんのう町","hazardTypes":["slope_failure"],"evidenceLevel":0,"status":"current","disputed":false,"precision":"oaza","areaKey":null,"elements":["kake"],"summary":"要素辞書に一致（kake）。出典による裏づけは未確認。","zones":[],"dataset":"candidates"}}]}
