{"type":"FeatureCollection","features":[{"type":"Feature","geometry":{"type":"Point","coordinates":[133.511038,33.55728]},"properties":{"id":"39-52d9ae4e60","name":"赤石町","reading":"アカイシチョウ","pref":"高知県","prefCode":"39","municipality":"高知市","hazardTypes":["landslide"],"evidenceLevel":0,"status":"current","disputed":false,"precision":"oaza","areaKey":"392010940","elements":["geology_names"],"summary":"要素辞書に一致（geology_names）。出典による裏づけは未確認。","zones":[],"dataset":"candidates"}},{"type":"Feature","geometry":{"type":"Point","coordinates":[133.484674,33.546855]},"properties":{"id":"39-428aa3db87","name":"朝倉乙","reading":"アサクラオツ","pref":"高知県","prefCode":"39","municipality":"高知市","hazardTypes":["slope_failure","rockfall"],"evidenceLevel":0,"status":"current","disputed":false,"precision":"oaza","areaKey":"392011890","elements":["kura"],"summary":"要素辞書に一致（kura）。出典による裏づけは未確認。","zones":[],"dataset":"candidates"}},{"type":"Feature","geometry":{"type":"Point","coordinates":[133.488772,33.533889]},"properties":{"id":"39-8e28a527fb","name":"朝倉己","reading":"アサクラキ","pref":"高知県","prefCode":"39","municipality":"高知市","hazardTypes":["slope_failure","rockfall"],"evidenceLevel":0,"status":"current","disputed":false,"precision":"oaza","areaKey":"392011930","elements":["kura"],"summary":"要素辞書に一致（kura）。出典による裏づけは未確認。","zones":[],"dataset":"candidates"}},{"type":"Feature","geometry":{"type":"Point","coordinates":[133.479045,33.546103]},"properties":{"id":"39-2ead5c3f14","name":"朝倉丁","reading":"アサクラコウ","pref":"高知県","prefCode":"39","municipality":"高知市","hazardTypes":["slope_failure","rockfall"],"evidenceLevel":0,"status":"current","disputed":false,"precision":"oaza","areaKey":"392011912","elements":["kura"],"summary":"要素辞書に一致（kura）。出典による裏づけは未確認。","zones":[],"dataset":"candidates"}},{"type":"Feature","geometry":{"type":"Point","coordinates":[133.498317,33.540737]},"properties":{"id":"39-78226bf12b","name":"朝倉甲","reading":"アサクラコウ","pref":"高知県","prefCode":"39","municipality":"高知市","hazardTypes":["slope_failure","rockfall"],"evidenceLevel":0,"status":"current","disputed":false,"precision":"oaza","areaKey":"392011885","elements":["kura"],"summary":"要素辞書に一致（kura）。出典による裏づけは未確認。","zones":[],"dataset":"candidates"}},{"type":"Feature","geometry":{"type":"Point","coordinates":[133.48362,33.542124]},"properties":{"id":"39-5cd0a8c955","name":"朝倉西町一丁目","reading":"アサクラニシマチ 1","pref":"高知県","prefCode":"39","municipality":"高知市","hazardTypes":["slope_failure","rockfall"],"evidenceLevel":0,"status":"current","disputed":false,"precision":"oaza","areaKey":"39201192501","elements":["kura"],"summary":"要素辞書に一致（kura）。出典による裏づけは未確認。","zones":[],"dataset":"candidates"}},{"type":"Feature","geometry":{"type":"Point","coordinates":[133.497872,33.545524]},"properties":{"id":"39-37b530ba20","name":"朝倉東町","reading":"アサクラヒガシマチ","pref":"高知県","prefCode":"39","municipality":"高知市","hazardTypes":["slope_failure","rockfall"],"evidenceLevel":0,"status":"current","disputed":false,"precision":"oaza","areaKey":"392011884","elements":["kura"],"summary":"要素辞書に一致（kura）。出典による裏づけは未確認。","zones":[],"dataset":"candidates"}},{"type":"Feature","geometry":{"type":"Point","coordinates":[133.480227,33.553165]},"properties":{"id":"39-34d378c190","name":"朝倉丙","reading":"アサクラヘイ","pref":"高知県","prefCode":"39","municipality":"高知市","hazardTypes":["slope_failure","rockfall"],"evidenceLevel":0,"status":"current","disputed":false,"precision":"oaza","areaKey":"392011900","elements":["kura"],"summary":"要素辞書に一致（kura）。出典による裏づけは未確認。","zones":[],"dataset":"candidates"}},{"type":"Feature","geometry":{"type":"Point","coordinates":[133.491959,33.548097]},"properties":{"id":"39-8e0cabcef8","name":"朝倉本町一丁目","reading":"アサクラホンマチ 1","pref":"高知県","prefCode":"39","municipality":"高知市","hazardTypes":["slope_failure","rockfall"],"evidenceLevel":0,"status":"current","disputed":false,"precision":"oaza","areaKey":"39201201001","elements":["kura"],"summary":"要素辞書に一致（kura）。出典による裏づけは未確認。","zones":[],"dataset":"candidates"}},{"type":"Feature","geometry":{"type":"Point","coordinates":[133.487811,33.538002]},"properties":{"id":"39-507eac4b34","name":"朝倉戊","reading":"アサクラボ","pref":"高知県","prefCode":"39","municipality":"高知市","hazardTypes":["slope_failure","rockfall"],"evidenceLevel":0,"status":"current","disputed":false,"precision":"oaza","areaKey":"392011929","elements":["kura"],"summary":"要素辞書に一致（kura）。出典による裏づけは未確認。","zones":[],"dataset":"candidates"}},{"type":"Feature","geometry":{"type":"Point","coordinates":[133.494125,33.542286]},"properties":{"id":"39-4fe760d0d8","name":"朝倉南町","reading":"アサクラミナミマチ","pref":"高知県","prefCode":"39","municipality":"高知市","hazardTypes":["slope_failure","rockfall"],"evidenceLevel":0,"status":"current","disputed":false,"precision":"oaza","areaKey":"392011882","elements":["kura"],"summary":"要素辞書に一致（kura）。出典による裏づけは未確認。","zones":[],"dataset":"candidates"}},{"type":"Feature","geometry":{"type":"Point","coordinates":[133.49304,33.545858]},"properties":{"id":"39-d233910af9","name":"朝倉横町","reading":"アサクラヨコマチ","pref":"高知県","prefCode":"39","municipality":"高知市","hazardTypes":["slope_failure","rockfall"],"evidenceLevel":0,"status":"current","disputed":false,"precision":"oaza","areaKey":"392011881","elements":["kura"],"summary":"要素辞書に一致（kura）。出典による裏づけは未確認。","zones":[],"dataset":"candidates"}},{"type":"Feature","geometry":{"type":"Point","coordinates":[133.542866,33.554567]},"properties":{"id":"39-3059cd9915","name":"梅ノ辻","reading":"ウメノツジ","pref":"高知県","prefCode":"39","municipality":"高知市","hazardTypes":["landslide","slope_failure"],"evidenceLevel":0,"status":"current","disputed":false,"precision":"oaza","areaKey":"392011270","elements":["ume"],"summary":"要素辞書に一致（ume）。出典による裏づけは未確認。","zones":[],"dataset":"candidates"}},{"type":"Feature","geometry":{"type":"Point","coordinates":[133.567573,33.559853]},"properties":{"id":"39-e785d9d925","name":"小倉町","reading":"オクラチョウ","pref":"高知県","prefCode":"39","municipality":"高知市","hazardTypes":["slope_failure","rockfall"],"evidenceLevel":0,"status":"current","disputed":false,"precision":"oaza","areaKey":"392010280","elements":["kura"],"summary":"要素辞書に一致（kura）。出典による裏づけは未確認。","zones":[],"dataset":"candidates"}},{"type":"Feature","geometry":{"type":"Point","coordinates":[133.415466,33.594648]},"properties":{"id":"39-8f31b56fd1","name":"鏡梅ノ木","reading":"カガミウメノキ","pref":"高知県","prefCode":"39","municipality":"高知市","hazardTypes":["landslide","slope_failure"],"evidenceLevel":0,"status":"current","disputed":false,"precision":"oaza","areaKey":"392012570","elements":["ume"],"summary":"要素辞書に一致（ume）。出典による裏づけは未確認。","zones":[],"dataset":"candidates"}},{"type":"Feature","geometry":{"type":"Point","coordinates":[133.411773,33.645009]},"properties":{"id":"39-fa12cb2330","name":"鏡柿ノ又","reading":"カガミカキノマタ","pref":"高知県","prefCode":"39","municipality":"高知市","hazardTypes":["slope_failure"],"evidenceLevel":0,"status":"current","disputed":false,"precision":"oaza","areaKey":"392012410","elements":["kake"],"summary":"要素辞書に一致（kake）。出典による裏づけは未確認。","zones":[],"dataset":"candidates"}},{"type":"Feature","geometry":{"type":"Point","coordinates":[133.455409,33.599622]},"properties":{"id":"39-58bae39915","name":"鏡去坂","reading":"カガミサルサカ","pref":"高知県","prefCode":"39","municipality":"高知市","hazardTypes":["slope_failure"],"evidenceLevel":0,"status":"current","disputed":false,"precision":"oaza","areaKey":"392012540","elements":["saru"],"summary":"要素辞書に一致（saru）。出典による裏づけは未確認。","zones":[],"dataset":"candidates"}},{"type":"Feature","geometry":{"type":"Point","coordinates":[133.526554,33.562143]},"properties":{"id":"39-68702d09b2","name":"桜馬場","reading":"サクラババ","pref":"高知県","prefCode":"39","municipality":"高知市","hazardTypes":["slope_failure"],"evidenceLevel":0,"status":"current","disputed":false,"precision":"oaza","areaKey":"392010770","elements":["baba"],"summary":"要素辞書に一致（baba）。出典による裏づけは未確認。","zones":[],"dataset":"candidates"}},{"type":"Feature","geometry":{"type":"Point","coordinates":[133.553388,33.61432]},"properties":{"id":"39-153e4dbc6c","name":"重倉","reading":"シゲクラ","pref":"高知県","prefCode":"39","municipality":"高知市","hazardTypes":["slope_failure","rockfall"],"evidenceLevel":0,"status":"current","disputed":false,"precision":"oaza","areaKey":"392011630","elements":["kura"],"summary":"要素辞書に一致（kura）。出典による裏づけは未確認。","zones":[],"dataset":"candidates"}},{"type":"Feature","geometry":{"type":"Point","coordinates":[133.570849,33.64549]},"properties":{"id":"39-d37c86ff33","name":"土佐山菖蒲","reading":"トサヤマショウブ","pref":"高知県","prefCode":"39","municipality":"高知市","hazardTypes":["landslide","soft_ground"],"evidenceLevel":0,"status":"current","disputed":false,"precision":"oaza","areaKey":"392012640","elements":["wetland_plants"],"summary":"要素辞書に一致（wetland_plants）。出典による裏づけは未確認。","zones":[],"dataset":"candidates"}},{"type":"Feature","geometry":{"type":"Point","coordinates":[133.584088,33.646471]},"properties":{"id":"39-ec9516222f","name":"上倉","reading":"アゲクラ","pref":"高知県","prefCode":"39","municipality":"南国市","hazardTypes":["slope_failure","rockfall"],"evidenceLevel":0,"status":"current","disputed":false,"precision":"oaza","areaKey":"392040050","elements":["kura"],"summary":"要素辞書に一致（kura）。出典による裏づけは未確認。","zones":[],"dataset":"candidates"}},{"type":"Feature","geometry":{"type":"Point","coordinates":[133.601556,33.593234]},"properties":{"id":"39-027823e7d9","name":"岡豊町蒲原","reading":"オコウチョウカモハラ","pref":"高知県","prefCode":"39","municipality":"南国市","hazardTypes":["landslide","soft_ground"],"evidenceLevel":0,"status":"current","disputed":false,"precision":"oaza","areaKey":"392040250","elements":["wetland_plants"],"summary":"要素辞書に一致（wetland_plants）。出典による裏づけは未確認。","zones":[],"dataset":"candidates"}},{"type":"Feature","geometry":{"type":"Point","coordinates":[133.6385,33.62959]},"properties":{"id":"39-b43ccd89ca","name":"宍崎","reading":"シシザキ","pref":"高知県","prefCode":"39","municipality":"南国市","hazardTypes":["landslide","soft_ground"],"evidenceLevel":0,"status":"current","disputed":false,"precision":"oaza","areaKey":"392040120","elements":["shishi"],"summary":"要素辞書に一致（shishi）。出典による裏づけは未確認。","zones":[],"dataset":"candidates"}},{"type":"Feature","geometry":{"type":"Point","coordinates":[133.680946,33.577216]},"properties":{"id":"39-ea161549d1","name":"蔵福寺島","reading":"ゾウフクジジマ","pref":"高知県","prefCode":"39","municipality":"南国市","hazardTypes":["slope_failure","rockfall"],"evidenceLevel":0,"status":"current","disputed":false,"precision":"oaza","areaKey":"392040720","elements":["kura"],"summary":"要素辞書に一致（kura）。出典による裏づけは未確認。","zones":[],"dataset":"candidates"}},{"type":"Feature","geometry":{"type":"Point","coordinates":[133.289985,33.389974]},"properties":{"id":"39-fdbe707da0","name":"青木町","reading":"アオキマチ","pref":"高知県","prefCode":"39","municipality":"須崎市","hazardTypes":["slope_failure"],"evidenceLevel":0,"status":"current","disputed":false,"precision":"oaza","areaKey":"392060150","elements":["afu_oo"],"summary":"要素辞書に一致（afu_oo）。出典による裏づけは未確認。","zones":[],"dataset":"candidates"}},{"type":"Feature","geometry":{"type":"Point","coordinates":[133.011668,32.726565]},"properties":{"id":"39-57454569ba","name":"足摺岬","reading":"アシズリミサキ","pref":"高知県","prefCode":"39","municipality":"土佐清水市","hazardTypes":["flood","inundation"],"evidenceLevel":0,"status":"current","disputed":false,"precision":"oaza","areaKey":"392090240","elements":["ashi"],"summary":"要素辞書に一致（ashi）。出典による裏づけは未確認。","zones":[],"dataset":"candidates"}},{"type":"Feature","geometry":{"type":"Point","coordinates":[133.018243,32.726037]},"properties":{"id":"39-0232513373","name":"足摺山","reading":null,"pref":"高知県","prefCode":"39","municipality":"土佐清水市","hazardTypes":["flood","inundation"],"evidenceLevel":0,"status":"current","disputed":false,"precision":"koaza","areaKey":"392090240","elements":["ashi"],"summary":"要素辞書に一致（ashi）。出典による裏づけは未確認。","zones":[],"dataset":"candidates"}},{"type":"Feature","geometry":{"type":"Point","coordinates":[132.843511,32.975424]},"properties":{"id":"39-934537f214","name":"磯ノ川","reading":"イソノカワ","pref":"高知県","prefCode":"39","municipality":"四万十市","hazardTypes":["rockfall","debris_flow"],"evidenceLevel":0,"status":"current","disputed":false,"precision":"oaza","areaKey":"39210030005","elements":["iso_ishi"],"summary":"要素辞書に一致（iso_ishi）。出典による裏づけは未確認。","zones":[],"dataset":"candidates"}},{"type":"Feature","geometry":{"type":"Point","coordinates":[132.95404,32.923908]},"properties":{"id":"39-1bf3bc7340","name":"津蔵渕","reading":"ツクラブチ","pref":"高知県","prefCode":"39","municipality":"四万十市","hazardTypes":["slope_failure","rockfall"],"evidenceLevel":0,"status":"current","disputed":false,"precision":"oaza","areaKey":"39210031007","elements":["kura"],"summary":"要素辞書に一致（kura）。出典による裏づけは未確認。","zones":[],"dataset":"candidates"}},{"type":"Feature","geometry":{"type":"Point","coordinates":[132.991023,32.923398]},"properties":{"id":"39-dd04b46e84","name":"名鹿","reading":"ナシシ","pref":"高知県","prefCode":"39","municipality":"四万十市","hazardTypes":["landslide","soft_ground"],"evidenceLevel":0,"status":"current","disputed":false,"precision":"oaza","areaKey":"39210031009","elements":["shishi"],"summary":"要素辞書に一致（shishi）。出典による裏づけは未確認。","zones":[],"dataset":"candidates"}},{"type":"Feature","geometry":{"type":"Point","coordinates":[133.738308,33.542426]},"properties":{"id":"39-fe9a61f20b","name":"香我美町岸本","reading":"カガミチョウキシモト","pref":"高知県","prefCode":"39","municipality":"香南市","hazardTypes":["slope_failure"],"evidenceLevel":0,"status":"current","disputed":false,"precision":"oaza","areaKey":null,"elements":["kake"],"summary":"要素辞書に一致（kake）。出典による裏づけは未確認。","zones":[],"dataset":"candidates"}},{"type":"Feature","geometry":{"type":"Point","coordinates":[133.712044,33.544582]},"properties":{"id":"39-47caf6cff5","name":"吉川町古川","reading":"ヨシカワチョウフルカワ","pref":"高知県","prefCode":"39","municipality":"香南市","hazardTypes":["flood","inundation"],"evidenceLevel":0,"status":"current","disputed":false,"precision":"oaza","areaKey":null,"elements":["furukawa"],"summary":"要素辞書に一致（furukawa）。出典による裏づけは未確認。","zones":[],"dataset":"candidates"}},{"type":"Feature","geometry":{"type":"Point","coordinates":[133.83006,33.714354]},"properties":{"id":"39-98e059e01d","name":"香北町猪野々柚ノ木","reading":null,"pref":"高知県","prefCode":"39","municipality":"香美市","hazardTypes":["landslide","soft_ground"],"evidenceLevel":0,"status":"current","disputed":false,"precision":"oaza","areaKey":null,"elements":["shishi"],"summary":"要素辞書に一致（shishi）。出典による裏づけは未確認。","zones":[],"dataset":"candidates"}},{"type":"Feature","geometry":{"type":"Point","coordinates":[133.757137,33.657957]},"properties":{"id":"39-83842627eb","name":"香北町五百蔵","reading":"カホクチョウイオロイ","pref":"高知県","prefCode":"39","municipality":"香美市","hazardTypes":["slope_failure","rockfall"],"evidenceLevel":0,"status":"current","disputed":false,"precision":"oaza","areaKey":null,"elements":["kura"],"summary":"要素辞書に一致（kura）。出典による裏づけは未確認。","zones":[],"dataset":"candidates"}},{"type":"Feature","geometry":{"type":"Point","coordinates":[133.850675,33.710895]},"properties":{"id":"39-18e4481534","name":"香北町猪野々","reading":"カホクチョウイノノ","pref":"高知県","prefCode":"39","municipality":"香美市","hazardTypes":["landslide","soft_ground"],"evidenceLevel":0,"status":"current","disputed":false,"precision":"oaza","areaKey":null,"elements":["shishi"],"summary":"要素辞書に一致（shishi）。出典による裏づけは未確認。","zones":[],"dataset":"candidates"}},{"type":"Feature","geometry":{"type":"Point","coordinates":[133.829723,33.68357]},"properties":{"id":"39-2f4581814f","name":"香北町梅久保","reading":"カホクチョウウメノクボ","pref":"高知県","prefCode":"39","municipality":"香美市","hazardTypes":["landslide","slope_failure","inundation"],"evidenceLevel":0,"status":"current","disputed":false,"precision":"oaza","areaKey":null,"elements":["ume","kubo"],"summary":"要素辞書に一致（ume・kubo）。出典による裏づけは未確認。","zones":[],"dataset":"candidates"}},{"type":"Feature","geometry":{"type":"Point","coordinates":[133.868632,33.671338]},"properties":{"id":"39-dc26f85bc3","name":"物部町頓定","reading":"モノベチョウトンジョウ","pref":"高知県","prefCode":"39","municipality":"香美市","hazardTypes":["slope_failure","debris_flow"],"evidenceLevel":0,"status":"current","disputed":false,"precision":"oaza","areaKey":null,"elements":["tobi"],"summary":"要素辞書に一致（tobi）。出典による裏づけは未確認。","zones":[],"dataset":"candidates"}},{"type":"Feature","geometry":{"type":"Point","coordinates":[134.020291,33.433195]},"properties":{"id":"39-2b4ef5caf1","name":"中川原","reading":null,"pref":"高知県","prefCode":"39","municipality":"安芸郡田野町","hazardTypes":["flood"],"evidenceLevel":0,"status":"current","disputed":false,"precision":"oaza","areaKey":null,"elements":["kawara"],"summary":"要素辞書に一致（kawara）。出典による裏づけは未確認。","zones":[],"dataset":"candidates"}},{"type":"Feature","geometry":{"type":"Point","coordinates":[134.002952,33.426766]},"properties":{"id":"39-12ea93f5a0","name":"八幡馬場南","reading":null,"pref":"高知県","prefCode":"39","municipality":"安芸郡田野町","hazardTypes":["slope_failure"],"evidenceLevel":0,"status":"current","disputed":false,"precision":"oaza","areaKey":null,"elements":["baba"],"summary":"要素辞書に一致（baba）。出典による裏づけは未確認。","zones":[],"dataset":"candidates"}},{"type":"Feature","geometry":{"type":"Point","coordinates":[134.001188,33.427546]},"properties":{"id":"39-6ba06f8b3f","name":"八幡馬場西","reading":null,"pref":"高知県","prefCode":"39","municipality":"安芸郡田野町","hazardTypes":["slope_failure"],"evidenceLevel":0,"status":"current","disputed":false,"precision":"oaza","areaKey":null,"elements":["baba"],"summary":"要素辞書に一致（baba）。出典による裏づけは未確認。","zones":[],"dataset":"candidates"}},{"type":"Feature","geometry":{"type":"Point","coordinates":[134.008472,33.445609]},"properties":{"id":"39-00aa1cc49a","name":"地獄谷","reading":null,"pref":"高知県","prefCode":"39","municipality":"安芸郡田野町","hazardTypes":["landslide"],"evidenceLevel":0,"status":"current","disputed":false,"precision":"oaza","areaKey":null,"elements":["jigokudani"],"summary":"要素辞書に一致（jigokudani）。出典による裏づけは未確認。","zones":[],"dataset":"candidates"}},{"type":"Feature","geometry":{"type":"Point","coordinates":[134.007219,33.425299]},"properties":{"id":"39-ca25e51de8","name":"蔵屋敷","reading":null,"pref":"高知県","prefCode":"39","municipality":"安芸郡田野町","hazardTypes":["slope_failure","rockfall"],"evidenceLevel":0,"status":"current","disputed":false,"precision":"oaza","areaKey":null,"elements":["kura"],"summary":"要素辞書に一致（kura）。出典による裏づけは未確認。","zones":[],"dataset":"candidates"}},{"type":"Feature","geometry":{"type":"Point","coordinates":[134.01219,33.441316]},"properties":{"id":"39-7dd0a06f1e","name":"鳶ヶ平","reading":null,"pref":"高知県","prefCode":"39","municipality":"安芸郡田野町","hazardTypes":["slope_failure","debris_flow"],"evidenceLevel":0,"status":"current","disputed":false,"precision":"oaza","areaKey":null,"elements":["tobi"],"summary":"要素辞書に一致（tobi）。出典による裏づけは未確認。","zones":[],"dataset":"candidates"}},{"type":"Feature","geometry":{"type":"Point","coordinates":[134.028912,33.506897]},"properties":{"id":"39-4d81500d6f","name":"大字船倉","reading":null,"pref":"高知県","prefCode":"39","municipality":"安芸郡安田町","hazardTypes":["slope_failure","rockfall"],"evidenceLevel":0,"status":"current","disputed":false,"precision":"oaza","areaKey":null,"elements":["kura"],"summary":"要素辞書に一致（kura）。出典による裏づけは未確認。","zones":[],"dataset":"candidates"}},{"type":"Feature","geometry":{"type":"Point","coordinates":[134.114867,33.554872]},"properties":{"id":"39-a7b4c7ad48","name":"大字久江ノ上","reading":null,"pref":"高知県","prefCode":"39","municipality":"安芸郡北川村","hazardTypes":["slope_failure","landslide"],"evidenceLevel":0,"status":"current","disputed":false,"precision":"oaza","areaKey":null,"elements":["kuzure"],"summary":"要素辞書に一致（kuzure）。出典による裏づけは未確認。","zones":[],"dataset":"candidates"}},{"type":"Feature","geometry":{"type":"Point","coordinates":[134.186544,33.510666]},"properties":{"id":"39-87a15f8ac4","name":"大字安倉","reading":null,"pref":"高知県","prefCode":"39","municipality":"安芸郡北川村","hazardTypes":["slope_failure","rockfall"],"evidenceLevel":0,"status":"current","disputed":false,"precision":"oaza","areaKey":null,"elements":["kura"],"summary":"要素辞書に一致（kura）。出典による裏づけは未確認。","zones":[],"dataset":"candidates"}},{"type":"Feature","geometry":{"type":"Point","coordinates":[134.176126,33.539351]},"properties":{"id":"39-e1309063ac","name":"大字菅ノ上","reading":null,"pref":"高知県","prefCode":"39","municipality":"安芸郡北川村","hazardTypes":["landslide","soft_ground"],"evidenceLevel":0,"status":"current","disputed":false,"precision":"oaza","areaKey":null,"elements":["wetland_plants"],"summary":"要素辞書に一致（wetland_plants）。出典による裏づけは未確認。","zones":[],"dataset":"candidates"}},{"type":"Feature","geometry":{"type":"Point","coordinates":[133.707795,33.792439]},"properties":{"id":"39-b767f8fc13","name":"磯谷","reading":"イソダニ","pref":"高知県","prefCode":"39","municipality":"長岡郡大豊町","hazardTypes":["rockfall","debris_flow"],"evidenceLevel":0,"status":"current","disputed":false,"precision":"oaza","areaKey":null,"elements":["iso_ishi"],"summary":"要素辞書に一致（iso_ishi）。出典による裏づけは未確認。","zones":[],"dataset":"candidates"}},{"type":"Feature","geometry":{"type":"Point","coordinates":[133.777766,33.83234]},"properties":{"id":"39-3049907cb9","name":"大久保","reading":"オオクボ","pref":"高知県","prefCode":"39","municipality":"長岡郡大豊町","hazardTypes":["slope_failure","inundation","landslide"],"evidenceLevel":0,"status":"current","disputed":false,"precision":"oaza","areaKey":null,"elements":["afu_oo","kubo"],"summary":"要素辞書に一致（afu_oo・kubo）。出典による裏づけは未確認。","zones":[],"dataset":"candidates"}},{"type":"Feature","geometry":{"type":"Point","coordinates":[133.730117,33.784008]},"properties":{"id":"39-30409f764f","name":"黒石","reading":"クロイシ","pref":"高知県","prefCode":"39","municipality":"長岡郡大豊町","hazardTypes":["landslide"],"evidenceLevel":0,"status":"current","disputed":false,"precision":"oaza","areaKey":null,"elements":["geology_names"],"summary":"要素辞書に一致（geology_names）。出典による裏づけは未確認。","zones":[],"dataset":"candidates"}},{"type":"Feature","geometry":{"type":"Point","coordinates":[133.500294,33.708589]},"properties":{"id":"39-6d2e26c23b","name":"地蔵寺","reading":"ジゾウジ","pref":"高知県","prefCode":"39","municipality":"土佐郡土佐町","hazardTypes":["slope_failure","rockfall"],"evidenceLevel":0,"status":"current","disputed":false,"precision":"oaza","areaKey":null,"elements":["kura"],"summary":"要素辞書に一致（kura）。出典による裏づけは未確認。","zones":[],"dataset":"candidates"}},{"type":"Feature","geometry":{"type":"Point","coordinates":[133.323133,33.793165]},"properties":{"id":"39-f2914bee1a","name":"足谷","reading":"アシダニ","pref":"高知県","prefCode":"39","municipality":"吾川郡いの町","hazardTypes":["flood","inundation"],"evidenceLevel":0,"status":"current","disputed":false,"precision":"oaza","areaKey":null,"elements":["ashi"],"summary":"要素辞書に一致（ashi）。出典による裏づけは未確認。","zones":[],"dataset":"candidates"}},{"type":"Feature","geometry":{"type":"Point","coordinates":[133.373196,33.571535]},"properties":{"id":"39-509fd07d9d","name":"鹿敷","reading":"カシキ","pref":"高知県","prefCode":"39","municipality":"吾川郡いの町","hazardTypes":["landslide","soft_ground"],"evidenceLevel":0,"status":"current","disputed":false,"precision":"oaza","areaKey":null,"elements":["shishi"],"summary":"要素辞書に一致（shishi）。出典による裏づけは未確認。","zones":[],"dataset":"candidates"}},{"type":"Feature","geometry":{"type":"Point","coordinates":[133.172979,33.598928]},"properties":{"id":"39-8c9dbadf76","name":"鹿森","reading":"シシモリ","pref":"高知県","prefCode":"39","municipality":"吾川郡仁淀川町","hazardTypes":["landslide","soft_ground"],"evidenceLevel":0,"status":"current","disputed":false,"precision":"oaza","areaKey":null,"elements":["shishi"],"summary":"要素辞書に一致（shishi）。出典による裏づけは未確認。","zones":[],"dataset":"candidates"}},{"type":"Feature","geometry":{"type":"Point","coordinates":[133.131016,33.486543]},"properties":{"id":"39-93daf4b758","name":"長者","reading":"チョウジャオツ","pref":"高知県","prefCode":"39","municipality":"吾川郡仁淀川町","hazardTypes":["slope_failure"],"evidenceLevel":0,"status":"current","disputed":false,"precision":"oaza","areaKey":null,"elements":["tsubu_chou"],"summary":"要素辞書に一致（tsubu_chou）。出典による裏づけは未確認。","zones":[],"dataset":"candidates"}},{"type":"Feature","geometry":{"type":"Point","coordinates":[133.150513,33.491355]},"properties":{"id":"39-a2921d53b2","name":"長者","reading":"チョウジャ","pref":"高知県","prefCode":"39","municipality":"高岡郡越知町","hazardTypes":["slope_failure"],"evidenceLevel":0,"status":"current","disputed":false,"precision":"oaza","areaKey":null,"elements":["tsubu_chou"],"summary":"要素辞書に一致（tsubu_chou）。出典による裏づけは未確認。","zones":[],"dataset":"candidates"}},{"type":"Feature","geometry":{"type":"Point","coordinates":[132.925915,33.404788]},"properties":{"id":"39-f8a2c9ba50","name":"大蔵谷","reading":"オゾウタニ","pref":"高知県","prefCode":"39","municipality":"高岡郡檮原町","hazardTypes":["slope_failure","rockfall"],"evidenceLevel":0,"status":"current","disputed":false,"precision":"oaza","areaKey":null,"elements":["kura"],"summary":"要素辞書に一致（kura）。出典による裏づけは未確認。","zones":[],"dataset":"candidates"}},{"type":"Feature","geometry":{"type":"Point","coordinates":[133.046774,33.220902]},"properties":{"id":"39-35fd5b9096","name":"相去","reading":"アイザレ","pref":"高知県","prefCode":"39","municipality":"高岡郡四万十町","hazardTypes":["slope_failure"],"evidenceLevel":0,"status":"current","disputed":false,"precision":"oaza","areaKey":null,"elements":["saru"],"summary":"要素辞書に一致（saru）。出典による裏づけは未確認。","zones":[],"dataset":"candidates"}},{"type":"Feature","geometry":{"type":"Point","coordinates":[133.199318,33.219647]},"properties":{"id":"39-cd381c8267","name":"黒石","reading":"クロイシ","pref":"高知県","prefCode":"39","municipality":"高岡郡四万十町","hazardTypes":["landslide"],"evidenceLevel":0,"status":"current","disputed":false,"precision":"oaza","areaKey":null,"elements":["geology_names"],"summary":"要素辞書に一致（geology_names）。出典による裏づけは未確認。","zones":[],"dataset":"candidates"}}]}
