{"type":"FeatureCollection","features":[{"type":"Feature","geometry":{"type":"Point","coordinates":[130.977856,33.894525]},"properties":{"id":"40-c31f55b4e3","name":"大字猿喰","reading":null,"pref":"福岡県","prefCode":"40","municipality":"北九州市門司区","hazardTypes":["slope_failure"],"evidenceLevel":0,"status":"current","disputed":false,"precision":"oaza","areaKey":"401010340","elements":["saru"],"summary":"要素辞書に一致（saru）。出典による裏づけは未確認。","zones":[],"dataset":"candidates"}},{"type":"Feature","geometry":{"type":"Point","coordinates":[130.935677,33.908549]},"properties":{"id":"40-2dd226b0fa","name":"梅ノ木町","reading":"ウメノキチョウ","pref":"福岡県","prefCode":"40","municipality":"北九州市門司区","hazardTypes":["landslide","slope_failure"],"evidenceLevel":0,"status":"current","disputed":false,"precision":"oaza","areaKey":"401010060","elements":["ume"],"summary":"要素辞書に一致（ume）。出典による裏づけは未確認。","zones":[],"dataset":"candidates"}},{"type":"Feature","geometry":{"type":"Point","coordinates":[130.97417,33.956226]},"properties":{"id":"40-9497a1157f","name":"大久保一丁目","reading":"オオクボ 1","pref":"福岡県","prefCode":"40","municipality":"北九州市門司区","hazardTypes":["slope_failure","inundation","landslide"],"evidenceLevel":0,"status":"current","disputed":false,"precision":"oaza","areaKey":"40101008001","elements":["afu_oo","kubo"],"summary":"要素辞書に一致（afu_oo・kubo）。出典による裏づけは未確認。","zones":[],"dataset":"candidates"}},{"type":"Feature","geometry":{"type":"Point","coordinates":[130.943013,33.930009]},"properties":{"id":"40-947282329e","name":"片上海岸","reading":"カタガミカイガン","pref":"福岡県","prefCode":"40","municipality":"北九州市門司区","hazardTypes":["slope_failure"],"evidenceLevel":0,"status":"current","disputed":false,"precision":"oaza","areaKey":"401010140","elements":["kake"],"summary":"要素辞書に一致（kake）。出典による裏づけは未確認。","zones":[],"dataset":"candidates"}},{"type":"Feature","geometry":{"type":"Point","coordinates":[130.997877,33.964256]},"properties":{"id":"40-406fb99a08","name":"太刀浦海岸","reading":"タチノウラカイガン","pref":"福岡県","prefCode":"40","municipality":"北九州市門司区","hazardTypes":["slope_failure"],"evidenceLevel":0,"status":"current","disputed":false,"precision":"oaza","areaKey":"401010480","elements":["kake"],"summary":"要素辞書に一致（kake）。出典による裏づけは未確認。","zones":[],"dataset":"candidates"}},{"type":"Feature","geometry":{"type":"Point","coordinates":[130.984138,33.959674]},"properties":{"id":"40-8a5ef055b2","name":"田野浦海岸","reading":"タノウラカイガン","pref":"福岡県","prefCode":"40","municipality":"北九州市門司区","hazardTypes":["slope_failure"],"evidenceLevel":0,"status":"current","disputed":false,"precision":"oaza","areaKey":"401010520","elements":["kake"],"summary":"要素辞書に一致（kake）。出典による裏づけは未確認。","zones":[],"dataset":"candidates"}},{"type":"Feature","geometry":{"type":"Point","coordinates":[130.958138,33.943824]},"properties":{"id":"40-257e3a46b9","name":"西海岸一丁目","reading":"ニシカイガン 1","pref":"福岡県","prefCode":"40","municipality":"北九州市門司区","hazardTypes":["slope_failure"],"evidenceLevel":0,"status":"current","disputed":false,"precision":"oaza","areaKey":"40101068001","elements":["kake"],"summary":"要素辞書に一致（kake）。出典による裏づけは未確認。","zones":[],"dataset":"candidates"}},{"type":"Feature","geometry":{"type":"Point","coordinates":[130.734172,33.912378]},"properties":{"id":"40-49e2fc85fe","name":"大字頓田","reading":null,"pref":"福岡県","prefCode":"40","municipality":"北九州市若松区","hazardTypes":["slope_failure","debris_flow"],"evidenceLevel":0,"status":"current","disputed":false,"precision":"oaza","areaKey":"401030420","elements":["tobi"],"summary":"要素辞書に一致（tobi）。出典による裏づけは未確認。","zones":[],"dataset":"candidates"}},{"type":"Feature","geometry":{"type":"Point","coordinates":[130.790095,33.913084]},"properties":{"id":"40-12e0ba9bbf","name":"棚田町","reading":"タナダマチ","pref":"福岡県","prefCode":"40","municipality":"北九州市若松区","hazardTypes":["landslide"],"evidenceLevel":0,"status":"current","disputed":false,"precision":"oaza","areaKey":"401030400","elements":["terraced_fields"],"summary":"要素辞書に一致（terraced_fields）。出典による裏づけは未確認。","zones":[],"dataset":"candidates"}},{"type":"Feature","geometry":{"type":"Point","coordinates":[130.798672,33.91436]},"properties":{"id":"40-64b51d5e82","name":"深町一丁目","reading":"フカマチ 1","pref":"福岡県","prefCode":"40","municipality":"北九州市若松区","hazardTypes":["soft_ground","inundation"],"evidenceLevel":0,"status":"current","disputed":false,"precision":"oaza","areaKey":"40103063001","elements":["fuke"],"summary":"要素辞書に一致（fuke）。出典による裏づけは未確認。","zones":[],"dataset":"candidates"}},{"type":"Feature","geometry":{"type":"Point","coordinates":[130.828748,33.886865]},"properties":{"id":"40-34cfd72da3","name":"菅原一丁目","reading":"スガワラ 1","pref":"福岡県","prefCode":"40","municipality":"北九州市戸畑区","hazardTypes":["landslide","soft_ground"],"evidenceLevel":0,"status":"current","disputed":false,"precision":"oaza","areaKey":"40105021001","elements":["wetland_plants"],"summary":"要素辞書に一致（wetland_plants）。出典による裏づけは未確認。","zones":[],"dataset":"candidates"}},{"type":"Feature","geometry":{"type":"Point","coordinates":[130.826885,33.904459]},"properties":{"id":"40-1c74239a03","name":"飛幡町","reading":"トビハタチョウ","pref":"福岡県","prefCode":"40","municipality":"北九州市戸畑区","hazardTypes":["slope_failure","debris_flow"],"evidenceLevel":0,"status":"current","disputed":false,"precision":"oaza","areaKey":"401050470","elements":["tobi"],"summary":"要素辞書に一致（tobi）。出典による裏づけは未確認。","zones":[],"dataset":"candidates"}},{"type":"Feature","geometry":{"type":"Point","coordinates":[130.806356,33.891273]},"properties":{"id":"40-745bba391a","name":"牧山海岸","reading":"マキヤマカイガン","pref":"福岡県","prefCode":"40","municipality":"北九州市戸畑区","hazardTypes":["slope_failure"],"evidenceLevel":0,"status":"current","disputed":false,"precision":"oaza","areaKey":"401050400","elements":["kake"],"summary":"要素辞書に一致（kake）。出典による裏づけは未確認。","zones":[],"dataset":"candidates"}},{"type":"Feature","geometry":{"type":"Point","coordinates":[130.914506,33.86353]},"properties":{"id":"40-d88ef43201","name":"大字足原","reading":null,"pref":"福岡県","prefCode":"40","municipality":"北九州市小倉北区","hazardTypes":["flood","inundation"],"evidenceLevel":0,"status":"current","disputed":false,"precision":"oaza","areaKey":"401060080","elements":["ashi"],"summary":"要素辞書に一致（ashi）。出典による裏づけは未確認。","zones":[],"dataset":"candidates"}},{"type":"Feature","geometry":{"type":"Point","coordinates":[130.910434,33.89398]},"properties":{"id":"40-437f4779c8","name":"赤坂海岸","reading":"アカサカカイガン","pref":"福岡県","prefCode":"40","municipality":"北九州市小倉北区","hazardTypes":["slope_failure"],"evidenceLevel":0,"status":"current","disputed":false,"precision":"oaza","areaKey":"401060040","elements":["kake"],"summary":"要素辞書に一致（kake）。出典による裏づけは未確認。","zones":[],"dataset":"candidates"}},{"type":"Feature","geometry":{"type":"Point","coordinates":[130.896452,33.869187]},"properties":{"id":"40-d49d96d042","name":"足原一丁目","reading":"アシハラ 1","pref":"福岡県","prefCode":"40","municipality":"北九州市小倉北区","hazardTypes":["flood","inundation"],"evidenceLevel":0,"status":"current","disputed":false,"precision":"oaza","areaKey":"40106007001","elements":["ashi"],"summary":"要素辞書に一致（ashi）。出典による裏づけは未確認。","zones":[],"dataset":"candidates"}},{"type":"Feature","geometry":{"type":"Point","coordinates":[130.900198,33.869086]},"properties":{"id":"40-a10dcb55da","name":"足立一丁目","reading":"アダチ 1","pref":"福岡県","prefCode":"40","municipality":"北九州市小倉北区","hazardTypes":["flood","inundation"],"evidenceLevel":0,"status":"current","disputed":false,"precision":"oaza","areaKey":"40106010001","elements":["ashi"],"summary":"要素辞書に一致（ashi）。出典による裏づけは未確認。","zones":[],"dataset":"candidates"}},{"type":"Feature","geometry":{"type":"Point","coordinates":[130.88304,33.883129]},"properties":{"id":"40-6631fca8ff","name":"鍛冶町一丁目","reading":"カジマチ 1","pref":"福岡県","prefCode":"40","municipality":"北九州市小倉北区","hazardTypes":["slope_failure"],"evidenceLevel":0,"status":"current","disputed":false,"precision":"oaza","areaKey":"40106024001","elements":["kaji_kamu"],"summary":"要素辞書に一致（kaji_kamu）。出典による裏づけは未確認。","zones":[],"dataset":"candidates"}},{"type":"Feature","geometry":{"type":"Point","coordinates":[130.856793,33.841251]},"properties":{"id":"40-595e88a858","name":"大字蒲生","reading":null,"pref":"福岡県","prefCode":"40","municipality":"北九州市小倉南区","hazardTypes":["landslide","soft_ground"],"evidenceLevel":0,"status":"current","disputed":false,"precision":"oaza","areaKey":"401070130","elements":["wetland_plants"],"summary":"要素辞書に一致（wetland_plants）。出典による裏づけは未確認。","zones":[],"dataset":"candidates"}},{"type":"Feature","geometry":{"type":"Point","coordinates":[130.868421,33.845926]},"properties":{"id":"40-9b0ada6b0e","name":"蒲生一丁目","reading":"ガモウ 1","pref":"福岡県","prefCode":"40","municipality":"北九州市小倉南区","hazardTypes":["landslide","soft_ground"],"evidenceLevel":0,"status":"current","disputed":false,"precision":"oaza","areaKey":"40107012001","elements":["wetland_plants"],"summary":"要素辞書に一致（wetland_plants）。出典による裏づけは未確認。","zones":[],"dataset":"candidates"}},{"type":"Feature","geometry":{"type":"Point","coordinates":[130.816635,33.838039]},"properties":{"id":"40-7e26523907","name":"大字大蔵","reading":null,"pref":"福岡県","prefCode":"40","municipality":"北九州市八幡東区","hazardTypes":["slope_failure","rockfall"],"evidenceLevel":0,"status":"current","disputed":false,"precision":"oaza","areaKey":"401080090","elements":["kura"],"summary":"要素辞書に一致（kura）。出典による裏づけは未確認。","zones":[],"dataset":"candidates"}},{"type":"Feature","geometry":{"type":"Point","coordinates":[130.80368,33.84518]},"properties":{"id":"40-be1f7723f2","name":"大字尾倉","reading":null,"pref":"福岡県","prefCode":"40","municipality":"北九州市八幡東区","hazardTypes":["slope_failure","rockfall"],"evidenceLevel":0,"status":"current","disputed":false,"precision":"oaza","areaKey":"401080140","elements":["kura"],"summary":"要素辞書に一致（kura）。出典による裏づけは未確認。","zones":[],"dataset":"candidates"}},{"type":"Feature","geometry":{"type":"Point","coordinates":[130.822519,33.846686]},"properties":{"id":"40-a58110b201","name":"猪倉町","reading":"イノクラマチ","pref":"福岡県","prefCode":"40","municipality":"北九州市八幡東区","hazardTypes":["slope_failure","rockfall","landslide","soft_ground"],"evidenceLevel":0,"status":"current","disputed":false,"precision":"oaza","areaKey":"401080630","elements":["kura","shishi"],"summary":"要素辞書に一致（kura・shishi）。出典による裏づけは未確認。","zones":[],"dataset":"candidates"}},{"type":"Feature","geometry":{"type":"Point","coordinates":[130.823488,33.864949]},"properties":{"id":"40-d4934c74f0","name":"大蔵一丁目","reading":"オオクラ 1","pref":"福岡県","prefCode":"40","municipality":"北九州市八幡東区","hazardTypes":["slope_failure","rockfall"],"evidenceLevel":0,"status":"current","disputed":false,"precision":"oaza","areaKey":"40108008001","elements":["kura"],"summary":"要素辞書に一致（kura）。出典による裏づけは未確認。","zones":[],"dataset":"candidates"}},{"type":"Feature","geometry":{"type":"Point","coordinates":[130.799984,33.863948]},"properties":{"id":"40-d28f469262","name":"尾倉一丁目","reading":"オグラ 1","pref":"福岡県","prefCode":"40","municipality":"北九州市八幡東区","hazardTypes":["slope_failure","rockfall"],"evidenceLevel":0,"status":"current","disputed":false,"precision":"oaza","areaKey":"40108013001","elements":["kura"],"summary":"要素辞書に一致（kura）。出典による裏づけは未確認。","zones":[],"dataset":"candidates"}},{"type":"Feature","geometry":{"type":"Point","coordinates":[130.756591,33.795443]},"properties":{"id":"40-84b7154149","name":"大字馬場山","reading":null,"pref":"福岡県","prefCode":"40","municipality":"北九州市八幡西区","hazardTypes":["slope_failure"],"evidenceLevel":0,"status":"current","disputed":false,"precision":"oaza","areaKey":"401090850","elements":["baba"],"summary":"要素辞書に一致（baba）。出典による裏づけは未確認。","zones":[],"dataset":"candidates"}},{"type":"Feature","geometry":{"type":"Point","coordinates":[130.765496,33.857269]},"properties":{"id":"40-8f5845f097","name":"岸の浦一丁目","reading":"キシノウラ 1","pref":"福岡県","prefCode":"40","municipality":"北九州市八幡西区","hazardTypes":["slope_failure"],"evidenceLevel":0,"status":"current","disputed":false,"precision":"oaza","areaKey":"40109021001","elements":["kake"],"summary":"要素辞書に一致（kake）。出典による裏づけは未確認。","zones":[],"dataset":"candidates"}},{"type":"Feature","geometry":{"type":"Point","coordinates":[130.775973,33.866821]},"properties":{"id":"40-785d7ea8e6","name":"紅梅一丁目","reading":"コウバイ 1","pref":"福岡県","prefCode":"40","municipality":"北九州市八幡西区","hazardTypes":["landslide","slope_failure"],"evidenceLevel":0,"status":"current","disputed":false,"precision":"oaza","areaKey":"40109035001","elements":["ume"],"summary":"要素辞書に一致（ume）。出典による裏づけは未確認。","zones":[],"dataset":"candidates"}},{"type":"Feature","geometry":{"type":"Point","coordinates":[130.762821,33.862494]},"properties":{"id":"40-f59fb55b64","name":"菅原町","reading":"スガワラマチ","pref":"福岡県","prefCode":"40","municipality":"北九州市八幡西区","hazardTypes":["landslide","soft_ground"],"evidenceLevel":0,"status":"current","disputed":false,"precision":"oaza","areaKey":"401090530","elements":["wetland_plants"],"summary":"要素辞書に一致（wetland_plants）。出典による裏づけは未確認。","zones":[],"dataset":"candidates"}},{"type":"Feature","geometry":{"type":"Point","coordinates":[130.741669,33.790924]},"properties":{"id":"40-294f142882","name":"馬場山西","reading":"ババヤマニシ","pref":"福岡県","prefCode":"40","municipality":"北九州市八幡西区","hazardTypes":["slope_failure"],"evidenceLevel":0,"status":"current","disputed":false,"precision":"oaza","areaKey":"401091570","elements":["baba"],"summary":"要素辞書に一致（baba）。出典による裏づけは未確認。","zones":[],"dataset":"candidates"}},{"type":"Feature","geometry":{"type":"Point","coordinates":[130.737511,33.796617]},"properties":{"id":"40-855cd981ad","name":"馬場山原","reading":"ババヤマハラ","pref":"福岡県","prefCode":"40","municipality":"北九州市八幡西区","hazardTypes":["slope_failure"],"evidenceLevel":0,"status":"current","disputed":false,"precision":"oaza","areaKey":"401091580","elements":["baba"],"summary":"要素辞書に一致（baba）。出典による裏づけは未確認。","zones":[],"dataset":"candidates"}},{"type":"Feature","geometry":{"type":"Point","coordinates":[130.751285,33.797581]},"properties":{"id":"40-7e24469d6f","name":"馬場山東一丁目","reading":"ババヤマヒガシ 1","pref":"福岡県","prefCode":"40","municipality":"北九州市八幡西区","hazardTypes":["slope_failure"],"evidenceLevel":0,"status":"current","disputed":false,"precision":"oaza","areaKey":"40109147001","elements":["baba"],"summary":"要素辞書に一致（baba）。出典による裏づけは未確認。","zones":[],"dataset":"candidates"}},{"type":"Feature","geometry":{"type":"Point","coordinates":[130.738581,33.789714]},"properties":{"id":"40-7197aa808e","name":"馬場山緑","reading":"ババヤマミドリ","pref":"福岡県","prefCode":"40","municipality":"北九州市八幡西区","hazardTypes":["slope_failure"],"evidenceLevel":0,"status":"current","disputed":false,"precision":"oaza","areaKey":"401091590","elements":["baba"],"summary":"要素辞書に一致（baba）。出典による裏づけは未確認。","zones":[],"dataset":"candidates"}},{"type":"Feature","geometry":{"type":"Point","coordinates":[130.48405,33.640888]},"properties":{"id":"40-63b10e3e74","name":"蒲田一丁目","reading":"カマタ 1","pref":"福岡県","prefCode":"40","municipality":"福岡市東区","hazardTypes":["landslide","soft_ground"],"evidenceLevel":0,"status":"current","disputed":false,"precision":"oaza","areaKey":"40131066001","elements":["wetland_plants"],"summary":"要素辞書に一致（wetland_plants）。出典による裏づけは未確認。","zones":[],"dataset":"candidates"}},{"type":"Feature","geometry":{"type":"Point","coordinates":[130.446245,33.586887]},"properties":{"id":"40-2eea7d93df","name":"大字青木","reading":null,"pref":"福岡県","prefCode":"40","municipality":"福岡市博多区","hazardTypes":["slope_failure"],"evidenceLevel":0,"status":"current","disputed":false,"precision":"oaza","areaKey":null,"elements":["afu_oo"],"summary":"要素辞書に一致（afu_oo）。出典による裏づけは未確認。","zones":[],"dataset":"candidates"}},{"type":"Feature","geometry":{"type":"Point","coordinates":[130.45394,33.59192]},"properties":{"id":"40-02d6ce2f4d","name":"青木一丁目","reading":"アオキ 1","pref":"福岡県","prefCode":"40","municipality":"福岡市博多区","hazardTypes":["slope_failure"],"evidenceLevel":0,"status":"current","disputed":false,"precision":"oaza","areaKey":"40132078001","elements":["afu_oo"],"summary":"要素辞書に一致（afu_oo）。出典による裏づけは未確認。","zones":[],"dataset":"candidates"}},{"type":"Feature","geometry":{"type":"Point","coordinates":[130.376209,33.575055]},"properties":{"id":"40-6db101d7f8","name":"梅光園一丁目","reading":"バイコウエン 1","pref":"福岡県","prefCode":"40","municipality":"福岡市中央区","hazardTypes":["landslide","slope_failure"],"evidenceLevel":0,"status":"current","disputed":false,"precision":"oaza","areaKey":"40133049001","elements":["ume"],"summary":"要素辞書に一致（ume）。出典による裏づけは未確認。","zones":[],"dataset":"candidates"}},{"type":"Feature","geometry":{"type":"Point","coordinates":[130.376906,33.573648]},"properties":{"id":"40-f7d24a3935","name":"梅光園団地","reading":"バイコウエンダンチ","pref":"福岡県","prefCode":"40","municipality":"福岡市中央区","hazardTypes":["landslide","slope_failure"],"evidenceLevel":0,"status":"current","disputed":false,"precision":"oaza","areaKey":"401330500","elements":["ume"],"summary":"要素辞書に一致（ume）。出典による裏づけは未確認。","zones":[],"dataset":"candidates"}},{"type":"Feature","geometry":{"type":"Point","coordinates":[130.239844,33.555944]},"properties":{"id":"40-7fa0e92c8d","name":"大字宇田川原","reading":null,"pref":"福岡県","prefCode":"40","municipality":"福岡市西区","hazardTypes":["flood"],"evidenceLevel":0,"status":"current","disputed":false,"precision":"oaza","areaKey":"401350440","elements":["kawara"],"summary":"要素辞書に一致（kawara）。出典による裏づけは未確認。","zones":[],"dataset":"candidates"}},{"type":"Feature","geometry":{"type":"Point","coordinates":[130.28858,33.570886]},"properties":{"id":"40-976be73716","name":"今宿青木","reading":"イマジュクアオキ","pref":"福岡県","prefCode":"40","municipality":"福岡市西区","hazardTypes":["slope_failure"],"evidenceLevel":0,"status":"current","disputed":false,"precision":"oaza","areaKey":"401350390","elements":["afu_oo"],"summary":"要素辞書に一致（afu_oo）。出典による裏づけは未確認。","zones":[],"dataset":"candidates"}},{"type":"Feature","geometry":{"type":"Point","coordinates":[130.361197,33.537586]},"properties":{"id":"40-c91dc08d9b","name":"大字梅林","reading":null,"pref":"福岡県","prefCode":"40","municipality":"福岡市城南区","hazardTypes":["landslide","slope_failure"],"evidenceLevel":0,"status":"current","disputed":false,"precision":"oaza","areaKey":"401360270","elements":["ume"],"summary":"要素辞書に一致（ume）。出典による裏づけは未確認。","zones":[],"dataset":"candidates"}},{"type":"Feature","geometry":{"type":"Point","coordinates":[130.356348,33.56666]},"properties":{"id":"40-803c58a8ab","name":"飯倉一丁目","reading":"イイクラ 1","pref":"福岡県","prefCode":"40","municipality":"福岡市城南区","hazardTypes":["slope_failure","rockfall"],"evidenceLevel":0,"status":"current","disputed":false,"precision":"oaza","areaKey":null,"elements":["kura"],"summary":"要素辞書に一致（kura）。出典による裏づけは未確認。","zones":[],"dataset":"candidates"}},{"type":"Feature","geometry":{"type":"Point","coordinates":[130.359019,33.542093]},"properties":{"id":"40-fc46e8fa00","name":"梅林一丁目","reading":"ウメバヤシ 1","pref":"福岡県","prefCode":"40","municipality":"福岡市城南区","hazardTypes":["landslide","slope_failure"],"evidenceLevel":0,"status":"current","disputed":false,"precision":"oaza","areaKey":"40136026001","elements":["ume"],"summary":"要素辞書に一致（ume）。出典による裏づけは未確認。","zones":[],"dataset":"candidates"}},{"type":"Feature","geometry":{"type":"Point","coordinates":[130.357546,33.536428]},"properties":{"id":"40-3ad9e6a121","name":"大字梅林","reading":null,"pref":"福岡県","prefCode":"40","municipality":"福岡市早良区","hazardTypes":["landslide","slope_failure"],"evidenceLevel":0,"status":"current","disputed":false,"precision":"oaza","areaKey":"401370280","elements":["ume"],"summary":"要素辞書に一致（ume）。出典による裏づけは未確認。","zones":[],"dataset":"candidates"}},{"type":"Feature","geometry":{"type":"Point","coordinates":[130.353443,33.566458]},"properties":{"id":"40-45e69c1505","name":"飯倉二丁目","reading":"イイクラ 2","pref":"福岡県","prefCode":"40","municipality":"福岡市早良区","hazardTypes":["slope_failure","rockfall"],"evidenceLevel":0,"status":"current","disputed":false,"precision":"oaza","areaKey":"40137020002","elements":["kura"],"summary":"要素辞書に一致（kura）。出典による裏づけは未確認。","zones":[],"dataset":"candidates"}},{"type":"Feature","geometry":{"type":"Point","coordinates":[130.351232,33.541997]},"properties":{"id":"40-51e2f3516e","name":"梅林六丁目","reading":"ウメバヤシ 6","pref":"福岡県","prefCode":"40","municipality":"福岡市早良区","hazardTypes":["landslide","slope_failure"],"evidenceLevel":0,"status":"current","disputed":false,"precision":"oaza","areaKey":"40137027006","elements":["ume"],"summary":"要素辞書に一致（ume）。出典による裏づけは未確認。","zones":[],"dataset":"candidates"}},{"type":"Feature","geometry":{"type":"Point","coordinates":[130.455278,33.07894]},"properties":{"id":"40-1b323b44aa","name":"大字倉永","reading":null,"pref":"福岡県","prefCode":"40","municipality":"大牟田市","hazardTypes":["slope_failure","rockfall"],"evidenceLevel":0,"status":"current","disputed":false,"precision":"oaza","areaKey":"402021570","elements":["kura"],"summary":"要素辞書に一致（kura）。出典による裏づけは未確認。","zones":[],"dataset":"candidates"}},{"type":"Feature","geometry":{"type":"Point","coordinates":[130.452155,33.040685]},"properties":{"id":"40-80af57d8c6","name":"柿園町一丁目","reading":"カキゾノマチ 1","pref":"福岡県","prefCode":"40","municipality":"大牟田市","hazardTypes":["slope_failure"],"evidenceLevel":0,"status":"current","disputed":false,"precision":"oaza","areaKey":"40202121001","elements":["kake"],"summary":"要素辞書に一致（kake）。出典による裏づけは未確認。","zones":[],"dataset":"candidates"}},{"type":"Feature","geometry":{"type":"Point","coordinates":[130.440583,33.040753]},"properties":{"id":"40-4494d50d7a","name":"北磯町","reading":"キタイソマチ","pref":"福岡県","prefCode":"40","municipality":"大牟田市","hazardTypes":["rockfall","debris_flow"],"evidenceLevel":0,"status":"current","disputed":false,"precision":"oaza","areaKey":"402021110","elements":["iso_ishi"],"summary":"要素辞書に一致（iso_ishi）。出典による裏づけは未確認。","zones":[],"dataset":"candidates"}},{"type":"Feature","geometry":{"type":"Point","coordinates":[130.446239,33.013085]},"properties":{"id":"40-0d95159188","name":"馬場町","reading":"ババマチ","pref":"福岡県","prefCode":"40","municipality":"大牟田市","hazardTypes":["slope_failure"],"evidenceLevel":0,"status":"current","disputed":false,"precision":"oaza","areaKey":"402020450","elements":["baba"],"summary":"要素辞書に一致（baba）。出典による裏づけは未確認。","zones":[],"dataset":"candidates"}},{"type":"Feature","geometry":{"type":"Point","coordinates":[130.495508,33.308174]},"properties":{"id":"40-61a1c15b6d","name":"梅満町","reading":"ウメミツマチ","pref":"福岡県","prefCode":"40","municipality":"久留米市","hazardTypes":["landslide","slope_failure"],"evidenceLevel":0,"status":"current","disputed":false,"precision":"oaza","areaKey":"402030270","elements":["ume"],"summary":"要素辞書に一致（ume）。出典による裏づけは未確認。","zones":[],"dataset":"candidates"}},{"type":"Feature","geometry":{"type":"Point","coordinates":[130.396367,33.244908]},"properties":{"id":"40-a84e92f977","name":"城島町青木島","reading":"ジョウジママチアオキシマ","pref":"福岡県","prefCode":"40","municipality":"久留米市","hazardTypes":["slope_failure"],"evidenceLevel":0,"status":"current","disputed":false,"precision":"oaza","areaKey":"402031860","elements":["afu_oo"],"summary":"要素辞書に一致（afu_oo）。出典による裏づけは未確認。","zones":[],"dataset":"candidates"}},{"type":"Feature","geometry":{"type":"Point","coordinates":[130.433721,33.285696]},"properties":{"id":"40-0bef187aee","name":"城島町芦塚","reading":"ジョウジママチアシヅカ","pref":"福岡県","prefCode":"40","municipality":"久留米市","hazardTypes":["flood","inundation"],"evidenceLevel":0,"status":"current","disputed":false,"precision":"oaza","areaKey":"402031730","elements":["ashi"],"summary":"要素辞書に一致（ashi）。出典による裏づけは未確認。","zones":[],"dataset":"candidates"}},{"type":"Feature","geometry":{"type":"Point","coordinates":[130.41075,33.242409]},"properties":{"id":"40-322b216134","name":"城島町上青木","reading":"ジョウジママチカミアオキ","pref":"福岡県","prefCode":"40","municipality":"久留米市","hazardTypes":["slope_failure"],"evidenceLevel":0,"status":"current","disputed":false,"precision":"oaza","areaKey":"402031890","elements":["afu_oo"],"summary":"要素辞書に一致（afu_oo）。出典による裏づけは未確認。","zones":[],"dataset":"candidates"}},{"type":"Feature","geometry":{"type":"Point","coordinates":[130.405674,33.234927]},"properties":{"id":"40-1abdc0a6a0","name":"城島町下青木","reading":"ジョウジママチシモアオキ","pref":"福岡県","prefCode":"40","municipality":"久留米市","hazardTypes":["slope_failure"],"evidenceLevel":0,"status":"current","disputed":false,"precision":"oaza","areaKey":"402031900","elements":["afu_oo"],"summary":"要素辞書に一致（afu_oo）。出典による裏づけは未確認。","zones":[],"dataset":"candidates"}},{"type":"Feature","geometry":{"type":"Point","coordinates":[130.395024,33.237372]},"properties":{"id":"40-da508af68d","name":"城島町西青木","reading":"ジョウジママチニシアオキ","pref":"福岡県","prefCode":"40","municipality":"久留米市","hazardTypes":["slope_failure"],"evidenceLevel":0,"status":"current","disputed":false,"precision":"oaza","areaKey":"402031910","elements":["afu_oo"],"summary":"要素辞書に一致（afu_oo）。出典による裏づけは未確認。","zones":[],"dataset":"candidates"}},{"type":"Feature","geometry":{"type":"Point","coordinates":[130.640795,33.353449]},"properties":{"id":"40-f9346f4e40","name":"田主丸町菅原","reading":"タヌシマルマチスガハラ","pref":"福岡県","prefCode":"40","municipality":"久留米市","hazardTypes":["landslide","soft_ground"],"evidenceLevel":0,"status":"current","disputed":false,"precision":"oaza","areaKey":"402031440","elements":["wetland_plants"],"summary":"要素辞書に一致（wetland_plants）。出典による裏づけは未確認。","zones":[],"dataset":"candidates"}},{"type":"Feature","geometry":{"type":"Point","coordinates":[130.515343,33.300064]},"properties":{"id":"40-2a13a0fe76","name":"鞍打","reading":null,"pref":"福岡県","prefCode":"40","municipality":"久留米市","hazardTypes":["slope_failure","rockfall"],"evidenceLevel":0,"status":"current","disputed":false,"precision":"koaza","areaKey":"40203047000","elements":["kura"],"summary":"要素辞書に一致（kura）。出典による裏づけは未確認。","zones":[],"dataset":"candidates"}},{"type":"Feature","geometry":{"type":"Point","coordinates":[130.779623,33.76959]},"properties":{"id":"40-17db19b332","name":"大字上頓野","reading":null,"pref":"福岡県","prefCode":"40","municipality":"直方市","hazardTypes":["slope_failure","debris_flow"],"evidenceLevel":0,"status":"current","disputed":false,"precision":"oaza","areaKey":"402040200","elements":["tobi"],"summary":"要素辞書に一致（tobi）。出典による裏づけは未確認。","zones":[],"dataset":"candidates"}},{"type":"Feature","geometry":{"type":"Point","coordinates":[130.766981,33.752084]},"properties":{"id":"40-f7f3ee8c2d","name":"大字頓野","reading":null,"pref":"福岡県","prefCode":"40","municipality":"直方市","hazardTypes":["slope_failure","debris_flow"],"evidenceLevel":0,"status":"current","disputed":false,"precision":"oaza","areaKey":"40204019000","elements":["tobi"],"summary":"要素辞書に一致（tobi）。出典による裏づけは未確認。","zones":[],"dataset":"candidates"}},{"type":"Feature","geometry":{"type":"Point","coordinates":[130.741669,33.66937]},"properties":{"id":"40-de9cab96e6","name":"鹿毛馬","reading":"カケノウマ","pref":"福岡県","prefCode":"40","municipality":"飯塚市","hazardTypes":["landslide","soft_ground"],"evidenceLevel":0,"status":"current","disputed":false,"precision":"oaza","areaKey":"40205088001","elements":["shishi"],"summary":"要素辞書に一致（shishi）。出典による裏づけは未確認。","zones":[],"dataset":"candidates"}},{"type":"Feature","geometry":{"type":"Point","coordinates":[130.62519,33.61201]},"properties":{"id":"40-c53fd575a0","name":"舎利蔵","reading":"シャリクラ","pref":"福岡県","prefCode":"40","municipality":"飯塚市","hazardTypes":["slope_failure","rockfall"],"evidenceLevel":0,"status":"current","disputed":false,"precision":"oaza","areaKey":"402050530","elements":["kura"],"summary":"要素辞書に一致（kura）。出典による裏づけは未確認。","zones":[],"dataset":"candidates"}},{"type":"Feature","geometry":{"type":"Point","coordinates":[130.764387,33.60299]},"properties":{"id":"40-3c52d6c85f","name":"高倉","reading":"タカクラ","pref":"福岡県","prefCode":"40","municipality":"飯塚市","hazardTypes":["slope_failure","rockfall"],"evidenceLevel":0,"status":"current","disputed":false,"precision":"oaza","areaKey":"402050840","elements":["kura"],"summary":"要素辞書に一致（kura）。出典による裏づけは未確認。","zones":[],"dataset":"candidates"}},{"type":"Feature","geometry":{"type":"Point","coordinates":[130.744869,33.625231]},"properties":{"id":"40-4cd5db156c","name":"山倉","reading":"ヤマクラ","pref":"福岡県","prefCode":"40","municipality":"飯塚市","hazardTypes":["slope_failure","rockfall"],"evidenceLevel":0,"status":"current","disputed":false,"precision":"oaza","areaKey":"402050740","elements":["kura"],"summary":"要素辞書に一致（kura）。出典による裏づけは未確認。","zones":[],"dataset":"candidates"}},{"type":"Feature","geometry":{"type":"Point","coordinates":[130.816018,33.67416]},"properties":{"id":"40-5b24f2993e","name":"大字夏吉","reading":null,"pref":"福岡県","prefCode":"40","municipality":"田川市","hazardTypes":["debris_flow","slope_failure"],"evidenceLevel":0,"status":"current","disputed":false,"precision":"oaza","areaKey":"402060250","elements":["nazu_natsu"],"summary":"要素辞書に一致（nazu_natsu）。出典による裏づけは未確認。","zones":[],"dataset":"candidates"}},{"type":"Feature","geometry":{"type":"Point","coordinates":[130.779824,33.586402]},"properties":{"id":"40-e742dece2e","name":"大字猪国","reading":null,"pref":"福岡県","prefCode":"40","municipality":"田川市","hazardTypes":["landslide","soft_ground"],"evidenceLevel":0,"status":"current","disputed":false,"precision":"oaza","areaKey":"402060280","elements":["shishi"],"summary":"要素辞書に一致（shishi）。出典による裏づけは未確認。","zones":[],"dataset":"candidates"}},{"type":"Feature","geometry":{"type":"Point","coordinates":[130.404359,33.167772]},"properties":{"id":"40-be2948ec4b","name":"鍛冶屋町","reading":"カジヤマチ","pref":"福岡県","prefCode":"40","municipality":"柳川市","hazardTypes":["slope_failure"],"evidenceLevel":0,"status":"current","disputed":false,"precision":"oaza","areaKey":null,"elements":["kaji_kamu"],"summary":"要素辞書に一致（kaji_kamu）。出典による裏づけは未確認。","zones":[],"dataset":"candidates"}},{"type":"Feature","geometry":{"type":"Point","coordinates":[130.426869,33.192373]},"properties":{"id":"40-52a956e6ed","name":"蒲生","reading":"ガモウ","pref":"福岡県","prefCode":"40","municipality":"柳川市","hazardTypes":["landslide","soft_ground"],"evidenceLevel":0,"status":"current","disputed":false,"precision":"oaza","areaKey":null,"elements":["wetland_plants"],"summary":"要素辞書に一致（wetland_plants）。出典による裏づけは未確認。","zones":[],"dataset":"candidates"}},{"type":"Feature","geometry":{"type":"Point","coordinates":[130.400952,33.185965]},"properties":{"id":"40-268c327745","name":"西蒲池","reading":"ニシカマチ","pref":"福岡県","prefCode":"40","municipality":"柳川市","hazardTypes":["landslide","soft_ground"],"evidenceLevel":0,"status":"current","disputed":false,"precision":"oaza","areaKey":null,"elements":["wetland_plants"],"summary":"要素辞書に一致（wetland_plants）。出典による裏づけは未確認。","zones":[],"dataset":"candidates"}},{"type":"Feature","geometry":{"type":"Point","coordinates":[130.409113,33.186371]},"properties":{"id":"40-e712bf7c48","name":"東蒲池","reading":"ヒガシカマチ","pref":"福岡県","prefCode":"40","municipality":"柳川市","hazardTypes":["landslide","soft_ground"],"evidenceLevel":0,"status":"current","disputed":false,"precision":"oaza","areaKey":null,"elements":["wetland_plants"],"summary":"要素辞書に一致（wetland_plants）。出典による裏づけは未確認。","zones":[],"dataset":"candidates"}},{"type":"Feature","geometry":{"type":"Point","coordinates":[130.42917,33.178274]},"properties":{"id":"40-35f5b2c669","name":"三橋町磯鳥","reading":"ミツハシマチイソドリ","pref":"福岡県","prefCode":"40","municipality":"柳川市","hazardTypes":["rockfall","debris_flow"],"evidenceLevel":0,"status":"current","disputed":false,"precision":"oaza","areaKey":null,"elements":["iso_ishi"],"summary":"要素辞書に一致（iso_ishi）。出典による裏づけは未確認。","zones":[],"dataset":"candidates"}},{"type":"Feature","geometry":{"type":"Point","coordinates":[130.425455,33.167578]},"properties":{"id":"40-8bc4fed901","name":"三橋町蒲船津","reading":"ミツハシマチカマフナツ","pref":"福岡県","prefCode":"40","municipality":"柳川市","hazardTypes":["landslide","soft_ground"],"evidenceLevel":0,"status":"current","disputed":false,"precision":"oaza","areaKey":null,"elements":["wetland_plants"],"summary":"要素辞書に一致（wetland_plants）。出典による裏づけは未確認。","zones":[],"dataset":"candidates"}},{"type":"Feature","geometry":{"type":"Point","coordinates":[130.436057,33.155824]},"properties":{"id":"40-da65406a9f","name":"三橋町垂見","reading":"ミツハシマチタルミ","pref":"福岡県","prefCode":"40","municipality":"柳川市","hazardTypes":["slope_failure"],"evidenceLevel":0,"status":"current","disputed":false,"precision":"oaza","areaKey":null,"elements":["kake"],"summary":"要素辞書に一致（kake）。出典による裏づけは未確認。","zones":[],"dataset":"candidates"}},{"type":"Feature","geometry":{"type":"Point","coordinates":[130.563191,33.216625]},"properties":{"id":"40-b6aaca706f","name":"深町","reading":null,"pref":"福岡県","prefCode":"40","municipality":"八女市","hazardTypes":["soft_ground","inundation"],"evidenceLevel":0,"status":"current","disputed":false,"precision":"koaza","areaKey":"402100080","elements":["fuke"],"summary":"要素辞書に一致（fuke）。出典による裏づけは未確認。","zones":[],"dataset":"candidates"}},{"type":"Feature","geometry":{"type":"Point","coordinates":[130.543699,33.216936]},"properties":{"id":"40-8fd9de9ece","name":"蒲原","reading":"カマハラ","pref":"福岡県","prefCode":"40","municipality":"八女市","hazardTypes":["landslide","soft_ground"],"evidenceLevel":0,"status":"current","disputed":false,"precision":"oaza","areaKey":"40210035001","elements":["wetland_plants"],"summary":"要素辞書に一致（wetland_plants）。出典による裏づけは未確認。","zones":[],"dataset":"candidates"}},{"type":"Feature","geometry":{"type":"Point","coordinates":[130.6433,33.176888]},"properties":{"id":"40-47b19971c2","name":"黒木町鹿子生","reading":"クロギマチカコオ","pref":"福岡県","prefCode":"40","municipality":"八女市","hazardTypes":["landslide","soft_ground"],"evidenceLevel":0,"status":"current","disputed":false,"precision":"oaza","areaKey":"402100520","elements":["shishi"],"summary":"要素辞書に一致（shishi）。出典による裏づけは未確認。","zones":[],"dataset":"candidates"}},{"type":"Feature","geometry":{"type":"Point","coordinates":[130.568646,33.208579]},"properties":{"id":"40-ed12f3d1b2","name":"馬場","reading":"ババ","pref":"福岡県","prefCode":"40","municipality":"八女市","hazardTypes":["slope_failure"],"evidenceLevel":0,"status":"current","disputed":false,"precision":"oaza","areaKey":"40210011001","elements":["baba"],"summary":"要素辞書に一致（baba）。出典による裏づけは未確認。","zones":[],"dataset":"candidates"}},{"type":"Feature","geometry":{"type":"Point","coordinates":[130.49819,33.23556]},"properties":{"id":"40-ce1ad5f5ec","name":"大字蔵数","reading":null,"pref":"福岡県","prefCode":"40","municipality":"筑後市","hazardTypes":["slope_failure","rockfall"],"evidenceLevel":0,"status":"current","disputed":false,"precision":"oaza","areaKey":"402110100","elements":["kura"],"summary":"要素辞書に一致（kura）。出典による裏づけは未確認。","zones":[],"dataset":"candidates"}},{"type":"Feature","geometry":{"type":"Point","coordinates":[130.398368,33.229099]},"properties":{"id":"40-88b13e1a29","name":"大字下青木","reading":null,"pref":"福岡県","prefCode":"40","municipality":"大川市","hazardTypes":["slope_failure"],"evidenceLevel":0,"status":"current","disputed":false,"precision":"oaza","areaKey":"402120080","elements":["afu_oo"],"summary":"要素辞書に一致（afu_oo）。出典による裏づけは未確認。","zones":[],"dataset":"candidates"}},{"type":"Feature","geometry":{"type":"Point","coordinates":[130.397752,33.202014]},"properties":{"id":"40-4ce1796ec1","name":"大字荻島","reading":null,"pref":"福岡県","prefCode":"40","municipality":"大川市","hazardTypes":["slope_failure"],"evidenceLevel":0,"status":"current","disputed":false,"precision":"oaza","areaKey":"402120140","elements":["suki_hagu"],"summary":"要素辞書に一致（suki_hagu）。出典による裏づけは未確認。","zones":[],"dataset":"candidates"}},{"type":"Feature","geometry":{"type":"Point","coordinates":[130.899365,33.741448]},"properties":{"id":"40-efc4b6db78","name":"内蔵","reading":null,"pref":"福岡県","prefCode":"40","municipality":"行橋市","hazardTypes":["slope_failure","rockfall"],"evidenceLevel":0,"status":"current","disputed":false,"precision":"oaza","areaKey":null,"elements":["kura"],"summary":"要素辞書に一致（kura）。出典による裏づけは未確認。","zones":[],"dataset":"candidates"}},{"type":"Feature","geometry":{"type":"Point","coordinates":[131.009292,33.710054]},"properties":{"id":"40-4b019fe4c2","name":"大字馬場","reading":null,"pref":"福岡県","prefCode":"40","municipality":"行橋市","hazardTypes":["slope_failure"],"evidenceLevel":0,"status":"current","disputed":false,"precision":"oaza","areaKey":"402130180","elements":["baba"],"summary":"要素辞書に一致（baba）。出典による裏づけは未確認。","zones":[],"dataset":"candidates"}},{"type":"Feature","geometry":{"type":"Point","coordinates":[131.137493,33.595051]},"properties":{"id":"40-1f8e206abd","name":"大字岸井","reading":null,"pref":"福岡県","prefCode":"40","municipality":"豊前市","hazardTypes":["slope_failure"],"evidenceLevel":0,"status":"current","disputed":false,"precision":"oaza","areaKey":"402140250","elements":["kake"],"summary":"要素辞書に一致（kake）。出典による裏づけは未確認。","zones":[],"dataset":"candidates"}},{"type":"Feature","geometry":{"type":"Point","coordinates":[131.123193,33.578443]},"properties":{"id":"40-63ad4304b7","name":"大字河原田","reading":null,"pref":"福岡県","prefCode":"40","municipality":"豊前市","hazardTypes":["flood"],"evidenceLevel":0,"status":"current","disputed":false,"precision":"oaza","areaKey":"402140410","elements":["kawara"],"summary":"要素辞書に一致（kawara）。出典による裏づけは未確認。","zones":[],"dataset":"candidates"}},{"type":"Feature","geometry":{"type":"Point","coordinates":[131.063118,33.603884]},"properties":{"id":"40-c69a45d1ca","name":"大字馬場","reading":null,"pref":"福岡県","prefCode":"40","municipality":"豊前市","hazardTypes":["slope_failure"],"evidenceLevel":0,"status":"current","disputed":false,"precision":"oaza","areaKey":"402140040","elements":["baba"],"summary":"要素辞書に一致（baba）。出典による裏づけは未確認。","zones":[],"dataset":"candidates"}},{"type":"Feature","geometry":{"type":"Point","coordinates":[130.589135,33.540167]},"properties":{"id":"40-7f113b52c8","name":"大字柚須原","reading":null,"pref":"福岡県","prefCode":"40","municipality":"筑紫野市","hazardTypes":["slope_failure"],"evidenceLevel":0,"status":"current","disputed":false,"precision":"oaza","areaKey":"402170160","elements":["yusu"],"summary":"要素辞書に一致（yusu）。出典による裏づけは未確認。","zones":[],"dataset":"candidates"}},{"type":"Feature","geometry":{"type":"Point","coordinates":[130.509176,33.484292]},"properties":{"id":"40-0cc8d7352c","name":"大字武藏","reading":null,"pref":"福岡県","prefCode":"40","municipality":"筑紫野市","hazardTypes":["slope_failure","rockfall"],"evidenceLevel":0,"status":"current","disputed":false,"precision":"oaza","areaKey":"40217005101","elements":["kura"],"summary":"要素辞書に一致（kura）。出典による裏づけは未確認。","zones":[],"dataset":"candidates"}},{"type":"Feature","geometry":{"type":"Point","coordinates":[130.511645,33.489788]},"properties":{"id":"40-3c693338d5","name":"武蔵一丁目","reading":"1","pref":"福岡県","prefCode":"40","municipality":"筑紫野市","hazardTypes":["slope_failure","rockfall"],"evidenceLevel":0,"status":"current","disputed":false,"precision":"oaza","areaKey":"40217053001","elements":["kura"],"summary":"要素辞書に一致（kura）。出典による裏づけは未確認。","zones":[],"dataset":"candidates"}},{"type":"Feature","geometry":{"type":"Point","coordinates":[130.456505,33.533608]},"properties":{"id":"40-ac90f2cc11","name":"小倉一丁目","reading":"コクラ 1","pref":"福岡県","prefCode":"40","municipality":"春日市","hazardTypes":["slope_failure","rockfall"],"evidenceLevel":0,"status":"current","disputed":false,"precision":"oaza","areaKey":"40218003101","elements":["kura"],"summary":"要素辞書に一致（kura）。出典による裏づけは未確認。","zones":[],"dataset":"candidates"}},{"type":"Feature","geometry":{"type":"Point","coordinates":[130.457253,33.531127]},"properties":{"id":"40-302902a5d8","name":"小倉東一丁目","reading":"コクラヒガシ 1","pref":"福岡県","prefCode":"40","municipality":"春日市","hazardTypes":["slope_failure","rockfall"],"evidenceLevel":0,"status":"current","disputed":false,"precision":"oaza","areaKey":"40218003301","elements":["kura"],"summary":"要素辞書に一致（kura）。出典による裏づけは未確認。","zones":[],"dataset":"candidates"}},{"type":"Feature","geometry":{"type":"Point","coordinates":[130.507756,33.832635]},"properties":{"id":"40-6a9b56963f","name":"深田","reading":"フカタ","pref":"福岡県","prefCode":"40","municipality":"宗像市","hazardTypes":["soft_ground","inundation"],"evidenceLevel":0,"status":"current","disputed":false,"precision":"oaza","areaKey":"40220053001","elements":["fuke"],"summary":"要素辞書に一致（fuke）。出典による裏づけは未確認。","zones":[],"dataset":"candidates"}},{"type":"Feature","geometry":{"type":"Point","coordinates":[130.528858,33.802564]},"properties":{"id":"40-8213ce2cef","name":"三倉","reading":"ミクラ","pref":"福岡県","prefCode":"40","municipality":"宗像市","hazardTypes":["slope_failure","rockfall"],"evidenceLevel":0,"status":"current","disputed":false,"precision":"oaza","areaKey":"402200395","elements":["kura"],"summary":"要素辞書に一致（kura）。出典による裏づけは未確認。","zones":[],"dataset":"candidates"}},{"type":"Feature","geometry":{"type":"Point","coordinates":[130.539105,33.49283]},"properties":{"id":"40-66c31f5721","name":"梅ケ丘一丁目","reading":"ウメガオカ 1","pref":"福岡県","prefCode":"40","municipality":"太宰府市","hazardTypes":["landslide","slope_failure"],"evidenceLevel":0,"status":"current","disputed":false,"precision":"oaza","areaKey":"40221013001","elements":["ume"],"summary":"要素辞書に一致（ume）。出典による裏づけは未確認。","zones":[],"dataset":"candidates"}},{"type":"Feature","geometry":{"type":"Point","coordinates":[130.532259,33.499375]},"properties":{"id":"40-f272797153","name":"梅香苑一丁目","reading":"バイコウエン 1","pref":"福岡県","prefCode":"40","municipality":"太宰府市","hazardTypes":["landslide","slope_failure"],"evidenceLevel":0,"status":"current","disputed":false,"precision":"oaza","areaKey":"40221011001","elements":["ume"],"summary":"要素辞書に一致（ume）。出典による裏づけは未確認。","zones":[],"dataset":"candidates"}},{"type":"Feature","geometry":{"type":"Point","coordinates":[130.487446,33.717222]},"properties":{"id":"40-ed147c3913","name":"川原","reading":"カワバル","pref":"福岡県","prefCode":"40","municipality":"古賀市","hazardTypes":["flood"],"evidenceLevel":0,"status":"current","disputed":false,"precision":"oaza","areaKey":null,"elements":["kawara"],"summary":"要素辞書に一致（kawara）。出典による裏づけは未確認。","zones":[],"dataset":"candidates"}},{"type":"Feature","geometry":{"type":"Point","coordinates":[130.463991,33.716112]},"properties":{"id":"40-0110a5357a","name":"鹿部","reading":"シシブ","pref":"福岡県","prefCode":"40","municipality":"古賀市","hazardTypes":["landslide","soft_ground"],"evidenceLevel":0,"status":"current","disputed":false,"precision":"oaza","areaKey":"402230152","elements":["shishi"],"summary":"要素辞書に一致（shishi）。出典による裏づけは未確認。","zones":[],"dataset":"candidates"}},{"type":"Feature","geometry":{"type":"Point","coordinates":[130.530697,33.742081]},"properties":{"id":"40-e538017ebd","name":"舎利蔵","reading":"シャリクラ","pref":"福岡県","prefCode":"40","municipality":"福津市","hazardTypes":["slope_failure","rockfall"],"evidenceLevel":0,"status":"current","disputed":false,"precision":"oaza","areaKey":"402240120","elements":["kura"],"summary":"要素辞書に一致（kura）。出典による裏づけは未確認。","zones":[],"dataset":"candidates"}},{"type":"Feature","geometry":{"type":"Point","coordinates":[130.799586,33.353418]},"properties":{"id":"40-fb21bb46ee","name":"浮羽町古川","reading":"ウキハマチフルカワ","pref":"福岡県","prefCode":"40","municipality":"うきは市","hazardTypes":["flood","inundation"],"evidenceLevel":0,"status":"current","disputed":false,"precision":"oaza","areaKey":null,"elements":["furukawa"],"summary":"要素辞書に一致（furukawa）。出典による裏づけは未確認。","zones":[],"dataset":"candidates"}},{"type":"Feature","geometry":{"type":"Point","coordinates":[130.678811,33.70774]},"properties":{"id":"40-dcea5f340f","name":"磯光","reading":"イソミツ","pref":"福岡県","prefCode":"40","municipality":"宮若市","hazardTypes":["rockfall","debris_flow"],"evidenceLevel":0,"status":"current","disputed":false,"precision":"oaza","areaKey":null,"elements":["iso_ishi"],"summary":"要素辞書に一致（iso_ishi）。出典による裏づけは未確認。","zones":[],"dataset":"candidates"}},{"type":"Feature","geometry":{"type":"Point","coordinates":[130.630478,33.77688]},"properties":{"id":"40-32a1c620d4","name":"倉久","reading":"クラヒサ","pref":"福岡県","prefCode":"40","municipality":"宮若市","hazardTypes":["slope_failure","rockfall"],"evidenceLevel":0,"status":"current","disputed":false,"precision":"oaza","areaKey":null,"elements":["kura"],"summary":"要素辞書に一致（kura）。出典による裏づけは未確認。","zones":[],"dataset":"candidates"}},{"type":"Feature","geometry":{"type":"Point","coordinates":[130.635618,33.741691]},"properties":{"id":"40-4cfdb4fdea","name":"芹田","reading":"セリダ","pref":"福岡県","prefCode":"40","municipality":"宮若市","hazardTypes":["landslide","soft_ground"],"evidenceLevel":0,"status":"current","disputed":false,"precision":"oaza","areaKey":null,"elements":["wetland_plants"],"summary":"要素辞書に一致（wetland_plants）。出典による裏づけは未確認。","zones":[],"dataset":"candidates"}},{"type":"Feature","geometry":{"type":"Point","coordinates":[130.773502,33.574853]},"properties":{"id":"40-1de3b4e628","name":"猪国","reading":"イノクニ","pref":"福岡県","prefCode":"40","municipality":"嘉麻市","hazardTypes":["landslide","soft_ground"],"evidenceLevel":0,"status":"current","disputed":false,"precision":"oaza","areaKey":null,"elements":["shishi"],"summary":"要素辞書に一致（shishi）。出典による裏づけは未確認。","zones":[],"dataset":"candidates"}},{"type":"Feature","geometry":{"type":"Point","coordinates":[130.687644,33.42074]},"properties":{"id":"40-81bb7dd437","name":"柿原","reading":"カキバル","pref":"福岡県","prefCode":"40","municipality":"朝倉市","hazardTypes":["slope_failure"],"evidenceLevel":0,"status":"current","disputed":false,"precision":"oaza","areaKey":"402280520","elements":["kake"],"summary":"要素辞書に一致（kake）。出典による裏づけは未確認。","zones":[],"dataset":"candidates"}},{"type":"Feature","geometry":{"type":"Point","coordinates":[130.64483,33.376815]},"properties":{"id":"40-9ea9f9f66b","name":"倉吉","reading":"クラヨシ","pref":"福岡県","prefCode":"40","municipality":"朝倉市","hazardTypes":["slope_failure","rockfall"],"evidenceLevel":0,"status":"current","disputed":false,"precision":"oaza","areaKey":"402280620","elements":["kura"],"summary":"要素辞書に一致（kura）。出典による裏づけは未確認。","zones":[],"dataset":"candidates"}},{"type":"Feature","geometry":{"type":"Point","coordinates":[130.671379,33.412071]},"properties":{"id":"40-54fb8d4524","name":"頓田","reading":"トンタ","pref":"福岡県","prefCode":"40","municipality":"朝倉市","hazardTypes":["slope_failure","debris_flow"],"evidenceLevel":0,"status":"current","disputed":false,"precision":"oaza","areaKey":"402280560","elements":["tobi"],"summary":"要素辞書に一致（tobi）。出典による裏づけは未確認。","zones":[],"dataset":"candidates"}},{"type":"Feature","geometry":{"type":"Point","coordinates":[130.703973,33.411276]},"properties":{"id":"40-10a8ed3d63","name":"三奈木","reading":"ミナギ","pref":"福岡県","prefCode":"40","municipality":"朝倉市","hazardTypes":["slope_failure"],"evidenceLevel":0,"status":"current","disputed":false,"precision":"oaza","areaKey":"402280800","elements":["nagi"],"summary":"要素辞書に一致（nagi）。出典による裏づけは未確認。","zones":[],"dataset":"candidates"}},{"type":"Feature","geometry":{"type":"Point","coordinates":[130.537507,33.14628]},"properties":{"id":"40-0a60e02fcf","name":"山川町河原内","reading":"ヤマカワマチカワハラウチ","pref":"福岡県","prefCode":"40","municipality":"みやま市","hazardTypes":["flood"],"evidenceLevel":0,"status":"current","disputed":false,"precision":"oaza","areaKey":"40229029001","elements":["kawara"],"summary":"要素辞書に一致（kawara）。出典による裏づけは未確認。","zones":[],"dataset":"candidates"}},{"type":"Feature","geometry":{"type":"Point","coordinates":[130.186014,33.553123]},"properties":{"id":"40-080ac9c93a","name":"荻浦","reading":"オギノウラ","pref":"福岡県","prefCode":"40","municipality":"糸島市","hazardTypes":["slope_failure"],"evidenceLevel":0,"status":"current","disputed":false,"precision":"oaza","areaKey":"402300120","elements":["suki_hagu"],"summary":"要素辞書に一致（suki_hagu）。出典による裏づけは未確認。","zones":[],"dataset":"candidates"}},{"type":"Feature","geometry":{"type":"Point","coordinates":[130.274784,33.507382]},"properties":{"id":"40-6b8901ebc9","name":"川原","reading":"カワバル","pref":"福岡県","prefCode":"40","municipality":"糸島市","hazardTypes":["flood"],"evidenceLevel":0,"status":"current","disputed":false,"precision":"oaza","areaKey":"402300470","elements":["kawara"],"summary":"要素辞書に一致（kawara）。出典による裏づけは未確認。","zones":[],"dataset":"candidates"}},{"type":"Feature","geometry":{"type":"Point","coordinates":[130.223302,33.537302]},"properties":{"id":"40-cc40c77414","name":"蔵持","reading":"クラモチ","pref":"福岡県","prefCode":"40","municipality":"糸島市","hazardTypes":["slope_failure","rockfall"],"evidenceLevel":0,"status":"current","disputed":false,"precision":"oaza","areaKey":"402300310","elements":["kura"],"summary":"要素辞書に一致（kura）。出典による裏づけは未確認。","zones":[],"dataset":"candidates"}},{"type":"Feature","geometry":{"type":"Point","coordinates":[130.207589,33.593165]},"properties":{"id":"40-7cbbd35e23","name":"志摩馬場","reading":"シマババ","pref":"福岡県","prefCode":"40","municipality":"糸島市","hazardTypes":["slope_failure"],"evidenceLevel":0,"status":"current","disputed":false,"precision":"oaza","areaKey":"402300790","elements":["baba"],"summary":"要素辞書に一致（baba）。出典による裏づけは未確認。","zones":[],"dataset":"candidates"}},{"type":"Feature","geometry":{"type":"Point","coordinates":[130.250396,33.496024]},"properties":{"id":"40-15bdef7569","name":"瑞梅寺","reading":"ズイバイジ","pref":"福岡県","prefCode":"40","municipality":"糸島市","hazardTypes":["landslide","slope_failure"],"evidenceLevel":0,"status":"current","disputed":false,"precision":"oaza","areaKey":"402300360","elements":["ume"],"summary":"要素辞書に一致（ume）。出典による裏づけは未確認。","zones":[],"dataset":"candidates"}},{"type":"Feature","geometry":{"type":"Point","coordinates":[130.056456,33.482425]},"properties":{"id":"40-1698eb0ad5","name":"二丈鹿家","reading":"ニジョウシカカ","pref":"福岡県","prefCode":"40","municipality":"糸島市","hazardTypes":["landslide","soft_ground"],"evidenceLevel":0,"status":"current","disputed":false,"precision":"oaza","areaKey":"402300720","elements":["shishi"],"summary":"要素辞書に一致（shishi）。出典による裏づけは未確認。","zones":[],"dataset":"candidates"}},{"type":"Feature","geometry":{"type":"Point","coordinates":[130.445807,33.459785]},"properties":{"id":"40-edf4295635","name":"大字埋金","reading":null,"pref":"福岡県","prefCode":"40","municipality":"那珂川市","hazardTypes":["landslide","slope_failure"],"evidenceLevel":0,"status":"current","disputed":false,"precision":"oaza","areaKey":"402310030","elements":["ume"],"summary":"要素辞書に一致（ume）。出典による裏づけは未確認。","zones":[],"dataset":"candidates"}},{"type":"Feature","geometry":{"type":"Point","coordinates":[130.521948,33.683109]},"properties":{"id":"40-efa4367416","name":"大字猪野","reading":null,"pref":"福岡県","prefCode":"40","municipality":"糟屋郡久山町","hazardTypes":["landslide","soft_ground"],"evidenceLevel":0,"status":"current","disputed":false,"precision":"oaza","areaKey":null,"elements":["shishi"],"summary":"要素辞書に一致（shishi）。出典による裏づけは未確認。","zones":[],"dataset":"candidates"}},{"type":"Feature","geometry":{"type":"Point","coordinates":[130.445591,33.614368]},"properties":{"id":"40-6134f68103","name":"大字柚須","reading":null,"pref":"福岡県","prefCode":"40","municipality":"糟屋郡粕屋町","hazardTypes":["slope_failure"],"evidenceLevel":0,"status":"current","disputed":false,"precision":"oaza","areaKey":null,"elements":["yusu"],"summary":"要素辞書に一致（yusu）。出典による裏づけは未確認。","zones":[],"dataset":"candidates"}},{"type":"Feature","geometry":{"type":"Point","coordinates":[130.482344,33.612622]},"properties":{"id":"40-ca156a8e5b","name":"大字長者原","reading":null,"pref":"福岡県","prefCode":"40","municipality":"糟屋郡粕屋町","hazardTypes":["slope_failure"],"evidenceLevel":0,"status":"current","disputed":false,"precision":"oaza","areaKey":null,"elements":["tsubu_chou"],"summary":"要素辞書に一致（tsubu_chou）。出典による裏づけは未確認。","zones":[],"dataset":"candidates"}},{"type":"Feature","geometry":{"type":"Point","coordinates":[130.473929,33.61783]},"properties":{"id":"40-9121e25f44","name":"長者原西一丁目","reading":"チョウジャバルニシ 1","pref":"福岡県","prefCode":"40","municipality":"糟屋郡粕屋町","hazardTypes":["slope_failure"],"evidenceLevel":0,"status":"current","disputed":false,"precision":"oaza","areaKey":null,"elements":["tsubu_chou"],"summary":"要素辞書に一致（tsubu_chou）。出典による裏づけは未確認。","zones":[],"dataset":"candidates"}},{"type":"Feature","geometry":{"type":"Point","coordinates":[130.47847,33.613847]},"properties":{"id":"40-d512de4021","name":"長者原東一丁目","reading":"チョウジャバルヒガシ 1","pref":"福岡県","prefCode":"40","municipality":"糟屋郡粕屋町","hazardTypes":["slope_failure"],"evidenceLevel":0,"status":"current","disputed":false,"precision":"oaza","areaKey":null,"elements":["tsubu_chou"],"summary":"要素辞書に一致（tsubu_chou）。出典による裏づけは未確認。","zones":[],"dataset":"candidates"}},{"type":"Feature","geometry":{"type":"Point","coordinates":[130.667375,33.905809]},"properties":{"id":"40-9f36cd58f1","name":"大字山鹿","reading":null,"pref":"福岡県","prefCode":"40","municipality":"遠賀郡芦屋町","hazardTypes":["landslide","soft_ground"],"evidenceLevel":0,"status":"current","disputed":false,"precision":"oaza","areaKey":null,"elements":["shishi"],"summary":"要素辞書に一致（shishi）。出典による裏づけは未確認。","zones":[],"dataset":"candidates"}},{"type":"Feature","geometry":{"type":"Point","coordinates":[130.651902,33.884201]},"properties":{"id":"40-78a988fda6","name":"大字芦屋","reading":null,"pref":"福岡県","prefCode":"40","municipality":"遠賀郡芦屋町","hazardTypes":["flood","inundation"],"evidenceLevel":0,"status":"current","disputed":false,"precision":"oaza","areaKey":null,"elements":["ashi"],"summary":"要素辞書に一致（ashi）。出典による裏づけは未確認。","zones":[],"dataset":"candidates"}},{"type":"Feature","geometry":{"type":"Point","coordinates":[130.682159,33.868188]},"properties":{"id":"40-c137a90df3","name":"猪熊一丁目","reading":"イノクマ 1","pref":"福岡県","prefCode":"40","municipality":"遠賀郡水巻町","hazardTypes":["landslide","soft_ground"],"evidenceLevel":0,"status":"current","disputed":false,"precision":"oaza","areaKey":null,"elements":["shishi"],"summary":"要素辞書に一致（shishi）。出典による裏づけは未確認。","zones":[],"dataset":"candidates"}},{"type":"Feature","geometry":{"type":"Point","coordinates":[130.689086,33.868199]},"properties":{"id":"40-7a402f9925","name":"梅ノ木団地","reading":"ウメノキダンチ","pref":"福岡県","prefCode":"40","municipality":"遠賀郡水巻町","hazardTypes":["landslide","slope_failure"],"evidenceLevel":0,"status":"current","disputed":false,"precision":"oaza","areaKey":null,"elements":["ume"],"summary":"要素辞書に一致（ume）。出典による裏づけは未確認。","zones":[],"dataset":"candidates"}},{"type":"Feature","geometry":{"type":"Point","coordinates":[130.595618,33.841229]},"properties":{"id":"40-3ff4e635b6","name":"大字高倉","reading":null,"pref":"福岡県","prefCode":"40","municipality":"遠賀郡岡垣町","hazardTypes":["slope_failure","rockfall"],"evidenceLevel":0,"status":"current","disputed":false,"precision":"oaza","areaKey":null,"elements":["kura"],"summary":"要素辞書に一致（kura）。出典による裏づけは未確認。","zones":[],"dataset":"candidates"}},{"type":"Feature","geometry":{"type":"Point","coordinates":[130.610662,33.846835]},"properties":{"id":"40-03c37505af","name":"東高倉一丁目","reading":"ヒガシタカクラ 1","pref":"福岡県","prefCode":"40","municipality":"遠賀郡岡垣町","hazardTypes":["slope_failure","rockfall"],"evidenceLevel":0,"status":"current","disputed":false,"precision":"oaza","areaKey":null,"elements":["kura"],"summary":"要素辞書に一致（kura）。出典による裏づけは未確認。","zones":[],"dataset":"candidates"}},{"type":"Feature","geometry":{"type":"Point","coordinates":[130.684535,33.799315]},"properties":{"id":"40-1ed523bf63","name":"大字猪倉","reading":null,"pref":"福岡県","prefCode":"40","municipality":"鞍手郡鞍手町","hazardTypes":["slope_failure","rockfall","landslide","soft_ground"],"evidenceLevel":0,"status":"current","disputed":false,"precision":"oaza","areaKey":null,"elements":["kura","shishi"],"summary":"要素辞書に一致（kura・shishi）。出典による裏づけは未確認。","zones":[],"dataset":"candidates"}},{"type":"Feature","geometry":{"type":"Point","coordinates":[130.613421,33.429975]},"properties":{"id":"40-a52a32d983","name":"大久保","reading":"オオクボ","pref":"福岡県","prefCode":"40","municipality":"朝倉郡筑前町","hazardTypes":["slope_failure","inundation","landslide"],"evidenceLevel":0,"status":"current","disputed":false,"precision":"oaza","areaKey":null,"elements":["afu_oo","kubo"],"summary":"要素辞書に一致（afu_oo・kubo）。出典による裏づけは未確認。","zones":[],"dataset":"candidates"}},{"type":"Feature","geometry":{"type":"Point","coordinates":[130.609547,33.45427]},"properties":{"id":"40-495ecbb98d","name":"長者町","reading":"チョウジャマチ","pref":"福岡県","prefCode":"40","municipality":"朝倉郡筑前町","hazardTypes":["slope_failure"],"evidenceLevel":0,"status":"current","disputed":false,"precision":"oaza","areaKey":null,"elements":["tsubu_chou"],"summary":"要素辞書に一致（tsubu_chou）。出典による裏づけは未確認。","zones":[],"dataset":"candidates"}},{"type":"Feature","geometry":{"type":"Point","coordinates":[130.616381,33.409459]},"properties":{"id":"40-e0477d68ba","name":"原地蔵","reading":"ハラジゾウ","pref":"福岡県","prefCode":"40","municipality":"朝倉郡筑前町","hazardTypes":["slope_failure","rockfall"],"evidenceLevel":0,"status":"current","disputed":false,"precision":"oaza","areaKey":null,"elements":["kura"],"summary":"要素辞書に一致（kura）。出典による裏づけは未確認。","zones":[],"dataset":"candidates"}},{"type":"Feature","geometry":{"type":"Point","coordinates":[130.631936,33.368754]},"properties":{"id":"40-21dfc8b049","name":"大字菅野","reading":null,"pref":"福岡県","prefCode":"40","municipality":"三井郡大刀洗町","hazardTypes":["landslide","soft_ground"],"evidenceLevel":0,"status":"current","disputed":false,"precision":"oaza","areaKey":null,"elements":["wetland_plants"],"summary":"要素辞書に一致（wetland_plants）。出典による裏づけは未確認。","zones":[],"dataset":"candidates"}},{"type":"Feature","geometry":{"type":"Point","coordinates":[130.874054,33.648663]},"properties":{"id":"40-9bfa84a22e","name":"大字柿下","reading":null,"pref":"福岡県","prefCode":"40","municipality":"田川郡香春町","hazardTypes":["slope_failure"],"evidenceLevel":0,"status":"current","disputed":false,"precision":"oaza","areaKey":null,"elements":["kake"],"summary":"要素辞書に一致（kake）。出典による裏づけは未確認。","zones":[],"dataset":"candidates"}},{"type":"Feature","geometry":{"type":"Point","coordinates":[130.796271,33.623044]},"properties":{"id":"40-273b8b6fcb","name":"小倉畔","reading":null,"pref":"福岡県","prefCode":"40","municipality":"田川郡川崎町","hazardTypes":["slope_failure","rockfall"],"evidenceLevel":0,"status":"current","disputed":false,"precision":"koaza","areaKey":null,"elements":["kura"],"summary":"要素辞書に一致（kura）。出典による裏づけは未確認。","zones":[],"dataset":"candidates"}},{"type":"Feature","geometry":{"type":"Point","coordinates":[130.875462,33.630572]},"properties":{"id":"40-b715eacf08","name":"大字内田","reading":null,"pref":"福岡県","prefCode":"40","municipality":"田川郡赤村","hazardTypes":["debris_flow","flood"],"evidenceLevel":0,"status":"current","disputed":false,"precision":"oaza","areaKey":null,"elements":["uchide"],"summary":"要素辞書に一致（uchide）。出典による裏づけは未確認。","zones":[],"dataset":"candidates"}},{"type":"Feature","geometry":{"type":"Point","coordinates":[130.966352,33.761909]},"properties":{"id":"40-c333487eee","name":"大字尾倉","reading":null,"pref":"福岡県","prefCode":"40","municipality":"京都郡苅田町","hazardTypes":["slope_failure","rockfall"],"evidenceLevel":0,"status":"current","disputed":false,"precision":"oaza","areaKey":null,"elements":["kura"],"summary":"要素辞書に一致（kura）。出典による裏づけは未確認。","zones":[],"dataset":"candidates"}},{"type":"Feature","geometry":{"type":"Point","coordinates":[130.972679,33.779078]},"properties":{"id":"40-78bd93b3db","name":"大字馬場","reading":null,"pref":"福岡県","prefCode":"40","municipality":"京都郡苅田町","hazardTypes":["slope_failure"],"evidenceLevel":0,"status":"current","disputed":false,"precision":"oaza","areaKey":null,"elements":["baba"],"summary":"要素辞書に一致（baba）。出典による裏づけは未確認。","zones":[],"dataset":"candidates"}},{"type":"Feature","geometry":{"type":"Point","coordinates":[130.984655,33.783174]},"properties":{"id":"40-06292cdabd","name":"磯浜町一丁目","reading":"イソハマチョウ 1","pref":"福岡県","prefCode":"40","municipality":"京都郡苅田町","hazardTypes":["rockfall","debris_flow"],"evidenceLevel":0,"status":"current","disputed":false,"precision":"oaza","areaKey":null,"elements":["iso_ishi"],"summary":"要素辞書に一致（iso_ishi）。出典による裏づけは未確認。","zones":[],"dataset":"candidates"}},{"type":"Feature","geometry":{"type":"Point","coordinates":[130.977538,33.76537]},"properties":{"id":"40-774b6d5253","name":"尾倉一丁目","reading":"オグラ 1","pref":"福岡県","prefCode":"40","municipality":"京都郡苅田町","hazardTypes":["slope_failure","rockfall"],"evidenceLevel":0,"status":"current","disputed":false,"precision":"oaza","areaKey":null,"elements":["kura"],"summary":"要素辞書に一致（kura）。出典による裏づけは未確認。","zones":[],"dataset":"candidates"}},{"type":"Feature","geometry":{"type":"Point","coordinates":[130.915204,33.679992]},"properties":{"id":"40-6f11e685d7","name":"勝山大久保","reading":"カツヤマオオクボ","pref":"福岡県","prefCode":"40","municipality":"京都郡みやこ町","hazardTypes":["slope_failure","inundation","landslide"],"evidenceLevel":0,"status":"current","disputed":false,"precision":"oaza","areaKey":null,"elements":["afu_oo","kubo"],"summary":"要素辞書に一致（afu_oo・kubo）。出典による裏づけは未確認。","zones":[],"dataset":"candidates"}},{"type":"Feature","geometry":{"type":"Point","coordinates":[130.963332,33.620542]},"properties":{"id":"40-9ac73b03ef","name":"犀川木井馬場","reading":"サイガワキイババ","pref":"福岡県","prefCode":"40","municipality":"京都郡みやこ町","hazardTypes":["slope_failure"],"evidenceLevel":0,"status":"current","disputed":false,"precision":"oaza","areaKey":null,"elements":["baba"],"summary":"要素辞書に一致（baba）。出典による裏づけは未確認。","zones":[],"dataset":"candidates"}},{"type":"Feature","geometry":{"type":"Point","coordinates":[130.948779,33.65228]},"properties":{"id":"40-63087eab89","name":"犀川古川","reading":"サイガワフルカワ","pref":"福岡県","prefCode":"40","municipality":"京都郡みやこ町","hazardTypes":["flood","inundation"],"evidenceLevel":0,"status":"current","disputed":false,"precision":"oaza","areaKey":null,"elements":["furukawa"],"summary":"要素辞書に一致（furukawa）。出典による裏づけは未確認。","zones":[],"dataset":"candidates"}},{"type":"Feature","geometry":{"type":"Point","coordinates":[130.929764,33.647532]},"properties":{"id":"40-61db7b5a5d","name":"犀川山鹿","reading":"サイガワヤマガ","pref":"福岡県","prefCode":"40","municipality":"京都郡みやこ町","hazardTypes":["landslide","soft_ground"],"evidenceLevel":0,"status":"current","disputed":false,"precision":"oaza","areaKey":null,"elements":["shishi"],"summary":"要素辞書に一致（shishi）。出典による裏づけは未確認。","zones":[],"dataset":"candidates"}},{"type":"Feature","geometry":{"type":"Point","coordinates":[131.168893,33.580482]},"properties":{"id":"40-448571f7b7","name":"大字垂水","reading":null,"pref":"福岡県","prefCode":"40","municipality":"築上郡上毛町","hazardTypes":["slope_failure"],"evidenceLevel":0,"status":"current","disputed":false,"precision":"oaza","areaKey":null,"elements":["kake"],"summary":"要素辞書に一致（kake）。出典による裏づけは未確認。","zones":[],"dataset":"candidates"}}]}
