{"type":"FeatureCollection","features":[{"type":"Feature","geometry":{"type":"Point","coordinates":[130.249953,33.251807]},"properties":{"id":"41-60e0e32fd1","name":"嘉瀬町大字荻野","reading":null,"pref":"佐賀県","prefCode":"41","municipality":"佐賀市","hazardTypes":["slope_failure"],"evidenceLevel":0,"status":"current","disputed":false,"precision":"oaza","areaKey":"412010620","elements":["suki_hagu"],"summary":"要素辞書に一致（suki_hagu）。出典による裏づけは未確認。","zones":[],"dataset":"candidates"}},{"type":"Feature","geometry":{"type":"Point","coordinates":[130.26876,33.345475]},"properties":{"id":"41-a310ff176e","name":"大和町大字梅野","reading":null,"pref":"佐賀県","prefCode":"41","municipality":"佐賀市","hazardTypes":["landslide","slope_failure"],"evidenceLevel":0,"status":"current","disputed":false,"precision":"oaza","areaKey":null,"elements":["ume"],"summary":"要素辞書に一致（ume）。出典による裏づけは未確認。","zones":[],"dataset":"candidates"}},{"type":"Feature","geometry":{"type":"Point","coordinates":[130.249651,33.355567]},"properties":{"id":"41-2ae56f0fa9","name":"富士町大字梅野","reading":null,"pref":"佐賀県","prefCode":"41","municipality":"佐賀市","hazardTypes":["landslide","slope_failure"],"evidenceLevel":0,"status":"current","disputed":false,"precision":"oaza","areaKey":"412011341","elements":["ume"],"summary":"要素辞書に一致（ume）。出典による裏づけは未確認。","zones":[],"dataset":"candidates"}},{"type":"Feature","geometry":{"type":"Point","coordinates":[130.317586,33.195682]},"properties":{"id":"41-25f1f68235","name":"川副町大字鹿江","reading":null,"pref":"佐賀県","prefCode":"41","municipality":"佐賀市","hazardTypes":["landslide","soft_ground"],"evidenceLevel":0,"status":"current","disputed":false,"precision":"oaza","areaKey":null,"elements":["shishi"],"summary":"要素辞書に一致（shishi）。出典による裏づけは未確認。","zones":[],"dataset":"candidates"}},{"type":"Feature","geometry":{"type":"Point","coordinates":[130.288222,33.224901]},"properties":{"id":"41-7840327e96","name":"本庄町大字鹿子","reading":null,"pref":"佐賀県","prefCode":"41","municipality":"佐賀市","hazardTypes":["landslide","soft_ground"],"evidenceLevel":0,"status":"current","disputed":false,"precision":"oaza","areaKey":"412010710","elements":["shishi"],"summary":"要素辞書に一致（shishi）。出典による裏づけは未確認。","zones":[],"dataset":"candidates"}},{"type":"Feature","geometry":{"type":"Point","coordinates":[130.292189,33.251501]},"properties":{"id":"41-8d32274a89","name":"川原町","reading":"カワハラマチ","pref":"佐賀県","prefCode":"41","municipality":"佐賀市","hazardTypes":["flood"],"evidenceLevel":0,"status":"current","disputed":false,"precision":"oaza","areaKey":"412010340","elements":["kawara"],"summary":"要素辞書に一致（kawara）。出典による裏づけは未確認。","zones":[],"dataset":"candidates"}},{"type":"Feature","geometry":{"type":"Point","coordinates":[129.912267,33.4798]},"properties":{"id":"41-fc2ad7bdda","name":"枝去木","reading":"エザルキ","pref":"佐賀県","prefCode":"41","municipality":"唐津市","hazardTypes":["slope_failure"],"evidenceLevel":0,"status":"current","disputed":false,"precision":"oaza","areaKey":"412021000","elements":["saru"],"summary":"要素辞書に一致（saru）。出典による裏づけは未確認。","zones":[],"dataset":"candidates"}},{"type":"Feature","geometry":{"type":"Point","coordinates":[129.957176,33.469057]},"properties":{"id":"41-0030828535","name":"海岸通","reading":"カイガンドオリ","pref":"佐賀県","prefCode":"41","municipality":"唐津市","hazardTypes":["slope_failure"],"evidenceLevel":0,"status":"current","disputed":false,"precision":"oaza","areaKey":"412020810","elements":["kake"],"summary":"要素辞書に一致（kake）。出典による裏づけは未確認。","zones":[],"dataset":"candidates"}},{"type":"Feature","geometry":{"type":"Point","coordinates":[130.00398,33.425557]},"properties":{"id":"41-e349de972d","name":"川原田","reading":null,"pref":"佐賀県","prefCode":"41","municipality":"唐津市","hazardTypes":["flood"],"evidenceLevel":0,"status":"current","disputed":false,"precision":"koaza","areaKey":null,"elements":["kawara"],"summary":"要素辞書に一致（kawara）。出典による裏づけは未確認。","zones":[],"dataset":"candidates"}},{"type":"Feature","geometry":{"type":"Point","coordinates":[129.966259,33.371425]},"properties":{"id":"41-286780d3d6","name":"北波多岸山","reading":"キタハタキシヤマ","pref":"佐賀県","prefCode":"41","municipality":"唐津市","hazardTypes":["slope_failure"],"evidenceLevel":0,"status":"current","disputed":false,"precision":"oaza","areaKey":"41202169001","elements":["kake"],"summary":"要素辞書に一致（kake）。出典による裏づけは未確認。","zones":[],"dataset":"candidates"}},{"type":"Feature","geometry":{"type":"Point","coordinates":[129.962881,33.448998]},"properties":{"id":"41-75f6270a46","name":"桜馬場","reading":"サクラノババ","pref":"佐賀県","prefCode":"41","municipality":"唐津市","hazardTypes":["slope_failure"],"evidenceLevel":0,"status":"current","disputed":false,"precision":"oaza","areaKey":"412020570","elements":["baba"],"summary":"要素辞書に一致（baba）。出典による裏づけは未確認。","zones":[],"dataset":"candidates"}},{"type":"Feature","geometry":{"type":"Point","coordinates":[129.934046,33.416099]},"properties":{"id":"41-ec0b65b764","name":"菅牟田","reading":"スガムタ","pref":"佐賀県","prefCode":"41","municipality":"唐津市","hazardTypes":["landslide","soft_ground"],"evidenceLevel":0,"status":"current","disputed":false,"precision":"oaza","areaKey":"412020890","elements":["wetland_plants"],"summary":"要素辞書に一致（wetland_plants）。出典による裏づけは未確認。","zones":[],"dataset":"candidates"}},{"type":"Feature","geometry":{"type":"Point","coordinates":[129.909768,33.492952]},"properties":{"id":"41-8968385e5e","name":"鎮西町加倉","reading":"チンゼイマチカクラ","pref":"佐賀県","prefCode":"41","municipality":"唐津市","hazardTypes":["slope_failure","rockfall"],"evidenceLevel":0,"status":"current","disputed":false,"precision":"oaza","areaKey":"412022100","elements":["kura"],"summary":"要素辞書に一致（kura）。出典による裏づけは未確認。","zones":[],"dataset":"candidates"}},{"type":"Feature","geometry":{"type":"Point","coordinates":[129.921026,33.507068]},"properties":{"id":"41-9e4b094a7e","name":"鎮西町菖蒲","reading":"チンゼイマチショウブ","pref":"佐賀県","prefCode":"41","municipality":"唐津市","hazardTypes":["landslide","soft_ground"],"evidenceLevel":0,"status":"current","disputed":false,"precision":"oaza","areaKey":"412022060","elements":["wetland_plants"],"summary":"要素辞書に一致（wetland_plants）。出典による裏づけは未確認。","zones":[],"dataset":"candidates"}},{"type":"Feature","geometry":{"type":"Point","coordinates":[129.839683,33.417855]},"properties":{"id":"41-eb2a86aee0","name":"肥前町上ケ倉","reading":"ヒゼンマチアゲクラ","pref":"佐賀県","prefCode":"41","municipality":"唐津市","hazardTypes":["slope_failure","rockfall"],"evidenceLevel":0,"status":"current","disputed":false,"precision":"oaza","areaKey":null,"elements":["kura"],"summary":"要素辞書に一致（kura）。出典による裏づけは未確認。","zones":[],"dataset":"candidates"}},{"type":"Feature","geometry":{"type":"Point","coordinates":[129.839469,33.442058]},"properties":{"id":"41-5146348f21","name":"肥前町梅崎","reading":"ヒゼンマチウメザキ","pref":"佐賀県","prefCode":"41","municipality":"唐津市","hazardTypes":["landslide","slope_failure"],"evidenceLevel":0,"status":"current","disputed":false,"precision":"oaza","areaKey":"412021860","elements":["ume"],"summary":"要素辞書に一致（ume）。出典による裏づけは未確認。","zones":[],"dataset":"candidates"}},{"type":"Feature","geometry":{"type":"Point","coordinates":[130.494297,33.378835]},"properties":{"id":"41-d5fe13be9a","name":"蔵上一丁目","reading":"クラノウエ 1","pref":"佐賀県","prefCode":"41","municipality":"鳥栖市","hazardTypes":["slope_failure","rockfall"],"evidenceLevel":0,"status":"current","disputed":false,"precision":"oaza","areaKey":"41203044101","elements":["kura"],"summary":"要素辞書に一致（kura）。出典による裏づけは未確認。","zones":[],"dataset":"candidates"}},{"type":"Feature","geometry":{"type":"Point","coordinates":[130.494561,33.367929]},"properties":{"id":"41-15aee4e7c7","name":"蔵上町","reading":"クラノウエマチ","pref":"佐賀県","prefCode":"41","municipality":"鳥栖市","hazardTypes":["slope_failure","rockfall"],"evidenceLevel":0,"status":"current","disputed":false,"precision":"oaza","areaKey":"412030442","elements":["kura"],"summary":"要素辞書に一致（kura）。出典による裏づけは未確認。","zones":[],"dataset":"candidates"}},{"type":"Feature","geometry":{"type":"Point","coordinates":[130.51385,33.389628]},"properties":{"id":"41-fd19dd1fb5","name":"中川原","reading":null,"pref":"佐賀県","prefCode":"41","municipality":"鳥栖市","hazardTypes":["flood"],"evidenceLevel":0,"status":"current","disputed":false,"precision":"koaza","areaKey":"412030270","elements":["kawara"],"summary":"要素辞書に一致（kawara）。出典による裏づけは未確認。","zones":[],"dataset":"candidates"}},{"type":"Feature","geometry":{"type":"Point","coordinates":[130.505838,33.372164]},"properties":{"id":"41-d5727d2070","name":"川原","reading":null,"pref":"佐賀県","prefCode":"41","municipality":"鳥栖市","hazardTypes":["flood"],"evidenceLevel":0,"status":"current","disputed":false,"precision":"koaza","areaKey":"412030020","elements":["kawara"],"summary":"要素辞書に一致（kawara）。出典による裏づけは未確認。","zones":[],"dataset":"candidates"}},{"type":"Feature","geometry":{"type":"Point","coordinates":[129.97281,33.283659]},"properties":{"id":"41-60a5cc2ab6","name":"大川町川原","reading":"オオカワチョウカワバル","pref":"佐賀県","prefCode":"41","municipality":"伊万里市","hazardTypes":["flood"],"evidenceLevel":0,"status":"current","disputed":false,"precision":"oaza","areaKey":"41205008013","elements":["kawara"],"summary":"要素辞書に一致（kawara）。出典による裏づけは未確認。","zones":[],"dataset":"candidates"}},{"type":"Feature","geometry":{"type":"Point","coordinates":[129.822801,33.269937]},"properties":{"id":"41-b3ca75ddf1","name":"東山代町大久保","reading":"ヒガシヤマシロチョウオオクボ","pref":"佐賀県","prefCode":"41","municipality":"伊万里市","hazardTypes":["slope_failure","inundation","landslide"],"evidenceLevel":0,"status":"current","disputed":false,"precision":"oaza","areaKey":"41205011009","elements":["afu_oo","kubo"],"summary":"要素辞書に一致（afu_oo・kubo）。出典による裏づけは未確認。","zones":[],"dataset":"candidates"}},{"type":"Feature","geometry":{"type":"Point","coordinates":[129.830526,33.277904]},"properties":{"id":"41-0c23abca81","name":"東山代町東大久保","reading":"ヒガシヤマシロチョウヒガシオオクボ","pref":"佐賀県","prefCode":"41","municipality":"伊万里市","hazardTypes":["slope_failure","inundation","landslide"],"evidenceLevel":0,"status":"current","disputed":false,"precision":"oaza","areaKey":"41205011008","elements":["afu_oo","kubo"],"summary":"要素辞書に一致（afu_oo・kubo）。出典による裏づけは未確認。","zones":[],"dataset":"candidates"}},{"type":"Feature","geometry":{"type":"Point","coordinates":[129.939201,33.310167]},"properties":{"id":"41-96e69316b8","name":"南波多町大川原","reading":"ミナミハタチョウオオカワバル","pref":"佐賀県","prefCode":"41","municipality":"伊万里市","hazardTypes":["flood"],"evidenceLevel":0,"status":"current","disputed":false,"precision":"oaza","areaKey":"41205007003","elements":["kawara"],"summary":"要素辞書に一致（kawara）。出典による裏づけは未確認。","zones":[],"dataset":"candidates"}},{"type":"Feature","geometry":{"type":"Point","coordinates":[129.95226,33.296182]},"properties":{"id":"41-b6f8a4d26e","name":"南波多町古川","reading":"ミナミハタチョウフルコ","pref":"佐賀県","prefCode":"41","municipality":"伊万里市","hazardTypes":["flood","inundation"],"evidenceLevel":0,"status":"current","disputed":false,"precision":"oaza","areaKey":"41205007001","elements":["furukawa"],"summary":"要素辞書に一致（furukawa）。出典による裏づけは未確認。","zones":[],"dataset":"candidates"}},{"type":"Feature","geometry":{"type":"Point","coordinates":[129.774695,33.317707]},"properties":{"id":"41-3b3f7245af","name":"山代町西大久保","reading":"ヤマシロチョウニシオオクボ","pref":"佐賀県","prefCode":"41","municipality":"伊万里市","hazardTypes":["slope_failure","inundation","landslide"],"evidenceLevel":0,"status":"current","disputed":false,"precision":"oaza","areaKey":"41205012017","elements":["afu_oo","kubo"],"summary":"要素辞書に一致（afu_oo・kubo）。出典による裏づけは未確認。","zones":[],"dataset":"candidates"}},{"type":"Feature","geometry":{"type":"Point","coordinates":[130.072862,33.205216]},"properties":{"id":"41-6f86dc4b41","name":"北方町大字芦原","reading":null,"pref":"佐賀県","prefCode":"41","municipality":"武雄市","hazardTypes":["flood","inundation"],"evidenceLevel":0,"status":"current","disputed":false,"precision":"oaza","areaKey":null,"elements":["ashi"],"summary":"要素辞書に一致（ashi）。出典による裏づけは未確認。","zones":[],"dataset":"candidates"}},{"type":"Feature","geometry":{"type":"Point","coordinates":[130.044882,33.207745]},"properties":{"id":"41-1edb47fade","name":"朝日町大字芦原","reading":null,"pref":"佐賀県","prefCode":"41","municipality":"武雄市","hazardTypes":["flood","inundation"],"evidenceLevel":0,"status":"current","disputed":false,"precision":"oaza","areaKey":null,"elements":["ashi"],"summary":"要素辞書に一致（ashi）。出典による裏づけは未確認。","zones":[],"dataset":"candidates"}},{"type":"Feature","geometry":{"type":"Point","coordinates":[130.05658,33.198835]},"properties":{"id":"41-c192a7b011","name":"橘町大字芦原","reading":null,"pref":"佐賀県","prefCode":"41","municipality":"武雄市","hazardTypes":["flood","inundation"],"evidenceLevel":0,"status":"current","disputed":false,"precision":"oaza","areaKey":"412060060","elements":["ashi"],"summary":"要素辞書に一致（ashi）。出典による裏づけは未確認。","zones":[],"dataset":"candidates"}},{"type":"Feature","geometry":{"type":"Point","coordinates":[129.970835,33.212992]},"properties":{"id":"41-7dc0848a29","name":"武内町大字梅野","reading":null,"pref":"佐賀県","prefCode":"41","municipality":"武雄市","hazardTypes":["landslide","slope_failure"],"evidenceLevel":0,"status":"current","disputed":false,"precision":"oaza","areaKey":null,"elements":["ume"],"summary":"要素辞書に一致（ume）。出典による裏づけは未確認。","zones":[],"dataset":"candidates"}},{"type":"Feature","geometry":{"type":"Point","coordinates":[130.214574,33.237635]},"properties":{"id":"41-11d559dbf4","name":"芦刈町芦溝","reading":"アシカリチョウアシミゾ","pref":"佐賀県","prefCode":"41","municipality":"小城市","hazardTypes":["slope_failure","flood","inundation"],"evidenceLevel":0,"status":"current","disputed":false,"precision":"oaza","areaKey":null,"elements":["kake","ashi"],"summary":"要素辞書に一致（kake・ashi）。出典による裏づけは未確認。","zones":[],"dataset":"candidates"}},{"type":"Feature","geometry":{"type":"Point","coordinates":[130.224856,33.215906]},"properties":{"id":"41-fa09ecd4b5","name":"芦刈町下古賀","reading":"アシカリチョウシモコガ","pref":"佐賀県","prefCode":"41","municipality":"小城市","hazardTypes":["slope_failure","flood","inundation"],"evidenceLevel":0,"status":"current","disputed":false,"precision":"oaza","areaKey":null,"elements":["kake","ashi"],"summary":"要素辞書に一致（kake・ashi）。出典による裏づけは未確認。","zones":[],"dataset":"candidates"}},{"type":"Feature","geometry":{"type":"Point","coordinates":[130.216743,33.216445]},"properties":{"id":"41-60be4be980","name":"芦刈町道免","reading":"アシカリチョウドウメ","pref":"佐賀県","prefCode":"41","municipality":"小城市","hazardTypes":["slope_failure","flood","inundation"],"evidenceLevel":0,"status":"current","disputed":false,"precision":"oaza","areaKey":null,"elements":["kake","ashi"],"summary":"要素辞書に一致（kake・ashi）。出典による裏づけは未確認。","zones":[],"dataset":"candidates"}},{"type":"Feature","geometry":{"type":"Point","coordinates":[130.208149,33.206449]},"properties":{"id":"41-d9adab9eaa","name":"芦刈町永田","reading":"アシカリチョウナガタ","pref":"佐賀県","prefCode":"41","municipality":"小城市","hazardTypes":["slope_failure","flood","inundation"],"evidenceLevel":0,"status":"current","disputed":false,"precision":"oaza","areaKey":null,"elements":["kake","ashi"],"summary":"要素辞書に一致（kake・ashi）。出典による裏づけは未確認。","zones":[],"dataset":"candidates"}},{"type":"Feature","geometry":{"type":"Point","coordinates":[130.198628,33.235227]},"properties":{"id":"41-0b1d9d4d27","name":"芦刈町浜枝川","reading":"アシカリチョウハマエダガワ","pref":"佐賀県","prefCode":"41","municipality":"小城市","hazardTypes":["slope_failure","flood","inundation"],"evidenceLevel":0,"status":"current","disputed":false,"precision":"oaza","areaKey":null,"elements":["kake","ashi"],"summary":"要素辞書に一致（kake・ashi）。出典による裏づけは未確認。","zones":[],"dataset":"candidates"}},{"type":"Feature","geometry":{"type":"Point","coordinates":[130.203448,33.221975]},"properties":{"id":"41-992493c2ea","name":"芦刈町三王崎","reading":"アシカリチョウミオウザキ","pref":"佐賀県","prefCode":"41","municipality":"小城市","hazardTypes":["slope_failure","flood","inundation"],"evidenceLevel":0,"status":"current","disputed":false,"precision":"oaza","areaKey":null,"elements":["kake","ashi"],"summary":"要素辞書に一致（kake・ashi）。出典による裏づけは未確認。","zones":[],"dataset":"candidates"}},{"type":"Feature","geometry":{"type":"Point","coordinates":[130.210881,33.252019]},"properties":{"id":"41-3b52748822","name":"牛津町柿樋瀬","reading":"ウシヅチョウカキヒセ","pref":"佐賀県","prefCode":"41","municipality":"小城市","hazardTypes":["slope_failure"],"evidenceLevel":0,"status":"current","disputed":false,"precision":"oaza","areaKey":null,"elements":["kake"],"summary":"要素辞書に一致（kake）。出典による裏づけは未確認。","zones":[],"dataset":"candidates"}},{"type":"Feature","geometry":{"type":"Point","coordinates":[130.184576,33.322681]},"properties":{"id":"41-69301b0674","name":"小城町岩蔵","reading":"オギマチイワクラ","pref":"佐賀県","prefCode":"41","municipality":"小城市","hazardTypes":["slope_failure","rockfall"],"evidenceLevel":0,"status":"current","disputed":false,"precision":"oaza","areaKey":null,"elements":["kura"],"summary":"要素辞書に一致（kura）。出典による裏づけは未確認。","zones":[],"dataset":"candidates"}},{"type":"Feature","geometry":{"type":"Point","coordinates":[130.047784,33.128672]},"properties":{"id":"41-d5fc7389ac","name":"塩田町大字馬場下","reading":null,"pref":"佐賀県","prefCode":"41","municipality":"嬉野市","hazardTypes":["slope_failure"],"evidenceLevel":0,"status":"current","disputed":false,"precision":"oaza","areaKey":null,"elements":["baba"],"summary":"要素辞書に一致（baba）。出典による裏づけは未確認。","zones":[],"dataset":"candidates"}},{"type":"Feature","geometry":{"type":"Point","coordinates":[130.30427,33.375556]},"properties":{"id":"41-e4bf60b144","name":"脊振町鹿路","reading":"セフリマチロクロ","pref":"佐賀県","prefCode":"41","municipality":"神埼市","hazardTypes":["landslide","soft_ground"],"evidenceLevel":0,"status":"current","disputed":false,"precision":"oaza","areaKey":null,"elements":["shishi"],"summary":"要素辞書に一致（shishi）。出典による裏づけは未確認。","zones":[],"dataset":"candidates"}},{"type":"Feature","geometry":{"type":"Point","coordinates":[130.535269,33.431939]},"properties":{"id":"41-8d55c65466","name":"大字小倉","reading":null,"pref":"佐賀県","prefCode":"41","municipality":"三養基郡基山町","hazardTypes":["slope_failure","rockfall"],"evidenceLevel":0,"status":"current","disputed":false,"precision":"oaza","areaKey":null,"elements":["kura"],"summary":"要素辞書に一致（kura）。出典による裏づけは未確認。","zones":[],"dataset":"candidates"}},{"type":"Feature","geometry":{"type":"Point","coordinates":[130.531562,33.4142]},"properties":{"id":"41-c08d2301da","name":"上川原","reading":null,"pref":"佐賀県","prefCode":"41","municipality":"三養基郡基山町","hazardTypes":["flood"],"evidenceLevel":0,"status":"current","disputed":false,"precision":"koaza","areaKey":null,"elements":["kawara"],"summary":"要素辞書に一致（kawara）。出典による裏づけは未確認。","zones":[],"dataset":"candidates"}},{"type":"Feature","geometry":{"type":"Point","coordinates":[129.878695,33.492883]},"properties":{"id":"41-4c8bc65e9f","name":"大字小加倉","reading":null,"pref":"佐賀県","prefCode":"41","municipality":"東松浦郡玄海町","hazardTypes":["slope_failure","rockfall"],"evidenceLevel":0,"status":"current","disputed":false,"precision":"oaza","areaKey":null,"elements":["kura"],"summary":"要素辞書に一致（kura）。出典による裏づけは未確認。","zones":[],"dataset":"candidates"}},{"type":"Feature","geometry":{"type":"Point","coordinates":[129.882687,33.466561]},"properties":{"id":"41-19dbf96bc9","name":"大字長倉","reading":null,"pref":"佐賀県","prefCode":"41","municipality":"東松浦郡玄海町","hazardTypes":["slope_failure","rockfall"],"evidenceLevel":0,"status":"current","disputed":false,"precision":"oaza","areaKey":null,"elements":["kura"],"summary":"要素辞書に一致（kura）。出典による裏づけは未確認。","zones":[],"dataset":"candidates"}},{"type":"Feature","geometry":{"type":"Point","coordinates":[129.854137,33.202856]},"properties":{"id":"41-ac46f7025f","name":"蔵宿","reading":"ゾウシュク","pref":"佐賀県","prefCode":"41","municipality":"西松浦郡有田町","hazardTypes":["slope_failure","rockfall"],"evidenceLevel":0,"status":"current","disputed":false,"precision":"oaza","areaKey":null,"elements":["kura"],"summary":"要素辞書に一致（kura）。出典による裏づけは未確認。","zones":[],"dataset":"candidates"}}]}
