{"type":"FeatureCollection","features":[{"type":"Feature","geometry":{"type":"Point","coordinates":[129.781693,32.831102]},"properties":{"id":"42-8057f32117","name":"畝刈町","reading":"アゼカリマチ","pref":"長崎県","prefCode":"42","municipality":"長崎市","hazardTypes":["slope_failure"],"evidenceLevel":0,"status":"current","disputed":false,"precision":"oaza","areaKey":"422011730","elements":["kake"],"summary":"要素辞書に一致（kake）。出典による裏づけは未確認。","zones":[],"dataset":"candidates"}},{"type":"Feature","geometry":{"type":"Point","coordinates":[129.849736,32.697967]},"properties":{"id":"42-e816ccf498","name":"磯道町","reading":"イソミチマチ","pref":"長崎県","prefCode":"42","municipality":"長崎市","hazardTypes":["rockfall","debris_flow"],"evidenceLevel":0,"status":"current","disputed":false,"precision":"oaza","areaKey":"422012330","elements":["iso_ishi"],"summary":"要素辞書に一致（iso_ishi）。出典による裏づけは未確認。","zones":[],"dataset":"candidates"}},{"type":"Feature","geometry":{"type":"Point","coordinates":[129.874188,32.739962]},"properties":{"id":"42-af4267a418","name":"梅香崎町","reading":"ウメガサキマチ","pref":"長崎県","prefCode":"42","municipality":"長崎市","hazardTypes":["landslide","slope_failure"],"evidenceLevel":0,"status":"current","disputed":false,"precision":"oaza","areaKey":"422011920","elements":["ume"],"summary":"要素辞書に一致（ume）。出典による裏づけは未確認。","zones":[],"dataset":"candidates"}},{"type":"Feature","geometry":{"type":"Point","coordinates":[129.871492,32.757584]},"properties":{"id":"42-383a784caa","name":"御船蔵町","reading":"オフナグラマチ","pref":"長崎県","prefCode":"42","municipality":"長崎市","hazardTypes":["slope_failure","rockfall"],"evidenceLevel":0,"status":"current","disputed":false,"precision":"oaza","areaKey":"422010690","elements":["kura"],"summary":"要素辞書に一致（kura）。出典による裏づけは未確認。","zones":[],"dataset":"candidates"}},{"type":"Feature","geometry":{"type":"Point","coordinates":[129.807034,32.773136]},"properties":{"id":"42-216b47f08d","name":"柿泊町","reading":"カキドマリマチ","pref":"長崎県","prefCode":"42","municipality":"長崎市","hazardTypes":["slope_failure"],"evidenceLevel":0,"status":"current","disputed":false,"precision":"oaza","areaKey":"422011560","elements":["kake"],"summary":"要素辞書に一致（kake）。出典による裏づけは未確認。","zones":[],"dataset":"candidates"}},{"type":"Feature","geometry":{"type":"Point","coordinates":[129.883124,32.743031]},"properties":{"id":"42-521fc522e6","name":"鍛冶屋町","reading":"カジヤマチ","pref":"長崎県","prefCode":"42","municipality":"長崎市","hazardTypes":["slope_failure"],"evidenceLevel":0,"status":"current","disputed":false,"precision":"oaza","areaKey":"422010400","elements":["kaji_kamu"],"summary":"要素辞書に一致（kaji_kamu）。出典による裏づけは未確認。","zones":[],"dataset":"candidates"}},{"type":"Feature","geometry":{"type":"Point","coordinates":[129.866983,32.68653]},"properties":{"id":"42-a06f3ad9cb","name":"鹿尾町","reading":"カノオマチ","pref":"長崎県","prefCode":"42","municipality":"長崎市","hazardTypes":["landslide","soft_ground"],"evidenceLevel":0,"status":"current","disputed":false,"precision":"oaza","areaKey":"422012350","elements":["shishi"],"summary":"要素辞書に一致（shishi）。出典による裏づけは未確認。","zones":[],"dataset":"candidates"}},{"type":"Feature","geometry":{"type":"Point","coordinates":[129.822863,32.631627]},"properties":{"id":"42-7f7a12ff7f","name":"川原町","reading":"カワラマチ","pref":"長崎県","prefCode":"42","municipality":"長崎市","hazardTypes":["flood"],"evidenceLevel":0,"status":"current","disputed":false,"precision":"oaza","areaKey":"42201373001","elements":["kawara"],"summary":"要素辞書に一致（kawara）。出典による裏づけは未確認。","zones":[],"dataset":"candidates"}},{"type":"Feature","geometry":{"type":"Point","coordinates":[129.68161,32.873443]},"properties":{"id":"42-a4d1c57074","name":"神浦夏井町","reading":"コウノウラナツイマチ","pref":"長崎県","prefCode":"42","municipality":"長崎市","hazardTypes":["debris_flow","slope_failure"],"evidenceLevel":0,"status":"current","disputed":false,"precision":"oaza","areaKey":"422014040","elements":["nazu_natsu"],"summary":"要素辞書に一致（nazu_natsu）。出典による裏づけは未確認。","zones":[],"dataset":"candidates"}},{"type":"Feature","geometry":{"type":"Point","coordinates":[129.853141,32.709472]},"properties":{"id":"42-5d67f85152","name":"小ケ倉町一丁目","reading":"コガクラマチ 1","pref":"長崎県","prefCode":"42","municipality":"長崎市","hazardTypes":["slope_failure","rockfall"],"evidenceLevel":0,"status":"current","disputed":false,"precision":"oaza","areaKey":"42201229001","elements":["kura"],"summary":"要素辞書に一致（kura）。出典による裏づけは未確認。","zones":[],"dataset":"candidates"}},{"type":"Feature","geometry":{"type":"Point","coordinates":[129.864493,32.726106]},"properties":{"id":"42-06bf40322e","name":"小菅町","reading":"コスゲマチ","pref":"長崎県","prefCode":"42","municipality":"長崎市","hazardTypes":["landslide","soft_ground"],"evidenceLevel":0,"status":"current","disputed":false,"precision":"oaza","areaKey":"422012231","elements":["wetland_plants"],"summary":"要素辞書に一致（wetland_plants）。出典による裏づけは未確認。","zones":[],"dataset":"candidates"}},{"type":"Feature","geometry":{"type":"Point","coordinates":[129.888296,32.752809]},"properties":{"id":"42-f58bad386d","name":"桜馬場一丁目","reading":"サクラババ 1","pref":"長崎県","prefCode":"42","municipality":"長崎市","hazardTypes":["slope_failure"],"evidenceLevel":0,"status":"current","disputed":false,"precision":"oaza","areaKey":"42201011001","elements":["baba"],"summary":"要素辞書に一致（baba）。出典による裏づけは未確認。","zones":[],"dataset":"candidates"}},{"type":"Feature","geometry":{"type":"Point","coordinates":[129.859459,32.708518]},"properties":{"id":"42-28251b19d3","name":"新小が倉一丁目","reading":"シンコガクラ 1","pref":"長崎県","prefCode":"42","municipality":"長崎市","hazardTypes":["slope_failure","rockfall"],"evidenceLevel":0,"status":"current","disputed":false,"precision":"oaza","areaKey":"42201358101","elements":["kura"],"summary":"要素辞書に一致（kura）。出典による裏づけは未確認。","zones":[],"dataset":"candidates"}},{"type":"Feature","geometry":{"type":"Point","coordinates":[129.88022,32.745743]},"properties":{"id":"42-96e19220c5","name":"東古川町","reading":"ヒガシフルカワマチ","pref":"長崎県","prefCode":"42","municipality":"長崎市","hazardTypes":["flood","inundation"],"evidenceLevel":0,"status":"current","disputed":false,"precision":"oaza","areaKey":"422014250","elements":["furukawa"],"summary":"要素辞書に一致（furukawa）。出典による裏づけは未確認。","zones":[],"dataset":"candidates"}},{"type":"Feature","geometry":{"type":"Point","coordinates":[129.881714,32.745891]},"properties":{"id":"42-f24b8961b5","name":"古川町","reading":"フルカワマチ","pref":"長崎県","prefCode":"42","municipality":"長崎市","hazardTypes":["flood","inundation"],"evidenceLevel":0,"status":"current","disputed":false,"precision":"oaza","areaKey":"422010340","elements":["furukawa"],"summary":"要素辞書に一致（furukawa）。出典による裏づけは未確認。","zones":[],"dataset":"candidates"}},{"type":"Feature","geometry":{"type":"Point","coordinates":[129.863103,32.730005]},"properties":{"id":"42-af6c280aea","name":"古河町","reading":"フルコマチ","pref":"長崎県","prefCode":"42","municipality":"長崎市","hazardTypes":["flood","inundation"],"evidenceLevel":0,"status":"current","disputed":false,"precision":"oaza","areaKey":"422012180","elements":["furukawa"],"summary":"要素辞書に一致（furukawa）。出典による裏づけは未確認。","zones":[],"dataset":"candidates"}},{"type":"Feature","geometry":{"type":"Point","coordinates":[129.56307,33.265577]},"properties":{"id":"42-d2b5349fe3","name":"鹿町町九十九島","reading":null,"pref":"長崎県","prefCode":"42","municipality":"佐世保市","hazardTypes":["landslide","soft_ground"],"evidenceLevel":0,"status":"current","disputed":false,"precision":"oaza","areaKey":"422023090","elements":["shishi"],"summary":"要素辞書に一致（shishi）。出典による裏づけは未確認。","zones":[],"dataset":"candidates"}},{"type":"Feature","geometry":{"type":"Point","coordinates":[129.092965,33.279274]},"properties":{"id":"42-c8de329472","name":"宇久町大久保","reading":"ウクマチオオクボ","pref":"長崎県","prefCode":"42","municipality":"佐世保市","hazardTypes":["slope_failure","inundation","landslide"],"evidenceLevel":0,"status":"current","disputed":false,"precision":"oaza","areaKey":"422022620","elements":["afu_oo","kubo"],"summary":"要素辞書に一致（afu_oo・kubo）。出典による裏づけは未確認。","zones":[],"dataset":"candidates"}},{"type":"Feature","geometry":{"type":"Point","coordinates":[129.715251,33.19033]},"properties":{"id":"42-892abce37f","name":"梅田町","reading":"ウメダマチ","pref":"長崎県","prefCode":"42","municipality":"佐世保市","hazardTypes":["landslide","slope_failure"],"evidenceLevel":0,"status":"current","disputed":false,"precision":"oaza","areaKey":"42202007000","elements":["ume"],"summary":"要素辞書に一致（ume）。出典による裏づけは未確認。","zones":[],"dataset":"candidates"}},{"type":"Feature","geometry":{"type":"Point","coordinates":[129.672513,33.285074]},"properties":{"id":"42-12fb61df4e","name":"江迎町猪調","reading":"エムカエチョウイノツキ","pref":"長崎県","prefCode":"42","municipality":"佐世保市","hazardTypes":["landslide","soft_ground"],"evidenceLevel":0,"status":"current","disputed":false,"precision":"oaza","areaKey":"42202294031","elements":["shishi"],"summary":"要素辞書に一致（shishi）。出典による裏づけは未確認。","zones":[],"dataset":"candidates"}},{"type":"Feature","geometry":{"type":"Point","coordinates":[129.612102,33.313319]},"properties":{"id":"42-514edbc208","name":"江迎町埋立","reading":"エムカエチョウウメタテ","pref":"長崎県","prefCode":"42","municipality":"佐世保市","hazardTypes":["landslide","slope_failure"],"evidenceLevel":0,"status":"current","disputed":false,"precision":"oaza","areaKey":"422022960","elements":["ume"],"summary":"要素辞書に一致（ume）。出典による裏づけは未確認。","zones":[],"dataset":"candidates"}},{"type":"Feature","geometry":{"type":"Point","coordinates":[129.684366,33.160796]},"properties":{"id":"42-0e7ece8ce6","name":"鹿子前町","reading":"カシマエチョウ","pref":"長崎県","prefCode":"42","municipality":"佐世保市","hazardTypes":["landslide","soft_ground"],"evidenceLevel":0,"status":"current","disputed":false,"precision":"oaza","areaKey":"422020430","elements":["shishi"],"summary":"要素辞書に一致（shishi）。出典による裏づけは未確認。","zones":[],"dataset":"candidates"}},{"type":"Feature","geometry":{"type":"Point","coordinates":[129.631856,33.224071]},"properties":{"id":"42-d7755fece3","name":"小佐々町黒石","reading":"コサザチョウクロイシ","pref":"長崎県","prefCode":"42","municipality":"佐世保市","hazardTypes":["landslide"],"evidenceLevel":0,"status":"current","disputed":false,"precision":"oaza","areaKey":"422022660","elements":["geology_names"],"summary":"要素辞書に一致（geology_names）。出典による裏づけは未確認。","zones":[],"dataset":"candidates"}},{"type":"Feature","geometry":{"type":"Point","coordinates":[129.593595,33.28715]},"properties":{"id":"42-7cb9960384","name":"鹿町町大屋","reading":"シカマチチョウオオヤ","pref":"長崎県","prefCode":"42","municipality":"佐世保市","hazardTypes":["landslide","soft_ground"],"evidenceLevel":0,"status":"current","disputed":false,"precision":"oaza","areaKey":"422023070","elements":["shishi"],"summary":"要素辞書に一致（shishi）。出典による裏づけは未確認。","zones":[],"dataset":"candidates"}},{"type":"Feature","geometry":{"type":"Point","coordinates":[129.593352,33.255005]},"properties":{"id":"42-440be9dafe","name":"鹿町町上歌ヶ浦","reading":"シカマチチョウカミウタガウラ","pref":"長崎県","prefCode":"42","municipality":"佐世保市","hazardTypes":["landslide","soft_ground"],"evidenceLevel":0,"status":"current","disputed":false,"precision":"oaza","areaKey":null,"elements":["shishi"],"summary":"要素辞書に一致（shishi）。出典による裏づけは未確認。","zones":[],"dataset":"candidates"}},{"type":"Feature","geometry":{"type":"Point","coordinates":[129.601015,33.298227]},"properties":{"id":"42-09b32be64a","name":"鹿町町口ノ里","reading":"シカマチチョウクチノサト","pref":"長崎県","prefCode":"42","municipality":"佐世保市","hazardTypes":["landslide","soft_ground"],"evidenceLevel":0,"status":"current","disputed":false,"precision":"oaza","areaKey":"422023080","elements":["shishi"],"summary":"要素辞書に一致（shishi）。出典による裏づけは未確認。","zones":[],"dataset":"candidates"}},{"type":"Feature","geometry":{"type":"Point","coordinates":[129.615396,33.287082]},"properties":{"id":"42-7e1031cd8b","name":"鹿町町鹿町","reading":"シカマチチョウシカマチ","pref":"長崎県","prefCode":"42","municipality":"佐世保市","hazardTypes":["landslide","soft_ground"],"evidenceLevel":0,"status":"current","disputed":false,"precision":"oaza","areaKey":"42202301004","elements":["shishi"],"summary":"要素辞書に一致（shishi）。出典による裏づけは未確認。","zones":[],"dataset":"candidates"}},{"type":"Feature","geometry":{"type":"Point","coordinates":[129.591459,33.270515]},"properties":{"id":"42-1a399e3013","name":"鹿町町下歌ヶ浦","reading":"シカマチチョウシモウタガウラ","pref":"長崎県","prefCode":"42","municipality":"佐世保市","hazardTypes":["landslide","soft_ground"],"evidenceLevel":0,"status":"current","disputed":false,"precision":"oaza","areaKey":"42202305008","elements":["shishi"],"summary":"要素辞書に一致（shishi）。出典による裏づけは未確認。","zones":[],"dataset":"candidates"}},{"type":"Feature","geometry":{"type":"Point","coordinates":[129.62735,33.307282]},"properties":{"id":"42-8aba92112e","name":"鹿町町新深江","reading":"シカマチチョウシンフカエ","pref":"長崎県","prefCode":"42","municipality":"佐世保市","hazardTypes":["landslide","soft_ground"],"evidenceLevel":0,"status":"current","disputed":false,"precision":"oaza","areaKey":"422022980","elements":["shishi"],"summary":"要素辞書に一致（shishi）。出典による裏づけは未確認。","zones":[],"dataset":"candidates"}},{"type":"Feature","geometry":{"type":"Point","coordinates":[129.614716,33.302888]},"properties":{"id":"42-c56032897b","name":"鹿町町土肥ノ浦","reading":"シカマチチョウドイノウラ","pref":"長崎県","prefCode":"42","municipality":"佐世保市","hazardTypes":["landslide","soft_ground"],"evidenceLevel":0,"status":"current","disputed":false,"precision":"oaza","areaKey":"42202300002","elements":["shishi"],"summary":"要素辞書に一致（shishi）。出典による裏づけは未確認。","zones":[],"dataset":"candidates"}},{"type":"Feature","geometry":{"type":"Point","coordinates":[129.606552,33.26848]},"properties":{"id":"42-b189dfd05a","name":"鹿町町中野","reading":"シカマチチョウナカノ","pref":"長崎県","prefCode":"42","municipality":"佐世保市","hazardTypes":["landslide","soft_ground"],"evidenceLevel":0,"status":"current","disputed":false,"precision":"oaza","areaKey":"422023030","elements":["shishi"],"summary":"要素辞書に一致（shishi）。出典による裏づけは未確認。","zones":[],"dataset":"candidates"}},{"type":"Feature","geometry":{"type":"Point","coordinates":[129.574545,33.25387]},"properties":{"id":"42-7035ebf9ca","name":"鹿町町長串","reading":"シカマチチョウナグシ","pref":"長崎県","prefCode":"42","municipality":"佐世保市","hazardTypes":["landslide","soft_ground"],"evidenceLevel":0,"status":"current","disputed":false,"precision":"oaza","areaKey":"42202304009","elements":["shishi"],"summary":"要素辞書に一致（shishi）。出典による裏づけは未確認。","zones":[],"dataset":"candidates"}},{"type":"Feature","geometry":{"type":"Point","coordinates":[129.622363,33.301041]},"properties":{"id":"42-340ac1e0f2","name":"鹿町町深江","reading":"シカマチチョウフカエ","pref":"長崎県","prefCode":"42","municipality":"佐世保市","hazardTypes":["landslide","soft_ground"],"evidenceLevel":0,"status":"current","disputed":false,"precision":"oaza","areaKey":"42202297001","elements":["shishi"],"summary":"要素辞書に一致（shishi）。出典による裏づけは未確認。","zones":[],"dataset":"candidates"}},{"type":"Feature","geometry":{"type":"Point","coordinates":[129.62413,33.308293]},"properties":{"id":"42-7c2dfb5ec9","name":"鹿町町深江潟","reading":"シカマチチョウフカエガタ","pref":"長崎県","prefCode":"42","municipality":"佐世保市","hazardTypes":["landslide","soft_ground","inundation"],"evidenceLevel":0,"status":"current","disputed":false,"precision":"oaza","areaKey":"422022990","elements":["shishi","numa_kata"],"summary":"要素辞書に一致（shishi・numa_kata）。出典による裏づけは未確認。","zones":[],"dataset":"candidates"}},{"type":"Feature","geometry":{"type":"Point","coordinates":[129.617743,33.269777]},"properties":{"id":"42-33728a5843","name":"鹿町町船ノ村","reading":"シカマチチョウフネノムラ","pref":"長崎県","prefCode":"42","municipality":"佐世保市","hazardTypes":["landslide","soft_ground"],"evidenceLevel":0,"status":"current","disputed":false,"precision":"oaza","areaKey":"422023020","elements":["shishi"],"summary":"要素辞書に一致（shishi）。出典による裏づけは未確認。","zones":[],"dataset":"candidates"}},{"type":"Feature","geometry":{"type":"Point","coordinates":[129.792958,33.197283]},"properties":{"id":"42-94e04bbe6c","name":"戸ヶ倉町","reading":"トガクラチョウ","pref":"長崎県","prefCode":"42","municipality":"佐世保市","hazardTypes":["slope_failure","rockfall"],"evidenceLevel":0,"status":"current","disputed":false,"precision":"oaza","areaKey":"422021840","elements":["kura"],"summary":"要素辞書に一致（kura）。出典による裏づけは未確認。","zones":[],"dataset":"candidates"}},{"type":"Feature","geometry":{"type":"Point","coordinates":[129.710866,33.176354]},"properties":{"id":"42-4bbb556244","name":"西大久保町","reading":"ニシオオクボチョウ","pref":"長崎県","prefCode":"42","municipality":"佐世保市","hazardTypes":["slope_failure","inundation","landslide"],"evidenceLevel":0,"status":"current","disputed":false,"precision":"oaza","areaKey":"422020310","elements":["afu_oo","kubo"],"summary":"要素辞書に一致（afu_oo・kubo）。出典による裏づけは未確認。","zones":[],"dataset":"candidates"}},{"type":"Feature","geometry":{"type":"Point","coordinates":[129.70834,33.178218]},"properties":{"id":"42-02e4f5089b","name":"東大久保町","reading":"ヒガシオオクボチョウ","pref":"長崎県","prefCode":"42","municipality":"佐世保市","hazardTypes":["slope_failure","inundation","landslide"],"evidenceLevel":0,"status":"current","disputed":false,"precision":"oaza","areaKey":"42202030000","elements":["afu_oo","kubo"],"summary":"要素辞書に一致（afu_oo・kubo）。出典による裏づけは未確認。","zones":[],"dataset":"candidates"}},{"type":"Feature","geometry":{"type":"Point","coordinates":[130.365562,32.753564]},"properties":{"id":"42-6cc5d34d67","name":"梅園町","reading":"ウメゾノマチ","pref":"長崎県","prefCode":"42","municipality":"島原市","hazardTypes":["landslide","slope_failure"],"evidenceLevel":0,"status":"current","disputed":false,"precision":"oaza","areaKey":"422030800","elements":["ume"],"summary":"要素辞書に一致（ume）。出典による裏づけは未確認。","zones":[],"dataset":"candidates"}},{"type":"Feature","geometry":{"type":"Point","coordinates":[130.356753,32.793033]},"properties":{"id":"42-be75f2ef66","name":"柿の木町","reading":"カキノキマチ","pref":"長崎県","prefCode":"42","municipality":"島原市","hazardTypes":["slope_failure"],"evidenceLevel":0,"status":"current","disputed":false,"precision":"oaza","areaKey":"422030210","elements":["kake"],"summary":"要素辞書に一致（kake）。出典による裏づけは未確認。","zones":[],"dataset":"candidates"}},{"type":"Feature","geometry":{"type":"Point","coordinates":[130.366303,32.776972]},"properties":{"id":"42-e409769a0d","name":"崩山町","reading":"クエヤママチ","pref":"長崎県","prefCode":"42","municipality":"島原市","hazardTypes":["slope_failure","landslide"],"evidenceLevel":0,"status":"current","disputed":false,"precision":"oaza","areaKey":"422030480","elements":["kuzure"],"summary":"要素辞書に一致（kuzure）。出典による裏づけは未確認。","zones":[],"dataset":"candidates"}},{"type":"Feature","geometry":{"type":"Point","coordinates":[130.367135,32.798155]},"properties":{"id":"42-b48039973a","name":"新馬場町","reading":"シンババマチ","pref":"長崎県","prefCode":"42","municipality":"島原市","hazardTypes":["slope_failure"],"evidenceLevel":0,"status":"current","disputed":false,"precision":"oaza","areaKey":"422030240","elements":["baba"],"summary":"要素辞書に一致（baba）。出典による裏づけは未確認。","zones":[],"dataset":"candidates"}},{"type":"Feature","geometry":{"type":"Point","coordinates":[130.371535,32.774597]},"properties":{"id":"42-9a269ffc7f","name":"広馬場町","reading":"ヒロババマチ","pref":"長崎県","prefCode":"42","municipality":"島原市","hazardTypes":["slope_failure"],"evidenceLevel":0,"status":"current","disputed":false,"precision":"oaza","areaKey":"422030640","elements":["baba"],"summary":"要素辞書に一致（baba）。出典による裏づけは未確認。","zones":[],"dataset":"candidates"}},{"type":"Feature","geometry":{"type":"Point","coordinates":[130.367194,32.755045]},"properties":{"id":"42-1e2ee246ac","name":"南崩山町","reading":"ミナミクエヤママチ","pref":"長崎県","prefCode":"42","municipality":"島原市","hazardTypes":["slope_failure","landslide"],"evidenceLevel":0,"status":"current","disputed":false,"precision":"oaza","areaKey":"422030730","elements":["kuzure"],"summary":"要素辞書に一致（kuzure）。出典による裏づけは未確認。","zones":[],"dataset":"candidates"}},{"type":"Feature","geometry":{"type":"Point","coordinates":[130.067286,32.857704]},"properties":{"id":"42-9a0e2fe423","name":"小豆崎町","reading":"アズキサキマチ","pref":"長崎県","prefCode":"42","municipality":"諫早市","hazardTypes":["debris_flow","slope_failure"],"evidenceLevel":0,"status":"current","disputed":false,"precision":"oaza","areaKey":"422047010","elements":["azu"],"summary":"要素辞書に一致（azu）。出典による裏づけは未確認。","zones":[],"dataset":"candidates"}},{"type":"Feature","geometry":{"type":"Point","coordinates":[130.057919,32.810566]},"properties":{"id":"42-9ebbf986a8","name":"小ケ倉町","reading":"コガクラマチ","pref":"長崎県","prefCode":"42","municipality":"諫早市","hazardTypes":["slope_failure","rockfall"],"evidenceLevel":0,"status":"current","disputed":false,"precision":"oaza","areaKey":"422042060","elements":["kura"],"summary":"要素辞書に一致（kura）。出典による裏づけは未確認。","zones":[],"dataset":"candidates"}},{"type":"Feature","geometry":{"type":"Point","coordinates":[130.186311,32.92833]},"properties":{"id":"42-aad5395bbf","name":"小長井町小川原浦","reading":"コナガイチョウオガワハラウラ","pref":"長崎県","prefCode":"42","municipality":"諫早市","hazardTypes":["flood"],"evidenceLevel":0,"status":"current","disputed":false,"precision":"oaza","areaKey":"42204786011","elements":["kawara"],"summary":"要素辞書に一致（kawara）。出典による裏づけは未確認。","zones":[],"dataset":"candidates"}},{"type":"Feature","geometry":{"type":"Point","coordinates":[130.099326,32.884899]},"properties":{"id":"42-7872a018e6","name":"猿崎町","reading":"サルザキマチ","pref":"長崎県","prefCode":"42","municipality":"諫早市","hazardTypes":["slope_failure"],"evidenceLevel":0,"status":"current","disputed":false,"precision":"oaza","areaKey":"422047130","elements":["saru"],"summary":"要素辞書に一致（saru）。出典による裏づけは未確認。","zones":[],"dataset":"candidates"}},{"type":"Feature","geometry":{"type":"Point","coordinates":[130.112439,32.94266]},"properties":{"id":"42-6169183eb3","name":"高来町神津倉","reading":"タカキチョウコウヅクラ","pref":"長崎県","prefCode":"42","municipality":"諫早市","hazardTypes":["slope_failure","rockfall"],"evidenceLevel":0,"status":"current","disputed":false,"precision":"oaza","areaKey":"42204753001","elements":["kura"],"summary":"要素辞書に一致（kura）。出典による裏づけは未確認。","zones":[],"dataset":"candidates"}},{"type":"Feature","geometry":{"type":"Point","coordinates":[129.960478,32.92005]},"properties":{"id":"42-53ac5cc13a","name":"乾馬場町","reading":"イヌイババマチ","pref":"長崎県","prefCode":"42","municipality":"大村市","hazardTypes":["slope_failure"],"evidenceLevel":0,"status":"current","disputed":false,"precision":"oaza","areaKey":"422052130","elements":["baba"],"summary":"要素辞書に一致（baba）。出典による裏づけは未確認。","zones":[],"dataset":"candidates"}},{"type":"Feature","geometry":{"type":"Point","coordinates":[129.949755,32.927146]},"properties":{"id":"42-8cbad6e12f","name":"桜馬場一丁目","reading":"サクラババ 1","pref":"長崎県","prefCode":"42","municipality":"大村市","hazardTypes":["slope_failure"],"evidenceLevel":0,"status":"current","disputed":false,"precision":"oaza","areaKey":null,"elements":["baba"],"summary":"要素辞書に一致（baba）。出典による裏づけは未確認。","zones":[],"dataset":"candidates"}},{"type":"Feature","geometry":{"type":"Point","coordinates":[129.955662,32.925748]},"properties":{"id":"42-a7c381aabe","name":"西乾馬場町","reading":"ニシイヌイババマチ","pref":"長崎県","prefCode":"42","municipality":"大村市","hazardTypes":["slope_failure"],"evidenceLevel":0,"status":"current","disputed":false,"precision":"oaza","areaKey":"422052140","elements":["baba"],"summary":"要素辞書に一致（baba）。出典による裏づけは未確認。","zones":[],"dataset":"candidates"}},{"type":"Feature","geometry":{"type":"Point","coordinates":[129.431083,33.257601]},"properties":{"id":"42-1ef6be136c","name":"猪渡谷町","reading":"イトヤチョウ","pref":"長崎県","prefCode":"42","municipality":"平戸市","hazardTypes":["landslide","soft_ground"],"evidenceLevel":0,"status":"current","disputed":false,"precision":"oaza","areaKey":"422070960","elements":["shishi"],"summary":"要素辞書に一致（shishi）。出典による裏づけは未確認。","zones":[],"dataset":"candidates"}},{"type":"Feature","geometry":{"type":"Point","coordinates":[129.477399,33.252565]},"properties":{"id":"42-0d2169573a","name":"大川原町","reading":"オオカワラチョウ","pref":"長崎県","prefCode":"42","municipality":"平戸市","hazardTypes":["flood"],"evidenceLevel":0,"status":"current","disputed":false,"precision":"oaza","areaKey":"422070810","elements":["kawara"],"summary":"要素辞書に一致（kawara）。出典による裏づけは未確認。","zones":[],"dataset":"candidates"}},{"type":"Feature","geometry":{"type":"Point","coordinates":[129.545534,33.394381]},"properties":{"id":"42-3fa3020a43","name":"大久保町","reading":"オオクボチョウ","pref":"長崎県","prefCode":"42","municipality":"平戸市","hazardTypes":["slope_failure","inundation","landslide"],"evidenceLevel":0,"status":"current","disputed":false,"precision":"oaza","areaKey":"422070210","elements":["afu_oo","kubo"],"summary":"要素辞書に一致（afu_oo・kubo）。出典による裏づけは未確認。","zones":[],"dataset":"candidates"}},{"type":"Feature","geometry":{"type":"Point","coordinates":[129.448355,33.31191]},"properties":{"id":"42-3a1f884c25","name":"獅子町","reading":"シシチョウ","pref":"長崎県","prefCode":"42","municipality":"平戸市","hazardTypes":["landslide","soft_ground"],"evidenceLevel":0,"status":"current","disputed":false,"precision":"oaza","areaKey":"422070600","elements":["shishi"],"summary":"要素辞書に一致（shishi）。出典による裏づけは未確認。","zones":[],"dataset":"candidates"}},{"type":"Feature","geometry":{"type":"Point","coordinates":[129.585402,33.373335]},"properties":{"id":"42-854a94f974","name":"田平町大久保免","reading":"タビラチョウオオクボメン","pref":"長崎県","prefCode":"42","municipality":"平戸市","hazardTypes":["slope_failure","inundation","landslide"],"evidenceLevel":0,"status":"current","disputed":false,"precision":"oaza","areaKey":"42207132003","elements":["afu_oo","kubo"],"summary":"要素辞書に一致（afu_oo・kubo）。出典による裏づけは未確認。","zones":[],"dataset":"candidates"}},{"type":"Feature","geometry":{"type":"Point","coordinates":[129.595318,33.335884]},"properties":{"id":"42-e9bd4ffe00","name":"田平町荻田免","reading":"タビラチョウオギタメン","pref":"長崎県","prefCode":"42","municipality":"平戸市","hazardTypes":["slope_failure"],"evidenceLevel":0,"status":"current","disputed":false,"precision":"oaza","areaKey":"42207137013","elements":["suki_hagu"],"summary":"要素辞書に一致（suki_hagu）。出典による裏づけは未確認。","zones":[],"dataset":"candidates"}},{"type":"Feature","geometry":{"type":"Point","coordinates":[129.511449,33.334993]},"properties":{"id":"42-9f1b99d995","name":"中野大久保町","reading":"ナカノオオクボチョウ","pref":"長崎県","prefCode":"42","municipality":"平戸市","hazardTypes":["slope_failure","inundation","landslide"],"evidenceLevel":0,"status":"current","disputed":false,"precision":"oaza","areaKey":"422070470","elements":["afu_oo","kubo"],"summary":"要素辞書に一致（afu_oo・kubo）。出典による裏づけは未確認。","zones":[],"dataset":"candidates"}},{"type":"Feature","geometry":{"type":"Point","coordinates":[129.436929,33.291245]},"properties":{"id":"42-1f099f3364","name":"根獅子町","reading":"ネシコチョウ","pref":"長崎県","prefCode":"42","municipality":"平戸市","hazardTypes":["landslide","soft_ground"],"evidenceLevel":0,"status":"current","disputed":false,"precision":"oaza","areaKey":"422070650","elements":["shishi"],"summary":"要素辞書に一致（shishi）。出典による裏づけは未確認。","zones":[],"dataset":"candidates"}},{"type":"Feature","geometry":{"type":"Point","coordinates":[129.513984,33.319775]},"properties":{"id":"42-1ec62fa827","name":"水垂町","reading":"ミズタリチョウ","pref":"長崎県","prefCode":"42","municipality":"平戸市","hazardTypes":["slope_failure"],"evidenceLevel":0,"status":"current","disputed":false,"precision":"oaza","areaKey":"422070480","elements":["kake"],"summary":"要素辞書に一致（kake）。出典による裏づけは未確認。","zones":[],"dataset":"candidates"}},{"type":"Feature","geometry":{"type":"Point","coordinates":[129.671326,33.38379]},"properties":{"id":"42-6f7b0b7cc1","name":"星鹿町","reading":"ホシカチョウアオシマメン","pref":"長崎県","prefCode":"42","municipality":"松浦市","hazardTypes":["landslide","soft_ground"],"evidenceLevel":0,"status":"current","disputed":false,"precision":"oaza","areaKey":"422082410","elements":["shishi"],"summary":"要素辞書に一致（shishi）。出典による裏づけは未確認。","zones":[],"dataset":"candidates"}},{"type":"Feature","geometry":{"type":"Point","coordinates":[129.324311,34.515665]},"properties":{"id":"42-22f353bef4","name":"上県町鹿見","reading":"カミアガタマチシシミ","pref":"長崎県","prefCode":"42","municipality":"対馬市","hazardTypes":["landslide","soft_ground"],"evidenceLevel":0,"status":"current","disputed":false,"precision":"oaza","areaKey":"422091020","elements":["shishi"],"summary":"要素辞書に一致（shishi）。出典による裏づけは未確認。","zones":[],"dataset":"candidates"}},{"type":"Feature","geometry":{"type":"Point","coordinates":[129.442442,34.546231]},"properties":{"id":"42-88d9b651a1","name":"上対馬町芦見","reading":"カミツシママチアシミ","pref":"長崎県","prefCode":"42","municipality":"対馬市","hazardTypes":["flood","inundation"],"evidenceLevel":0,"status":"current","disputed":false,"precision":"oaza","areaKey":"422091100","elements":["ashi"],"summary":"要素辞書に一致（ashi）。出典による裏づけは未確認。","zones":[],"dataset":"candidates"}},{"type":"Feature","geometry":{"type":"Point","coordinates":[129.424206,34.511725]},"properties":{"id":"42-a6ebc9d858","name":"上対馬町小鹿","reading":"カミツシママチオシカ","pref":"長崎県","prefCode":"42","municipality":"対馬市","hazardTypes":["landslide","soft_ground"],"evidenceLevel":0,"status":"current","disputed":false,"precision":"oaza","areaKey":"422091120","elements":["shishi"],"summary":"要素辞書に一致（shishi）。出典による裏づけは未確認。","zones":[],"dataset":"candidates"}},{"type":"Feature","geometry":{"type":"Point","coordinates":[129.37569,34.353582]},"properties":{"id":"42-86db7d9f55","name":"美津島町芦浦","reading":"ミツシママチヨシガウラ","pref":"長崎県","prefCode":"42","municipality":"対馬市","hazardTypes":["flood","inundation"],"evidenceLevel":0,"status":"current","disputed":false,"precision":"oaza","areaKey":"422090570","elements":["ashi"],"summary":"要素辞書に一致（ashi）。出典による裏づけは未確認。","zones":[],"dataset":"candidates"}},{"type":"Feature","geometry":{"type":"Point","coordinates":[129.759952,33.801158]},"properties":{"id":"42-4a4bb36dd0","name":"芦辺町芦辺浦","reading":"アシベチョウアシベウラ","pref":"長崎県","prefCode":"42","municipality":"壱岐市","hazardTypes":["flood","inundation"],"evidenceLevel":0,"status":"current","disputed":false,"precision":"oaza","areaKey":null,"elements":["ashi"],"summary":"要素辞書に一致（ashi）。出典による裏づけは未確認。","zones":[],"dataset":"candidates"}},{"type":"Feature","geometry":{"type":"Point","coordinates":[129.709962,33.795469]},"properties":{"id":"42-0b6983004d","name":"芦辺町国分川迎触","reading":"アシベチョウコクブカワムカエフレ","pref":"長崎県","prefCode":"42","municipality":"壱岐市","hazardTypes":["flood","inundation"],"evidenceLevel":0,"status":"current","disputed":false,"precision":"oaza","areaKey":"42210091013","elements":["ashi"],"summary":"要素辞書に一致（ashi）。出典による裏づけは未確認。","zones":[],"dataset":"candidates"}},{"type":"Feature","geometry":{"type":"Point","coordinates":[129.732357,33.807933]},"properties":{"id":"42-c23546206e","name":"芦辺町国分当田触","reading":"アシベチョウコクブトウダフレ","pref":"長崎県","prefCode":"42","municipality":"壱岐市","hazardTypes":["flood","inundation"],"evidenceLevel":0,"status":"current","disputed":false,"precision":"oaza","areaKey":"42210091017","elements":["ashi"],"summary":"要素辞書に一致（ashi）。出典による裏づけは未確認。","zones":[],"dataset":"candidates"}},{"type":"Feature","geometry":{"type":"Point","coordinates":[129.724247,33.802203]},"properties":{"id":"42-32cdeff7ce","name":"芦辺町国分東触","reading":"アシベチョウコクブヒガシフレ","pref":"長崎県","prefCode":"42","municipality":"壱岐市","hazardTypes":["flood","inundation"],"evidenceLevel":0,"status":"current","disputed":false,"precision":"oaza","areaKey":"42210091016","elements":["ashi"],"summary":"要素辞書に一致（ashi）。出典による裏づけは未確認。","zones":[],"dataset":"candidates"}},{"type":"Feature","geometry":{"type":"Point","coordinates":[129.718092,33.80697]},"properties":{"id":"42-158452441a","name":"芦辺町国分本村触","reading":"アシベチョウコクブホンムラフレ","pref":"長崎県","prefCode":"42","municipality":"壱岐市","hazardTypes":["flood","inundation"],"evidenceLevel":0,"status":"current","disputed":false,"precision":"oaza","areaKey":"42210091014","elements":["ashi"],"summary":"要素辞書に一致（ashi）。出典による裏づけは未確認。","zones":[],"dataset":"candidates"}},{"type":"Feature","geometry":{"type":"Point","coordinates":[129.701849,33.78862]},"properties":{"id":"42-b8068538fe","name":"芦辺町住吉後触","reading":"アシベチョウスミヨシウシロフレ","pref":"長崎県","prefCode":"42","municipality":"壱岐市","hazardTypes":["flood","inundation"],"evidenceLevel":0,"status":"current","disputed":false,"precision":"oaza","areaKey":"42210091012","elements":["ashi"],"summary":"要素辞書に一致（ashi）。出典による裏づけは未確認。","zones":[],"dataset":"candidates"}},{"type":"Feature","geometry":{"type":"Point","coordinates":[129.709037,33.787385]},"properties":{"id":"42-016e29bc10","name":"芦辺町住吉東触","reading":"アシベチョウスミヨシヒガシフレ","pref":"長崎県","prefCode":"42","municipality":"壱岐市","hazardTypes":["flood","inundation"],"evidenceLevel":0,"status":"current","disputed":false,"precision":"oaza","areaKey":"42210091010","elements":["ashi"],"summary":"要素辞書に一致（ashi）。出典による裏づけは未確認。","zones":[],"dataset":"candidates"}},{"type":"Feature","geometry":{"type":"Point","coordinates":[129.698638,33.779871]},"properties":{"id":"42-7834c0c987","name":"芦辺町住吉前触","reading":"アシベチョウスミヨシマエフレ","pref":"長崎県","prefCode":"42","municipality":"壱岐市","hazardTypes":["flood","inundation"],"evidenceLevel":0,"status":"current","disputed":false,"precision":"oaza","areaKey":"42210091011","elements":["ashi"],"summary":"要素辞書に一致（ashi）。出典による裏づけは未確認。","zones":[],"dataset":"candidates"}},{"type":"Feature","geometry":{"type":"Point","coordinates":[129.720148,33.781429]},"properties":{"id":"42-3d9cb7b55a","name":"芦辺町住吉山信触","reading":"アシベチョウスミヨシヤマノブフレ","pref":"長崎県","prefCode":"42","municipality":"壱岐市","hazardTypes":["flood","inundation"],"evidenceLevel":0,"status":"current","disputed":false,"precision":"oaza","areaKey":"42210091009","elements":["ashi"],"summary":"要素辞書に一致（ashi）。出典による裏づけは未確認。","zones":[],"dataset":"candidates"}},{"type":"Feature","geometry":{"type":"Point","coordinates":[129.759297,33.817355]},"properties":{"id":"42-8d9b9f0b46","name":"芦辺町瀬戸浦","reading":"アシベチョウセトウラ","pref":"長崎県","prefCode":"42","municipality":"壱岐市","hazardTypes":["flood","inundation"],"evidenceLevel":0,"status":"current","disputed":false,"precision":"oaza","areaKey":null,"elements":["ashi"],"summary":"要素辞書に一致（ashi）。出典による裏づけは未確認。","zones":[],"dataset":"candidates"}},{"type":"Feature","geometry":{"type":"Point","coordinates":[129.737747,33.799219]},"properties":{"id":"42-74d28822c9","name":"芦辺町中野郷仲触","reading":"アシベチョウナカノゴウナカフレ","pref":"長崎県","prefCode":"42","municipality":"壱岐市","hazardTypes":["flood","inundation"],"evidenceLevel":0,"status":"current","disputed":false,"precision":"oaza","areaKey":null,"elements":["ashi"],"summary":"要素辞書に一致（ashi）。出典による裏づけは未確認。","zones":[],"dataset":"candidates"}},{"type":"Feature","geometry":{"type":"Point","coordinates":[129.720979,33.79213]},"properties":{"id":"42-7ba00fd27e","name":"芦辺町中野郷西触","reading":"アシベチョウナカノゴウニシフレ","pref":"長崎県","prefCode":"42","municipality":"壱岐市","hazardTypes":["flood","inundation"],"evidenceLevel":0,"status":"current","disputed":false,"precision":"oaza","areaKey":"42210091001","elements":["ashi"],"summary":"要素辞書に一致（ashi）。出典による裏づけは未確認。","zones":[],"dataset":"candidates"}},{"type":"Feature","geometry":{"type":"Point","coordinates":[129.740693,33.793193]},"properties":{"id":"42-f7dae0e541","name":"芦辺町中野郷東触","reading":"アシベチョウナカノゴウヒガシフレ","pref":"長崎県","prefCode":"42","municipality":"壱岐市","hazardTypes":["flood","inundation"],"evidenceLevel":0,"status":"current","disputed":false,"precision":"oaza","areaKey":"42210091005","elements":["ashi"],"summary":"要素辞書に一致（ashi）。出典による裏づけは未確認。","zones":[],"dataset":"candidates"}},{"type":"Feature","geometry":{"type":"Point","coordinates":[129.72807,33.791957]},"properties":{"id":"42-154d044a38","name":"芦辺町中野郷本村触","reading":"アシベチョウナカノゴウホンムラフレ","pref":"長崎県","prefCode":"42","municipality":"壱岐市","hazardTypes":["flood","inundation"],"evidenceLevel":0,"status":"current","disputed":false,"precision":"oaza","areaKey":"42210091002","elements":["ashi"],"summary":"要素辞書に一致（ashi）。出典による裏づけは未確認。","zones":[],"dataset":"candidates"}},{"type":"Feature","geometry":{"type":"Point","coordinates":[129.737277,33.843404]},"properties":{"id":"42-ed52458990","name":"芦辺町箱崎江角触","reading":"アシベチョウハコザキエスミフレ","pref":"長崎県","prefCode":"42","municipality":"壱岐市","hazardTypes":["flood","inundation"],"evidenceLevel":0,"status":"current","disputed":false,"precision":"oaza","areaKey":"42210092004","elements":["ashi"],"summary":"要素辞書に一致（ashi）。出典による裏づけは未確認。","zones":[],"dataset":"candidates"}},{"type":"Feature","geometry":{"type":"Point","coordinates":[129.743241,33.828702]},"properties":{"id":"42-a8d34c8c23","name":"芦辺町箱崎釘ノ尾触","reading":"アシベチョウハコザキクギノオフレ","pref":"長崎県","prefCode":"42","municipality":"壱岐市","hazardTypes":["flood","inundation"],"evidenceLevel":0,"status":"current","disputed":false,"precision":"oaza","areaKey":"42210092001","elements":["ashi"],"summary":"要素辞書に一致（ashi）。出典による裏づけは未確認。","zones":[],"dataset":"candidates"}},{"type":"Feature","geometry":{"type":"Point","coordinates":[129.74986,33.821696]},"properties":{"id":"42-6bac1cc1a4","name":"芦辺町箱崎大左右触","reading":"アシベチョウハコザキタイソウフレ","pref":"長崎県","prefCode":"42","municipality":"壱岐市","hazardTypes":["flood","inundation"],"evidenceLevel":0,"status":"current","disputed":false,"precision":"oaza","areaKey":"42210092006","elements":["ashi"],"summary":"要素辞書に一致（ashi）。出典による裏づけは未確認。","zones":[],"dataset":"candidates"}},{"type":"Feature","geometry":{"type":"Point","coordinates":[129.729272,33.820859]},"properties":{"id":"42-a6d6eca40b","name":"芦辺町箱崎谷江触","reading":"アシベチョウハコザキタニエフレ","pref":"長崎県","prefCode":"42","municipality":"壱岐市","hazardTypes":["flood","inundation"],"evidenceLevel":0,"status":"current","disputed":false,"precision":"oaza","areaKey":"42210092002","elements":["ashi"],"summary":"要素辞書に一致（ashi）。出典による裏づけは未確認。","zones":[],"dataset":"candidates"}},{"type":"Feature","geometry":{"type":"Point","coordinates":[129.743306,33.814679]},"properties":{"id":"42-906a493afe","name":"芦辺町箱崎中山触","reading":"アシベチョウハコザキナカヤマフレ","pref":"長崎県","prefCode":"42","municipality":"壱岐市","hazardTypes":["flood","inundation"],"evidenceLevel":0,"status":"current","disputed":false,"precision":"oaza","areaKey":"42210092007","elements":["ashi"],"summary":"要素辞書に一致（ashi）。出典による裏づけは未確認。","zones":[],"dataset":"candidates"}},{"type":"Feature","geometry":{"type":"Point","coordinates":[129.738248,33.833724]},"properties":{"id":"42-2eab64bc41","name":"芦辺町箱崎本村触","reading":"アシベチョウハコザキホンムラフレ","pref":"長崎県","prefCode":"42","municipality":"壱岐市","hazardTypes":["flood","inundation"],"evidenceLevel":0,"status":"current","disputed":false,"precision":"oaza","areaKey":"42210092003","elements":["ashi"],"summary":"要素辞書に一致（ashi）。出典による裏づけは未確認。","zones":[],"dataset":"candidates"}},{"type":"Feature","geometry":{"type":"Point","coordinates":[129.761972,33.837083]},"properties":{"id":"42-6e61f84dee","name":"芦辺町箱崎諸津触","reading":"アシベチョウハコザキモロツフレ","pref":"長崎県","prefCode":"42","municipality":"壱岐市","hazardTypes":["flood","inundation"],"evidenceLevel":0,"status":"current","disputed":false,"precision":"oaza","areaKey":"42210092005","elements":["ashi"],"summary":"要素辞書に一致（ashi）。出典による裏づけは未確認。","zones":[],"dataset":"candidates"}},{"type":"Feature","geometry":{"type":"Point","coordinates":[129.747075,33.768756]},"properties":{"id":"42-993e9ad2c3","name":"芦辺町深江栄触","reading":"アシベチョウフカエサカエフレ","pref":"長崎県","prefCode":"42","municipality":"壱岐市","hazardTypes":["flood","inundation"],"evidenceLevel":0,"status":"current","disputed":false,"precision":"oaza","areaKey":null,"elements":["ashi"],"summary":"要素辞書に一致（ashi）。出典による裏づけは未確認。","zones":[],"dataset":"candidates"}},{"type":"Feature","geometry":{"type":"Point","coordinates":[129.757149,33.769763]},"properties":{"id":"42-b24ee96ff8","name":"芦辺町深江鶴亀触","reading":"アシベチョウフカエツルキフレ","pref":"長崎県","prefCode":"42","municipality":"壱岐市","hazardTypes":["flood","inundation"],"evidenceLevel":0,"status":"current","disputed":false,"precision":"oaza","areaKey":"42210090006","elements":["ashi"],"summary":"要素辞書に一致（ashi）。出典による裏づけは未確認。","zones":[],"dataset":"candidates"}},{"type":"Feature","geometry":{"type":"Point","coordinates":[129.755031,33.777844]},"properties":{"id":"42-3ca3c33f21","name":"芦辺町深江東触","reading":"アシベチョウフカエヒガシフレ","pref":"長崎県","prefCode":"42","municipality":"壱岐市","hazardTypes":["flood","inundation"],"evidenceLevel":0,"status":"current","disputed":false,"precision":"oaza","areaKey":"42210090001","elements":["ashi"],"summary":"要素辞書に一致（ashi）。出典による裏づけは未確認。","zones":[],"dataset":"candidates"}},{"type":"Feature","geometry":{"type":"Point","coordinates":[129.758669,33.764092]},"properties":{"id":"42-dc74bd72d7","name":"芦辺町深江平触","reading":"アシベチョウフカエヒラフレ","pref":"長崎県","prefCode":"42","municipality":"壱岐市","hazardTypes":["flood","inundation"],"evidenceLevel":0,"status":"current","disputed":false,"precision":"oaza","areaKey":null,"elements":["ashi"],"summary":"要素辞書に一致（ashi）。出典による裏づけは未確認。","zones":[],"dataset":"candidates"}},{"type":"Feature","geometry":{"type":"Point","coordinates":[129.744196,33.781232]},"properties":{"id":"42-b2b4f18f9b","name":"芦辺町深江本村触","reading":"アシベチョウフカエホンムラフレ","pref":"長崎県","prefCode":"42","municipality":"壱岐市","hazardTypes":["flood","inundation"],"evidenceLevel":0,"status":"current","disputed":false,"precision":"oaza","areaKey":"42210090003","elements":["ashi"],"summary":"要素辞書に一致（ashi）。出典による裏づけは未確認。","zones":[],"dataset":"candidates"}},{"type":"Feature","geometry":{"type":"Point","coordinates":[129.744487,33.773241]},"properties":{"id":"42-f0f4c4caff","name":"芦辺町深江南触","reading":"アシベチョウフカエミナミフレ","pref":"長崎県","prefCode":"42","municipality":"壱岐市","hazardTypes":["flood","inundation"],"evidenceLevel":0,"status":"current","disputed":false,"precision":"oaza","areaKey":"42210090002","elements":["ashi"],"summary":"要素辞書に一致（ashi）。出典による裏づけは未確認。","zones":[],"dataset":"candidates"}},{"type":"Feature","geometry":{"type":"Point","coordinates":[129.749188,33.804711]},"properties":{"id":"42-5d7cd6e2cb","name":"芦辺町諸吉大石触","reading":"アシベチョウモロヨシオオイシフレ","pref":"長崎県","prefCode":"42","municipality":"壱岐市","hazardTypes":["flood","inundation"],"evidenceLevel":0,"status":"current","disputed":false,"precision":"oaza","areaKey":null,"elements":["ashi"],"summary":"要素辞書に一致（ashi）。出典による裏づけは未確認。","zones":[],"dataset":"candidates"}},{"type":"Feature","geometry":{"type":"Point","coordinates":[129.751061,33.793222]},"properties":{"id":"42-d60b5717a6","name":"芦辺町諸吉仲触","reading":"アシベチョウモロヨシナカフレ","pref":"長崎県","prefCode":"42","municipality":"壱岐市","hazardTypes":["flood","inundation"],"evidenceLevel":0,"status":"current","disputed":false,"precision":"oaza","areaKey":null,"elements":["ashi"],"summary":"要素辞書に一致（ashi）。出典による裏づけは未確認。","zones":[],"dataset":"candidates"}},{"type":"Feature","geometry":{"type":"Point","coordinates":[129.763279,33.795491]},"properties":{"id":"42-3eae653b7a","name":"芦辺町諸吉東触","reading":"アシベチョウモロヨシヒガシフレ","pref":"長崎県","prefCode":"42","municipality":"壱岐市","hazardTypes":["flood","inundation"],"evidenceLevel":0,"status":"current","disputed":false,"precision":"oaza","areaKey":null,"elements":["ashi"],"summary":"要素辞書に一致（ashi）。出典による裏づけは未確認。","zones":[],"dataset":"candidates"}},{"type":"Feature","geometry":{"type":"Point","coordinates":[129.754298,33.785121]},"properties":{"id":"42-3ba914af9e","name":"芦辺町諸吉二亦触","reading":"アシベチョウモロヨシフタマタフレ","pref":"長崎県","prefCode":"42","municipality":"壱岐市","hazardTypes":["flood","inundation"],"evidenceLevel":0,"status":"current","disputed":false,"precision":"oaza","areaKey":null,"elements":["ashi"],"summary":"要素辞書に一致（ashi）。出典による裏づけは未確認。","zones":[],"dataset":"candidates"}},{"type":"Feature","geometry":{"type":"Point","coordinates":[129.784087,33.788095]},"properties":{"id":"42-94e069bd85","name":"芦辺町諸吉本村触","reading":"アシベチョウモロヨシホンムラフレ","pref":"長崎県","prefCode":"42","municipality":"壱岐市","hazardTypes":["flood","inundation"],"evidenceLevel":0,"status":"current","disputed":false,"precision":"oaza","areaKey":null,"elements":["ashi"],"summary":"要素辞書に一致（ashi）。出典による裏づけは未確認。","zones":[],"dataset":"candidates"}},{"type":"Feature","geometry":{"type":"Point","coordinates":[129.771755,33.788146]},"properties":{"id":"42-316594db04","name":"芦辺町諸吉南触","reading":"アシベチョウモロヨシミナミフレ","pref":"長崎県","prefCode":"42","municipality":"壱岐市","hazardTypes":["flood","inundation"],"evidenceLevel":0,"status":"current","disputed":false,"precision":"oaza","areaKey":null,"elements":["ashi"],"summary":"要素辞書に一致（ashi）。出典による裏づけは未確認。","zones":[],"dataset":"candidates"}},{"type":"Feature","geometry":{"type":"Point","coordinates":[129.730399,33.771401]},"properties":{"id":"42-590b249328","name":"芦辺町湯岳興触","reading":"アシベチョウユタケコウフレ","pref":"長崎県","prefCode":"42","municipality":"壱岐市","hazardTypes":["flood","inundation"],"evidenceLevel":0,"status":"current","disputed":false,"precision":"oaza","areaKey":null,"elements":["ashi"],"summary":"要素辞書に一致（ashi）。出典による裏づけは未確認。","zones":[],"dataset":"candidates"}},{"type":"Feature","geometry":{"type":"Point","coordinates":[129.730475,33.778195]},"properties":{"id":"42-286e15d4b3","name":"芦辺町湯岳今坂触","reading":"アシベチョウユタケコンザカフレ","pref":"長崎県","prefCode":"42","municipality":"壱岐市","hazardTypes":["flood","inundation"],"evidenceLevel":0,"status":"current","disputed":false,"precision":"oaza","areaKey":"42210091007","elements":["ashi"],"summary":"要素辞書に一致（ashi）。出典による裏づけは未確認。","zones":[],"dataset":"candidates"}},{"type":"Feature","geometry":{"type":"Point","coordinates":[129.739811,33.774673]},"properties":{"id":"42-53655766e9","name":"芦辺町湯岳本村触","reading":"アシベチョウユタケホンムラフレ","pref":"長崎県","prefCode":"42","municipality":"壱岐市","hazardTypes":["flood","inundation"],"evidenceLevel":0,"status":"current","disputed":false,"precision":"oaza","areaKey":"42210091006","elements":["ashi"],"summary":"要素辞書に一致（ashi）。出典による裏づけは未確認。","zones":[],"dataset":"candidates"}},{"type":"Feature","geometry":{"type":"Point","coordinates":[129.692106,33.838544]},"properties":{"id":"42-447db62081","name":"勝本町大久保触","reading":"カツモトチョウオオクボフレ","pref":"長崎県","prefCode":"42","municipality":"壱岐市","hazardTypes":["slope_failure","inundation","landslide"],"evidenceLevel":0,"status":"current","disputed":false,"precision":"oaza","areaKey":"422100680","elements":["afu_oo","kubo"],"summary":"要素辞書に一致（afu_oo・kubo）。出典による裏づけは未確認。","zones":[],"dataset":"candidates"}},{"type":"Feature","geometry":{"type":"Point","coordinates":[128.851768,32.812901]},"properties":{"id":"42-b50b717302","name":"猪之木町","reading":"イノキチョウ","pref":"長崎県","prefCode":"42","municipality":"五島市","hazardTypes":["landslide","soft_ground"],"evidenceLevel":0,"status":"current","disputed":false,"precision":"oaza","areaKey":"422110360","elements":["shishi"],"summary":"要素辞書に一致（shishi）。出典による裏づけは未確認。","zones":[],"dataset":"candidates"}},{"type":"Feature","geometry":{"type":"Point","coordinates":[128.712622,32.727068]},"properties":{"id":"42-67aa2b2af9","name":"岐宿町川原","reading":"キシクマチカワラ","pref":"長崎県","prefCode":"42","municipality":"五島市","hazardTypes":["flood"],"evidenceLevel":0,"status":"current","disputed":false,"precision":"oaza","areaKey":"42211139015","elements":["kawara"],"summary":"要素辞書に一致（kawara）。出典による裏づけは未確認。","zones":[],"dataset":"candidates"}},{"type":"Feature","geometry":{"type":"Point","coordinates":[128.655365,32.695443]},"properties":{"id":"42-f4de43cc4f","name":"玉之浦町頓泊","reading":"タマノウラマチトントマリ","pref":"長崎県","prefCode":"42","municipality":"五島市","hazardTypes":["slope_failure","debris_flow"],"evidenceLevel":0,"status":"current","disputed":false,"precision":"oaza","areaKey":"422111210","elements":["tobi"],"summary":"要素辞書に一致（tobi）。出典による裏づけは未確認。","zones":[],"dataset":"candidates"}},{"type":"Feature","geometry":{"type":"Point","coordinates":[128.836283,32.732151]},"properties":{"id":"42-a4679c6d13","name":"平蔵町","reading":"ヒラゾウチョウ","pref":"長崎県","prefCode":"42","municipality":"五島市","hazardTypes":["slope_failure","rockfall"],"evidenceLevel":0,"status":"current","disputed":false,"precision":"oaza","areaKey":"422110160","elements":["kura"],"summary":"要素辞書に一致（kura）。出典による裏づけは未確認。","zones":[],"dataset":"candidates"}},{"type":"Feature","geometry":{"type":"Point","coordinates":[130.187729,32.82089]},"properties":{"id":"42-9dee417f97","name":"吾妻町馬場名","reading":"アヅマチョウババミョウ","pref":"長崎県","prefCode":"42","municipality":"雲仙市","hazardTypes":["slope_failure"],"evidenceLevel":0,"status":"current","disputed":false,"precision":"oaza","areaKey":"422130140","elements":["baba"],"summary":"要素辞書に一致（baba）。出典による裏づけは未確認。","zones":[],"dataset":"candidates"}},{"type":"Feature","geometry":{"type":"Point","coordinates":[130.176341,32.696205]},"properties":{"id":"42-25b275f753","name":"小浜町飛子","reading":"オバマチョウトビコ","pref":"長崎県","prefCode":"42","municipality":"雲仙市","hazardTypes":["slope_failure","debris_flow"],"evidenceLevel":0,"status":"current","disputed":false,"precision":"oaza","areaKey":"42213040001","elements":["tobi"],"summary":"要素辞書に一致（tobi）。出典による裏づけは未確認。","zones":[],"dataset":"candidates"}},{"type":"Feature","geometry":{"type":"Point","coordinates":[130.31603,32.674149]},"properties":{"id":"42-eae51cdfc5","name":"有家町蒲河","reading":"アリエチョウカマガ","pref":"長崎県","prefCode":"42","municipality":"南島原市","hazardTypes":["landslide","soft_ground"],"evidenceLevel":0,"status":"current","disputed":false,"precision":"oaza","areaKey":null,"elements":["wetland_plants"],"summary":"要素辞書に一致（wetland_plants）。出典による裏づけは未確認。","zones":[],"dataset":"candidates"}},{"type":"Feature","geometry":{"type":"Point","coordinates":[129.845863,32.832653]},"properties":{"id":"42-ccd300c930","name":"蔵本","reading":null,"pref":"長崎県","prefCode":"42","municipality":"西彼杵郡時津町","hazardTypes":["slope_failure","rockfall"],"evidenceLevel":0,"status":"current","disputed":false,"precision":"koaza","areaKey":null,"elements":["kura"],"summary":"要素辞書に一致（kura）。出典による裏づけは未確認。","zones":[],"dataset":"candidates"}},{"type":"Feature","geometry":{"type":"Point","coordinates":[129.908972,33.046171]},"properties":{"id":"42-ac57c9eec5","name":"蔵本郷","reading":"クラモトゴウ","pref":"長崎県","prefCode":"42","municipality":"東彼杵郡東彼杵町","hazardTypes":["slope_failure","rockfall"],"evidenceLevel":0,"status":"current","disputed":false,"precision":"oaza","areaKey":null,"elements":["kura"],"summary":"要素辞書に一致（kura）。出典による裏づけは未確認。","zones":[],"dataset":"candidates"}},{"type":"Feature","geometry":{"type":"Point","coordinates":[129.948839,33.050114]},"properties":{"id":"42-d822b8e98a","name":"菅無田郷","reading":"スガムタゴウ","pref":"長崎県","prefCode":"42","municipality":"東彼杵郡東彼杵町","hazardTypes":["landslide","soft_ground"],"evidenceLevel":0,"status":"current","disputed":false,"precision":"oaza","areaKey":null,"elements":["wetland_plants"],"summary":"要素辞書に一致（wetland_plants）。出典による裏づけは未確認。","zones":[],"dataset":"candidates"}},{"type":"Feature","geometry":{"type":"Point","coordinates":[129.887874,33.099994]},"properties":{"id":"42-df141a99b4","name":"猪乗川内郷","reading":"イノリゴウチゴウ","pref":"長崎県","prefCode":"42","municipality":"東彼杵郡川棚町","hazardTypes":["landslide","soft_ground"],"evidenceLevel":0,"status":"current","disputed":false,"precision":"oaza","areaKey":null,"elements":["shishi"],"summary":"要素辞書に一致（shishi）。出典による裏づけは未確認。","zones":[],"dataset":"candidates"}},{"type":"Feature","geometry":{"type":"Point","coordinates":[129.657674,33.249446]},"properties":{"id":"42-cd403aa088","name":"中川原免","reading":"ナカガワラメン","pref":"長崎県","prefCode":"42","municipality":"北松浦郡佐々町","hazardTypes":["flood"],"evidenceLevel":0,"status":"current","disputed":false,"precision":"oaza","areaKey":null,"elements":["kawara"],"summary":"要素辞書に一致（kawara）。出典による裏づけは未確認。","zones":[],"dataset":"candidates"}},{"type":"Feature","geometry":{"type":"Point","coordinates":[129.645392,33.24468]},"properties":{"id":"42-be65bc1884","name":"古川免","reading":"フルカワメン","pref":"長崎県","prefCode":"42","municipality":"北松浦郡佐々町","hazardTypes":["flood","inundation"],"evidenceLevel":0,"status":"current","disputed":false,"precision":"oaza","areaKey":null,"elements":["furukawa"],"summary":"要素辞書に一致（furukawa）。出典による裏づけは未確認。","zones":[],"dataset":"candidates"}},{"type":"Feature","geometry":{"type":"Point","coordinates":[129.13918,32.992146]},"properties":{"id":"42-2d95e9ca7e","name":"小河原郷","reading":"オガワラゴウ","pref":"長崎県","prefCode":"42","municipality":"南松浦郡新上五島町","hazardTypes":["flood"],"evidenceLevel":0,"status":"current","disputed":false,"precision":"oaza","areaKey":null,"elements":["kawara"],"summary":"要素辞書に一致（kawara）。出典による裏づけは未確認。","zones":[],"dataset":"candidates"}}]}
