{"type":"FeatureCollection","features":[{"type":"Feature","geometry":{"type":"Point","coordinates":[131.39288,31.90725]},"properties":{"id":"45-3926345a71","name":"地蔵田","reading":null,"pref":"宮崎県","prefCode":"45","municipality":"宮崎市","hazardTypes":["slope_failure","rockfall"],"evidenceLevel":0,"status":"current","disputed":false,"precision":"koaza","areaKey":null,"elements":["kura"],"summary":"要素辞書に一致（kura）。出典による裏づけは未確認。","zones":[],"dataset":"candidates"}},{"type":"Feature","geometry":{"type":"Point","coordinates":[131.394056,31.913441]},"properties":{"id":"45-b2ba1351e1","name":"馬場崎","reading":null,"pref":"宮崎県","prefCode":"45","municipality":"宮崎市","hazardTypes":["slope_failure"],"evidenceLevel":0,"status":"current","disputed":false,"precision":"koaza","areaKey":null,"elements":["baba"],"summary":"要素辞書に一致（baba）。出典による裏づけは未確認。","zones":[],"dataset":"candidates"}},{"type":"Feature","geometry":{"type":"Point","coordinates":[131.424638,31.906096]},"properties":{"id":"45-33a9867d54","name":"川原町","reading":"カワラマチ","pref":"宮崎県","prefCode":"45","municipality":"宮崎市","hazardTypes":["flood"],"evidenceLevel":0,"status":"current","disputed":false,"precision":"oaza","areaKey":"452010250","elements":["kawara"],"summary":"要素辞書に一致（kawara）。出典による裏づけは未確認。","zones":[],"dataset":"candidates"}},{"type":"Feature","geometry":{"type":"Point","coordinates":[131.309239,31.897635]},"properties":{"id":"45-d11aabbee0","name":"高岡町上倉永","reading":"タカオカチョウカミクラナガ","pref":"宮崎県","prefCode":"45","municipality":"宮崎市","hazardTypes":["slope_failure","rockfall"],"evidenceLevel":0,"status":"current","disputed":false,"precision":"oaza","areaKey":null,"elements":["kura"],"summary":"要素辞書に一致（kura）。出典による裏づけは未確認。","zones":[],"dataset":"candidates"}},{"type":"Feature","geometry":{"type":"Point","coordinates":[131.340155,31.938287]},"properties":{"id":"45-bcb47e8f65","name":"高岡町下倉永","reading":"タカオカチョウシモクラナガ","pref":"宮崎県","prefCode":"45","municipality":"宮崎市","hazardTypes":["slope_failure","rockfall"],"evidenceLevel":0,"status":"current","disputed":false,"precision":"oaza","areaKey":null,"elements":["kura"],"summary":"要素辞書に一致（kura）。出典による裏づけは未確認。","zones":[],"dataset":"candidates"}},{"type":"Feature","geometry":{"type":"Point","coordinates":[131.414804,31.923632]},"properties":{"id":"45-9bcd7b9d1e","name":"和知川原一丁目","reading":"ワチガワラ 1","pref":"宮崎県","prefCode":"45","municipality":"宮崎市","hazardTypes":["flood"],"evidenceLevel":0,"status":"current","disputed":false,"precision":"oaza","areaKey":"45201020001","elements":["kawara"],"summary":"要素辞書に一致（kawara）。出典による裏づけは未確認。","zones":[],"dataset":"candidates"}},{"type":"Feature","geometry":{"type":"Point","coordinates":[131.085085,31.72916]},"properties":{"id":"45-36eb5d0341","name":"菖蒲原町","reading":"アヤメバルチョウ","pref":"宮崎県","prefCode":"45","municipality":"都城市","hazardTypes":["landslide","soft_ground"],"evidenceLevel":0,"status":"current","disputed":false,"precision":"oaza","areaKey":null,"elements":["wetland_plants"],"summary":"要素辞書に一致（wetland_plants）。出典による裏づけは未確認。","zones":[],"dataset":"candidates"}},{"type":"Feature","geometry":{"type":"Point","coordinates":[131.05538,31.662567]},"properties":{"id":"45-94b5e67499","name":"梅北町","reading":"ウメキタチョウ","pref":"宮崎県","prefCode":"45","municipality":"都城市","hazardTypes":["landslide","slope_failure"],"evidenceLevel":0,"status":"current","disputed":false,"precision":"oaza","areaKey":"452020810","elements":["ume"],"summary":"要素辞書に一致（ume）。出典による裏づけは未確認。","zones":[],"dataset":"candidates"}},{"type":"Feature","geometry":{"type":"Point","coordinates":[131.066804,31.72283]},"properties":{"id":"45-6b82a8e8a7","name":"蔵原町","reading":"クラハラチョウ","pref":"宮崎県","prefCode":"45","municipality":"都城市","hazardTypes":["slope_failure","rockfall"],"evidenceLevel":0,"status":"current","disputed":false,"precision":"oaza","areaKey":"452020090","elements":["kura"],"summary":"要素辞書に一致（kura）。出典による裏づけは未確認。","zones":[],"dataset":"candidates"}},{"type":"Feature","geometry":{"type":"Point","coordinates":[130.97015,31.850986]},"properties":{"id":"45-843f4136bf","name":"夏尾町","reading":"ナツオチョウ","pref":"宮崎県","prefCode":"45","municipality":"都城市","hazardTypes":["debris_flow","slope_failure"],"evidenceLevel":0,"status":"current","disputed":false,"precision":"oaza","areaKey":"452020800","elements":["nazu_natsu"],"summary":"要素辞書に一致（nazu_natsu）。出典による裏づけは未確認。","zones":[],"dataset":"candidates"}},{"type":"Feature","geometry":{"type":"Point","coordinates":[131.611407,32.607606]},"properties":{"id":"45-54e73e8bf2","name":"鹿狩瀬町","reading":"カガセマチ","pref":"宮崎県","prefCode":"45","municipality":"延岡市","hazardTypes":["landslide","soft_ground"],"evidenceLevel":0,"status":"current","disputed":false,"precision":"oaza","areaKey":"452030370","elements":["shishi"],"summary":"要素辞書に一致（shishi）。出典による裏づけは未確認。","zones":[],"dataset":"candidates"}},{"type":"Feature","geometry":{"type":"Point","coordinates":[131.704284,32.632798]},"properties":{"id":"45-a4448bfe83","name":"鹿小路","reading":"カショウジ","pref":"宮崎県","prefCode":"45","municipality":"延岡市","hazardTypes":["landslide","soft_ground"],"evidenceLevel":0,"status":"current","disputed":false,"precision":"oaza","areaKey":"452030880","elements":["shishi"],"summary":"要素辞書に一致（shishi）。出典による裏づけは未確認。","zones":[],"dataset":"candidates"}},{"type":"Feature","geometry":{"type":"Point","coordinates":[131.679723,32.592213]},"properties":{"id":"45-c3a097b135","name":"川原崎町","reading":"カワラサキマチ","pref":"宮崎県","prefCode":"45","municipality":"延岡市","hazardTypes":["flood"],"evidenceLevel":0,"status":"current","disputed":false,"precision":"oaza","areaKey":"452030210","elements":["kawara"],"summary":"要素辞書に一致（kawara）。出典による裏づけは未確認。","zones":[],"dataset":"candidates"}},{"type":"Feature","geometry":{"type":"Point","coordinates":[131.504605,32.712173]},"properties":{"id":"45-a09143e47e","name":"北方町上鹿川","reading":"キタカタマチカミシシガワ","pref":"宮崎県","prefCode":"45","municipality":"延岡市","hazardTypes":["landslide","soft_ground"],"evidenceLevel":0,"status":"current","disputed":false,"precision":"oaza","areaKey":null,"elements":["shishi"],"summary":"要素辞書に一致（shishi）。出典による裏づけは未確認。","zones":[],"dataset":"candidates"}},{"type":"Feature","geometry":{"type":"Point","coordinates":[131.506166,32.589344]},"properties":{"id":"45-8bdae805b1","name":"北方町蔵田","reading":"キタカタマチクラタ","pref":"宮崎県","prefCode":"45","municipality":"延岡市","hazardTypes":["slope_failure","rockfall"],"evidenceLevel":0,"status":"current","disputed":false,"precision":"oaza","areaKey":null,"elements":["kura"],"summary":"要素辞書に一致（kura）。出典による裏づけは未確認。","zones":[],"dataset":"candidates"}},{"type":"Feature","geometry":{"type":"Point","coordinates":[131.472467,32.672395]},"properties":{"id":"45-5da6dcdc6e","name":"北方町下鹿川","reading":"キタカタマチシモシシガワ","pref":"宮崎県","prefCode":"45","municipality":"延岡市","hazardTypes":["landslide","soft_ground"],"evidenceLevel":0,"status":"current","disputed":false,"precision":"oaza","areaKey":null,"elements":["shishi"],"summary":"要素辞書に一致（shishi）。出典による裏づけは未確認。","zones":[],"dataset":"candidates"}},{"type":"Feature","geometry":{"type":"Point","coordinates":[131.446904,32.640948]},"properties":{"id":"45-cea12c7f18","name":"北方町菅原","reading":"キタカタマチスゲバル","pref":"宮崎県","prefCode":"45","municipality":"延岡市","hazardTypes":["landslide","soft_ground"],"evidenceLevel":0,"status":"current","disputed":false,"precision":"oaza","areaKey":null,"elements":["wetland_plants"],"summary":"要素辞書に一致（wetland_plants）。出典による裏づけは未確認。","zones":[],"dataset":"candidates"}},{"type":"Feature","geometry":{"type":"Point","coordinates":[131.671949,32.593781]},"properties":{"id":"45-59826d40c7","name":"中川原町一丁目","reading":"ナカガワラマチ 1","pref":"宮崎県","prefCode":"45","municipality":"延岡市","hazardTypes":["flood"],"evidenceLevel":0,"status":"current","disputed":false,"precision":"oaza","areaKey":"45203032001","elements":["kawara"],"summary":"要素辞書に一致（kawara）。出典による裏づけは未確認。","zones":[],"dataset":"candidates"}},{"type":"Feature","geometry":{"type":"Point","coordinates":[131.66981,32.606959]},"properties":{"id":"45-397027da99","name":"夏田町","reading":"ナツタマチ","pref":"宮崎県","prefCode":"45","municipality":"延岡市","hazardTypes":["debris_flow","slope_failure"],"evidenceLevel":0,"status":"current","disputed":false,"precision":"oaza","areaKey":"452030940","elements":["nazu_natsu"],"summary":"要素辞書に一致（nazu_natsu）。出典による裏づけは未確認。","zones":[],"dataset":"candidates"}},{"type":"Feature","geometry":{"type":"Point","coordinates":[131.669848,32.582399]},"properties":{"id":"45-04c59b2b03","name":"船倉町一丁目","reading":"フナグラマチ 1","pref":"宮崎県","prefCode":"45","municipality":"延岡市","hazardTypes":["slope_failure","rockfall"],"evidenceLevel":0,"status":"current","disputed":false,"precision":"oaza","areaKey":"45203012001","elements":["kura"],"summary":"要素辞書に一致（kura）。出典による裏づけは未確認。","zones":[],"dataset":"candidates"}},{"type":"Feature","geometry":{"type":"Point","coordinates":[131.649324,32.588396]},"properties":{"id":"45-5e26b8cde0","name":"古川町","reading":"フルカワマチ","pref":"宮崎県","prefCode":"45","municipality":"延岡市","hazardTypes":["flood","inundation"],"evidenceLevel":0,"status":"current","disputed":false,"precision":"oaza","areaKey":"452030280","elements":["furukawa"],"summary":"要素辞書に一致（furukawa）。出典による裏づけは未確認。","zones":[],"dataset":"candidates"}},{"type":"Feature","geometry":{"type":"Point","coordinates":[131.686103,32.610929]},"properties":{"id":"45-a2eb0a98c4","name":"無鹿町一丁目","reading":"ムシカマチ 1","pref":"宮崎県","prefCode":"45","municipality":"延岡市","hazardTypes":["landslide","soft_ground"],"evidenceLevel":0,"status":"current","disputed":false,"precision":"oaza","areaKey":"45203080001","elements":["shishi"],"summary":"要素辞書に一致（shishi）。出典による裏づけは未確認。","zones":[],"dataset":"candidates"}},{"type":"Feature","geometry":{"type":"Point","coordinates":[131.366583,31.617595]},"properties":{"id":"45-22832af3d6","name":"大字星倉","reading":null,"pref":"宮崎県","prefCode":"45","municipality":"日南市","hazardTypes":["slope_failure","rockfall"],"evidenceLevel":0,"status":"current","disputed":false,"precision":"oaza","areaKey":null,"elements":["kura"],"summary":"要素辞書に一致（kura）。出典による裏づけは未確認。","zones":[],"dataset":"candidates"}},{"type":"Feature","geometry":{"type":"Point","coordinates":[131.406752,31.588486]},"properties":{"id":"45-362a934fca","name":"梅ケ浜一丁目","reading":"ウメガハマ 1","pref":"宮崎県","prefCode":"45","municipality":"日南市","hazardTypes":["landslide","slope_failure"],"evidenceLevel":0,"status":"current","disputed":false,"precision":"oaza","areaKey":"45204020101","elements":["ume"],"summary":"要素辞書に一致（ume）。出典による裏づけは未確認。","zones":[],"dataset":"candidates"}},{"type":"Feature","geometry":{"type":"Point","coordinates":[131.361709,31.628204]},"properties":{"id":"45-d5f4e2649e","name":"星倉一丁目","reading":"ホシクラ 1","pref":"宮崎県","prefCode":"45","municipality":"日南市","hazardTypes":["slope_failure","rockfall"],"evidenceLevel":0,"status":"current","disputed":false,"precision":"oaza","areaKey":"45204008001","elements":["kura"],"summary":"要素辞書に一致（kura）。出典による裏づけは未確認。","zones":[],"dataset":"candidates"}},{"type":"Feature","geometry":{"type":"Point","coordinates":[131.388325,32.071148]},"properties":{"id":"45-0951c5a8ed","name":"大字鹿野田","reading":null,"pref":"宮崎県","prefCode":"45","municipality":"西都市","hazardTypes":["landslide","soft_ground"],"evidenceLevel":0,"status":"current","disputed":false,"precision":"oaza","areaKey":"452080270","elements":["shishi"],"summary":"要素辞書に一致（shishi）。出典による裏づけは未確認。","zones":[],"dataset":"candidates"}},{"type":"Feature","geometry":{"type":"Point","coordinates":[131.112103,31.738021]},"properties":{"id":"45-22c6763c85","name":"新馬場","reading":"シンババ","pref":"宮崎県","prefCode":"45","municipality":"北諸県郡三股町","hazardTypes":["slope_failure"],"evidenceLevel":0,"status":"current","disputed":false,"precision":"oaza","areaKey":null,"elements":["baba"],"summary":"要素辞書に一致（baba）。出典による裏づけは未確認。","zones":[],"dataset":"candidates"}},{"type":"Feature","geometry":{"type":"Point","coordinates":[130.961698,31.902557]},"properties":{"id":"45-b99b0b3a83","name":"大字蒲牟田","reading":null,"pref":"宮崎県","prefCode":"45","municipality":"西諸県郡高原町","hazardTypes":["landslide","soft_ground"],"evidenceLevel":0,"status":"current","disputed":false,"precision":"oaza","areaKey":null,"elements":["wetland_plants"],"summary":"要素辞書に一致（wetland_plants）。出典による裏づけは未確認。","zones":[],"dataset":"candidates"}},{"type":"Feature","geometry":{"type":"Point","coordinates":[131.525879,32.135269]},"properties":{"id":"45-d7689fddb7","name":"下河原","reading":null,"pref":"宮崎県","prefCode":"45","municipality":"児湯郡高鍋町","hazardTypes":["flood"],"evidenceLevel":0,"status":"current","disputed":false,"precision":"koaza","areaKey":null,"elements":["kawara"],"summary":"要素辞書に一致（kawara）。出典による裏づけは未確認。","zones":[],"dataset":"candidates"}},{"type":"Feature","geometry":{"type":"Point","coordinates":[131.526893,32.137688]},"properties":{"id":"45-9f2bf5cd37","name":"高河原","reading":null,"pref":"宮崎県","prefCode":"45","municipality":"児湯郡高鍋町","hazardTypes":["flood"],"evidenceLevel":0,"status":"current","disputed":false,"precision":"koaza","areaKey":null,"elements":["kawara"],"summary":"要素辞書に一致（kawara）。出典による裏づけは未確認。","zones":[],"dataset":"candidates"}},{"type":"Feature","geometry":{"type":"Point","coordinates":[131.43508,32.064979]},"properties":{"id":"45-0831517349","name":"大字伊倉","reading":null,"pref":"宮崎県","prefCode":"45","municipality":"児湯郡新富町","hazardTypes":["slope_failure","rockfall"],"evidenceLevel":0,"status":"current","disputed":false,"precision":"oaza","areaKey":null,"elements":["kura"],"summary":"要素辞書に一致（kura）。出典による裏づけは未確認。","zones":[],"dataset":"candidates"}},{"type":"Feature","geometry":{"type":"Point","coordinates":[131.426877,32.174537]},"properties":{"id":"45-a97fb3378e","name":"大字川原","reading":null,"pref":"宮崎県","prefCode":"45","municipality":"児湯郡木城町","hazardTypes":["flood"],"evidenceLevel":0,"status":"current","disputed":false,"precision":"oaza","areaKey":null,"elements":["kawara"],"summary":"要素辞書に一致（kawara）。出典による裏づけは未確認。","zones":[],"dataset":"candidates"}},{"type":"Feature","geometry":{"type":"Point","coordinates":[131.15403,32.618645]},"properties":{"id":"45-16f2f71c6f","name":"大字鞍岡","reading":null,"pref":"宮崎県","prefCode":"45","municipality":"西臼杵郡五ヶ瀬町","hazardTypes":["slope_failure","rockfall"],"evidenceLevel":0,"status":"current","disputed":false,"precision":"oaza","areaKey":null,"elements":["kura"],"summary":"要素辞書に一致（kura）。出典による裏づけは未確認。","zones":[],"dataset":"candidates"}}]}
