{"type":"FeatureCollection","features":[{"type":"Feature","geometry":{"type":"Point","coordinates":[130.549524,31.586127]},"properties":{"id":"46-eea4116705","name":"加治屋町","reading":"カジヤチョウ","pref":"鹿児島県","prefCode":"46","municipality":"鹿児島市","hazardTypes":["slope_failure"],"evidenceLevel":0,"status":"current","disputed":false,"precision":"oaza","areaKey":"462011280","elements":["kaji_kamu"],"summary":"要素辞書に一致（kaji_kamu）。出典による裏づけは未確認。","zones":[],"dataset":"candidates"}},{"type":"Feature","geometry":{"type":"Point","coordinates":[130.513105,31.353295]},"properties":{"id":"46-41ff6fd83b","name":"喜入一倉町","reading":"キイレヒトクラチョウ","pref":"鹿児島県","prefCode":"46","municipality":"鹿児島市","hazardTypes":["slope_failure","rockfall"],"evidenceLevel":0,"status":"current","disputed":false,"precision":"oaza","areaKey":"462017220","elements":["kura"],"summary":"要素辞書に一致（kura）。出典による裏づけは未確認。","zones":[],"dataset":"candidates"}},{"type":"Feature","geometry":{"type":"Point","coordinates":[130.844308,31.319855]},"properties":{"id":"46-ecea904ebf","name":"獅子目町","reading":"シシメチョウ","pref":"鹿児島県","prefCode":"46","municipality":"鹿屋市","hazardTypes":["landslide","soft_ground"],"evidenceLevel":0,"status":"current","disputed":false,"precision":"oaza","areaKey":"462030430","elements":["shishi"],"summary":"要素辞書に一致（shishi）。出典による裏づけは未確認。","zones":[],"dataset":"candidates"}},{"type":"Feature","geometry":{"type":"Point","coordinates":[130.289582,31.287712]},"properties":{"id":"46-b9616e32e4","name":"鹿篭麓町","reading":"カゴフモトマチ","pref":"鹿児島県","prefCode":"46","municipality":"枕崎市","hazardTypes":["landslide","soft_ground"],"evidenceLevel":0,"status":"current","disputed":false,"precision":"oaza","areaKey":"462040550","elements":["shishi"],"summary":"要素辞書に一致（shishi）。出典による裏づけは未確認。","zones":[],"dataset":"candidates"}},{"type":"Feature","geometry":{"type":"Point","coordinates":[130.266182,31.297007]},"properties":{"id":"46-8685b51de3","name":"西鹿篭","reading":"ニシカゴ","pref":"鹿児島県","prefCode":"46","municipality":"枕崎市","hazardTypes":["landslide","soft_ground"],"evidenceLevel":0,"status":"current","disputed":false,"precision":"oaza","areaKey":"462040380","elements":["shishi"],"summary":"要素辞書に一致（shishi）。出典による裏づけは未確認。","zones":[],"dataset":"candidates"}},{"type":"Feature","geometry":{"type":"Point","coordinates":[130.31707,31.31187]},"properties":{"id":"46-8fe59b506e","name":"東鹿篭","reading":"ヒガシカゴ","pref":"鹿児島県","prefCode":"46","municipality":"枕崎市","hazardTypes":["landslide","soft_ground"],"evidenceLevel":0,"status":"current","disputed":false,"precision":"oaza","areaKey":"462040370","elements":["shishi"],"summary":"要素辞書に一致（shishi）。出典による裏づけは未確認。","zones":[],"dataset":"candidates"}},{"type":"Feature","geometry":{"type":"Point","coordinates":[130.319183,32.050404]},"properties":{"id":"46-7372062717","name":"高尾野町大久保","reading":"タカオノマチオオクボ","pref":"鹿児島県","prefCode":"46","municipality":"出水市","hazardTypes":["slope_failure","inundation","landslide"],"evidenceLevel":0,"status":"current","disputed":false,"precision":"oaza","areaKey":null,"elements":["afu_oo","kubo"],"summary":"要素辞書に一致（afu_oo・kubo）。出典による裏づけは未確認。","zones":[],"dataset":"candidates"}},{"type":"Feature","geometry":{"type":"Point","coordinates":[129.785803,31.758078]},"properties":{"id":"46-8d33e0a7a5","name":"鹿島町藺牟田","reading":"カシマチョウイムタ","pref":"鹿児島県","prefCode":"46","municipality":"薩摩川内市","hazardTypes":["landslide","soft_ground"],"evidenceLevel":0,"status":"current","disputed":false,"precision":"oaza","areaKey":"462150910","elements":["shishi"],"summary":"要素辞書に一致（shishi）。出典による裏づけは未確認。","zones":[],"dataset":"candidates"}},{"type":"Feature","geometry":{"type":"Point","coordinates":[130.261679,31.853939]},"properties":{"id":"46-54047421ff","name":"小倉町","reading":"コクラチョウ","pref":"鹿児島県","prefCode":"46","municipality":"薩摩川内市","hazardTypes":["slope_failure","rockfall"],"evidenceLevel":0,"status":"current","disputed":false,"precision":"oaza","areaKey":"462150420","elements":["kura"],"summary":"要素辞書に一致（kura）。出典による裏づけは未確認。","zones":[],"dataset":"candidates"}},{"type":"Feature","geometry":{"type":"Point","coordinates":[130.328602,31.894003]},"properties":{"id":"46-ef477503f7","name":"東郷町宍野","reading":"トウゴウチョウシシノ","pref":"鹿児島県","prefCode":"46","municipality":"薩摩川内市","hazardTypes":["landslide","soft_ground"],"evidenceLevel":0,"status":"current","disputed":false,"precision":"oaza","areaKey":"462150680","elements":["shishi"],"summary":"要素辞書に一致（shishi）。出典による裏づけは未確認。","zones":[],"dataset":"candidates"}},{"type":"Feature","geometry":{"type":"Point","coordinates":[130.401914,31.847338]},"properties":{"id":"46-b510d7653f","name":"樋脇町倉野","reading":"ヒワキチョウクラノ","pref":"鹿児島県","prefCode":"46","municipality":"薩摩川内市","hazardTypes":["slope_failure","rockfall"],"evidenceLevel":0,"status":"current","disputed":false,"precision":"oaza","areaKey":"462150630","elements":["kura"],"summary":"要素辞書に一致（kura）。出典による裏づけは未確認。","zones":[],"dataset":"candidates"}},{"type":"Feature","geometry":{"type":"Point","coordinates":[130.310992,31.78661]},"properties":{"id":"46-d54b38959e","name":"矢倉町","reading":"ヤグラチョウ","pref":"鹿児島県","prefCode":"46","municipality":"薩摩川内市","hazardTypes":["slope_failure","rockfall"],"evidenceLevel":0,"status":"current","disputed":false,"precision":"oaza","areaKey":"462150160","elements":["kura"],"summary":"要素辞書に一致（kura）。出典による裏づけは未確認。","zones":[],"dataset":"candidates"}},{"type":"Feature","geometry":{"type":"Point","coordinates":[130.310287,31.817625]},"properties":{"id":"46-82dc9bae0b","name":"横馬場町","reading":"ヨコババチョウ","pref":"鹿児島県","prefCode":"46","municipality":"薩摩川内市","hazardTypes":["slope_failure"],"evidenceLevel":0,"status":"current","disputed":false,"precision":"oaza","areaKey":"462150230","elements":["baba"],"summary":"要素辞書に一致（baba）。出典による裏づけは未確認。","zones":[],"dataset":"candidates"}},{"type":"Feature","geometry":{"type":"Point","coordinates":[130.406427,31.629076]},"properties":{"id":"46-863c013695","name":"伊集院町猪鹿倉","reading":"イジュウインチョウイガクラ","pref":"鹿児島県","prefCode":"46","municipality":"日置市","hazardTypes":["slope_failure","rockfall","landslide","soft_ground"],"evidenceLevel":0,"status":"current","disputed":false,"precision":"oaza","areaKey":"462160070","elements":["kura","shishi"],"summary":"要素辞書に一致（kura・shishi）。出典による裏づけは未確認。","zones":[],"dataset":"candidates"}},{"type":"Feature","geometry":{"type":"Point","coordinates":[130.43308,31.65108]},"properties":{"id":"46-2ce799d58d","name":"伊集院町麦生田","reading":"イジュウインチョウムギウダ","pref":"鹿児島県","prefCode":"46","municipality":"日置市","hazardTypes":["slope_failure"],"evidenceLevel":0,"status":"current","disputed":false,"precision":"oaza","areaKey":"462160140","elements":["suki_hagu"],"summary":"要素辞書に一致（suki_hagu）。出典による裏づけは未確認。","zones":[],"dataset":"candidates"}},{"type":"Feature","geometry":{"type":"Point","coordinates":[130.419398,31.526426]},"properties":{"id":"46-b4e5614ba5","name":"吹上町与倉","reading":"フキアゲチョウヨクラ","pref":"鹿児島県","prefCode":"46","municipality":"日置市","hazardTypes":["slope_failure","rockfall"],"evidenceLevel":0,"status":"current","disputed":false,"precision":"oaza","areaKey":"462160410","elements":["kura"],"summary":"要素辞書に一致（kura）。出典による裏づけは未確認。","zones":[],"dataset":"candidates"}},{"type":"Feature","geometry":{"type":"Point","coordinates":[130.826462,31.745281]},"properties":{"id":"46-54390aa7fa","name":"国分川原","reading":"コクブカワハラ","pref":"鹿児島県","prefCode":"46","municipality":"霧島市","hazardTypes":["flood"],"evidenceLevel":0,"status":"current","disputed":false,"precision":"oaza","areaKey":"462180060","elements":["kawara"],"summary":"要素辞書に一致（kawara）。出典による裏づけは未確認。","zones":[],"dataset":"candidates"}},{"type":"Feature","geometry":{"type":"Point","coordinates":[130.703907,31.818768]},"properties":{"id":"46-c8f5e4ee6c","name":"片馬場","reading":null,"pref":"鹿児島県","prefCode":"46","municipality":"霧島市","hazardTypes":["slope_failure"],"evidenceLevel":0,"status":"current","disputed":false,"precision":"koaza","areaKey":null,"elements":["baba"],"summary":"要素辞書に一致（baba）。出典による裏づけは未確認。","zones":[],"dataset":"candidates"}},{"type":"Feature","geometry":{"type":"Point","coordinates":[130.267909,31.713653]},"properties":{"id":"46-6f30c85811","name":"御倉町","reading":"オクラチョウ","pref":"鹿児島県","prefCode":"46","municipality":"いちき串木野市","hazardTypes":["slope_failure","rockfall"],"evidenceLevel":0,"status":"current","disputed":false,"precision":"oaza","areaKey":"462190120","elements":["kura"],"summary":"要素辞書に一致（kura）。出典による裏づけは未確認。","zones":[],"dataset":"candidates"}},{"type":"Feature","geometry":{"type":"Point","coordinates":[130.308723,31.75577]},"properties":{"id":"46-6dbfb4e0d5","name":"芹ケ野","reading":"セリガノ","pref":"鹿児島県","prefCode":"46","municipality":"いちき串木野市","hazardTypes":["landslide","soft_ground"],"evidenceLevel":0,"status":"current","disputed":false,"precision":"oaza","areaKey":"462190630","elements":["wetland_plants"],"summary":"要素辞書に一致（wetland_plants）。出典による裏づけは未確認。","zones":[],"dataset":"candidates"}},{"type":"Feature","geometry":{"type":"Point","coordinates":[130.274353,31.746099]},"properties":{"id":"46-6337107ad8","name":"深田上","reading":"フカタカミ","pref":"鹿児島県","prefCode":"46","municipality":"いちき串木野市","hazardTypes":["soft_ground","inundation"],"evidenceLevel":0,"status":"current","disputed":false,"precision":"oaza","areaKey":"46219056002","elements":["fuke"],"summary":"要素辞書に一致（fuke）。出典による裏づけは未確認。","zones":[],"dataset":"candidates"}},{"type":"Feature","geometry":{"type":"Point","coordinates":[130.263118,31.741927]},"properties":{"id":"46-b644b7e4fe","name":"深田下","reading":"フカタシモ","pref":"鹿児島県","prefCode":"46","municipality":"いちき串木野市","hazardTypes":["soft_ground","inundation"],"evidenceLevel":0,"status":"current","disputed":false,"precision":"oaza","areaKey":"462190550","elements":["fuke"],"summary":"要素辞書に一致（fuke）。出典による裏づけは未確認。","zones":[],"dataset":"candidates"}},{"type":"Feature","geometry":{"type":"Point","coordinates":[131.04758,31.482451]},"properties":{"id":"46-5b415c4cce","name":"有明町野井倉","reading":"アリアケチョウノイクラ","pref":"鹿児島県","prefCode":"46","municipality":"志布志市","hazardTypes":["slope_failure","rockfall"],"evidenceLevel":0,"status":"current","disputed":false,"precision":"oaza","areaKey":"462210010","elements":["kura"],"summary":"要素辞書に一致（kura）。出典による裏づけは未確認。","zones":[],"dataset":"candidates"}},{"type":"Feature","geometry":{"type":"Point","coordinates":[131.185599,31.570396]},"properties":{"id":"46-c6abb4670a","name":"志布志町内之倉","reading":"シブシチョウウチノクラ","pref":"鹿児島県","prefCode":"46","municipality":"志布志市","hazardTypes":["slope_failure","rockfall"],"evidenceLevel":0,"status":"current","disputed":false,"precision":"oaza","areaKey":"462210110","elements":["kura"],"summary":"要素辞書に一致（kura）。出典による裏づけは未確認。","zones":[],"dataset":"candidates"}},{"type":"Feature","geometry":{"type":"Point","coordinates":[131.143935,31.473164]},"properties":{"id":"46-64b7d4f532","name":"志布志町夏井","reading":"シブシチョウナツイ","pref":"鹿児島県","prefCode":"46","municipality":"志布志市","hazardTypes":["debris_flow","slope_failure"],"evidenceLevel":0,"status":"current","disputed":false,"precision":"oaza","areaKey":"462210130","elements":["nazu_natsu"],"summary":"要素辞書に一致（nazu_natsu）。出典による裏づけは未確認。","zones":[],"dataset":"candidates"}},{"type":"Feature","geometry":{"type":"Point","coordinates":[129.542344,28.430584]},"properties":{"id":"46-a88d98d425","name":"名瀬大字芦花部","reading":null,"pref":"鹿児島県","prefCode":"46","municipality":"奄美市","hazardTypes":["flood","inundation"],"evidenceLevel":0,"status":"current","disputed":false,"precision":"oaza","areaKey":"462220330","elements":["ashi"],"summary":"要素辞書に一致（ashi）。出典による裏づけは未確認。","zones":[],"dataset":"candidates"}},{"type":"Feature","geometry":{"type":"Point","coordinates":[130.679794,32.080796]},"properties":{"id":"46-88a50bb3d3","name":"大口青木","reading":"オオクチアオキ","pref":"鹿児島県","prefCode":"46","municipality":"伊佐市","hazardTypes":["slope_failure"],"evidenceLevel":0,"status":"current","disputed":false,"precision":"oaza","areaKey":null,"elements":["afu_oo"],"summary":"要素辞書に一致（afu_oo）。出典による裏づけは未確認。","zones":[],"dataset":"candidates"}},{"type":"Feature","geometry":{"type":"Point","coordinates":[130.626589,31.992634]},"properties":{"id":"46-a7ddee29ad","name":"菱刈荒田","reading":"ヒシカリアラタ","pref":"鹿児島県","prefCode":"46","municipality":"伊佐市","hazardTypes":["slope_failure"],"evidenceLevel":0,"status":"current","disputed":false,"precision":"oaza","areaKey":"462240280","elements":["kake"],"summary":"要素辞書に一致（kake）。出典による裏づけは未確認。","zones":[],"dataset":"candidates"}},{"type":"Feature","geometry":{"type":"Point","coordinates":[130.674311,32.055564]},"properties":{"id":"46-32711deabb","name":"菱刈市山","reading":"ヒシカリイチヤマ","pref":"鹿児島県","prefCode":"46","municipality":"伊佐市","hazardTypes":["slope_failure"],"evidenceLevel":0,"status":"current","disputed":false,"precision":"oaza","areaKey":"462240370","elements":["kake"],"summary":"要素辞書に一致（kake）。出典による裏づけは未確認。","zones":[],"dataset":"candidates"}},{"type":"Feature","geometry":{"type":"Point","coordinates":[130.674139,31.990654]},"properties":{"id":"46-a4ddb6fe97","name":"菱刈川北","reading":"ヒシカリカワキタ","pref":"鹿児島県","prefCode":"46","municipality":"伊佐市","hazardTypes":["slope_failure"],"evidenceLevel":0,"status":"current","disputed":false,"precision":"oaza","areaKey":"462240300","elements":["kake"],"summary":"要素辞書に一致（kake）。出典による裏づけは未確認。","zones":[],"dataset":"candidates"}},{"type":"Feature","geometry":{"type":"Point","coordinates":[130.662659,31.975806]},"properties":{"id":"46-c48f1ce9bf","name":"菱刈川南","reading":"ヒシカリカワミナミ","pref":"鹿児島県","prefCode":"46","municipality":"伊佐市","hazardTypes":["slope_failure"],"evidenceLevel":0,"status":"current","disputed":false,"precision":"oaza","areaKey":"462240290","elements":["kake"],"summary":"要素辞書に一致（kake）。出典による裏づけは未確認。","zones":[],"dataset":"candidates"}},{"type":"Feature","geometry":{"type":"Point","coordinates":[130.633516,32.031751]},"properties":{"id":"46-de1b1fa9e6","name":"菱刈重留","reading":"ヒシカリシゲトメ","pref":"鹿児島県","prefCode":"46","municipality":"伊佐市","hazardTypes":["slope_failure"],"evidenceLevel":0,"status":"current","disputed":false,"precision":"oaza","areaKey":"462240350","elements":["kake"],"summary":"要素辞書に一致（kake）。出典による裏づけは未確認。","zones":[],"dataset":"candidates"}},{"type":"Feature","geometry":{"type":"Point","coordinates":[130.614048,32.021992]},"properties":{"id":"46-d050695d53","name":"菱刈下手","reading":"ヒシカリシモデ","pref":"鹿児島県","prefCode":"46","municipality":"伊佐市","hazardTypes":["slope_failure"],"evidenceLevel":0,"status":"current","disputed":false,"precision":"oaza","areaKey":"462240330","elements":["kake"],"summary":"要素辞書に一致（kake）。出典による裏づけは未確認。","zones":[],"dataset":"candidates"}},{"type":"Feature","geometry":{"type":"Point","coordinates":[130.656441,32.036541]},"properties":{"id":"46-b6fcf3c1f2","name":"菱刈田中","reading":"ヒシカリタナカ","pref":"鹿児島県","prefCode":"46","municipality":"伊佐市","hazardTypes":["slope_failure"],"evidenceLevel":0,"status":"current","disputed":false,"precision":"oaza","areaKey":"462240360","elements":["kake"],"summary":"要素辞書に一致（kake）。出典による裏づけは未確認。","zones":[],"dataset":"candidates"}},{"type":"Feature","geometry":{"type":"Point","coordinates":[130.661166,32.023182]},"properties":{"id":"46-6962176fe7","name":"菱刈徳辺","reading":"ヒシカリトクベ","pref":"鹿児島県","prefCode":"46","municipality":"伊佐市","hazardTypes":["slope_failure"],"evidenceLevel":0,"status":"current","disputed":false,"precision":"oaza","areaKey":"462240310","elements":["kake"],"summary":"要素辞書に一致（kake）。出典による裏づけは未確認。","zones":[],"dataset":"candidates"}},{"type":"Feature","geometry":{"type":"Point","coordinates":[130.623349,32.034355]},"properties":{"id":"46-c4181fb74e","name":"菱刈花北","reading":"ヒシカリハナキタ","pref":"鹿児島県","prefCode":"46","municipality":"伊佐市","hazardTypes":["slope_failure"],"evidenceLevel":0,"status":"current","disputed":false,"precision":"oaza","areaKey":"462240340","elements":["kake"],"summary":"要素辞書に一致（kake）。出典による裏づけは未確認。","zones":[],"dataset":"candidates"}},{"type":"Feature","geometry":{"type":"Point","coordinates":[130.685798,32.015091]},"properties":{"id":"46-9b3c0190bf","name":"菱刈前目","reading":"ヒシカリマエメ","pref":"鹿児島県","prefCode":"46","municipality":"伊佐市","hazardTypes":["slope_failure"],"evidenceLevel":0,"status":"current","disputed":false,"precision":"oaza","areaKey":"462240320","elements":["kake"],"summary":"要素辞書に一致（kake）。出典による裏づけは未確認。","zones":[],"dataset":"candidates"}},{"type":"Feature","geometry":{"type":"Point","coordinates":[130.630584,31.965138]},"properties":{"id":"46-b213deffa0","name":"菱刈南浦","reading":"ヒシカリミナミウラ","pref":"鹿児島県","prefCode":"46","municipality":"伊佐市","hazardTypes":["slope_failure"],"evidenceLevel":0,"status":"current","disputed":false,"precision":"oaza","areaKey":"462240270","elements":["kake"],"summary":"要素辞書に一致（kake）。出典による裏づけは未確認。","zones":[],"dataset":"candidates"}},{"type":"Feature","geometry":{"type":"Point","coordinates":[130.668879,31.734945]},"properties":{"id":"46-7e0ad88af3","name":"加治木町朝日町","reading":"カジキチョウアサヒマチ","pref":"鹿児島県","prefCode":"46","municipality":"姶良市","hazardTypes":["slope_failure"],"evidenceLevel":0,"status":"current","disputed":false,"precision":"oaza","areaKey":null,"elements":["kaji_kamu"],"summary":"要素辞書に一致（kaji_kamu）。出典による裏づけは未確認。","zones":[],"dataset":"candidates"}},{"type":"Feature","geometry":{"type":"Point","coordinates":[130.664827,31.74117]},"properties":{"id":"46-a13a108f29","name":"加治木町仮屋町","reading":"カジキチョウカリヤマチ","pref":"鹿児島県","prefCode":"46","municipality":"姶良市","hazardTypes":["slope_failure"],"evidenceLevel":0,"status":"current","disputed":false,"precision":"oaza","areaKey":null,"elements":["kaji_kamu"],"summary":"要素辞書に一致（kaji_kamu）。出典による裏づけは未確認。","zones":[],"dataset":"candidates"}},{"type":"Feature","geometry":{"type":"Point","coordinates":[130.645416,31.74001]},"properties":{"id":"46-8c403e5ba6","name":"加治木町木田","reading":"カジキチョウキダ","pref":"鹿児島県","prefCode":"46","municipality":"姶良市","hazardTypes":["slope_failure"],"evidenceLevel":0,"status":"current","disputed":false,"precision":"oaza","areaKey":null,"elements":["kaji_kamu"],"summary":"要素辞書に一致（kaji_kamu）。出典による裏づけは未確認。","zones":[],"dataset":"candidates"}},{"type":"Feature","geometry":{"type":"Point","coordinates":[130.661147,31.735334]},"properties":{"id":"46-ef57311a7a","name":"加治木町錦江町","reading":"カジキチョウキンコウマチ","pref":"鹿児島県","prefCode":"46","municipality":"姶良市","hazardTypes":["slope_failure"],"evidenceLevel":0,"status":"current","disputed":false,"precision":"oaza","areaKey":null,"elements":["kaji_kamu"],"summary":"要素辞書に一致（kaji_kamu）。出典による裏づけは未確認。","zones":[],"dataset":"candidates"}},{"type":"Feature","geometry":{"type":"Point","coordinates":[130.67756,31.77697]},"properties":{"id":"46-db57c4b750","name":"加治木町小山田","reading":"カジキチョウコヤマダ","pref":"鹿児島県","prefCode":"46","municipality":"姶良市","hazardTypes":["slope_failure"],"evidenceLevel":0,"status":"current","disputed":false,"precision":"oaza","areaKey":null,"elements":["kaji_kamu"],"summary":"要素辞書に一致（kaji_kamu）。出典による裏づけは未確認。","zones":[],"dataset":"candidates"}},{"type":"Feature","geometry":{"type":"Point","coordinates":[130.655412,31.739198]},"properties":{"id":"46-667cca4cf4","name":"加治木町新生町","reading":"カジキチョウシンセイマチ","pref":"鹿児島県","prefCode":"46","municipality":"姶良市","hazardTypes":["slope_failure"],"evidenceLevel":0,"status":"current","disputed":false,"precision":"oaza","areaKey":null,"elements":["kaji_kamu"],"summary":"要素辞書に一致（kaji_kamu）。出典による裏づけは未確認。","zones":[],"dataset":"candidates"}},{"type":"Feature","geometry":{"type":"Point","coordinates":[130.66918,31.741435]},"properties":{"id":"46-37cdd80e03","name":"加治木町新富町","reading":"カジキチョウシントミマチ","pref":"鹿児島県","prefCode":"46","municipality":"姶良市","hazardTypes":["slope_failure"],"evidenceLevel":0,"status":"current","disputed":false,"precision":"oaza","areaKey":null,"elements":["kaji_kamu"],"summary":"要素辞書に一致（kaji_kamu）。出典による裏づけは未確認。","zones":[],"dataset":"candidates"}},{"type":"Feature","geometry":{"type":"Point","coordinates":[130.669699,31.737656]},"properties":{"id":"46-046f1df526","name":"加治木町諏訪町","reading":"カジキチョウスワマチ","pref":"鹿児島県","prefCode":"46","municipality":"姶良市","hazardTypes":["slope_failure"],"evidenceLevel":0,"status":"current","disputed":false,"precision":"oaza","areaKey":null,"elements":["kaji_kamu"],"summary":"要素辞書に一致（kaji_kamu）。出典による裏づけは未確認。","zones":[],"dataset":"candidates"}},{"type":"Feature","geometry":{"type":"Point","coordinates":[130.659847,31.741457]},"properties":{"id":"46-00946a7f2b","name":"加治木町反土","reading":"カジキチョウタンド","pref":"鹿児島県","prefCode":"46","municipality":"姶良市","hazardTypes":["slope_failure"],"evidenceLevel":0,"status":"current","disputed":false,"precision":"oaza","areaKey":null,"elements":["kaji_kamu"],"summary":"要素辞書に一致（kaji_kamu）。出典による裏づけは未確認。","zones":[],"dataset":"candidates"}},{"type":"Feature","geometry":{"type":"Point","coordinates":[130.640065,31.788185]},"properties":{"id":"46-b446a0ca6e","name":"加治木町西別府","reading":"カジキチョウニシベップ","pref":"鹿児島県","prefCode":"46","municipality":"姶良市","hazardTypes":["slope_failure"],"evidenceLevel":0,"status":"current","disputed":false,"precision":"oaza","areaKey":null,"elements":["kaji_kamu"],"summary":"要素辞書に一致（kaji_kamu）。出典による裏づけは未確認。","zones":[],"dataset":"candidates"}},{"type":"Feature","geometry":{"type":"Point","coordinates":[130.677473,31.745601]},"properties":{"id":"46-21dfff86db","name":"加治木町日木山","reading":"カジキチョウヒキヤマ","pref":"鹿児島県","prefCode":"46","municipality":"姶良市","hazardTypes":["slope_failure"],"evidenceLevel":0,"status":"current","disputed":false,"precision":"oaza","areaKey":null,"elements":["kaji_kamu"],"summary":"要素辞書に一致（kaji_kamu）。出典による裏づけは未確認。","zones":[],"dataset":"candidates"}},{"type":"Feature","geometry":{"type":"Point","coordinates":[130.655472,31.791633]},"properties":{"id":"46-74c7a0b757","name":"加治木町辺川","reading":"カジキチョウヘガワ","pref":"鹿児島県","prefCode":"46","municipality":"姶良市","hazardTypes":["slope_failure"],"evidenceLevel":0,"status":"current","disputed":false,"precision":"oaza","areaKey":null,"elements":["kaji_kamu"],"summary":"要素辞書に一致（kaji_kamu）。出典による裏づけは未確認。","zones":[],"dataset":"candidates"}},{"type":"Feature","geometry":{"type":"Point","coordinates":[130.664407,31.731935]},"properties":{"id":"46-3bda0ed963","name":"加治木町港町","reading":"カジキチョウミナトマチ","pref":"鹿児島県","prefCode":"46","municipality":"姶良市","hazardTypes":["slope_failure"],"evidenceLevel":0,"status":"current","disputed":false,"precision":"oaza","areaKey":null,"elements":["kaji_kamu"],"summary":"要素辞書に一致（kaji_kamu）。出典による裏づけは未確認。","zones":[],"dataset":"candidates"}},{"type":"Feature","geometry":{"type":"Point","coordinates":[130.664589,31.737402]},"properties":{"id":"46-549d9f01a0","name":"加治木町本町","reading":"カジキチョウモトマチ","pref":"鹿児島県","prefCode":"46","municipality":"姶良市","hazardTypes":["slope_failure"],"evidenceLevel":0,"status":"current","disputed":false,"precision":"oaza","areaKey":null,"elements":["kaji_kamu"],"summary":"要素辞書に一致（kaji_kamu）。出典による裏づけは未確認。","zones":[],"dataset":"candidates"}},{"type":"Feature","geometry":{"type":"Point","coordinates":[130.549712,31.832088]},"properties":{"id":"46-fd14890357","name":"蒲生町漆","reading":"カモウチョウウルシ","pref":"鹿児島県","prefCode":"46","municipality":"姶良市","hazardTypes":["landslide","soft_ground"],"evidenceLevel":0,"status":"current","disputed":false,"precision":"oaza","areaKey":null,"elements":["wetland_plants"],"summary":"要素辞書に一致（wetland_plants）。出典による裏づけは未確認。","zones":[],"dataset":"candidates"}},{"type":"Feature","geometry":{"type":"Point","coordinates":[130.578594,31.766546]},"properties":{"id":"46-ba11949f35","name":"蒲生町上久徳","reading":"カモウチョウカミギュウトク","pref":"鹿児島県","prefCode":"46","municipality":"姶良市","hazardTypes":["landslide","soft_ground"],"evidenceLevel":0,"status":"current","disputed":false,"precision":"oaza","areaKey":null,"elements":["wetland_plants"],"summary":"要素辞書に一致（wetland_plants）。出典による裏づけは未確認。","zones":[],"dataset":"candidates"}},{"type":"Feature","geometry":{"type":"Point","coordinates":[130.547721,31.777521]},"properties":{"id":"46-d9ce9549c4","name":"蒲生町北","reading":"カモウチョウキタ","pref":"鹿児島県","prefCode":"46","municipality":"姶良市","hazardTypes":["landslide","soft_ground"],"evidenceLevel":0,"status":"current","disputed":false,"precision":"oaza","areaKey":null,"elements":["wetland_plants"],"summary":"要素辞書に一致（wetland_plants）。出典による裏づけは未確認。","zones":[],"dataset":"candidates"}},{"type":"Feature","geometry":{"type":"Point","coordinates":[130.585811,31.751609]},"properties":{"id":"46-4c074eb108","name":"蒲生町下久徳","reading":"カモウチョウシモギュウトク","pref":"鹿児島県","prefCode":"46","municipality":"姶良市","hazardTypes":["landslide","soft_ground"],"evidenceLevel":0,"status":"current","disputed":false,"precision":"oaza","areaKey":null,"elements":["wetland_plants"],"summary":"要素辞書に一致（wetland_plants）。出典による裏づけは未確認。","zones":[],"dataset":"candidates"}},{"type":"Feature","geometry":{"type":"Point","coordinates":[130.510485,31.760454]},"properties":{"id":"46-9262bd9876","name":"蒲生町白男","reading":"カモウチョウシラオ","pref":"鹿児島県","prefCode":"46","municipality":"姶良市","hazardTypes":["landslide","soft_ground"],"evidenceLevel":0,"status":"current","disputed":false,"precision":"oaza","areaKey":null,"elements":["wetland_plants"],"summary":"要素辞書に一致（wetland_plants）。出典による裏づけは未確認。","zones":[],"dataset":"candidates"}},{"type":"Feature","geometry":{"type":"Point","coordinates":[130.537748,31.809056]},"properties":{"id":"46-a2b3f9869f","name":"蒲生町西浦","reading":"カモウチョウニシウラ","pref":"鹿児島県","prefCode":"46","municipality":"姶良市","hazardTypes":["landslide","soft_ground"],"evidenceLevel":0,"status":"current","disputed":false,"precision":"oaza","areaKey":null,"elements":["wetland_plants"],"summary":"要素辞書に一致（wetland_plants）。出典による裏づけは未確認。","zones":[],"dataset":"candidates"}},{"type":"Feature","geometry":{"type":"Point","coordinates":[130.540992,31.754698]},"properties":{"id":"46-d5f1243b99","name":"蒲生町久末","reading":"カモウチョウヒサスエ","pref":"鹿児島県","prefCode":"46","municipality":"姶良市","hazardTypes":["landslide","soft_ground"],"evidenceLevel":0,"status":"current","disputed":false,"precision":"oaza","areaKey":null,"elements":["wetland_plants"],"summary":"要素辞書に一致（wetland_plants）。出典による裏づけは未確認。","zones":[],"dataset":"candidates"}},{"type":"Feature","geometry":{"type":"Point","coordinates":[130.570608,31.787738]},"properties":{"id":"46-188fe558e8","name":"蒲生町米丸","reading":"カモウチョウヨネマル","pref":"鹿児島県","prefCode":"46","municipality":"姶良市","hazardTypes":["landslide","soft_ground"],"evidenceLevel":0,"status":"current","disputed":false,"precision":"oaza","areaKey":null,"elements":["wetland_plants"],"summary":"要素辞書に一致（wetland_plants）。出典による裏づけは未確認。","zones":[],"dataset":"candidates"}},{"type":"Feature","geometry":{"type":"Point","coordinates":[130.632447,31.748078]},"properties":{"id":"46-5f8a9e5c48","name":"鍋倉","reading":"ナベクラ","pref":"鹿児島県","prefCode":"46","municipality":"姶良市","hazardTypes":["slope_failure","rockfall"],"evidenceLevel":0,"status":"current","disputed":false,"precision":"oaza","areaKey":"462250250","elements":["kura"],"summary":"要素辞書に一致（kura）。出典による裏づけは未確認。","zones":[],"dataset":"candidates"}},{"type":"Feature","geometry":{"type":"Point","coordinates":[129.599032,29.460868]},"properties":{"id":"46-00363f01a0","name":"大字悪石島","reading":null,"pref":"鹿児島県","prefCode":"46","municipality":"鹿児島郡十島村","hazardTypes":["flood","inundation"],"evidenceLevel":0,"status":"current","disputed":false,"precision":"oaza","areaKey":null,"elements":["ashi"],"summary":"要素辞書に一致（ashi）。出典による裏づけは未確認。","zones":[],"dataset":"candidates"}},{"type":"Feature","geometry":{"type":"Point","coordinates":[129.541911,29.904662]},"properties":{"id":"46-046b916c05","name":"大字臥蛇島","reading":null,"pref":"鹿児島県","prefCode":"46","municipality":"鹿児島郡十島村","hazardTypes":["slope_failure","debris_flow"],"evidenceLevel":0,"status":"current","disputed":false,"precision":"oaza","areaKey":null,"elements":["ja"],"summary":"要素辞書に一致（ja）。出典による裏づけは未確認。","zones":[],"dataset":"candidates"}},{"type":"Feature","geometry":{"type":"Point","coordinates":[130.117029,32.180072]},"properties":{"id":"46-c584ef6fc7","name":"蔵之元","reading":"クラノモト","pref":"鹿児島県","prefCode":"46","municipality":"出水郡長島町","hazardTypes":["slope_failure","rockfall"],"evidenceLevel":0,"status":"current","disputed":false,"precision":"oaza","areaKey":null,"elements":["kura"],"summary":"要素辞書に一致（kura）。出典による裏づけは未確認。","zones":[],"dataset":"candidates"}},{"type":"Feature","geometry":{"type":"Point","coordinates":[130.237079,32.279931]},"properties":{"id":"46-4eee4fb178","name":"獅子島","reading":"シシジマ","pref":"鹿児島県","prefCode":"46","municipality":"出水郡長島町","hazardTypes":["landslide","soft_ground"],"evidenceLevel":0,"status":"current","disputed":false,"precision":"oaza","areaKey":null,"elements":["shishi"],"summary":"要素辞書に一致（shishi）。出典による裏づけは未確認。","zones":[],"dataset":"candidates"}},{"type":"Feature","geometry":{"type":"Point","coordinates":[130.849399,31.166242]},"properties":{"id":"46-14253be264","name":"田代川原","reading":"タシロカワハラ","pref":"鹿児島県","prefCode":"46","municipality":"肝属郡錦江町","hazardTypes":["flood"],"evidenceLevel":0,"status":"current","disputed":false,"precision":"oaza","areaKey":null,"elements":["kawara"],"summary":"要素辞書に一致（kawara）。出典による裏づけは未確認。","zones":[],"dataset":"candidates"}},{"type":"Feature","geometry":{"type":"Point","coordinates":[130.895752,31.233477]},"properties":{"id":"46-5973203047","name":"馬場","reading":"ババ","pref":"鹿児島県","prefCode":"46","municipality":"肝属郡錦江町","hazardTypes":["slope_failure"],"evidenceLevel":0,"status":"current","disputed":false,"precision":"oaza","areaKey":null,"elements":["baba"],"summary":"要素辞書に一致（baba）。出典による裏づけは未確認。","zones":[],"dataset":"candidates"}},{"type":"Feature","geometry":{"type":"Point","coordinates":[130.963618,31.181269]},"properties":{"id":"46-675ff1205f","name":"岸良","reading":"キシラ","pref":"鹿児島県","prefCode":"46","municipality":"肝属郡肝付町","hazardTypes":["slope_failure"],"evidenceLevel":0,"status":"current","disputed":false,"precision":"oaza","areaKey":null,"elements":["kake"],"summary":"要素辞書に一致（kake）。出典による裏づけは未確認。","zones":[],"dataset":"candidates"}},{"type":"Feature","geometry":{"type":"Point","coordinates":[130.601344,30.26475]},"properties":{"id":"46-dc52011d08","name":"麦生","reading":"ムギオ","pref":"鹿児島県","prefCode":"46","municipality":"熊毛郡屋久島町","hazardTypes":["slope_failure"],"evidenceLevel":0,"status":"current","disputed":false,"precision":"oaza","areaKey":null,"elements":["suki_hagu"],"summary":"要素辞書に一致（suki_hagu）。出典による裏づけは未確認。","zones":[],"dataset":"candidates"}},{"type":"Feature","geometry":{"type":"Point","coordinates":[129.410373,28.345055]},"properties":{"id":"46-621e29508f","name":"大字津名久","reading":null,"pref":"鹿児島県","prefCode":"46","municipality":"大島郡大和村","hazardTypes":["slope_failure"],"evidenceLevel":0,"status":"current","disputed":false,"precision":"oaza","areaKey":null,"elements":["nagi"],"summary":"要素辞書に一致（nagi）。出典による裏づけは未確認。","zones":[],"dataset":"candidates"}},{"type":"Feature","geometry":{"type":"Point","coordinates":[129.266775,28.291686]},"properties":{"id":"46-f75f48c9c4","name":"大字芦検","reading":null,"pref":"鹿児島県","prefCode":"46","municipality":"大島郡宇検村","hazardTypes":["flood","inundation"],"evidenceLevel":0,"status":"current","disputed":false,"precision":"oaza","areaKey":null,"elements":["ashi"],"summary":"要素辞書に一致（ashi）。出典による裏づけは未確認。","zones":[],"dataset":"candidates"}},{"type":"Feature","geometry":{"type":"Point","coordinates":[129.369478,28.130217]},"properties":{"id":"46-90a2299258","name":"大字蘇刈","reading":null,"pref":"鹿児島県","prefCode":"46","municipality":"大島郡瀬戸内町","hazardTypes":["slope_failure"],"evidenceLevel":0,"status":"current","disputed":false,"precision":"oaza","areaKey":null,"elements":["kake"],"summary":"要素辞書に一致（kake）。出典による裏づけは未確認。","zones":[],"dataset":"candidates"}},{"type":"Feature","geometry":{"type":"Point","coordinates":[129.618798,28.422201]},"properties":{"id":"46-d08d3c9759","name":"芦徳","reading":"アシトク","pref":"鹿児島県","prefCode":"46","municipality":"大島郡龍郷町","hazardTypes":["flood","inundation"],"evidenceLevel":0,"status":"current","disputed":false,"precision":"oaza","areaKey":null,"elements":["ashi"],"summary":"要素辞書に一致（ashi）。出典による裏づけは未確認。","zones":[],"dataset":"candidates"}},{"type":"Feature","geometry":{"type":"Point","coordinates":[128.591192,27.351009]},"properties":{"id":"46-dafddd2e48","name":"大字芦清良","reading":null,"pref":"鹿児島県","prefCode":"46","municipality":"大島郡知名町","hazardTypes":["flood","inundation"],"evidenceLevel":0,"status":"current","disputed":false,"precision":"oaza","areaKey":null,"elements":["ashi"],"summary":"要素辞書に一致（ashi）。出典による裏づけは未確認。","zones":[],"dataset":"candidates"}}]}
