{"type":"FeatureCollection","features":[{"type":"Feature","geometry":{"type":"Point","coordinates":[127.691306,26.199562]},"properties":{"id":"47-334f389ab2","name":"古波蔵一丁目","reading":"コハグラ 1","pref":"沖縄県","prefCode":"47","municipality":"那覇市","hazardTypes":["slope_failure","rockfall"],"evidenceLevel":0,"originLevel":0,"hasRecord":false,"recordRelation":null,"status":"current","disputed":false,"precision":"oaza","areaKey":"47201059001","elements":["kura"],"summary":"要素辞書に一致（kura）。出典による裏づけは未確認。","zones":[],"dataset":"candidates"}},{"type":"Feature","geometry":{"type":"Point","coordinates":[127.722082,26.216998]},"properties":{"id":"47-ee3ed1493b","name":"首里赤田町一丁目","reading":"シュリアカタチョウ 1","pref":"沖縄県","prefCode":"47","municipality":"那覇市","hazardTypes":["landslide"],"evidenceLevel":0,"originLevel":0,"hasRecord":false,"recordRelation":null,"status":"current","disputed":false,"precision":"oaza","areaKey":"47201029001","elements":["geology_names"],"summary":"要素辞書に一致（geology_names）。出典による裏づけは未確認。","zones":[],"dataset":"candidates"}},{"type":"Feature","geometry":{"type":"Point","coordinates":[127.718835,26.220379]},"properties":{"id":"47-0072ad2986","name":"首里当蔵町一丁目","reading":"シュリトウノクラチョウ 1","pref":"沖縄県","prefCode":"47","municipality":"那覇市","hazardTypes":["slope_failure","rockfall"],"evidenceLevel":0,"originLevel":0,"hasRecord":false,"recordRelation":null,"status":"current","disputed":false,"precision":"oaza","areaKey":"47201043001","elements":["kura"],"summary":"要素辞書に一致（kura）。出典による裏づけは未確認。","zones":[],"dataset":"candidates"}},{"type":"Feature","geometry":{"type":"Point","coordinates":[124.156114,24.407606]},"properties":{"id":"47-ab98726d96","name":"字名蔵","reading":null,"pref":"沖縄県","prefCode":"47","municipality":"石垣市","hazardTypes":["slope_failure","rockfall"],"evidenceLevel":0,"originLevel":0,"hasRecord":false,"recordRelation":null,"status":"current","disputed":false,"precision":"oaza","areaKey":"472070070","elements":["kura"],"summary":"要素辞書に一致（kura）。出典による裏づけは未確認。","zones":[],"dataset":"candidates"}},{"type":"Feature","geometry":{"type":"Point","coordinates":[127.984608,26.610246]},"properties":{"id":"47-edc50cd514","name":"見取川原","reading":null,"pref":"沖縄県","prefCode":"47","municipality":"名護市","hazardTypes":["flood"],"evidenceLevel":0,"originLevel":0,"hasRecord":false,"recordRelation":null,"status":"current","disputed":false,"precision":"koaza","areaKey":"472090550","elements":["kawara"],"summary":"要素辞書に一致（kawara）。出典による裏づけは未確認。","zones":[],"dataset":"candidates"}},{"type":"Feature","geometry":{"type":"Point","coordinates":[127.669014,26.101475]},"properties":{"id":"47-3f9d9332df","name":"字小波蔵","reading":null,"pref":"沖縄県","prefCode":"47","municipality":"糸満市","hazardTypes":["slope_failure","rockfall"],"evidenceLevel":0,"originLevel":0,"hasRecord":false,"recordRelation":null,"status":"current","disputed":false,"precision":"oaza","areaKey":"472100220","elements":["kura"],"summary":"要素辞書に一致（kura）。出典による裏づけは未確認。","zones":[],"dataset":"candidates"}},{"type":"Feature","geometry":{"type":"Point","coordinates":[127.795455,26.389427]},"properties":{"id":"47-6f34bad69e","name":"字倉敷","reading":null,"pref":"沖縄県","prefCode":"47","municipality":"沖縄市","hazardTypes":["slope_failure","rockfall"],"evidenceLevel":0,"originLevel":0,"hasRecord":false,"recordRelation":null,"status":"current","disputed":false,"precision":"oaza","areaKey":"472110350","elements":["kura"],"summary":"要素辞書に一致（kura）。出典による裏づけは未確認。","zones":[],"dataset":"candidates"}},{"type":"Feature","geometry":{"type":"Point","coordinates":[127.79694,26.292846]},"properties":{"id":"47-8c8256d762","name":"字荻道","reading":null,"pref":"沖縄県","prefCode":"47","municipality":"中頭郡北中城村","hazardTypes":["slope_failure"],"evidenceLevel":0,"originLevel":0,"hasRecord":false,"recordRelation":null,"status":"current","disputed":false,"precision":"oaza","areaKey":null,"elements":["suki_hagu"],"summary":"要素辞書に一致（suki_hagu）。出典による裏づけは未確認。","zones":[],"dataset":"candidates"}},{"type":"Feature","geometry":{"type":"Point","coordinates":[127.142584,26.36237]},"properties":{"id":"47-766d70333b","name":"淵蛇","reading":null,"pref":"沖縄県","prefCode":"47","municipality":"島尻郡渡名喜村","hazardTypes":["slope_failure","debris_flow"],"evidenceLevel":0,"originLevel":0,"hasRecord":false,"recordRelation":null,"status":"current","disputed":false,"precision":"oaza","areaKey":null,"elements":["ja"],"summary":"要素辞書に一致（ja）。出典による裏づけは未確認。","zones":[],"dataset":"candidates"}},{"type":"Feature","geometry":{"type":"Point","coordinates":[127.14805,26.364521]},"properties":{"id":"47-22e37dc491","name":"無蛇","reading":null,"pref":"沖縄県","prefCode":"47","municipality":"島尻郡渡名喜村","hazardTypes":["slope_failure","debris_flow"],"evidenceLevel":0,"originLevel":0,"hasRecord":false,"recordRelation":null,"status":"current","disputed":false,"precision":"oaza","areaKey":null,"elements":["ja"],"summary":"要素辞書に一致（ja）。出典による裏づけは未確認。","zones":[],"dataset":"candidates"}},{"type":"Feature","geometry":{"type":"Point","coordinates":[127.73549,26.128947]},"properties":{"id":"47-3392724054","name":"字大頓","reading":null,"pref":"沖縄県","prefCode":"47","municipality":"島尻郡八重瀬町","hazardTypes":["slope_failure","debris_flow"],"evidenceLevel":0,"originLevel":0,"hasRecord":false,"recordRelation":null,"status":"current","disputed":false,"precision":"oaza","areaKey":null,"elements":["tobi"],"summary":"要素辞書に一致（tobi）。出典による裏づけは未確認。","zones":[],"dataset":"candidates"}},{"type":"Feature","geometry":{"type":"Point","coordinates":[127.669192,26.105405]},"properties":{"id":"47-d6f7cd029b","name":"小波蔵","reading":null,"pref":"沖縄県","prefCode":"47","municipality":"糸満市","hazardTypes":["slope_failure","rockfall"],"evidenceLevel":0,"originLevel":0,"hasRecord":false,"recordRelation":null,"status":"historical","disputed":false,"precision":"koaza","areaKey":"472100220","elements":["kura"],"summary":"要素辞書に一致（kura）。出典による裏づけは未確認。","zones":[],"dataset":"old_maps"}},{"type":"Feature","geometry":{"type":"Point","coordinates":[127.765046,26.334014]},"properties":{"id":"47-4b92df0095","name":"佐久川","reading":null,"pref":"沖縄県","prefCode":"47","municipality":"中頭郡北谷町","hazardTypes":["flood"],"evidenceLevel":0,"originLevel":0,"hasRecord":false,"recordRelation":null,"status":"historical","disputed":false,"precision":"koaza","areaKey":null,"elements":["sake"],"summary":"要素辞書に一致（sake）。出典による裏づけは未確認。","zones":[],"dataset":"old_maps"}},{"type":"Feature","geometry":{"type":"Point","coordinates":[127.800911,26.289961]},"properties":{"id":"47-3290ec8e2d","name":"荻道","reading":null,"pref":"沖縄県","prefCode":"47","municipality":"中頭郡北中城村","hazardTypes":["slope_failure"],"evidenceLevel":0,"originLevel":0,"hasRecord":false,"recordRelation":null,"status":"historical","disputed":false,"precision":"koaza","areaKey":null,"elements":["suki_hagu"],"summary":"要素辞書に一致（suki_hagu）。出典による裏づけは未確認。","zones":[],"dataset":"old_maps"}},{"type":"Feature","geometry":{"type":"Point","coordinates":[127.690268,26.199994]},"properties":{"id":"47-32b92982db","name":"古波蔵","reading":null,"pref":"沖縄県","prefCode":"47","municipality":"那覇市","hazardTypes":["slope_failure","rockfall"],"evidenceLevel":0,"originLevel":0,"hasRecord":false,"recordRelation":null,"status":"historical","disputed":false,"precision":"koaza","areaKey":"47201059001","elements":["kura"],"summary":"要素辞書に一致（kura）。出典による裏づけは未確認。","zones":[],"dataset":"old_maps"}},{"type":"Feature","geometry":{"type":"Point","coordinates":[127.933282,26.617739]},"properties":{"id":"47-0e1198c2e0","name":"猫川原","reading":null,"pref":"沖縄県","prefCode":"47","municipality":"名護市","hazardTypes":["flood"],"evidenceLevel":0,"originLevel":0,"hasRecord":false,"recordRelation":null,"status":"historical","disputed":false,"precision":"koaza","areaKey":"472090330","elements":["kawara"],"summary":"要素辞書に一致（kawara）。出典による裏づけは未確認。","zones":[],"dataset":"old_maps"}},{"type":"Feature","geometry":{"type":"Point","coordinates":[127.273787,26.182817]},"properties":{"id":"47-8fc1484da6","name":"佐久原鼻","reading":null,"pref":"沖縄県","prefCode":"47","municipality":"島尻郡座間味村","hazardTypes":["flood"],"evidenceLevel":0,"originLevel":0,"hasRecord":false,"recordRelation":null,"status":"historical","disputed":false,"precision":"feature","areaKey":null,"elements":["sake"],"summary":"要素辞書に一致（sake）。出典による裏づけは未確認。","zones":[],"dataset":"old_maps"}},{"type":"Feature","geometry":{"type":"Point","coordinates":[127.344535,26.190676]},"properties":{"id":"47-ca44b198bb","name":"惑崖崎","reading":null,"pref":"沖縄県","prefCode":"47","municipality":"島尻郡渡嘉敷村","hazardTypes":["slope_failure"],"evidenceLevel":0,"originLevel":0,"hasRecord":false,"recordRelation":null,"status":"historical","disputed":false,"precision":"feature","areaKey":null,"elements":["kake"],"summary":"要素辞書に一致（kake）。出典による裏づけは未確認。","zones":[],"dataset":"old_maps"}},{"type":"Feature","geometry":{"type":"Point","coordinates":[127.986734,26.479608]},"properties":{"id":"47-781998c549","name":"大久保","reading":null,"pref":"沖縄県","prefCode":"47","municipality":"国頭郡宜野座村","hazardTypes":["slope_failure","inundation","landslide"],"evidenceLevel":0,"originLevel":0,"hasRecord":false,"recordRelation":null,"status":"historical","disputed":false,"precision":"koaza","areaKey":null,"elements":["afu_oo","kubo"],"summary":"要素辞書に一致（afu_oo・kubo）。出典による裏づけは未確認。","zones":[],"dataset":"old_maps"}},{"type":"Feature","geometry":{"type":"Point","coordinates":[127.869209,26.385911]},"properties":{"id":"47-8ba1233891","name":"大久保","reading":null,"pref":"沖縄県","prefCode":"47","municipality":"うるま市","hazardTypes":["slope_failure","inundation","landslide"],"evidenceLevel":0,"originLevel":0,"hasRecord":false,"recordRelation":null,"status":"historical","disputed":false,"precision":"koaza","areaKey":"472130040","elements":["afu_oo","kubo"],"summary":"要素辞書に一致（afu_oo・kubo）。出典による裏づけは未確認。","zones":[],"dataset":"old_maps"}},{"type":"Feature","geometry":{"type":"Point","coordinates":[127.802446,26.391667]},"properties":{"id":"47-565766c155","name":"蔵敷","reading":null,"pref":"沖縄県","prefCode":"47","municipality":"沖縄市","hazardTypes":["slope_failure","rockfall"],"evidenceLevel":0,"originLevel":0,"hasRecord":false,"recordRelation":null,"status":"historical","disputed":false,"precision":"koaza","areaKey":"472110350","elements":["kura"],"summary":"要素辞書に一致（kura）。出典による裏づけは未確認。","zones":[],"dataset":"old_maps"}},{"type":"Feature","geometry":{"type":"Point","coordinates":[127.800989,26.408499]},"properties":{"id":"47-1accffb612","name":"具志川村飛地","reading":null,"pref":"沖縄県","prefCode":"47","municipality":"うるま市","hazardTypes":["slope_failure","debris_flow"],"evidenceLevel":0,"originLevel":0,"hasRecord":false,"recordRelation":null,"status":"historical","disputed":false,"precision":"village","areaKey":null,"elements":["tobi"],"summary":"要素辞書に一致（tobi）。出典による裏づけは未確認。","zones":[],"dataset":"old_maps"}},{"type":"Feature","geometry":{"type":"Point","coordinates":[127.756157,26.414473]},"properties":{"id":"47-a094ec249f","name":"尾頓川","reading":null,"pref":"沖縄県","prefCode":"47","municipality":"中頭郡読谷村","hazardTypes":["slope_failure","debris_flow"],"evidenceLevel":0,"originLevel":0,"hasRecord":false,"recordRelation":null,"status":"historical","disputed":false,"precision":"koaza","areaKey":null,"elements":["tobi"],"summary":"要素辞書に一致（tobi）。出典による裏づけは未確認。","zones":[],"dataset":"old_maps"}},{"type":"Feature","geometry":{"type":"Point","coordinates":[127.853022,26.4955]},"properties":{"id":"47-9be365bd0d","name":"馬場","reading":null,"pref":"沖縄県","prefCode":"47","municipality":"国頭郡恩納村","hazardTypes":["slope_failure"],"evidenceLevel":0,"originLevel":0,"hasRecord":false,"recordRelation":null,"status":"historical","disputed":false,"precision":"koaza","areaKey":null,"elements":["baba"],"summary":"要素辞書に一致（baba）。出典による裏づけは未確認。","zones":[],"dataset":"old_maps"}},{"type":"Feature","geometry":{"type":"Point","coordinates":[124.154238,24.394573]},"properties":{"id":"47-942888dc55","name":"名蔵","reading":null,"pref":"沖縄県","prefCode":"47","municipality":"石垣市","hazardTypes":["slope_failure","rockfall"],"evidenceLevel":0,"originLevel":0,"hasRecord":false,"recordRelation":null,"status":"historical","disputed":false,"precision":"koaza","areaKey":"472070070","elements":["kura"],"summary":"要素辞書に一致（kura）。出典による裏づけは未確認。","zones":[],"dataset":"old_maps"}}]}
